{"type":"FeatureCollection","features":[{"type":"Feature","properties":{"feed_id":"Oregon__Wahkiakum_Ferry__mdb_mdb-2193","agency_id":"1732","agency_name":"Wahkiakum Ferry","agency_url":"https://www.co.wahkiakum.wa.us/252/Ferry","route_id":"18902","route_short_name":"","route_long_name":"Wahkiakum County Ferry","route_desc":"","route_type":"4","route_type_name":"Ferry","route_url":"https://www.co.wahkiakum.wa.us/252/Ferry","route_color":"2B485C","route_text_color":"FFFFFF","route_sort_order":"0","continuous_pickup":"1","continuous_drop_off":"1","network_id":"","shape_id":"915653","trip_count":18,"direction_ids":"0","trip_headsigns":"Cathlamet, WA","wheelchair_accessible_values":"","bikes_allowed_values":"1"},"geometry":{"type":"LineString","coordinates":[[-123.37872447653923,46.13710239215459],[-123.378659,46.137162],[-123.380961,46.138391],[-123.381717,46.13898],[-123.382243,46.139736],[-123.383219,46.142175],[-123.383498,46.143165],[-123.383594,46.14408],[-123.38343,46.145063],[-123.382862,46.146218],[-123.38225,46.147115],[-123.379147,46.150787],[-123.377228,46.15296],[-123.377101,46.153272],[-123.377114,46.153298]]}},{"type":"Feature","properties":{"feed_id":"Oregon__Wahkiakum_Ferry__mdb_mdb-2193","agency_id":"1732","agency_name":"Wahkiakum Ferry","agency_url":"https://www.co.wahkiakum.wa.us/252/Ferry","route_id":"18902","route_short_name":"","route_long_name":"Wahkiakum County Ferry","route_desc":"","route_type":"4","route_type_name":"Ferry","route_url":"https://www.co.wahkiakum.wa.us/252/Ferry","route_color":"2B485C","route_text_color":"FFFFFF","route_sort_order":"0","continuous_pickup":"1","continuous_drop_off":"1","network_id":"","shape_id":"915654","trip_count":18,"direction_ids":"1","trip_headsigns":"Westport, OR","wheelchair_accessible_values":"","bikes_allowed_values":"1"},"geometry":{"type":"LineString","coordinates":[[-123.37711062268065,46.153299256982535],[-123.377114,46.153298],[-123.377101,46.153272],[-123.377228,46.15296],[-123.379147,46.150787],[-123.38225,46.147115],[-123.382862,46.146218],[-123.38343,46.145063],[-123.383594,46.14408],[-123.383498,46.143165],[-123.383219,46.142175],[-123.382243,46.139736],[-123.381717,46.13898],[-123.380961,46.138391],[-123.378659,46.137162]]}}]}