{"type":"FeatureCollection","features":[{"type":"Feature","properties":{"feed_id":"South_Carolina__Fort_Sumter_and_Fort_Moultrie_National_Historical_Park__mdb_tld-6906","agency_id":"NPS","agency_name":"National Park Service","agency_url":"https://nps.gov/fosu/index.htm","route_id":"Liberty Square-Fort Sumter","route_short_name":"","route_long_name":"Fort Sumter Visitor Center-Fort Sumter","route_desc":"","route_type":"4","route_type_name":"Ferry","route_url":"","route_color":"64748B","route_text_color":"FFFFFF","route_sort_order":"","continuous_pickup":"","continuous_drop_off":"","network_id":"","shape_id":"Liberty Square-Fort Sumter Inbound","trip_count":5,"direction_ids":"1","trip_headsigns":"Fort Sumter Visitor Center","wheelchair_accessible_values":"1","bikes_allowed_values":"2"},"geometry":{"type":"LineString","coordinates":[[-79.875398,32.753487],[-79.875582,32.75351],[-79.876228,32.753536],[-79.877269,32.753743],[-79.885176,32.756892],[-79.888084,32.758336],[-79.896559,32.762495],[-79.906054,32.767177],[-79.906516,32.767484],[-79.907396,32.768278],[-79.918242,32.778129],[-79.918543,32.778508],[-79.919465,32.78015],[-79.919637,32.780565],[-79.922952,32.789188],[-79.924017,32.790655],[-79.924107,32.790713],[-79.924231,32.790756],[-79.924424,32.790785],[-79.924647,32.790795],[-79.92477,32.790789]]}},{"type":"Feature","properties":{"feed_id":"South_Carolina__Fort_Sumter_and_Fort_Moultrie_National_Historical_Park__mdb_tld-6906","agency_id":"NPS","agency_name":"National Park Service","agency_url":"https://nps.gov/fosu/index.htm","route_id":"Liberty Square-Fort Sumter","route_short_name":"","route_long_name":"Fort Sumter Visitor Center-Fort Sumter","route_desc":"","route_type":"4","route_type_name":"Ferry","route_url":"","route_color":"64748B","route_text_color":"FFFFFF","route_sort_order":"","continuous_pickup":"","continuous_drop_off":"","network_id":"","shape_id":"Liberty Square-Fort Sumter Outbound","trip_count":5,"direction_ids":"0","trip_headsigns":"Fort Sumter","wheelchair_accessible_values":"1","bikes_allowed_values":"2"},"geometry":{"type":"LineString","coordinates":[[-79.92477,32.790789],[-79.924647,32.790795],[-79.924424,32.790785],[-79.924231,32.790756],[-79.924107,32.790713],[-79.924017,32.790655],[-79.922952,32.789188],[-79.919637,32.780565],[-79.919465,32.78015],[-79.918543,32.778508],[-79.918242,32.778129],[-79.907396,32.768278],[-79.906516,32.767484],[-79.906054,32.767177],[-79.896559,32.762495],[-79.888084,32.758336],[-79.885176,32.756892],[-79.877269,32.753743],[-79.876228,32.753536],[-79.875582,32.75351],[-79.875398,32.753487]]}},{"type":"Feature","properties":{"feed_id":"South_Carolina__Fort_Sumter_and_Fort_Moultrie_National_Historical_Park__mdb_tld-6906","agency_id":"NPS","agency_name":"National Park Service","agency_url":"https://nps.gov/fosu/index.htm","route_id":"Patriot's Point-Fort Sumter","route_short_name":"","route_long_name":"Patriot's Point-Fort Sumter","route_desc":"","route_type":"4","route_type_name":"Ferry","route_url":"","route_color":"64748B","route_text_color":"FFFFFF","route_sort_order":"","continuous_pickup":"","continuous_drop_off":"","network_id":"","shape_id":"Patriot's Point-Fort Sumter Inbound","trip_count":3,"direction_ids":"1","trip_headsigns":"Patriot's Point","wheelchair_accessible_values":"1","bikes_allowed_values":"2"},"geometry":{"type":"LineString","coordinates":[[-79.875398,32.753487],[-79.875483,32.753509],[-79.876564,32.754365],[-79.881328,32.758164],[-79.895769,32.76964],[-79.908536,32.779815],[-79.908901,32.780248],[-79.911691,32.784961],[-79.911734,32.785227],[-79.91175,32.785989],[-79.911755,32.790156],[-79.91175,32.790707],[-79.91161,32.790882],[-79.910242,32.791915],[-79.910038,32.792077],[-79.909845,32.792127],[-79.908563,32.792127],[-79.908279,32.792037],[-79.90808,32.791893],[-79.907919,32.791685],[-79.907839,32.79136],[-79.907753,32.791],[-79.90763,32.790846],[-79.907345,32.790671],[-79.907034,32.790567],[-79.906265,32.790556]]}},{"type":"Feature","properties":{"feed_id":"South_Carolina__Fort_Sumter_and_Fort_Moultrie_National_Historical_Park__mdb_tld-6906","agency_id":"NPS","agency_name":"National Park Service","agency_url":"https://nps.gov/fosu/index.htm","route_id":"Patriot's Point-Fort Sumter","route_short_name":"","route_long_name":"Patriot's Point-Fort Sumter","route_desc":"","route_type":"4","route_type_name":"Ferry","route_url":"","route_color":"64748B","route_text_color":"FFFFFF","route_sort_order":"","continuous_pickup":"","continuous_drop_off":"","network_id":"","shape_id":"Patriot's Point-Fort Sumter Outbound","trip_count":3,"direction_ids":"0","trip_headsigns":"Fort Sumter","wheelchair_accessible_values":"1","bikes_allowed_values":"2"},"geometry":{"type":"LineString","coordinates":[[-79.906265,32.790556],[-79.907034,32.790567],[-79.907345,32.790671],[-79.90763,32.790846],[-79.907753,32.791],[-79.907839,32.79136],[-79.907919,32.791685],[-79.90808,32.791893],[-79.908279,32.792037],[-79.908563,32.792127],[-79.909845,32.792127],[-79.910038,32.792077],[-79.910242,32.791915],[-79.91161,32.790882],[-79.91175,32.790707],[-79.911755,32.790156],[-79.91175,32.785989],[-79.911734,32.785227],[-79.911691,32.784961],[-79.908901,32.780248],[-79.908536,32.779815],[-79.895769,32.76964],[-79.881328,32.758164],[-79.876564,32.754365],[-79.875483,32.753509],[-79.875398,32.753487]]}}]}