{"type":"FeatureCollection","features":[{"type":"Feature","properties":{"feed_id":"Utah__Bryce_Canyon_National_Park_Shuttle__mdb_tld-6675","agency_id":"","agency_name":"National Park Service","agency_url":"","route_id":"TL-10","route_short_name":"","route_long_name":"Bryce Canyon","route_desc":"","route_type":"3","route_type_name":"Bus","route_url":"","route_color":"C64A05","route_text_color":"FFFFFF","route_sort_order":"1","continuous_pickup":"","continuous_drop_off":"","network_id":"","shape_id":"TL-10","trip_count":162,"direction_ids":"","trip_headsigns":"","wheelchair_accessible_values":"","bikes_allowed_values":""},"geometry":{"type":"LineString","coordinates":[[-112.156939723,37.6710601082],[-112.1568905839,37.6712285802],[-112.15713,37.67127],[-112.15686,37.67239],[-112.15683,37.67251],[-112.15653,37.67358],[-112.15642,37.67397],[-112.156,37.67572],[-112.15599,37.67577],[-112.15553,37.67575],[-112.15529,37.67573],[-112.15508,37.67572],[-112.15495,37.67572],[-112.15465,37.6757],[-112.15435,37.67568],[-112.15396,37.67565],[-112.1539939067,37.6751787706],[-112.15402,37.67472],[-112.15401,37.67463],[-112.15399,37.67455],[-112.15399,37.67448],[-112.15399,37.67446],[-112.15401,37.67434],[-112.15404,37.67425],[-112.15405,37.67424],[-112.15413,37.67416],[-112.15422,37.67407],[-112.15429,37.67398],[-112.15431,37.67389],[-112.15434,37.6738],[-112.15442,37.67366],[-112.15471,37.67317],[-112.15504,37.6733],[-112.15533,37.67351],[-112.15542,37.67358],[-112.15554,37.67367],[-112.15575,37.67381],[-112.15603,37.67389],[-112.15604,37.67389],[-112.15642,37.67397],[-112.1565080466,37.6736801396],[-112.1565994459,37.67343433],[-112.156599446,37.6734343301],[-112.15684,37.67251],[-112.15686,37.67243],[-112.1570657434,37.671530073],[-112.1571763558,37.6709714136],[-112.1574344641,37.6702293587],[-112.1576322227,37.669521266],[-112.1577715889,37.6689415725],[-112.1581390668,37.6677629298],[-112.16986,37.63938],[-112.16996,37.63926],[-112.17023,37.63894],[-112.17024,37.63893],[-112.17049,37.63864],[-112.17075,37.63834],[-112.17087,37.63818],[-112.17099,37.63804],[-112.17111,37.63789],[-112.17123,37.63775],[-112.17129,37.63767],[-112.17133,37.63761],[-112.17135,37.63759],[-112.17144,37.63746],[-112.17146,37.63742],[-112.17157,37.63726],[-112.17162,37.6372],[-112.17165,37.63716],[-112.17168,37.6371],[-112.17175,37.637],[-112.17176,37.63698],[-112.17183,37.63685],[-112.17186,37.63682],[-112.17191,37.63673],[-112.17196,37.63666],[-112.17199,37.63661],[-112.17204,37.63651],[-112.17211,37.63639],[-112.17213,37.63634],[-112.17215,37.63632],[-112.17222,37.63617],[-112.17225,37.63612],[-112.1723,37.63603],[-112.17231,37.636],[-112.1724,37.63582],[-112.1725,37.6356],[-112.1726,37.63538],[-112.1727,37.63516],[-112.17284,37.63487],[-112.17285,37.63483],[-112.1729,37.63473],[-112.17309,37.6343],[-112.17317,37.63413],[-112.1732,37.63405],[-112.17334,37.63372],[-112.17337,37.63364],[-112.17339,37.63357],[-112.17345,37.63334],[-112.17349,37.6332],[-112.17354,37.63297],[-112.17358,37.6328],[-112.17363,37.63249],[-112.17367,37.63207],[-112.17368,37.63182],[-112.17366,37.63121],[-112.17365,37.63114],[-112.17362,37.63077],[-112.17361,37.63068],[-112.17361,37.63067],[-112.17361,37.63066],[-112.17358,37.6305],[-112.17351,37.6301],[-112.17349,37.63005],[-112.17347,37.62996],[-112.17337,37.62965],[-112.17329,37.62945],[-112.17328,37.6294],[-112.17326,37.62937],[-112.17326,37.62936],[-112.17308,37.62893],[-112.17287,37.62844],[-112.17285,37.62841],[-112.17284,37.62839],[-112.17277,37.62829],[-112.17267,37.62809],[-112.17265,37.62806],[-112.17258,37.62793],[-112.17241,37.62762],[-112.17238,37.62755],[-112.17212,37.62705],[-112.17197,37.62673],[-112.17196,37.62671],[-112.17164,37.62606],[-112.17155,37.62587],[-112.17138,37.62552],[-112.17134,37.62541],[-112.1713,37.62529],[-112.17126,37.62515],[-112.17122,37.62499],[-112.17119,37.62484],[-112.17117,37.62471],[-112.17116,37.62425],[-112.17117,37.62408],[-112.17118,37.624],[-112.1712,37.6239],[-112.17122,37.62378],[-112.17125,37.62367],[-112.17132,37.62345],[-112.17139,37.62326],[-112.17143,37.62316],[-112.17155,37.62292],[-112.17164,37.62276],[-112.17181,37.6225],[-112.17187,37.62241],[-112.17191,37.62235],[-112.17196,37.62229],[-112.17204,37.62219],[-112.17255,37.62156],[-112.17258,37.62152],[-112.17277,37.62128],[-112.17288,37.62114],[-112.17292,37.62109],[-112.17294,37.62107],[-112.17297,37.62104],[-112.17336,37.62056],[-112.17396,37.61981],[-112.17415,37.61958],[-112.17425,37.61947],[-112.17429,37.61941],[-112.17432,37.61938],[-112.17442,37.61926],[-112.17459,37.61906],[-112.17467,37.61896],[-112.1747,37.61893],[-112.17473,37.61889],[-112.17482,37.61879],[-112.17493,37.61866],[-112.17517,37.61837],[-112.17518,37.61836],[-112.17571,37.61778],[-112.17517,37.61746],[-112.17514,37.61745],[-112.17493,37.61723],[-112.1748,37.61696],[-112.17475,37.61664],[-112.1748,37.61651],[-112.17482,37.61647],[-112.17482,37.61645],[-112.17485,37.61638],[-112.17489,37.61632],[-112.17494,37.61625],[-112.17503,37.61611],[-112.1751,37.61599],[-112.17518,37.61586],[-112.1752,37.61582],[-112.17522,37.61578],[-112.17526,37.6157],[-112.17528,37.61565],[-112.17531,37.6156],[-112.17535,37.61549],[-112.17538,37.61538],[-112.1754,37.6153],[-112.17542,37.61527],[-112.17544,37.61516],[-112.17546,37.61505],[-112.17547,37.61497],[-112.17547,37.61495],[-112.17548,37.61489],[-112.17549,37.61481],[-112.17549,37.61473],[-112.17549,37.61465],[-112.17549,37.61456],[-112.17548,37.61447],[-112.17548,37.61438],[-112.17546,37.6143],[-112.17545,37.61421],[-112.17543,37.61413],[-112.17542,37.61405],[-112.17542,37.61404],[-112.17536,37.61388],[-112.17531,37.61371],[-112.17531,37.6137],[-112.17525,37.61355],[-112.17519,37.6134],[-112.17518,37.61336],[-112.17514,37.61327],[-112.17509,37.61315],[-112.17496,37.61282],[-112.17483,37.6125],[-112.17477,37.61233],[-112.17471,37.61217],[-112.17462,37.61199],[-112.17459,37.61192],[-112.17448,37.61166],[-112.17441,37.61154],[-112.17438,37.61149],[-112.17434,37.61142],[-112.17429,37.61135],[-112.17424,37.61128],[-112.17414,37.61115],[-112.17404,37.61105],[-112.17395,37.61095],[-112.17384,37.61085],[-112.17372,37.61075],[-112.17359,37.61066],[-112.17347,37.61057],[-112.17327,37.61046],[-112.1732,37.61042],[-112.17308,37.61035],[-112.17297,37.61029],[-112.17286,37.61023],[-112.17265,37.6101],[-112.17256,37.61003],[-112.17248,37.60998],[-112.17246,37.60996],[-112.17238,37.60989],[-112.1723,37.60982],[-112.17222,37.60974],[-112.17215,37.60967],[-112.17201,37.60951],[-112.17176,37.60921],[-112.17152,37.6089],[-112.17128,37.6086],[-112.17108,37.60834],[-112.17105,37.60829],[-112.17095,37.60815],[-112.17085,37.60801],[-112.17076,37.60787],[-112.17067,37.60772],[-112.17057,37.60754],[-112.1705,37.60742],[-112.17038,37.60721],[-112.17033,37.60711],[-112.17021,37.60691],[-112.1701,37.60672],[-112.16998,37.60652],[-112.16985,37.60633],[-112.16971,37.60614],[-112.16957,37.60595],[-112.16928,37.60558],[-112.16897,37.6052],[-112.16867,37.60481],[-112.16844,37.60453],[-112.16822,37.60424],[-112.16799,37.60395],[-112.16775,37.60365],[-112.16755,37.60339],[-112.16739,37.60319],[-112.16734,37.60313],[-112.16713,37.60287],[-112.16691,37.6026],[-112.1665,37.60207],[-112.16629,37.60181],[-112.16609,37.60154],[-112.166,37.60146],[-112.16591,37.60139],[-112.16572,37.60123],[-112.16566,37.60119],[-112.16561,37.60115],[-112.16541,37.60102],[-112.16522,37.6009],[-112.16504,37.60084],[-112.16487,37.60077],[-112.16475,37.60073],[-112.16463,37.60069],[-112.16459,37.60068],[-112.16448,37.60064],[-112.16431,37.6006],[-112.16414,37.60057],[-112.16401,37.60055],[-112.16397,37.60054],[-112.16396,37.60054],[-112.16393,37.60054],[-112.16383,37.60053],[-112.16369,37.60052],[-112.16355,37.60052],[-112.16341,37.60051],[-112.16332,37.60052],[-112.16327,37.60052],[-112.16325,37.60052],[-112.16321,37.60052],[-112.16301,37.60053],[-112.1629,37.60055],[-112.1628,37.60056],[-112.16278,37.60057],[-112.16263,37.6006],[-112.1626,37.60061],[-112.16256,37.60061],[-112.16243,37.60064],[-112.16231,37.60068],[-112.16214,37.60073],[-112.16195,37.6008],[-112.16194,37.60081],[-112.16183,37.60085],[-112.16172,37.6009],[-112.16162,37.60095],[-112.16157,37.60098],[-112.16152,37.60101],[-112.16142,37.60107],[-112.16133,37.60113],[-112.16124,37.6012],[-112.16115,37.60126],[-112.16107,37.60133],[-112.161,37.60139],[-112.16092,37.60146],[-112.16085,37.60152],[-112.16075,37.60161],[-112.16066,37.6017],[-112.16052,37.60182],[-112.16046,37.60187],[-112.1604,37.60192],[-112.16031,37.60198],[-112.16029,37.60199],[-112.16018,37.60207],[-112.1601,37.60211],[-112.16001,37.60216],[-112.15992,37.6022],[-112.15983,37.60224],[-112.15919,37.60245],[-112.15887,37.60256],[-112.15873,37.60261],[-112.15866,37.60263],[-112.15845,37.6027],[-112.15824,37.60277],[-112.15754,37.603],[-112.15698,37.60318],[-112.1567,37.60329],[-112.15661,37.60334],[-112.15659,37.60336],[-112.15655,37.60339],[-112.1565,37.60346],[-112.15646,37.60355],[-112.15645,37.60359],[-112.15644,37.60362],[-112.15643,37.60364],[-112.15642,37.60372],[-112.15642,37.60379],[-112.15643,37.60383],[-112.15645,37.60387],[-112.15646,37.60389],[-112.15647,37.60391],[-112.15648,37.60391],[-112.1565,37.60395],[-112.15658,37.60404],[-112.15659,37.60405],[-112.1567,37.60419],[-112.1567,37.6042],[-112.15671,37.60421],[-112.15674,37.60424],[-112.15676,37.60426],[-112.15678,37.60427],[-112.1568,37.60427],[-112.15683,37.60428],[-112.1568300438,37.6042800935],[-112.1568710277,37.6042756248],[-112.15691,37.60426],[-112.15693,37.60425],[-112.15694,37.60424],[-112.15695,37.60422],[-112.15696,37.6042],[-112.15696,37.60418],[-112.15696,37.60416],[-112.15695,37.60414],[-112.15694,37.60413],[-112.15681,37.60399],[-112.1568,37.60398],[-112.15668,37.60385],[-112.15667,37.60384],[-112.15659,37.60375],[-112.15644,37.60362],[-112.15645,37.60359],[-112.15646,37.60355],[-112.1565,37.60346],[-112.15655,37.60339],[-112.15659,37.60336],[-112.15661,37.60334],[-112.1567,37.60329],[-112.15698,37.60318],[-112.15754,37.603],[-112.15824,37.60277],[-112.15845,37.6027],[-112.15866,37.60263],[-112.15873,37.60261],[-112.15887,37.60256],[-112.15919,37.60245],[-112.15983,37.60224],[-112.15992,37.6022],[-112.16001,37.60216],[-112.1601,37.60211],[-112.16018,37.60207],[-112.16029,37.60199],[-112.16031,37.60198],[-112.1604,37.60192],[-112.16046,37.60187],[-112.16052,37.60182],[-112.16066,37.6017],[-112.16075,37.60161],[-112.16085,37.60152],[-112.16092,37.60146],[-112.161,37.60139],[-112.16107,37.60133],[-112.16115,37.60126],[-112.16124,37.6012],[-112.16133,37.60113],[-112.16142,37.60107],[-112.16152,37.60101],[-112.16157,37.60098],[-112.16162,37.60095],[-112.16172,37.6009],[-112.16183,37.60085],[-112.16194,37.60081],[-112.16195,37.6008],[-112.16214,37.60073],[-112.16231,37.60068],[-112.16243,37.60064],[-112.16256,37.60061],[-112.1626,37.60061],[-112.16263,37.6006],[-112.16278,37.60057],[-112.1628,37.60056],[-112.1629,37.60055],[-112.16301,37.60053],[-112.16321,37.60052],[-112.16325,37.60052],[-112.16327,37.60052],[-112.16332,37.60052],[-112.16341,37.60051],[-112.16355,37.60052],[-112.16369,37.60052],[-112.16383,37.60053],[-112.16393,37.60054],[-112.16396,37.60054],[-112.16397,37.60054],[-112.16401,37.60055],[-112.16414,37.60057],[-112.16431,37.6006],[-112.16448,37.60064],[-112.16459,37.60068],[-112.16463,37.60069],[-112.16475,37.60073],[-112.16487,37.60077],[-112.16504,37.60084],[-112.16522,37.6009],[-112.16541,37.60102],[-112.16561,37.60115],[-112.16566,37.60119],[-112.16572,37.60123],[-112.16591,37.60139],[-112.166,37.60146],[-112.16609,37.60154],[-112.16629,37.60181],[-112.1665,37.60207],[-112.16691,37.6026],[-112.16713,37.60287],[-112.16734,37.60313],[-112.16739,37.60319],[-112.16755,37.60339],[-112.16775,37.60365],[-112.16799,37.60395],[-112.16822,37.60424],[-112.16844,37.60453],[-112.16867,37.60481],[-112.16897,37.6052],[-112.16928,37.60558],[-112.16957,37.60595],[-112.16971,37.60614],[-112.16985,37.60633],[-112.16998,37.60652],[-112.1701,37.60672],[-112.17021,37.60691],[-112.17033,37.60711],[-112.17038,37.60721],[-112.1705,37.60742],[-112.17057,37.60754],[-112.17067,37.60772],[-112.17076,37.60787],[-112.17085,37.60801],[-112.17095,37.60815],[-112.17105,37.60829],[-112.17108,37.60834],[-112.17128,37.6086],[-112.17152,37.6089],[-112.17176,37.60921],[-112.17201,37.60951],[-112.17215,37.60967],[-112.17222,37.60974],[-112.1723,37.60982],[-112.17238,37.60989],[-112.17246,37.60996],[-112.17248,37.60998],[-112.17256,37.61003],[-112.17265,37.6101],[-112.17286,37.61023],[-112.17297,37.61029],[-112.17308,37.61035],[-112.1732,37.61042],[-112.17327,37.61046],[-112.17347,37.61057],[-112.17359,37.61066],[-112.17372,37.61075],[-112.17384,37.61085],[-112.17395,37.61095],[-112.17404,37.61105],[-112.17414,37.61115],[-112.17424,37.61128],[-112.17429,37.61135],[-112.17434,37.61142],[-112.17438,37.61149],[-112.17441,37.61154],[-112.17448,37.61166],[-112.17459,37.61192],[-112.17462,37.61199],[-112.17471,37.61217],[-112.17477,37.61233],[-112.17483,37.6125],[-112.17496,37.61282],[-112.17509,37.61315],[-112.17514,37.61327],[-112.17518,37.61336],[-112.17519,37.6134],[-112.17525,37.61355],[-112.17531,37.6137],[-112.17531,37.61371],[-112.17536,37.61388],[-112.17542,37.61404],[-112.17542,37.61405],[-112.17543,37.61413],[-112.17545,37.61421],[-112.17546,37.6143],[-112.17548,37.61438],[-112.17548,37.61447],[-112.17549,37.61456],[-112.17549,37.61465],[-112.17549,37.61473],[-112.17549,37.61481],[-112.17548,37.61489],[-112.17547,37.61495],[-112.17547,37.61497],[-112.17546,37.61505],[-112.17544,37.61516],[-112.17542,37.61527],[-112.1754,37.6153],[-112.17538,37.61538],[-112.17535,37.61549],[-112.17531,37.6156],[-112.17528,37.61565],[-112.17526,37.6157],[-112.17522,37.61578],[-112.1752,37.61582],[-112.17518,37.61586],[-112.1751,37.61599],[-112.17503,37.61611],[-112.17494,37.61625],[-112.17489,37.61632],[-112.17485,37.61638],[-112.17482,37.61645],[-112.17482,37.61647],[-112.1748,37.61651],[-112.17475,37.61664],[-112.17463,37.61663],[-112.17437,37.61662],[-112.17436,37.61662],[-112.17429,37.61661],[-112.17392,37.61657],[-112.17391,37.61657],[-112.17385,37.61655],[-112.17382,37.61655],[-112.17366,37.61651],[-112.17252,37.61626],[-112.17125,37.61597],[-112.17116,37.61594],[-112.17111,37.61592],[-112.17109,37.61592],[-112.17108,37.61592],[-112.17104,37.6159],[-112.17102,37.61589],[-112.17096,37.61586],[-112.17092,37.61583],[-112.1709,37.61582],[-112.17089,37.61581],[-112.17084,37.61576],[-112.17076,37.61568],[-112.17076,37.61561],[-112.17075,37.61555],[-112.17075,37.6155],[-112.17075,37.61547],[-112.17075,37.61539],[-112.17078,37.61496],[-112.17079,37.61481],[-112.17079,37.61478],[-112.1708,37.61473],[-112.17079,37.6147],[-112.17078,37.61469],[-112.17077,37.61468],[-112.17076,37.61467],[-112.17073,37.61466],[-112.17071,37.61466],[-112.17069,37.61466],[-112.17068,37.61466],[-112.17066,37.61466],[-112.17063,37.61467],[-112.17062,37.61467],[-112.17061,37.61468],[-112.17061,37.61469],[-112.1706,37.6147],[-112.1706,37.61472],[-112.17058,37.61496],[-112.17058,37.61497],[-112.17055,37.61532],[-112.17056,37.61538],[-112.17058,37.61543],[-112.17059,37.6154498264],[-112.17059,37.61545],[-112.17062,37.61549],[-112.17063,37.6155],[-112.17076,37.61568],[-112.17083,37.61577],[-112.17088,37.61582],[-112.17096,37.61587],[-112.17102,37.61589],[-112.17102,37.6159],[-112.17108,37.61592],[-112.17116,37.61594],[-112.17125,37.61597],[-112.17251,37.61629],[-112.17366,37.61653],[-112.17382,37.61656],[-112.17385,37.61656],[-112.1743,37.6166],[-112.17475,37.61664],[-112.1748,37.61696],[-112.17492,37.61723],[-112.17514,37.61744],[-112.1757,37.61778],[-112.17518,37.61837],[-112.17492,37.61866],[-112.17481,37.61878],[-112.17466,37.61896],[-112.17428,37.61941],[-112.17414,37.61957],[-112.17395,37.61981],[-112.17335,37.62056],[-112.17293,37.62107],[-112.17276,37.62127],[-112.1724046938,37.6217230954],[-112.1721870699,37.6219887559],[-112.17195,37.62229],[-112.17191,37.62235],[-112.17186,37.62242],[-112.1718,37.62251],[-112.17164,37.62276],[-112.17155,37.62292],[-112.17143,37.62316],[-112.17143,37.62317],[-112.17132,37.62345],[-112.17125,37.62367],[-112.17122,37.62378],[-112.1712,37.6239],[-112.17118,37.624],[-112.17117,37.62408],[-112.17116,37.62425],[-112.17094,37.62425],[-112.1708,37.62425],[-112.17063,37.62425],[-112.17036,37.62423],[-112.17015,37.6242],[-112.17,37.62418],[-112.16991,37.62417],[-112.16964,37.62412],[-112.16933,37.62405],[-112.16898,37.62394],[-112.16856,37.6238],[-112.16835,37.62364],[-112.16822,37.62356],[-112.16812,37.62351],[-112.16798,37.62345],[-112.16787,37.6234],[-112.16775,37.62338],[-112.16769,37.62337],[-112.16764,37.62337],[-112.1676,37.62337],[-112.16754,37.62337],[-112.16744,37.6234],[-112.16735,37.62343],[-112.1673,37.62345],[-112.16728,37.6234602655],[-112.1672801748,37.6234600836],[-112.1672535858,37.6234756037],[-112.16717,37.6236],[-112.16715,37.62365],[-112.16714,37.62372],[-112.16715,37.62377],[-112.16716,37.6238],[-112.16718,37.62386],[-112.1672,37.62389],[-112.16723,37.62393],[-112.16728,37.62397],[-112.16735,37.62401],[-112.16743,37.62402],[-112.16752,37.62404],[-112.16762,37.62404],[-112.16773,37.62403],[-112.1679,37.624],[-112.1681,37.62394],[-112.16856,37.6238],[-112.16898,37.62394],[-112.16933,37.62405],[-112.16964,37.62412],[-112.16991,37.62417],[-112.17,37.62418],[-112.17015,37.6242],[-112.17036,37.62423],[-112.17063,37.62425],[-112.1708,37.62425],[-112.17094,37.62425],[-112.17116,37.62425],[-112.17117,37.62471],[-112.17119,37.62484],[-112.17122,37.62499],[-112.17126,37.62515],[-112.1713,37.62529],[-112.17134,37.62541],[-112.17138,37.62552],[-112.17155,37.62587],[-112.17196,37.62671],[-112.17212,37.62705],[-112.17141,37.62713],[-112.17136,37.62713],[-112.17051,37.62723],[-112.16983,37.6273],[-112.16964,37.62734],[-112.16956,37.62736],[-112.16945,37.62739],[-112.16937,37.62741],[-112.1693,37.62744],[-112.16919,37.62747],[-112.16917,37.62748],[-112.16899,37.62754],[-112.16872,37.62764],[-112.16871,37.62765],[-112.16857,37.6277],[-112.16847,37.62775],[-112.16828,37.62784],[-112.16809,37.62794],[-112.16795,37.62802],[-112.16779,37.62787],[-112.16776,37.62784],[-112.16774,37.62782],[-112.16772,37.62779],[-112.16771,37.62776],[-112.1677,37.62773],[-112.1677,37.62772],[-112.16769,37.62768],[-112.16769,37.62766],[-112.16769,37.62765],[-112.16769,37.62763],[-112.16769,37.62762],[-112.16769,37.62761],[-112.16769,37.6276],[-112.1677,37.62759],[-112.16772,37.62757],[-112.16773,37.62756],[-112.16775,37.62754],[-112.16777,37.62753],[-112.16773,37.6275],[-112.16773,37.62749],[-112.16773,37.62748],[-112.16773,37.62745],[-112.16772,37.62742],[-112.16771,37.6274],[-112.1677,37.62739],[-112.16769,37.62738],[-112.16768,37.62737],[-112.16766,37.62736],[-112.1676598978,37.6273600904],[-112.16761,37.62735],[-112.1676,37.62735],[-112.16759,37.62735],[-112.16758,37.62735],[-112.16757,37.62735],[-112.16756,37.62736],[-112.16755,37.62736],[-112.16754,37.62736],[-112.16753,37.62737],[-112.16752,37.62737],[-112.16751,37.62738],[-112.1675,37.62738],[-112.1675,37.62739],[-112.16749,37.62739],[-112.16749,37.6274],[-112.16749,37.62741],[-112.16748,37.62741],[-112.16748,37.62742],[-112.16747,37.62743],[-112.16747,37.62744],[-112.16747,37.62745],[-112.16747,37.62746],[-112.16747,37.62747],[-112.16747,37.62748],[-112.16748,37.62748],[-112.16748,37.62749],[-112.16748,37.6275],[-112.16749,37.6275],[-112.16749,37.62751],[-112.1675,37.62751],[-112.1675,37.62752],[-112.16751,37.62752],[-112.16751,37.62753],[-112.16752,37.62753],[-112.16753,37.62754],[-112.16754,37.62754],[-112.16755,37.62755],[-112.16756,37.62755],[-112.16757,37.62755],[-112.16759,37.62756],[-112.1676,37.62756],[-112.16762,37.62757],[-112.16769,37.62762],[-112.16769,37.62763],[-112.16769,37.62765],[-112.16769,37.62766],[-112.16769,37.62768],[-112.1677,37.62772],[-112.1677,37.62773],[-112.16771,37.62776],[-112.16772,37.62779],[-112.16774,37.62782],[-112.16776,37.62784],[-112.16779,37.62787],[-112.16795,37.62802],[-112.16776,37.62814],[-112.16772,37.62817],[-112.1676703644,37.6282142485],[-112.16761,37.62825],[-112.16756,37.62829],[-112.16737,37.62845],[-112.16727,37.62854],[-112.16723,37.62858],[-112.16718,37.62864],[-112.1671,37.62872],[-112.16709,37.62873],[-112.16698,37.62886],[-112.16692,37.62895],[-112.16687,37.62903],[-112.16682,37.62911],[-112.16666,37.62945],[-112.16662,37.62954],[-112.16661,37.62957],[-112.16655,37.62973],[-112.16653,37.62979],[-112.16651,37.62987],[-112.16649,37.62993],[-112.16648,37.62999],[-112.16614,37.62992],[-112.16578,37.62987],[-112.16574,37.62987],[-112.16545,37.62988],[-112.16515,37.63],[-112.16511,37.63003],[-112.16483,37.63025],[-112.16458,37.6305],[-112.1645,37.63066],[-112.16448,37.63075],[-112.16447,37.63081],[-112.16447,37.63085],[-112.16447,37.63088],[-112.16448,37.63096],[-112.16449,37.63108],[-112.1645,37.63111],[-112.16451,37.63114],[-112.16452,37.63117],[-112.1646,37.6313],[-112.16463,37.63136],[-112.1647,37.63147],[-112.16472,37.63149],[-112.16474,37.63152],[-112.16476,37.63156],[-112.16481,37.63164],[-112.16482,37.63169],[-112.16483,37.63171],[-112.16484,37.63174],[-112.16485,37.63183],[-112.16481,37.63191],[-112.16477,37.63195],[-112.16474,37.63199],[-112.16463,37.63215],[-112.16452,37.63229],[-112.16451,37.6323],[-112.16437,37.63253],[-112.16434,37.63263],[-112.16434,37.63266],[-112.16434,37.63275],[-112.16433,37.63281],[-112.16434,37.63282],[-112.16435,37.63285],[-112.16436,37.63287],[-112.1644,37.63293],[-112.16446,37.633],[-112.1645,37.63305],[-112.16463,37.63312],[-112.16473,37.63318],[-112.16482,37.63322],[-112.16496,37.63329],[-112.16522,37.63335],[-112.16527,37.63335],[-112.16549,37.63338],[-112.1656,37.6334],[-112.16594,37.63342],[-112.16614,37.63343],[-112.16627,37.6334],[-112.16648,37.63334],[-112.16693,37.6332],[-112.16702,37.63317],[-112.1674,37.63302],[-112.16753,37.63297],[-112.16754,37.63296],[-112.16758,37.63292],[-112.16765,37.63285],[-112.16767,37.63281],[-112.16777,37.63262],[-112.16857,37.63297],[-112.16924,37.63327],[-112.1698,37.63349],[-112.16985,37.63351],[-112.17014,37.63363],[-112.17055,37.63372],[-112.17093,37.63376],[-112.17107,37.63377],[-112.17113,37.63378],[-112.17138,37.63382],[-112.17161,37.63387],[-112.17218,37.63402],[-112.17224,37.63404],[-112.17242,37.6341],[-112.17266,37.63417],[-112.17309,37.6343],[-112.1729,37.63473],[-112.17285,37.63483],[-112.17284,37.63487],[-112.1727,37.63516],[-112.1726,37.63538],[-112.1725,37.6356],[-112.1724,37.63582],[-112.17231,37.636],[-112.1723,37.63603],[-112.17225,37.63612],[-112.17222,37.63617],[-112.17215,37.63632],[-112.17213,37.63634],[-112.17211,37.63639],[-112.17204,37.63651],[-112.17199,37.63661],[-112.17196,37.63666],[-112.17191,37.63673],[-112.17186,37.63682],[-112.17183,37.63685],[-112.17176,37.63698],[-112.17175,37.637],[-112.17168,37.6371],[-112.17165,37.63716],[-112.17162,37.6372],[-112.17157,37.63726],[-112.17146,37.63742],[-112.17144,37.63746],[-112.17135,37.63759],[-112.17133,37.63761],[-112.17129,37.63767],[-112.17123,37.63775],[-112.17111,37.63789],[-112.17099,37.63804],[-112.17087,37.63818],[-112.17075,37.63834],[-112.17049,37.63864],[-112.17024,37.63893],[-112.17023,37.63894],[-112.16996,37.63926],[-112.16982,37.63942],[-112.16981,37.63943],[-112.16975,37.6395],[-112.16968,37.63958],[-112.16967,37.63958],[-112.16956,37.63963],[-112.1694,37.63971],[-112.1692,37.63983],[-112.16918,37.63983],[-112.16904,37.63992],[-112.16891,37.64],[-112.16885,37.64005],[-112.16878,37.64013],[-112.16877,37.64014],[-112.16876,37.64015],[-112.16863,37.64034],[-112.1686,37.64042],[-112.16859,37.64047],[-112.16858,37.64049],[-112.16858,37.64052],[-112.16857,37.64062],[-112.16857,37.64065],[-112.16857,37.64075],[-112.16858,37.64083],[-112.16858,37.64087],[-112.16859,37.64093],[-112.1686,37.64097],[-112.16861,37.64099],[-112.16863,37.64104],[-112.16869,37.64115],[-112.16834,37.64198],[-112.16832,37.64201],[-112.16818,37.64231],[-112.16816,37.64234],[-112.16814,37.6424],[-112.16799,37.64271],[-112.16797,37.64276],[-112.16789,37.64287],[-112.16785,37.64292],[-112.16784,37.64294],[-112.1678,37.64299],[-112.16778,37.64302],[-112.16739,37.64354],[-112.16738,37.64356],[-112.16732,37.64364],[-112.16724,37.64374],[-112.1672,37.64379],[-112.16718,37.64383],[-112.16716,37.64385],[-112.16715,37.64387],[-112.16709,37.64395],[-112.16697,37.6441],[-112.1669,37.6442],[-112.16686,37.64426],[-112.16682,37.64431],[-112.1668,37.64433],[-112.16674,37.64441],[-112.16662,37.64458],[-112.16657,37.64467],[-112.16654,37.64471],[-112.1665,37.64477],[-112.16648,37.6448],[-112.16644,37.64487],[-112.16628,37.64512],[-112.16624,37.6452],[-112.16618,37.64529],[-112.16617,37.6453],[-112.16614,37.64536],[-112.16611,37.64542],[-112.16608,37.64546],[-112.16597,37.64573],[-112.16594,37.64579],[-112.16593,37.64582],[-112.16591,37.64586],[-112.16589,37.64591],[-112.16587,37.64598],[-112.16586,37.64603],[-112.16573,37.64644],[-112.16571,37.64649],[-112.1657,37.64654],[-112.16566,37.64663],[-112.16542,37.64728],[-112.16523,37.64777],[-112.1652,37.64786],[-112.16512,37.64812],[-112.1651,37.64818],[-112.16506,37.6483],[-112.16504,37.64836],[-112.16501,37.64846],[-112.16498,37.64855],[-112.16493,37.64871],[-112.16471,37.64934],[-112.16466,37.64944],[-112.16454,37.64972],[-112.16442,37.65002],[-112.16438,37.65013],[-112.16435,37.65019],[-112.16434,37.65024],[-112.16431,37.6503],[-112.16406,37.65084],[-112.16404,37.65087],[-112.16397,37.65104],[-112.16393,37.65113],[-112.16392,37.65115],[-112.16391,37.65117],[-112.16389,37.65125],[-112.1638,37.65153],[-112.16375,37.6517],[-112.1637,37.65188],[-112.16359,37.65223],[-112.16354,37.6524],[-112.16338,37.65293],[-112.16323,37.65342],[-112.16322,37.65345],[-112.16317,37.65363],[-112.16307,37.65394],[-112.16306,37.65398],[-112.16301,37.65415],[-112.1628,37.65485],[-112.16272,37.65511],[-112.16272,37.65512],[-112.16265,37.65534],[-112.16265,37.65536],[-112.16261,37.65549],[-112.16259,37.65553],[-112.16257,37.65562],[-112.16256,37.65563],[-112.16256,37.65565],[-112.16236,37.65616],[-112.16234,37.65621],[-112.16233,37.65625],[-112.16214,37.65673],[-112.16203,37.65702],[-112.16202,37.65707],[-112.16096,37.65982],[-112.16095,37.65987],[-112.16091,37.65995],[-112.1607,37.66052],[-112.16063,37.66068],[-112.16037,37.66138],[-112.1602,37.66182],[-112.16013,37.662],[-112.15994,37.66251],[-112.15981,37.66286],[-112.15913,37.66464],[-112.15848,37.66639],[-112.15846,37.66643],[-112.1583,37.667],[-112.15819,37.66738],[-112.15809,37.66773],[-112.158,37.66802],[-112.15799,37.66807],[-112.15792,37.66831],[-112.15768,37.66944],[-112.15764,37.66955],[-112.15759,37.66973],[-112.15732,37.67061],[-112.15727,37.67076],[-112.15726,37.67077],[-112.15725,37.67077],[-112.15711,37.67073],[-112.15702,37.67072],[-112.15697,37.67095],[-112.1569396647,37.67106]]}}]}