{"type":"FeatureCollection","features":[{"type":"Feature","properties":{"feed_id":"Washington__Seattle_Center_Monorail__mdb_tld-2290","agency_id":"96","agency_name":"Seattle Center Monorail","agency_url":"http://www.seattlemonorail.com","route_id":"SCM","route_short_name":"Monorail","route_long_name":"Seattle Center - Westlake","route_desc":"","route_type":"12","route_type_name":"Monorail","route_url":"","route_color":"64748B","route_text_color":"FFFFFF","route_sort_order":"","continuous_pickup":"","continuous_drop_off":"","network_id":"","shape_id":"FifthAveNB_shape","trip_count":1005,"direction_ids":"1","trip_headsigns":"Seattle Center","wheelchair_accessible_values":"1","bikes_allowed_values":"1"},"geometry":{"type":"LineString","coordinates":[[-122.3369601,47.6120461],[-122.337483,47.612633],[-122.337708,47.612824],[-122.338178,47.613116],[-122.339804,47.614074],[-122.344679,47.616949],[-122.346893,47.618262],[-122.347092,47.618398],[-122.347205,47.618482],[-122.347401,47.618684],[-122.347513,47.618832],[-122.347669,47.619178],[-122.347693,47.619316],[-122.34772,47.619902],[-122.347708,47.620391],[-122.347732,47.620687],[-122.347803,47.620851],[-122.347917,47.621002],[-122.348118,47.621134],[-122.348323,47.621219],[-122.348599,47.621274],[-122.348677,47.621283],[-122.3499548,47.621263]]}},{"type":"Feature","properties":{"feed_id":"Washington__Seattle_Center_Monorail__mdb_tld-2290","agency_id":"96","agency_name":"Seattle Center Monorail","agency_url":"http://www.seattlemonorail.com","route_id":"SCM","route_short_name":"Monorail","route_long_name":"Seattle Center - Westlake","route_desc":"","route_type":"12","route_type_name":"Monorail","route_url":"","route_color":"64748B","route_text_color":"FFFFFF","route_sort_order":"","continuous_pickup":"","continuous_drop_off":"","network_id":"","shape_id":"FifthAveSB_shape","trip_count":1005,"direction_ids":"0","trip_headsigns":"Westlake","wheelchair_accessible_values":"1","bikes_allowed_values":"1"},"geometry":{"type":"LineString","coordinates":[[-122.3499548,47.621263],[-122.348677,47.621283],[-122.348599,47.621274],[-122.348323,47.621219],[-122.348118,47.621134],[-122.347917,47.621002],[-122.347803,47.620851],[-122.347732,47.620687],[-122.347708,47.620391],[-122.34772,47.619902],[-122.347693,47.619316],[-122.347669,47.619178],[-122.347513,47.618832],[-122.347401,47.618684],[-122.347205,47.618482],[-122.347092,47.618398],[-122.346893,47.618262],[-122.344679,47.616949],[-122.339804,47.614074],[-122.338178,47.613116],[-122.337708,47.612824],[-122.337483,47.612633],[-122.3369601,47.6120461]]}}]}