{"type":"FeatureCollection","features":[{"type":"Feature","properties":{"stop_id":"Rockland-ny-us_7w","stop_code":"","stop_name":"Route 59 & Mountainview Ave.","stop_desc":"","zone_id":"","stop_url":"","location_type":"0","parent_station":"","stop_timezone":"","wheelchair_boarding":"0","platform_code":"","feed_id":"New_York__Clarkstown_MiniTrans__mdb_mdb-911","agency_name":"Clarkstown MiniTrans","route_count":1,"route_ids":"ROUTE_1513245","route_short_names":"A","route_types":"3","route_type_names":"Bus","routes_json":"[{\"route_id\":\"ROUTE_1513245\",\"route_short_name\":\"A\",\"route_long_name\":\"Route A\",\"route_type\":\"3\",\"route_type_name\":\"Bus\",\"route_color\":\"4C4AE2\",\"route_text_color\":\"000000\"}]"},"geometry":{"type":"Point","coordinates":[-73.936111,41.094457]}},{"type":"Feature","properties":{"stop_id":"STOP_01dd2eab-7bd5-4391-ae38-6090eb21ecd2","stop_code":"","stop_name":"New Holland Village","stop_desc":"","zone_id":"","stop_url":"","location_type":"0","parent_station":"","stop_timezone":"","wheelchair_boarding":"0","platform_code":"","feed_id":"New_York__Clarkstown_MiniTrans__mdb_mdb-911","agency_name":"Clarkstown MiniTrans","route_count":1,"route_ids":"ROUTE_1514282","route_short_names":"D","route_types":"3","route_type_names":"Bus","routes_json":"[{\"route_id\":\"ROUTE_1514282\",\"route_short_name\":\"D\",\"route_long_name\":\"Route D\",\"route_type\":\"3\",\"route_type_name\":\"Bus\",\"route_color\":\"A315BF\",\"route_text_color\":\"000000\"}]"},"geometry":{"type":"Point","coordinates":[-74.031866,41.097926]}},{"type":"Feature","properties":{"stop_id":"STOP_1508215","stop_code":"","stop_name":"Nanuet Mall","stop_desc":"","zone_id":"","stop_url":"","location_type":"0","parent_station":"","stop_timezone":"","wheelchair_boarding":"0","platform_code":"","feed_id":"New_York__Clarkstown_MiniTrans__mdb_mdb-911","agency_name":"Clarkstown MiniTrans","route_count":5,"route_ids":"ROUTE_1513245|ROUTE_1513569|ROUTE_1513896|ROUTE_1514282|ROUTE_1514605","route_short_names":"A|B|C|D|E","route_types":"3","route_type_names":"Bus","routes_json":"[{\"route_id\":\"ROUTE_1513245\",\"route_short_name\":\"A\",\"route_long_name\":\"Route A\",\"route_type\":\"3\",\"route_type_name\":\"Bus\",\"route_color\":\"4C4AE2\",\"route_text_color\":\"000000\"},{\"route_id\":\"ROUTE_1513569\",\"route_short_name\":\"B\",\"route_long_name\":\"Route B\",\"route_type\":\"3\",\"route_type_name\":\"Bus\",\"route_color\":\"D0021B\",\"route_text_color\":\"000000\"},{\"route_id\":\"ROUTE_1513896\",\"route_short_name\":\"C\",\"route_long_name\":\"Route C\",\"route_type\":\"3\",\"route_type_name\":\"Bus\",\"route_color\":\"194A83\",\"route_text_color\":\"000000\"},{\"route_id\":\"ROUTE_1514282\",\"route_short_name\":\"D\",\"route_long_name\":\"Route D\",\"route_type\":\"3\",\"route_type_name\":\"Bus\",\"route_color\":\"A315BF\",\"route_text_color\":\"000000\"},{\"route_id\":\"ROUTE_1514605\",\"route_short_name\":\"E\",\"route_long_name\":\"Route E\",\"route_type\":\"3\",\"route_type_name\":\"Bus\",\"route_color\":\"17E115\",\"route_text_color\":\"000000\"}]"},"geometry":{"type":"Point","coordinates":[-74.014249,41.094594]}},{"type":"Feature","properties":{"stop_id":"STOP_1508216","stop_code":"","stop_name":"Clarksville Corners","stop_desc":"","zone_id":"","stop_url":"","location_type":"0","parent_station":"","stop_timezone":"","wheelchair_boarding":"0","platform_code":"","feed_id":"New_York__Clarkstown_MiniTrans__mdb_mdb-911","agency_name":"Clarkstown MiniTrans","route_count":2,"route_ids":"ROUTE_1513569|ROUTE_1514282","route_short_names":"B|D","route_types":"3","route_type_names":"Bus","routes_json":"[{\"route_id\":\"ROUTE_1513569\",\"route_short_name\":\"B\",\"route_long_name\":\"Route B\",\"route_type\":\"3\",\"route_type_name\":\"Bus\",\"route_color\":\"D0021B\",\"route_text_color\":\"000000\"},{\"route_id\":\"ROUTE_1514282\",\"route_short_name\":\"D\",\"route_long_name\":\"Route D\",\"route_type\":\"3\",\"route_type_name\":\"Bus\",\"route_color\":\"A315BF\",\"route_text_color\":\"000000\"}]"},"geometry":{"type":"Point","coordinates":[-73.972396,41.093955]}},{"type":"Feature","properties":{"stop_id":"STOP_1508217","stop_code":"","stop_name":"Palisades Center Mall","stop_desc":"","zone_id":"","stop_url":"","location_type":"0","parent_station":"","stop_timezone":"","wheelchair_boarding":"0","platform_code":"","feed_id":"New_York__Clarkstown_MiniTrans__mdb_mdb-911","agency_name":"Clarkstown MiniTrans","route_count":2,"route_ids":"ROUTE_1513245|ROUTE_1514282","route_short_names":"A|D","route_types":"3","route_type_names":"Bus","routes_json":"[{\"route_id\":\"ROUTE_1513245\",\"route_short_name\":\"A\",\"route_long_name\":\"Route A\",\"route_type\":\"3\",\"route_type_name\":\"Bus\",\"route_color\":\"4C4AE2\",\"route_text_color\":\"000000\"},{\"route_id\":\"ROUTE_1514282\",\"route_short_name\":\"D\",\"route_long_name\":\"Route D\",\"route_type\":\"3\",\"route_type_name\":\"Bus\",\"route_color\":\"A315BF\",\"route_text_color\":\"000000\"}]"},"geometry":{"type":"Point","coordinates":[-73.952955,41.095403]}},{"type":"Feature","properties":{"stop_id":"STOP_1511043","stop_code":"","stop_name":"Lake Rd. Valley Cottage","stop_desc":"","zone_id":"","stop_url":"","location_type":"0","parent_station":"","stop_timezone":"","wheelchair_boarding":"0","platform_code":"","feed_id":"New_York__Clarkstown_MiniTrans__mdb_mdb-911","agency_name":"Clarkstown MiniTrans","route_count":1,"route_ids":"ROUTE_1513245","route_short_names":"A","route_types":"3","route_type_names":"Bus","routes_json":"[{\"route_id\":\"ROUTE_1513245\",\"route_short_name\":\"A\",\"route_long_name\":\"Route A\",\"route_type\":\"3\",\"route_type_name\":\"Bus\",\"route_color\":\"4C4AE2\",\"route_text_color\":\"000000\"}]"},"geometry":{"type":"Point","coordinates":[-73.941658,41.118305]}},{"type":"Feature","properties":{"stop_id":"STOP_1513246","stop_code":"","stop_name":"Lakewood Dr. & Route 9W","stop_desc":"","zone_id":"","stop_url":"","location_type":"0","parent_station":"","stop_timezone":"","wheelchair_boarding":"0","platform_code":"","feed_id":"New_York__Clarkstown_MiniTrans__mdb_mdb-911","agency_name":"Clarkstown MiniTrans","route_count":1,"route_ids":"ROUTE_1513245","route_short_names":"A","route_types":"3","route_type_names":"Bus","routes_json":"[{\"route_id\":\"ROUTE_1513245\",\"route_short_name\":\"A\",\"route_long_name\":\"Route A\",\"route_type\":\"3\",\"route_type_name\":\"Bus\",\"route_color\":\"4C4AE2\",\"route_text_color\":\"000000\"}]"},"geometry":{"type":"Point","coordinates":[-73.928075,41.154715]}},{"type":"Feature","properties":{"stop_id":"STOP_1513247","stop_code":"","stop_name":"Kings Hwy. & Congers Lake Rd.","stop_desc":"","zone_id":"","stop_url":"","location_type":"0","parent_station":"","stop_timezone":"","wheelchair_boarding":"0","platform_code":"","feed_id":"New_York__Clarkstown_MiniTrans__mdb_mdb-911","agency_name":"Clarkstown MiniTrans","route_count":1,"route_ids":"ROUTE_1513245","route_short_names":"A","route_types":"3","route_type_names":"Bus","routes_json":"[{\"route_id\":\"ROUTE_1513245\",\"route_short_name\":\"A\",\"route_long_name\":\"Route A\",\"route_type\":\"3\",\"route_type_name\":\"Bus\",\"route_color\":\"4C4AE2\",\"route_text_color\":\"000000\"}]"},"geometry":{"type":"Point","coordinates":[-73.945627,41.150724]}},{"type":"Feature","properties":{"stop_id":"STOP_1513570","stop_code":"","stop_name":"Zukor Park","stop_desc":"","zone_id":"","stop_url":"","location_type":"0","parent_station":"","stop_timezone":"","wheelchair_boarding":"0","platform_code":"","feed_id":"New_York__Clarkstown_MiniTrans__mdb_mdb-911","agency_name":"Clarkstown MiniTrans","route_count":1,"route_ids":"ROUTE_1513569","route_short_names":"B","route_types":"3","route_type_names":"Bus","routes_json":"[{\"route_id\":\"ROUTE_1513569\",\"route_short_name\":\"B\",\"route_long_name\":\"Route B\",\"route_type\":\"3\",\"route_type_name\":\"Bus\",\"route_color\":\"D0021B\",\"route_text_color\":\"000000\"}]"},"geometry":{"type":"Point","coordinates":[-73.987716,41.170837]}},{"type":"Feature","properties":{"stop_id":"STOP_1513571","stop_code":"","stop_name":"Collyer Ave. & Main St.","stop_desc":"","zone_id":"","stop_url":"","location_type":"0","parent_station":"","stop_timezone":"","wheelchair_boarding":"0","platform_code":"","feed_id":"New_York__Clarkstown_MiniTrans__mdb_mdb-911","agency_name":"Clarkstown MiniTrans","route_count":1,"route_ids":"ROUTE_1513569","route_short_names":"B","route_types":"3","route_type_names":"Bus","routes_json":"[{\"route_id\":\"ROUTE_1513569\",\"route_short_name\":\"B\",\"route_long_name\":\"Route B\",\"route_type\":\"3\",\"route_type_name\":\"Bus\",\"route_color\":\"D0021B\",\"route_text_color\":\"000000\"}]"},"geometry":{"type":"Point","coordinates":[-73.990978,41.136108]}},{"type":"Feature","properties":{"stop_id":"STOP_1513572","stop_code":"","stop_name":"Little Tor Rd. & Germonds Rd.","stop_desc":"","zone_id":"","stop_url":"","location_type":"0","parent_station":"","stop_timezone":"","wheelchair_boarding":"0","platform_code":"","feed_id":"New_York__Clarkstown_MiniTrans__mdb_mdb-911","agency_name":"Clarkstown MiniTrans","route_count":1,"route_ids":"ROUTE_1513569","route_short_names":"B","route_types":"3","route_type_names":"Bus","routes_json":"[{\"route_id\":\"ROUTE_1513569\",\"route_short_name\":\"B\",\"route_long_name\":\"Route B\",\"route_type\":\"3\",\"route_type_name\":\"Bus\",\"route_color\":\"D0021B\",\"route_text_color\":\"000000\"}]"},"geometry":{"type":"Point","coordinates":[-74.007608,41.122257]}},{"type":"Feature","properties":{"stop_id":"STOP_1513573","stop_code":"","stop_name":"Germonds Park","stop_desc":"","zone_id":"","stop_url":"","location_type":"0","parent_station":"","stop_timezone":"","wheelchair_boarding":"0","platform_code":"","feed_id":"New_York__Clarkstown_MiniTrans__mdb_mdb-911","agency_name":"Clarkstown MiniTrans","route_count":1,"route_ids":"ROUTE_1513569","route_short_names":"B","route_types":"3","route_type_names":"Bus","routes_json":"[{\"route_id\":\"ROUTE_1513569\",\"route_short_name\":\"B\",\"route_long_name\":\"Route B\",\"route_type\":\"3\",\"route_type_name\":\"Bus\",\"route_color\":\"D0021B\",\"route_text_color\":\"000000\"}]"},"geometry":{"type":"Point","coordinates":[-73.988682,41.114546]}},{"type":"Feature","properties":{"stop_id":"STOP_1513574","stop_code":"","stop_name":"West Nyack Rd. & Rte. 304","stop_desc":"","zone_id":"","stop_url":"","location_type":"0","parent_station":"","stop_timezone":"","wheelchair_boarding":"0","platform_code":"","feed_id":"New_York__Clarkstown_MiniTrans__mdb_mdb-911","agency_name":"Clarkstown MiniTrans","route_count":1,"route_ids":"ROUTE_1513569","route_short_names":"B","route_types":"3","route_type_names":"Bus","routes_json":"[{\"route_id\":\"ROUTE_1513569\",\"route_short_name\":\"B\",\"route_long_name\":\"Route B\",\"route_type\":\"3\",\"route_type_name\":\"Bus\",\"route_color\":\"D0021B\",\"route_text_color\":\"000000\"}]"},"geometry":{"type":"Point","coordinates":[-73.997941,41.097416]}},{"type":"Feature","properties":{"stop_id":"STOP_1513897","stop_code":"","stop_name":"S. Mountain Rd. & Little Tor Rd.","stop_desc":"","zone_id":"","stop_url":"","location_type":"0","parent_station":"","stop_timezone":"","wheelchair_boarding":"0","platform_code":"","feed_id":"New_York__Clarkstown_MiniTrans__mdb_mdb-911","agency_name":"Clarkstown MiniTrans","route_count":1,"route_ids":"ROUTE_1513896","route_short_names":"C","route_types":"3","route_type_names":"Bus","routes_json":"[{\"route_id\":\"ROUTE_1513896\",\"route_short_name\":\"C\",\"route_long_name\":\"Route C\",\"route_type\":\"3\",\"route_type_name\":\"Bus\",\"route_color\":\"194A83\",\"route_text_color\":\"000000\"}]"},"geometry":{"type":"Point","coordinates":[-74.004915,41.184912]}},{"type":"Feature","properties":{"stop_id":"STOP_1513898","stop_code":"","stop_name":"New Hempstead Rd.","stop_desc":"","zone_id":"","stop_url":"","location_type":"0","parent_station":"","stop_timezone":"","wheelchair_boarding":"0","platform_code":"","feed_id":"New_York__Clarkstown_MiniTrans__mdb_mdb-911","agency_name":"Clarkstown MiniTrans","route_count":1,"route_ids":"ROUTE_1513896","route_short_names":"C","route_types":"3","route_type_names":"Bus","routes_json":"[{\"route_id\":\"ROUTE_1513896\",\"route_short_name\":\"C\",\"route_long_name\":\"Route C\",\"route_type\":\"3\",\"route_type_name\":\"Bus\",\"route_color\":\"194A83\",\"route_text_color\":\"000000\"}]"},"geometry":{"type":"Point","coordinates":[-73.998478,41.147937]}},{"type":"Feature","properties":{"stop_id":"STOP_1513900","stop_code":"","stop_name":"West Clarkstown Rd. & Lariat Ct.","stop_desc":"","zone_id":"","stop_url":"","location_type":"0","parent_station":"","stop_timezone":"","wheelchair_boarding":"0","platform_code":"","feed_id":"New_York__Clarkstown_MiniTrans__mdb_mdb-911","agency_name":"Clarkstown MiniTrans","route_count":1,"route_ids":"ROUTE_1513896","route_short_names":"C","route_types":"3","route_type_names":"Bus","routes_json":"[{\"route_id\":\"ROUTE_1513896\",\"route_short_name\":\"C\",\"route_long_name\":\"Route C\",\"route_type\":\"3\",\"route_type_name\":\"Bus\",\"route_color\":\"194A83\",\"route_text_color\":\"000000\"}]"},"geometry":{"type":"Point","coordinates":[-74.023454,41.122435]}},{"type":"Feature","properties":{"stop_id":"STOP_1513903","stop_code":"","stop_name":"Middlewood Complex","stop_desc":"","zone_id":"","stop_url":"","location_type":"0","parent_station":"","stop_timezone":"","wheelchair_boarding":"0","platform_code":"","feed_id":"New_York__Clarkstown_MiniTrans__mdb_mdb-911","agency_name":"Clarkstown MiniTrans","route_count":1,"route_ids":"ROUTE_1513896","route_short_names":"C","route_types":"3","route_type_names":"Bus","routes_json":"[{\"route_id\":\"ROUTE_1513896\",\"route_short_name\":\"C\",\"route_long_name\":\"Route C\",\"route_type\":\"3\",\"route_type_name\":\"Bus\",\"route_color\":\"194A83\",\"route_text_color\":\"000000\"}]"},"geometry":{"type":"Point","coordinates":[-74.010344,41.102817]}},{"type":"Feature","properties":{"stop_id":"STOP_1514283","stop_code":"","stop_name":"Waldron Ave. & Rte. 59","stop_desc":"","zone_id":"","stop_url":"","location_type":"0","parent_station":"","stop_timezone":"","wheelchair_boarding":"0","platform_code":"","feed_id":"New_York__Clarkstown_MiniTrans__mdb_mdb-911","agency_name":"Clarkstown MiniTrans","route_count":1,"route_ids":"ROUTE_1514282","route_short_names":"D","route_types":"3","route_type_names":"Bus","routes_json":"[{\"route_id\":\"ROUTE_1514282\",\"route_short_name\":\"D\",\"route_long_name\":\"Route D\",\"route_type\":\"3\",\"route_type_name\":\"Bus\",\"route_color\":\"A315BF\",\"route_text_color\":\"000000\"}]"},"geometry":{"type":"Point","coordinates":[-73.936154,41.094311]}},{"type":"Feature","properties":{"stop_id":"STOP_1514284","stop_code":"","stop_name":"Rose Rd. & Townline Rd.","stop_desc":"","zone_id":"","stop_url":"","location_type":"0","parent_station":"","stop_timezone":"","wheelchair_boarding":"0","platform_code":"","feed_id":"New_York__Clarkstown_MiniTrans__mdb_mdb-911","agency_name":"Clarkstown MiniTrans","route_count":1,"route_ids":"ROUTE_1514282","route_short_names":"D","route_types":"3","route_type_names":"Bus","routes_json":"[{\"route_id\":\"ROUTE_1514282\",\"route_short_name\":\"D\",\"route_long_name\":\"Route D\",\"route_type\":\"3\",\"route_type_name\":\"Bus\",\"route_color\":\"A315BF\",\"route_text_color\":\"000000\"}]"},"geometry":{"type":"Point","coordinates":[-73.99056,41.078817]}},{"type":"Feature","properties":{"stop_id":"STOP_1514285","stop_code":"","stop_name":"Main St. & Prospect Ave.","stop_desc":"","zone_id":"","stop_url":"","location_type":"0","parent_station":"","stop_timezone":"","wheelchair_boarding":"0","platform_code":"","feed_id":"New_York__Clarkstown_MiniTrans__mdb_mdb-911","agency_name":"Clarkstown MiniTrans","route_count":1,"route_ids":"ROUTE_1514282","route_short_names":"D","route_types":"3","route_type_names":"Bus","routes_json":"[{\"route_id\":\"ROUTE_1514282\",\"route_short_name\":\"D\",\"route_long_name\":\"Route D\",\"route_type\":\"3\",\"route_type_name\":\"Bus\",\"route_color\":\"A315BF\",\"route_text_color\":\"000000\"}]"},"geometry":{"type":"Point","coordinates":[-74.012961,41.090915]}},{"type":"Feature","properties":{"stop_id":"STOP_1514286","stop_code":"","stop_name":"Seton Village","stop_desc":"","zone_id":"","stop_url":"","location_type":"0","parent_station":"","stop_timezone":"","wheelchair_boarding":"0","platform_code":"","feed_id":"New_York__Clarkstown_MiniTrans__mdb_mdb-911","agency_name":"Clarkstown MiniTrans","route_count":1,"route_ids":"ROUTE_1514282","route_short_names":"D","route_types":"3","route_type_names":"Bus","routes_json":"[{\"route_id\":\"ROUTE_1514282\",\"route_short_name\":\"D\",\"route_long_name\":\"Route D\",\"route_type\":\"3\",\"route_type_name\":\"Bus\",\"route_color\":\"A315BF\",\"route_text_color\":\"000000\"}]"},"geometry":{"type":"Point","coordinates":[-74.029183,41.088514]}},{"type":"Feature","properties":{"stop_id":"STOP_1514287","stop_code":"","stop_name":"New Holland Village","stop_desc":"","zone_id":"","stop_url":"","location_type":"0","parent_station":"","stop_timezone":"","wheelchair_boarding":"0","platform_code":"","feed_id":"New_York__Clarkstown_MiniTrans__mdb_mdb-911","agency_name":"Clarkstown MiniTrans","route_count":1,"route_ids":"ROUTE_1514282","route_short_names":"D","route_types":"3","route_type_names":"Bus","routes_json":"[{\"route_id\":\"ROUTE_1514282\",\"route_short_name\":\"D\",\"route_long_name\":\"Route D\",\"route_type\":\"3\",\"route_type_name\":\"Bus\",\"route_color\":\"A315BF\",\"route_text_color\":\"000000\"}]"},"geometry":{"type":"Point","coordinates":[-74.031608,41.097942]}},{"type":"Feature","properties":{"stop_id":"STOP_1514606","stop_code":"","stop_name":"Bradlees, New City","stop_desc":"","zone_id":"","stop_url":"","location_type":"0","parent_station":"","stop_timezone":"","wheelchair_boarding":"0","platform_code":"","feed_id":"New_York__Clarkstown_MiniTrans__mdb_mdb-911","agency_name":"Clarkstown MiniTrans","route_count":1,"route_ids":"ROUTE_1514605","route_short_names":"E","route_types":"3","route_type_names":"Bus","routes_json":"[{\"route_id\":\"ROUTE_1514605\",\"route_short_name\":\"E\",\"route_long_name\":\"Route E\",\"route_type\":\"3\",\"route_type_name\":\"Bus\",\"route_color\":\"17E115\",\"route_text_color\":\"000000\"}]"},"geometry":{"type":"Point","coordinates":[-73.988607,41.157574]}},{"type":"Feature","properties":{"stop_id":"STOP_1514607","stop_code":"","stop_name":"Rte. 304 & Ridge Rd.","stop_desc":"","zone_id":"","stop_url":"","location_type":"0","parent_station":"","stop_timezone":"","wheelchair_boarding":"0","platform_code":"","feed_id":"New_York__Clarkstown_MiniTrans__mdb_mdb-911","agency_name":"Clarkstown MiniTrans","route_count":1,"route_ids":"ROUTE_1514605","route_short_names":"E","route_types":"3","route_type_names":"Bus","routes_json":"[{\"route_id\":\"ROUTE_1514605\",\"route_short_name\":\"E\",\"route_long_name\":\"Route E\",\"route_type\":\"3\",\"route_type_name\":\"Bus\",\"route_color\":\"17E115\",\"route_text_color\":\"000000\"}]"},"geometry":{"type":"Point","coordinates":[-73.962128,41.164892]}},{"type":"Feature","properties":{"stop_id":"STOP_1514608","stop_code":"","stop_name":"Brewery Rd. & Congers Rd.","stop_desc":"","zone_id":"","stop_url":"","location_type":"0","parent_station":"","stop_timezone":"","wheelchair_boarding":"0","platform_code":"","feed_id":"New_York__Clarkstown_MiniTrans__mdb_mdb-911","agency_name":"Clarkstown MiniTrans","route_count":1,"route_ids":"ROUTE_1514605","route_short_names":"E","route_types":"3","route_type_names":"Bus","routes_json":"[{\"route_id\":\"ROUTE_1514605\",\"route_short_name\":\"E\",\"route_long_name\":\"Route E\",\"route_type\":\"3\",\"route_type_name\":\"Bus\",\"route_color\":\"17E115\",\"route_text_color\":\"000000\"}]"},"geometry":{"type":"Point","coordinates":[-73.976859,41.147202]}},{"type":"Feature","properties":{"stop_id":"STOP_1514609","stop_code":"","stop_name":"McCarthy Way","stop_desc":"","zone_id":"","stop_url":"","location_type":"0","parent_station":"","stop_timezone":"","wheelchair_boarding":"0","platform_code":"","feed_id":"New_York__Clarkstown_MiniTrans__mdb_mdb-911","agency_name":"Clarkstown MiniTrans","route_count":1,"route_ids":"ROUTE_1514605","route_short_names":"E","route_types":"3","route_type_names":"Bus","routes_json":"[{\"route_id\":\"ROUTE_1514605\",\"route_short_name\":\"E\",\"route_long_name\":\"Route E\",\"route_type\":\"3\",\"route_type_name\":\"Bus\",\"route_color\":\"17E115\",\"route_text_color\":\"000000\"}]"},"geometry":{"type":"Point","coordinates":[-73.970336,41.121255]}},{"type":"Feature","properties":{"stop_id":"STOP_1514610","stop_code":"","stop_name":"Rte. 304 & Germonds Rd.","stop_desc":"","zone_id":"","stop_url":"","location_type":"0","parent_station":"","stop_timezone":"","wheelchair_boarding":"0","platform_code":"","feed_id":"New_York__Clarkstown_MiniTrans__mdb_mdb-911","agency_name":"Clarkstown MiniTrans","route_count":1,"route_ids":"ROUTE_1514605","route_short_names":"E","route_types":"3","route_type_names":"Bus","routes_json":"[{\"route_id\":\"ROUTE_1514605\",\"route_short_name\":\"E\",\"route_long_name\":\"Route E\",\"route_type\":\"3\",\"route_type_name\":\"Bus\",\"route_color\":\"17E115\",\"route_text_color\":\"000000\"}]"},"geometry":{"type":"Point","coordinates":[-73.99292,41.120632]}},{"type":"Feature","properties":{"stop_id":"STOP_1514611","stop_code":"","stop_name":"Rte. 304 & Bardonia Rd.","stop_desc":"","zone_id":"","stop_url":"","location_type":"0","parent_station":"","stop_timezone":"","wheelchair_boarding":"0","platform_code":"","feed_id":"New_York__Clarkstown_MiniTrans__mdb_mdb-911","agency_name":"Clarkstown MiniTrans","route_count":1,"route_ids":"ROUTE_1514605","route_short_names":"E","route_types":"3","route_type_names":"Bus","routes_json":"[{\"route_id\":\"ROUTE_1514605\",\"route_short_name\":\"E\",\"route_long_name\":\"Route E\",\"route_type\":\"3\",\"route_type_name\":\"Bus\",\"route_color\":\"17E115\",\"route_text_color\":\"000000\"}]"},"geometry":{"type":"Point","coordinates":[-73.996053,41.109268]}},{"type":"Feature","properties":{"stop_id":"STOP_80ff5570-18c7-4f96-bc1c-94bc8c2feaa1","stop_code":"","stop_name":"New Hempstead Rd. & Little Tor Rd.","stop_desc":"","zone_id":"","stop_url":"","location_type":"0","parent_station":"","stop_timezone":"","wheelchair_boarding":"0","platform_code":"","feed_id":"New_York__Clarkstown_MiniTrans__mdb_mdb-911","agency_name":"Clarkstown MiniTrans","route_count":1,"route_ids":"ROUTE_1513896","route_short_names":"C","route_types":"3","route_type_names":"Bus","routes_json":"[{\"route_id\":\"ROUTE_1513896\",\"route_short_name\":\"C\",\"route_long_name\":\"Route C\",\"route_type\":\"3\",\"route_type_name\":\"Bus\",\"route_color\":\"194A83\",\"route_text_color\":\"000000\"}]"},"geometry":{"type":"Point","coordinates":[-74.000473,41.15205]}},{"type":"Feature","properties":{"stop_id":"STOP_b9e6b83a-f2de-436a-a317-a6ffd1f139b5","stop_code":"","stop_name":"Seton Village","stop_desc":"","zone_id":"","stop_url":"","location_type":"0","parent_station":"","stop_timezone":"","wheelchair_boarding":"0","platform_code":"","feed_id":"New_York__Clarkstown_MiniTrans__mdb_mdb-911","agency_name":"Clarkstown MiniTrans","route_count":1,"route_ids":"ROUTE_1514282","route_short_names":"D","route_types":"3","route_type_names":"Bus","routes_json":"[{\"route_id\":\"ROUTE_1514282\",\"route_short_name\":\"D\",\"route_long_name\":\"Route D\",\"route_type\":\"3\",\"route_type_name\":\"Bus\",\"route_color\":\"A315BF\",\"route_text_color\":\"000000\"}]"},"geometry":{"type":"Point","coordinates":[-74.028904,41.088498]}},{"type":"Feature","properties":{"stop_id":"lfvt","stop_code":"","stop_name":"Crystal Run","stop_desc":"","zone_id":"","stop_url":"","location_type":"","parent_station":"","stop_timezone":"","wheelchair_boarding":"","platform_code":"","feed_id":"New_York__Clarkstown_MiniTrans__mdb_mdb-911","agency_name":"Clarkstown MiniTrans","route_count":1,"route_ids":"ROUTE_1513569","route_short_names":"B","route_types":"3","route_type_names":"Bus","routes_json":"[{\"route_id\":\"ROUTE_1513569\",\"route_short_name\":\"B\",\"route_long_name\":\"Route B\",\"route_type\":\"3\",\"route_type_name\":\"Bus\",\"route_color\":\"D0021B\",\"route_text_color\":\"000000\"}]"},"geometry":{"type":"Point","coordinates":[-73.977582,41.095003]}},{"type":"Feature","properties":{"stop_id":"STOP_1513248","stop_code":"","stop_name":"Rte. 304 & Rte. 59","stop_desc":"","zone_id":"","stop_url":"","location_type":"0","parent_station":"","stop_timezone":"","wheelchair_boarding":"0","platform_code":"","feed_id":"New_York__Clarkstown_MiniTrans__mdb_mdb-911","agency_name":"Clarkstown MiniTrans","route_count":2,"route_ids":"ROUTE_1513245|ROUTE_1514605","route_short_names":"A|E","route_types":"3","route_type_names":"Bus","routes_json":"[{\"route_id\":\"ROUTE_1513245\",\"route_short_name\":\"A\",\"route_long_name\":\"Route A\",\"route_type\":\"3\",\"route_type_name\":\"Bus\",\"route_color\":\"4C4AE2\",\"route_text_color\":\"000000\"},{\"route_id\":\"ROUTE_1514605\",\"route_short_name\":\"E\",\"route_long_name\":\"Route E\",\"route_type\":\"3\",\"route_type_name\":\"Bus\",\"route_color\":\"17E115\",\"route_text_color\":\"000000\"}]"},"geometry":{"type":"Point","coordinates":[-73.999693,41.092673]}},{"type":"Feature","properties":{"stop_id":"7z87","stop_code":"","stop_name":"West Clarkstown Rd & N Middletown Rd","stop_desc":"","zone_id":"","stop_url":"","location_type":"","parent_station":"","stop_timezone":"","wheelchair_boarding":"","platform_code":"","feed_id":"New_York__Clarkstown_MiniTrans__mdb_mdb-911","agency_name":"Clarkstown MiniTrans","route_count":1,"route_ids":"ROUTE_1513896","route_short_names":"C","route_types":"3","route_type_names":"Bus","routes_json":"[{\"route_id\":\"ROUTE_1513896\",\"route_short_name\":\"C\",\"route_long_name\":\"Route C\",\"route_type\":\"3\",\"route_type_name\":\"Bus\",\"route_color\":\"194A83\",\"route_text_color\":\"000000\"}]"},"geometry":{"type":"Point","coordinates":[-74.007785,41.120681]}},{"type":"Feature","properties":{"stop_id":"STOP_1513899","stop_code":"","stop_name":"West Clarkstown Rd & New Hempstead Rd","stop_desc":"","zone_id":"","stop_url":"","location_type":"0","parent_station":"","stop_timezone":"","wheelchair_boarding":"0","platform_code":"","feed_id":"New_York__Clarkstown_MiniTrans__mdb_mdb-911","agency_name":"Clarkstown MiniTrans","route_count":1,"route_ids":"ROUTE_1513896","route_short_names":"C","route_types":"3","route_type_names":"Bus","routes_json":"[{\"route_id\":\"ROUTE_1513896\",\"route_short_name\":\"C\",\"route_long_name\":\"Route C\",\"route_type\":\"3\",\"route_type_name\":\"Bus\",\"route_color\":\"194A83\",\"route_text_color\":\"000000\"}]"},"geometry":{"type":"Point","coordinates":[-74.016523,41.148535]}},{"type":"Feature","properties":{"stop_id":"STOP_1513902","stop_code":"","stop_name":"Middletown Rd. & Rte. 59","stop_desc":"","zone_id":"","stop_url":"","location_type":"0","parent_station":"","stop_timezone":"","wheelchair_boarding":"0","platform_code":"","feed_id":"New_York__Clarkstown_MiniTrans__mdb_mdb-911","agency_name":"Clarkstown MiniTrans","route_count":1,"route_ids":"ROUTE_1513896","route_short_names":"C","route_types":"3","route_type_names":"Bus","routes_json":"[{\"route_id\":\"ROUTE_1513896\",\"route_short_name\":\"C\",\"route_long_name\":\"Route C\",\"route_type\":\"3\",\"route_type_name\":\"Bus\",\"route_color\":\"194A83\",\"route_text_color\":\"000000\"}]"},"geometry":{"type":"Point","coordinates":[-74.011818,41.097189]}},{"type":"Feature","properties":{"stop_id":"5fg7","stop_code":"","stop_name":"Middletown Rd. & Rte. 59","stop_desc":"","zone_id":"","stop_url":"","location_type":"","parent_station":"","stop_timezone":"","wheelchair_boarding":"","platform_code":"","feed_id":"New_York__Clarkstown_MiniTrans__mdb_mdb-911","agency_name":"Clarkstown MiniTrans","route_count":1,"route_ids":"ROUTE_1513896","route_short_names":"C","route_types":"3","route_type_names":"Bus","routes_json":"[{\"route_id\":\"ROUTE_1513896\",\"route_short_name\":\"C\",\"route_long_name\":\"Route C\",\"route_type\":\"3\",\"route_type_name\":\"Bus\",\"route_color\":\"194A83\",\"route_text_color\":\"000000\"}]"},"geometry":{"type":"Point","coordinates":[-74.011615,41.097159]}},{"type":"Feature","properties":{"stop_id":"STOP_1513901","stop_code":"","stop_name":"Middletown Rd. & Parkway","stop_desc":"","zone_id":"","stop_url":"","location_type":"0","parent_station":"","stop_timezone":"","wheelchair_boarding":"0","platform_code":"","feed_id":"New_York__Clarkstown_MiniTrans__mdb_mdb-911","agency_name":"Clarkstown MiniTrans","route_count":1,"route_ids":"ROUTE_1513896","route_short_names":"C","route_types":"3","route_type_names":"Bus","routes_json":"[{\"route_id\":\"ROUTE_1513896\",\"route_short_name\":\"C\",\"route_long_name\":\"Route C\",\"route_type\":\"3\",\"route_type_name\":\"Bus\",\"route_color\":\"194A83\",\"route_text_color\":\"000000\"}]"},"geometry":{"type":"Point","coordinates":[-74.007938,41.120733]}}]}