{"type":"FeatureCollection","features":[{"type":"Feature","properties":{"stop_id":"20537","stop_code":"20537","platform_code":"","stop_name":"Madera Hospital","stop_desc":"","zone_id":"","stop_url":"","location_type":"0","parent_station":"","stop_timezone":"America/Los_Angeles","position":"","direction":"","wheelchair_boarding":"0","tts_stop_name":"","feed_id":"California__Madera_County_Transit__mdb_mdb-572","agency_name":"Madera County Connection","route_count":1,"route_ids":"579","route_short_names":"","route_types":"3","route_type_names":"Bus","routes_json":"[{\"route_id\":\"579\",\"route_short_name\":\"\",\"route_long_name\":\"Eastin Arcola - Ripperdan - La Vina\",\"route_type\":\"3\",\"route_type_name\":\"Bus\",\"route_color\":\"A0BC33\",\"route_text_color\":\"000000\"}]"},"geometry":{"type":"Point","coordinates":[-120.04483,36.944122]}},{"type":"Feature","properties":{"stop_id":"20548","stop_code":"20548","platform_code":"","stop_name":"Intermodal Center/Downtown Madera","stop_desc":"","zone_id":"","stop_url":"","location_type":"0","parent_station":"","stop_timezone":"America/Los_Angeles","position":"","direction":"","wheelchair_boarding":"0","tts_stop_name":"","feed_id":"California__Madera_County_Transit__mdb_mdb-572","agency_name":"Madera County Connection","route_count":4,"route_ids":"578|3615|577|579","route_short_names":"","route_types":"3","route_type_names":"Bus","routes_json":"[{\"route_id\":\"578\",\"route_short_name\":\"\",\"route_long_name\":\"Chowchilla - Fairmead\",\"route_type\":\"3\",\"route_type_name\":\"Bus\",\"route_color\":\"E78A2C\",\"route_text_color\":\"000000\"},{\"route_id\":\"3615\",\"route_short_name\":\"\",\"route_long_name\":\"College / Children's Hospital\",\"route_type\":\"3\",\"route_type_name\":\"Bus\",\"route_color\":\"1B3272\",\"route_text_color\":\"FFFFFF\"},{\"route_id\":\"577\",\"route_short_name\":\"\",\"route_long_name\":\"Eastern Madera County\",\"route_type\":\"3\",\"route_type_name\":\"Bus\",\"route_color\":\"437FBE\",\"route_text_color\":\"FFFFFF\"},{\"route_id\":\"579\",\"route_short_name\":\"\",\"route_long_name\":\"Eastin Arcola - Ripperdan - La Vina\",\"route_type\":\"3\",\"route_type_name\":\"Bus\",\"route_color\":\"A0BC33\",\"route_text_color\":\"000000\"}]"},"geometry":{"type":"Point","coordinates":[-120.059969663719,36.9628536177637]}},{"type":"Feature","properties":{"stop_id":"20549","stop_code":"20549","platform_code":"","stop_name":"Hwy. 41/Rd. 145 - Park & Ride","stop_desc":"","zone_id":"","stop_url":"","location_type":"0","parent_station":"","stop_timezone":"America/Los_Angeles","position":"","direction":"","wheelchair_boarding":"0","tts_stop_name":"","feed_id":"California__Madera_County_Transit__mdb_mdb-572","agency_name":"Madera County Connection","route_count":1,"route_ids":"577","route_short_names":"","route_types":"3","route_type_names":"Bus","routes_json":"[{\"route_id\":\"577\",\"route_short_name\":\"\",\"route_long_name\":\"Eastern Madera County\",\"route_type\":\"3\",\"route_type_name\":\"Bus\",\"route_color\":\"437FBE\",\"route_text_color\":\"FFFFFF\"}]"},"geometry":{"type":"Point","coordinates":[-119.79438,37.010181]}},{"type":"Feature","properties":{"stop_id":"20551","stop_code":"20551","platform_code":"","stop_name":"Yosemite Lakes Park Clubhouse","stop_desc":"","zone_id":"","stop_url":"","location_type":"0","parent_station":"","stop_timezone":"America/Los_Angeles","position":"","direction":"","wheelchair_boarding":"0","tts_stop_name":"","feed_id":"California__Madera_County_Transit__mdb_mdb-572","agency_name":"Madera County Connection","route_count":1,"route_ids":"577","route_short_names":"","route_types":"3","route_type_names":"Bus","routes_json":"[{\"route_id\":\"577\",\"route_short_name\":\"\",\"route_long_name\":\"Eastern Madera County\",\"route_type\":\"3\",\"route_type_name\":\"Bus\",\"route_color\":\"437FBE\",\"route_text_color\":\"FFFFFF\"}]"},"geometry":{"type":"Point","coordinates":[-119.770077337296,37.1863795586385]}},{"type":"Feature","properties":{"stop_id":"20552","stop_code":"20552","platform_code":"","stop_name":"Chukchansi Gold Resort","stop_desc":"","zone_id":"","stop_url":"","location_type":"0","parent_station":"","stop_timezone":"America/Los_Angeles","position":"","direction":"","wheelchair_boarding":"0","tts_stop_name":"","feed_id":"California__Madera_County_Transit__mdb_mdb-572","agency_name":"Madera County Connection","route_count":1,"route_ids":"577","route_short_names":"","route_types":"3","route_type_names":"Bus","routes_json":"[{\"route_id\":\"577\",\"route_short_name\":\"\",\"route_long_name\":\"Eastern Madera County\",\"route_type\":\"3\",\"route_type_name\":\"Bus\",\"route_color\":\"437FBE\",\"route_text_color\":\"FFFFFF\"}]"},"geometry":{"type":"Point","coordinates":[-119.69811,37.21158]}},{"type":"Feature","properties":{"stop_id":"20553","stop_code":"20553","platform_code":"","stop_name":"Coarsegold - Historic Village Southbound","stop_desc":"","zone_id":"","stop_url":"","location_type":"0","parent_station":"","stop_timezone":"America/Los_Angeles","position":"","direction":"","wheelchair_boarding":"0","tts_stop_name":"","feed_id":"California__Madera_County_Transit__mdb_mdb-572","agency_name":"Madera County Connection","route_count":1,"route_ids":"577","route_short_names":"","route_types":"3","route_type_names":"Bus","routes_json":"[{\"route_id\":\"577\",\"route_short_name\":\"\",\"route_long_name\":\"Eastern Madera County\",\"route_type\":\"3\",\"route_type_name\":\"Bus\",\"route_color\":\"437FBE\",\"route_text_color\":\"FFFFFF\"}]"},"geometry":{"type":"Point","coordinates":[-119.699821944714,37.2621030465083]}},{"type":"Feature","properties":{"stop_id":"20554","stop_code":"20554","platform_code":"","stop_name":"Oakhurst - Medical Center","stop_desc":"","zone_id":"","stop_url":"","location_type":"0","parent_station":"","stop_timezone":"America/Los_Angeles","position":"","direction":"","wheelchair_boarding":"0","tts_stop_name":"","feed_id":"California__Madera_County_Transit__mdb_mdb-572","agency_name":"Madera County Connection","route_count":1,"route_ids":"577","route_short_names":"","route_types":"3","route_type_names":"Bus","routes_json":"[{\"route_id\":\"577\",\"route_short_name\":\"\",\"route_long_name\":\"Eastern Madera County\",\"route_type\":\"3\",\"route_type_name\":\"Bus\",\"route_color\":\"437FBE\",\"route_text_color\":\"FFFFFF\"}]"},"geometry":{"type":"Point","coordinates":[-119.659332,37.328045]}},{"type":"Feature","properties":{"stop_id":"20555","stop_code":"20555","platform_code":"","stop_name":"Oakhurst - Met Cinema","stop_desc":"","zone_id":"","stop_url":"","location_type":"0","parent_station":"","stop_timezone":"America/Los_Angeles","position":"","direction":"","wheelchair_boarding":"0","tts_stop_name":"","feed_id":"California__Madera_County_Transit__mdb_mdb-572","agency_name":"Madera County Connection","route_count":1,"route_ids":"577","route_short_names":"","route_types":"3","route_type_names":"Bus","routes_json":"[{\"route_id\":\"577\",\"route_short_name\":\"\",\"route_long_name\":\"Eastern Madera County\",\"route_type\":\"3\",\"route_type_name\":\"Bus\",\"route_color\":\"437FBE\",\"route_text_color\":\"FFFFFF\"}]"},"geometry":{"type":"Point","coordinates":[-119.65566399993,37.3318403783664]}},{"type":"Feature","properties":{"stop_id":"20556","stop_code":"20556","platform_code":"","stop_name":"Oakhurst - Community College","stop_desc":"","zone_id":"","stop_url":"","location_type":"0","parent_station":"","stop_timezone":"America/Los_Angeles","position":"","direction":"","wheelchair_boarding":"0","tts_stop_name":"","feed_id":"California__Madera_County_Transit__mdb_mdb-572","agency_name":"Madera County Connection","route_count":1,"route_ids":"577","route_short_names":"","route_types":"3","route_type_names":"Bus","routes_json":"[{\"route_id\":\"577\",\"route_short_name\":\"\",\"route_long_name\":\"Eastern Madera County\",\"route_type\":\"3\",\"route_type_name\":\"Bus\",\"route_color\":\"437FBE\",\"route_text_color\":\"FFFFFF\"}]"},"geometry":{"type":"Point","coordinates":[-119.652759759,37.331277504]}},{"type":"Feature","properties":{"stop_id":"20558","stop_code":"20558","platform_code":"","stop_name":"Bass Lake - Government Center","stop_desc":"","zone_id":"","stop_url":"","location_type":"0","parent_station":"","stop_timezone":"America/Los_Angeles","position":"","direction":"","wheelchair_boarding":"0","tts_stop_name":"","feed_id":"California__Madera_County_Transit__mdb_mdb-572","agency_name":"Madera County Connection","route_count":1,"route_ids":"577","route_short_names":"","route_types":"3","route_type_names":"Bus","routes_json":"[{\"route_id\":\"577\",\"route_short_name\":\"\",\"route_long_name\":\"Eastern Madera County\",\"route_type\":\"3\",\"route_type_name\":\"Bus\",\"route_color\":\"437FBE\",\"route_text_color\":\"FFFFFF\"}]"},"geometry":{"type":"Point","coordinates":[-119.582138,37.337971]}},{"type":"Feature","properties":{"stop_id":"20559","stop_code":"20559","platform_code":"","stop_name":"Bass Lake - Pines Resort","stop_desc":"","zone_id":"","stop_url":"","location_type":"0","parent_station":"","stop_timezone":"America/Los_Angeles","position":"","direction":"","wheelchair_boarding":"0","tts_stop_name":"","feed_id":"California__Madera_County_Transit__mdb_mdb-572","agency_name":"Madera County Connection","route_count":1,"route_ids":"577","route_short_names":"","route_types":"3","route_type_names":"Bus","routes_json":"[{\"route_id\":\"577\",\"route_short_name\":\"\",\"route_long_name\":\"Eastern Madera County\",\"route_type\":\"3\",\"route_type_name\":\"Bus\",\"route_color\":\"437FBE\",\"route_text_color\":\"FFFFFF\"}]"},"geometry":{"type":"Point","coordinates":[-119.556100186508,37.3199347545213]}},{"type":"Feature","properties":{"stop_id":"20560","stop_code":"20560","platform_code":"","stop_name":"North Fork - Supermarket","stop_desc":"","zone_id":"","stop_url":"","location_type":"0","parent_station":"","stop_timezone":"America/Los_Angeles","position":"","direction":"","wheelchair_boarding":"0","tts_stop_name":"","feed_id":"California__Madera_County_Transit__mdb_mdb-572","agency_name":"Madera County Connection","route_count":1,"route_ids":"577","route_short_names":"","route_types":"3","route_type_names":"Bus","routes_json":"[{\"route_id\":\"577\",\"route_short_name\":\"\",\"route_long_name\":\"Eastern Madera County\",\"route_type\":\"3\",\"route_type_name\":\"Bus\",\"route_color\":\"437FBE\",\"route_text_color\":\"FFFFFF\"}]"},"geometry":{"type":"Point","coordinates":[-119.508873,37.229561]}},{"type":"Feature","properties":{"stop_id":"20561","stop_code":"20561","platform_code":"","stop_name":"South Fork (Rd. 225)","stop_desc":"","zone_id":"","stop_url":"","location_type":"0","parent_station":"","stop_timezone":"America/Los_Angeles","position":"","direction":"","wheelchair_boarding":"0","tts_stop_name":"","feed_id":"California__Madera_County_Transit__mdb_mdb-572","agency_name":"Madera County Connection","route_count":1,"route_ids":"577","route_short_names":"","route_types":"3","route_type_names":"Bus","routes_json":"[{\"route_id\":\"577\",\"route_short_name\":\"\",\"route_long_name\":\"Eastern Madera County\",\"route_type\":\"3\",\"route_type_name\":\"Bus\",\"route_color\":\"437FBE\",\"route_text_color\":\"FFFFFF\"}]"},"geometry":{"type":"Point","coordinates":[-119.49724359328462,37.23048076413077]}},{"type":"Feature","properties":{"stop_id":"20562","stop_code":"20562","platform_code":"","stop_name":"Madera Community College Center","stop_desc":"","zone_id":"","stop_url":"","location_type":"0","parent_station":"","stop_timezone":"America/Los_Angeles","position":"","direction":"","wheelchair_boarding":"0","tts_stop_name":"","feed_id":"California__Madera_County_Transit__mdb_mdb-572","agency_name":"Madera County Connection","route_count":1,"route_ids":"3615","route_short_names":"","route_types":"3","route_type_names":"Bus","routes_json":"[{\"route_id\":\"3615\",\"route_short_name\":\"\",\"route_long_name\":\"College / Children's Hospital\",\"route_type\":\"3\",\"route_type_name\":\"Bus\",\"route_color\":\"1B3272\",\"route_text_color\":\"FFFFFF\"}]"},"geometry":{"type":"Point","coordinates":[-119.99778114659446,36.92397244968534]}},{"type":"Feature","properties":{"stop_id":"20563","stop_code":"20563","platform_code":"","stop_name":"Ranchos - Ave. 12/Jason Ct.","stop_desc":"","zone_id":"","stop_url":"","location_type":"0","parent_station":"","stop_timezone":"America/Los_Angeles","position":"","direction":"","wheelchair_boarding":"0","tts_stop_name":"","feed_id":"California__Madera_County_Transit__mdb_mdb-572","agency_name":"Madera County Connection","route_count":1,"route_ids":"3615","route_short_names":"","route_types":"3","route_type_names":"Bus","routes_json":"[{\"route_id\":\"3615\",\"route_short_name\":\"\",\"route_long_name\":\"College / Children's Hospital\",\"route_type\":\"3\",\"route_type_name\":\"Bus\",\"route_color\":\"1B3272\",\"route_text_color\":\"FFFFFF\"}]"},"geometry":{"type":"Point","coordinates":[-119.869166117722,36.9230147213724]}},{"type":"Feature","properties":{"stop_id":"20564","stop_code":"20564","platform_code":"","stop_name":"Children's Hospital","stop_desc":"","zone_id":"","stop_url":"","location_type":"0","parent_station":"","stop_timezone":"America/Los_Angeles","position":"","direction":"","wheelchair_boarding":"0","tts_stop_name":"","feed_id":"California__Madera_County_Transit__mdb_mdb-572","agency_name":"Madera County Connection","route_count":1,"route_ids":"3615","route_short_names":"","route_types":"3","route_type_names":"Bus","routes_json":"[{\"route_id\":\"3615\",\"route_short_name\":\"\",\"route_long_name\":\"College / Children's Hospital\",\"route_type\":\"3\",\"route_type_name\":\"Bus\",\"route_color\":\"1B3272\",\"route_text_color\":\"FFFFFF\"}]"},"geometry":{"type":"Point","coordinates":[-119.800088703041,36.8850515405234]}},{"type":"Feature","properties":{"stop_id":"20565","stop_code":"20565","platform_code":"","stop_name":"Madera Ranchos Mkt.","stop_desc":"","zone_id":"","stop_url":"","location_type":"0","parent_station":"","stop_timezone":"America/Los_Angeles","position":"","direction":"","wheelchair_boarding":"0","tts_stop_name":"","feed_id":"California__Madera_County_Transit__mdb_mdb-572","agency_name":"Madera County Connection","route_count":1,"route_ids":"3615","route_short_names":"","route_types":"3","route_type_names":"Bus","routes_json":"[{\"route_id\":\"3615\",\"route_short_name\":\"\",\"route_long_name\":\"College / Children's Hospital\",\"route_type\":\"3\",\"route_type_name\":\"Bus\",\"route_color\":\"1B3272\",\"route_text_color\":\"FFFFFF\"}]"},"geometry":{"type":"Point","coordinates":[-119.869035474869,36.9230917765843]}},{"type":"Feature","properties":{"stop_id":"20567","stop_code":"20567","platform_code":"","stop_name":"Fairmead - Baptist Church","stop_desc":"","zone_id":"","stop_url":"","location_type":"0","parent_station":"","stop_timezone":"America/Los_Angeles","position":"","direction":"","wheelchair_boarding":"0","tts_stop_name":"","feed_id":"California__Madera_County_Transit__mdb_mdb-572","agency_name":"Madera County Connection","route_count":1,"route_ids":"578","route_short_names":"","route_types":"3","route_type_names":"Bus","routes_json":"[{\"route_id\":\"578\",\"route_short_name\":\"\",\"route_long_name\":\"Chowchilla - Fairmead\",\"route_type\":\"3\",\"route_type_name\":\"Bus\",\"route_color\":\"E78A2C\",\"route_text_color\":\"000000\"}]"},"geometry":{"type":"Point","coordinates":[-120.19675732639,37.0762661378765]}},{"type":"Feature","properties":{"stop_id":"20568","stop_code":"20568","platform_code":"","stop_name":"Chowchilla - Save Mart","stop_desc":"","zone_id":"","stop_url":"","location_type":"0","parent_station":"","stop_timezone":"America/Los_Angeles","position":"","direction":"","wheelchair_boarding":"0","tts_stop_name":"","feed_id":"California__Madera_County_Transit__mdb_mdb-572","agency_name":"Madera County Connection","route_count":1,"route_ids":"578","route_short_names":"","route_types":"3","route_type_names":"Bus","routes_json":"[{\"route_id\":\"578\",\"route_short_name\":\"\",\"route_long_name\":\"Chowchilla - Fairmead\",\"route_type\":\"3\",\"route_type_name\":\"Bus\",\"route_color\":\"E78A2C\",\"route_text_color\":\"000000\"}]"},"geometry":{"type":"Point","coordinates":[-120.24757807194216,37.12613671045192]}},{"type":"Feature","properties":{"stop_id":"20569","stop_code":"20569","platform_code":"","stop_name":"1020 Ventura Ave. - Medical Complex","stop_desc":"","zone_id":"","stop_url":"","location_type":"0","parent_station":"","stop_timezone":"America/Los_Angeles","position":"","direction":"","wheelchair_boarding":"0","tts_stop_name":"","feed_id":"California__Madera_County_Transit__mdb_mdb-572","agency_name":"Madera County Connection","route_count":1,"route_ids":"578","route_short_names":"","route_types":"3","route_type_names":"Bus","routes_json":"[{\"route_id\":\"578\",\"route_short_name\":\"\",\"route_long_name\":\"Chowchilla - Fairmead\",\"route_type\":\"3\",\"route_type_name\":\"Bus\",\"route_color\":\"E78A2C\",\"route_text_color\":\"000000\"}]"},"geometry":{"type":"Point","coordinates":[-120.27244798411618,37.12169766962495]}},{"type":"Feature","properties":{"stop_id":"20570","stop_code":"20570","platform_code":"","stop_name":"Countrywood Shopping Center","stop_desc":"","zone_id":"","stop_url":"","location_type":"0","parent_station":"","stop_timezone":"America/Los_Angeles","position":"","direction":"","wheelchair_boarding":"0","tts_stop_name":"","feed_id":"California__Madera_County_Transit__mdb_mdb-572","agency_name":"Madera County Connection","route_count":1,"route_ids":"578","route_short_names":"","route_types":"3","route_type_names":"Bus","routes_json":"[{\"route_id\":\"578\",\"route_short_name\":\"\",\"route_long_name\":\"Chowchilla - Fairmead\",\"route_type\":\"3\",\"route_type_name\":\"Bus\",\"route_color\":\"E78A2C\",\"route_text_color\":\"000000\"}]"},"geometry":{"type":"Point","coordinates":[-120.27610845245076,37.11047336736556]}},{"type":"Feature","properties":{"stop_id":"20571","stop_code":"20571","platform_code":"","stop_name":"Community Sports Center","stop_desc":"","zone_id":"","stop_url":"","location_type":"0","parent_station":"","stop_timezone":"America/Los_Angeles","position":"","direction":"","wheelchair_boarding":"0","tts_stop_name":"","feed_id":"California__Madera_County_Transit__mdb_mdb-572","agency_name":"Madera County Connection","route_count":1,"route_ids":"578","route_short_names":"","route_types":"3","route_type_names":"Bus","routes_json":"[{\"route_id\":\"578\",\"route_short_name\":\"\",\"route_long_name\":\"Chowchilla - Fairmead\",\"route_type\":\"3\",\"route_type_name\":\"Bus\",\"route_color\":\"E78A2C\",\"route_text_color\":\"000000\"}]"},"geometry":{"type":"Point","coordinates":[-120.267706972877,37.1167442565371]}},{"type":"Feature","properties":{"stop_id":"20572","stop_code":"20572","platform_code":"","stop_name":"Eastin Arcola","stop_desc":"","zone_id":"","stop_url":"","location_type":"0","parent_station":"","stop_timezone":"America/Los_Angeles","position":"","direction":"","wheelchair_boarding":"0","tts_stop_name":"","feed_id":"California__Madera_County_Transit__mdb_mdb-572","agency_name":"Madera County Connection","route_count":1,"route_ids":"579","route_short_names":"","route_types":"3","route_type_names":"Bus","routes_json":"[{\"route_id\":\"579\",\"route_short_name\":\"\",\"route_long_name\":\"Eastin Arcola - Ripperdan - La Vina\",\"route_type\":\"3\",\"route_type_name\":\"Bus\",\"route_color\":\"A0BC33\",\"route_text_color\":\"000000\"}]"},"geometry":{"type":"Point","coordinates":[-120.0104298890808,36.86568708860838]}},{"type":"Feature","properties":{"stop_id":"20573","stop_code":"20573","platform_code":"","stop_name":"R.C. Wisener Park - 2nd & Trinity","stop_desc":"","zone_id":"","stop_url":"","location_type":"0","parent_station":"","stop_timezone":"America/Los_Angeles","position":"","direction":"","wheelchair_boarding":"0","tts_stop_name":"","feed_id":"California__Madera_County_Transit__mdb_mdb-572","agency_name":"Madera County Connection","route_count":1,"route_ids":"578","route_short_names":"","route_types":"3","route_type_names":"Bus","routes_json":"[{\"route_id\":\"578\",\"route_short_name\":\"\",\"route_long_name\":\"Chowchilla - Fairmead\",\"route_type\":\"3\",\"route_type_name\":\"Bus\",\"route_color\":\"E78A2C\",\"route_text_color\":\"000000\"}]"},"geometry":{"type":"Point","coordinates":[-120.259033449074,37.1220384053643]}},{"type":"Feature","properties":{"stop_id":"20574","stop_code":"20574","platform_code":"","stop_name":"Ripperdan","stop_desc":"","zone_id":"","stop_url":"","location_type":"0","parent_station":"","stop_timezone":"America/Los_Angeles","position":"","direction":"","wheelchair_boarding":"0","tts_stop_name":"","feed_id":"California__Madera_County_Transit__mdb_mdb-572","agency_name":"Madera County Connection","route_count":1,"route_ids":"579","route_short_names":"","route_types":"3","route_type_names":"Bus","routes_json":"[{\"route_id\":\"579\",\"route_short_name\":\"\",\"route_long_name\":\"Eastin Arcola - Ripperdan - La Vina\",\"route_type\":\"3\",\"route_type_name\":\"Bus\",\"route_color\":\"A0BC33\",\"route_text_color\":\"000000\"}]"},"geometry":{"type":"Point","coordinates":[-120.055972125166,36.8516460649093]}},{"type":"Feature","properties":{"stop_id":"20575","stop_code":"20575","platform_code":"","stop_name":"La Vina - Vina St.","stop_desc":"","zone_id":"","stop_url":"","location_type":"0","parent_station":"","stop_timezone":"America/Los_Angeles","position":"","direction":"","wheelchair_boarding":"0","tts_stop_name":"","feed_id":"California__Madera_County_Transit__mdb_mdb-572","agency_name":"Madera County Connection","route_count":1,"route_ids":"579","route_short_names":"","route_types":"3","route_type_names":"Bus","routes_json":"[{\"route_id\":\"579\",\"route_short_name\":\"\",\"route_long_name\":\"Eastin Arcola - Ripperdan - La Vina\",\"route_type\":\"3\",\"route_type_name\":\"Bus\",\"route_color\":\"A0BC33\",\"route_text_color\":\"000000\"}]"},"geometry":{"type":"Point","coordinates":[-120.116806442957,36.8795420622449]}},{"type":"Feature","properties":{"stop_id":"20576","stop_code":"20576","platform_code":"","stop_name":"La Vina - Rd. 24/Ave. 9 - Mkt.","stop_desc":"","zone_id":"","stop_url":"","location_type":"0","parent_station":"","stop_timezone":"America/Los_Angeles","position":"","direction":"","wheelchair_boarding":"0","tts_stop_name":"","feed_id":"California__Madera_County_Transit__mdb_mdb-572","agency_name":"Madera County Connection","route_count":1,"route_ids":"579","route_short_names":"","route_types":"3","route_type_names":"Bus","routes_json":"[{\"route_id\":\"579\",\"route_short_name\":\"\",\"route_long_name\":\"Eastin Arcola - Ripperdan - La Vina\",\"route_type\":\"3\",\"route_type_name\":\"Bus\",\"route_color\":\"A0BC33\",\"route_text_color\":\"000000\"}]"},"geometry":{"type":"Point","coordinates":[-120.110345944775,36.8803556551807]}},{"type":"Feature","properties":{"stop_id":"20577","stop_code":"20577","platform_code":"","stop_name":"La Vina - Casa de La Vina","stop_desc":"","zone_id":"","stop_url":"","location_type":"0","parent_station":"","stop_timezone":"America/Los_Angeles","position":"","direction":"","wheelchair_boarding":"0","tts_stop_name":"","feed_id":"California__Madera_County_Transit__mdb_mdb-572","agency_name":"Madera County Connection","route_count":1,"route_ids":"579","route_short_names":"","route_types":"3","route_type_names":"Bus","routes_json":"[{\"route_id\":\"579\",\"route_short_name\":\"\",\"route_long_name\":\"Eastin Arcola - Ripperdan - La Vina\",\"route_type\":\"3\",\"route_type_name\":\"Bus\",\"route_color\":\"A0BC33\",\"route_text_color\":\"000000\"}]"},"geometry":{"type":"Point","coordinates":[-120.113026801258,36.8802473453565]}},{"type":"Feature","properties":{"stop_id":"2440834","stop_code":"2440834","platform_code":"","stop_name":"Walgreens","stop_desc":"","zone_id":"","stop_url":"","location_type":"0","parent_station":"","stop_timezone":"America/Los_Angeles","position":"","direction":"","wheelchair_boarding":"1","tts_stop_name":"","feed_id":"California__Madera_County_Transit__mdb_mdb-572","agency_name":"Madera County Connection","route_count":2,"route_ids":"578|579","route_short_names":"","route_types":"3","route_type_names":"Bus","routes_json":"[{\"route_id\":\"578\",\"route_short_name\":\"\",\"route_long_name\":\"Chowchilla - Fairmead\",\"route_type\":\"3\",\"route_type_name\":\"Bus\",\"route_color\":\"E78A2C\",\"route_text_color\":\"000000\"},{\"route_id\":\"579\",\"route_short_name\":\"\",\"route_long_name\":\"Eastin Arcola - Ripperdan - La Vina\",\"route_type\":\"3\",\"route_type_name\":\"Bus\",\"route_color\":\"A0BC33\",\"route_text_color\":\"000000\"}]"},"geometry":{"type":"Point","coordinates":[-120.08107770054023,36.97372807099963]}},{"type":"Feature","properties":{"stop_id":"811869","stop_code":"811869","platform_code":"","stop_name":"Coarsegold - Historic Village Northbound","stop_desc":"","zone_id":"","stop_url":"","location_type":"0","parent_station":"","stop_timezone":"America/Los_Angeles","position":"","direction":"","wheelchair_boarding":"0","tts_stop_name":"","feed_id":"California__Madera_County_Transit__mdb_mdb-572","agency_name":"Madera County Connection","route_count":1,"route_ids":"577","route_short_names":"","route_types":"3","route_type_names":"Bus","routes_json":"[{\"route_id\":\"577\",\"route_short_name\":\"\",\"route_long_name\":\"Eastern Madera County\",\"route_type\":\"3\",\"route_type_name\":\"Bus\",\"route_color\":\"437FBE\",\"route_text_color\":\"FFFFFF\"}]"},"geometry":{"type":"Point","coordinates":[-119.69946392859303,37.26208321199594]}},{"type":"Feature","properties":{"stop_id":"820006","stop_code":"820006","platform_code":"","stop_name":"Hardware Store @ Yosemite Lakes Park","stop_desc":"","zone_id":"","stop_url":"","location_type":"0","parent_station":"","stop_timezone":"America/Los_Angeles","position":"","direction":"","wheelchair_boarding":"0","tts_stop_name":"","feed_id":"California__Madera_County_Transit__mdb_mdb-572","agency_name":"Madera County Connection","route_count":1,"route_ids":"577","route_short_names":"","route_types":"3","route_type_names":"Bus","routes_json":"[{\"route_id\":\"577\",\"route_short_name\":\"\",\"route_long_name\":\"Eastern Madera County\",\"route_type\":\"3\",\"route_type_name\":\"Bus\",\"route_color\":\"437FBE\",\"route_text_color\":\"FFFFFF\"}]"},"geometry":{"type":"Point","coordinates":[-119.76496,37.17745]}},{"type":"Feature","properties":{"stop_id":"820007","stop_code":"820007","platform_code":"","stop_name":"Gulf @ Rd. 417","stop_desc":"","zone_id":"","stop_url":"","location_type":"0","parent_station":"","stop_timezone":"America/Los_Angeles","position":"","direction":"","wheelchair_boarding":"0","tts_stop_name":"","feed_id":"California__Madera_County_Transit__mdb_mdb-572","agency_name":"Madera County Connection","route_count":1,"route_ids":"577","route_short_names":"","route_types":"3","route_type_names":"Bus","routes_json":"[{\"route_id\":\"577\",\"route_short_name\":\"\",\"route_long_name\":\"Eastern Madera County\",\"route_type\":\"3\",\"route_type_name\":\"Bus\",\"route_color\":\"437FBE\",\"route_text_color\":\"FFFFFF\"}]"},"geometry":{"type":"Point","coordinates":[-119.708591492,37.218385253]}},{"type":"Feature","properties":{"stop_id":"820009","stop_code":"820009","platform_code":"","stop_name":"Hwy 41 & Rd. 426","stop_desc":"","zone_id":"","stop_url":"","location_type":"0","parent_station":"","stop_timezone":"America/Los_Angeles","position":"","direction":"","wheelchair_boarding":"0","tts_stop_name":"","feed_id":"California__Madera_County_Transit__mdb_mdb-572","agency_name":"Madera County Connection","route_count":1,"route_ids":"577","route_short_names":"","route_types":"3","route_type_names":"Bus","routes_json":"[{\"route_id\":\"577\",\"route_short_name\":\"\",\"route_long_name\":\"Eastern Madera County\",\"route_type\":\"3\",\"route_type_name\":\"Bus\",\"route_color\":\"437FBE\",\"route_text_color\":\"FFFFFF\"}]"},"geometry":{"type":"Point","coordinates":[-119.6525436157635,37.33253764216597]}},{"type":"Feature","properties":{"stop_id":"820507","stop_code":"820507","platform_code":"","stop_name":"Thrift Store-Hwy 41","stop_desc":"","zone_id":"","stop_url":"","location_type":"0","parent_station":"","stop_timezone":"America/Los_Angeles","position":"","direction":"","wheelchair_boarding":"0","tts_stop_name":"","feed_id":"California__Madera_County_Transit__mdb_mdb-572","agency_name":"Madera County Connection","route_count":1,"route_ids":"577","route_short_names":"","route_types":"3","route_type_names":"Bus","routes_json":"[{\"route_id\":\"577\",\"route_short_name\":\"\",\"route_long_name\":\"Eastern Madera County\",\"route_type\":\"3\",\"route_type_name\":\"Bus\",\"route_color\":\"437FBE\",\"route_text_color\":\"FFFFFF\"}]"},"geometry":{"type":"Point","coordinates":[-119.644573315,37.338153445]}},{"type":"Feature","properties":{"stop_id":"820508","stop_code":"820508","platform_code":"","stop_name":"Oakhurst - Denny's","stop_desc":"","zone_id":"","stop_url":"","location_type":"0","parent_station":"","stop_timezone":"America/Los_Angeles","position":"","direction":"","wheelchair_boarding":"0","tts_stop_name":"","feed_id":"California__Madera_County_Transit__mdb_mdb-572","agency_name":"Madera County Connection","route_count":1,"route_ids":"577","route_short_names":"","route_types":"3","route_type_names":"Bus","routes_json":"[{\"route_id\":\"577\",\"route_short_name\":\"\",\"route_long_name\":\"Eastern Madera County\",\"route_type\":\"3\",\"route_type_name\":\"Bus\",\"route_color\":\"437FBE\",\"route_text_color\":\"FFFFFF\"}]"},"geometry":{"type":"Point","coordinates":[-119.64516111851812,37.33720005589144]}}]}