{"type":"FeatureCollection","features":[{"type":"Feature","properties":{"stop_id":"2326141","stop_code":"","platform_code":"","stop_name":"Peachtree Senior Living Apartments","stop_desc":"","zone_id":"","stop_url":"","location_type":"0","parent_station":"","stop_timezone":"America/Chicago","position":"","direction":"","wheelchair_boarding":"0","tts_stop_name":"","feed_id":"Texas__STAR_Transit__mdb_mdb-153","agency_name":"STAR Transit","route_count":1,"route_ids":"4514","route_short_names":"101","route_types":"3","route_type_names":"Bus","routes_json":"[{\"route_id\":\"4514\",\"route_short_name\":\"101\",\"route_long_name\":\"Balch Springs Midtown Express\",\"route_type\":\"3\",\"route_type_name\":\"Bus\",\"route_color\":\"3D8938\",\"route_text_color\":\"FFFFFF\"}]"},"geometry":{"type":"Point","coordinates":[-96.632845282209,32.699483229448]}},{"type":"Feature","properties":{"stop_id":"2326142","stop_code":"","platform_code":"","stop_name":"Seagoville Rd @ Peachtree Rd","stop_desc":"","zone_id":"","stop_url":"","location_type":"0","parent_station":"","stop_timezone":"America/Chicago","position":"","direction":"","wheelchair_boarding":"0","tts_stop_name":"","feed_id":"Texas__STAR_Transit__mdb_mdb-153","agency_name":"STAR Transit","route_count":1,"route_ids":"4514","route_short_names":"101","route_types":"3","route_type_names":"Bus","routes_json":"[{\"route_id\":\"4514\",\"route_short_name\":\"101\",\"route_long_name\":\"Balch Springs Midtown Express\",\"route_type\":\"3\",\"route_type_name\":\"Bus\",\"route_color\":\"3D8938\",\"route_text_color\":\"FFFFFF\"}]"},"geometry":{"type":"Point","coordinates":[-96.6310710286369,32.7050392068963]}},{"type":"Feature","properties":{"stop_id":"2326143","stop_code":"","platform_code":"","stop_name":"Seagoville Rd @ Peachtree Rd","stop_desc":"","zone_id":"","stop_url":"","location_type":"0","parent_station":"","stop_timezone":"America/Chicago","position":"","direction":"","wheelchair_boarding":"0","tts_stop_name":"","feed_id":"Texas__STAR_Transit__mdb_mdb-153","agency_name":"STAR Transit","route_count":1,"route_ids":"4514","route_short_names":"101","route_types":"3","route_type_names":"Bus","routes_json":"[{\"route_id\":\"4514\",\"route_short_name\":\"101\",\"route_long_name\":\"Balch Springs Midtown Express\",\"route_type\":\"3\",\"route_type_name\":\"Bus\",\"route_color\":\"3D8938\",\"route_text_color\":\"FFFFFF\"}]"},"geometry":{"type":"Point","coordinates":[-96.63104388283966,32.70483574789068]}},{"type":"Feature","properties":{"stop_id":"2382395","stop_code":"","platform_code":"","stop_name":"Balch Springs City Hall","stop_desc":"","zone_id":"","stop_url":"","location_type":"0","parent_station":"","stop_timezone":"America/Chicago","position":"","direction":"","wheelchair_boarding":"1","tts_stop_name":"","feed_id":"Texas__STAR_Transit__mdb_mdb-153","agency_name":"STAR Transit","route_count":0,"route_ids":"","route_short_names":"","route_types":"","route_type_names":"","routes_json":"[]"},"geometry":{"type":"Point","coordinates":[-96.58212,32.706829]}},{"type":"Feature","properties":{"stop_id":"2382396","stop_code":"","platform_code":"","stop_name":"I 20 Frontage Rd.","stop_desc":"","zone_id":"","stop_url":"","location_type":"0","parent_station":"","stop_timezone":"America/Chicago","position":"","direction":"","wheelchair_boarding":"1","tts_stop_name":"","feed_id":"Texas__STAR_Transit__mdb_mdb-153","agency_name":"STAR Transit","route_count":0,"route_ids":"","route_short_names":"","route_types":"","route_type_names":"","routes_json":"[]"},"geometry":{"type":"Point","coordinates":[-96.588939,32.704797]}},{"type":"Feature","properties":{"stop_id":"2382397","stop_code":"","platform_code":"","stop_name":"Twin Oaks Dr. & Seagoville Rd.","stop_desc":"","zone_id":"","stop_url":"","location_type":"0","parent_station":"","stop_timezone":"America/Chicago","position":"","direction":"","wheelchair_boarding":"1","tts_stop_name":"","feed_id":"Texas__STAR_Transit__mdb_mdb-153","agency_name":"STAR Transit","route_count":0,"route_ids":"","route_short_names":"","route_types":"","route_type_names":"","routes_json":"[]"},"geometry":{"type":"Point","coordinates":[-96.605395,32.70436]}},{"type":"Feature","properties":{"stop_id":"2382398","stop_code":"","platform_code":"","stop_name":"Spring Oaks Shopping Ctr","stop_desc":"","zone_id":"","stop_url":"","location_type":"0","parent_station":"","stop_timezone":"America/Chicago","position":"","direction":"","wheelchair_boarding":"0","tts_stop_name":"","feed_id":"Texas__STAR_Transit__mdb_mdb-153","agency_name":"STAR Transit","route_count":0,"route_ids":"","route_short_names":"","route_types":"","route_type_names":"","routes_json":"[]"},"geometry":{"type":"Point","coordinates":[-96.605354,32.712603]}},{"type":"Feature","properties":{"stop_id":"2382400","stop_code":"","platform_code":"","stop_name":"Seagoville Rd. @ Shepherd Ln.","stop_desc":"","zone_id":"","stop_url":"","location_type":"0","parent_station":"","stop_timezone":"America/Chicago","position":"","direction":"","wheelchair_boarding":"1","tts_stop_name":"","feed_id":"Texas__STAR_Transit__mdb_mdb-153","agency_name":"STAR Transit","route_count":0,"route_ids":"","route_short_names":"","route_types":"","route_type_names":"","routes_json":"[]"},"geometry":{"type":"Point","coordinates":[-96.615143,32.704915]}},{"type":"Feature","properties":{"stop_id":"2382401","stop_code":"","platform_code":"","stop_name":"Seagoville Rd. & Ambassador Way","stop_desc":"","zone_id":"","stop_url":"","location_type":"0","parent_station":"","stop_timezone":"America/Chicago","position":"","direction":"","wheelchair_boarding":"1","tts_stop_name":"","feed_id":"Texas__STAR_Transit__mdb_mdb-153","agency_name":"STAR Transit","route_count":0,"route_ids":"","route_short_names":"","route_types":"","route_type_names":"","routes_json":"[]"},"geometry":{"type":"Point","coordinates":[-96.622227,32.704882]}},{"type":"Feature","properties":{"stop_id":"2382403","stop_code":"","platform_code":"","stop_name":"Peachtree Rd. & Long St.","stop_desc":"","zone_id":"","stop_url":"","location_type":"0","parent_station":"","stop_timezone":"America/Chicago","position":"","direction":"","wheelchair_boarding":"1","tts_stop_name":"","feed_id":"Texas__STAR_Transit__mdb_mdb-153","agency_name":"STAR Transit","route_count":0,"route_ids":"","route_short_names":"","route_types":"","route_type_names":"","routes_json":"[]"},"geometry":{"type":"Point","coordinates":[-96.63119,32.711783]}},{"type":"Feature","properties":{"stop_id":"2382404","stop_code":"","platform_code":"","stop_name":"Peachtree Park Shopping Center","stop_desc":"","zone_id":"","stop_url":"","location_type":"0","parent_station":"","stop_timezone":"America/Chicago","position":"","direction":"","wheelchair_boarding":"1","tts_stop_name":"","feed_id":"Texas__STAR_Transit__mdb_mdb-153","agency_name":"STAR Transit","route_count":0,"route_ids":"","route_short_names":"","route_types":"","route_type_names":"","routes_json":"[]"},"geometry":{"type":"Point","coordinates":[-96.631166,32.720048]}},{"type":"Feature","properties":{"stop_id":"2382405","stop_code":"","platform_code":"","stop_name":"Peachtree Rd. & Erich Dr.","stop_desc":"","zone_id":"","stop_url":"","location_type":"0","parent_station":"","stop_timezone":"America/Chicago","position":"","direction":"","wheelchair_boarding":"1","tts_stop_name":"","feed_id":"Texas__STAR_Transit__mdb_mdb-153","agency_name":"STAR Transit","route_count":0,"route_ids":"","route_short_names":"","route_types":"","route_type_names":"","routes_json":"[]"},"geometry":{"type":"Point","coordinates":[-96.631149,32.726312]}},{"type":"Feature","properties":{"stop_id":"2382406","stop_code":"","platform_code":"","stop_name":"Bells Better Burgers","stop_desc":"","zone_id":"","stop_url":"","location_type":"0","parent_station":"","stop_timezone":"America/Chicago","position":"","direction":"","wheelchair_boarding":"1","tts_stop_name":"","feed_id":"Texas__STAR_Transit__mdb_mdb-153","agency_name":"STAR Transit","route_count":0,"route_ids":"","route_short_names":"","route_types":"","route_type_names":"","routes_json":"[]"},"geometry":{"type":"Point","coordinates":[-96.631171,32.733617]}},{"type":"Feature","properties":{"stop_id":"2382407","stop_code":"","platform_code":"","stop_name":"Beverage Corner","stop_desc":"","zone_id":"","stop_url":"","location_type":"0","parent_station":"","stop_timezone":"America/Chicago","position":"","direction":"","wheelchair_boarding":"1","tts_stop_name":"","feed_id":"Texas__STAR_Transit__mdb_mdb-153","agency_name":"STAR Transit","route_count":0,"route_ids":"","route_short_names":"","route_types":"","route_type_names":"","routes_json":"[]"},"geometry":{"type":"Point","coordinates":[-96.623043,32.733922]}},{"type":"Feature","properties":{"stop_id":"2382408","stop_code":"","platform_code":"","stop_name":"Lake June Rd. & Balch Springs Dr.","stop_desc":"","zone_id":"","stop_url":"","location_type":"0","parent_station":"","stop_timezone":"America/Chicago","position":"","direction":"","wheelchair_boarding":"1","tts_stop_name":"","feed_id":"Texas__STAR_Transit__mdb_mdb-153","agency_name":"STAR Transit","route_count":0,"route_ids":"","route_short_names":"","route_types":"","route_type_names":"","routes_json":"[]"},"geometry":{"type":"Point","coordinates":[-96.610707,32.735278]}},{"type":"Feature","properties":{"stop_id":"2382409","stop_code":"","platform_code":"","stop_name":"5 Points Grocery","stop_desc":"","zone_id":"","stop_url":"","location_type":"0","parent_station":"","stop_timezone":"America/Chicago","position":"","direction":"","wheelchair_boarding":"1","tts_stop_name":"","feed_id":"Texas__STAR_Transit__mdb_mdb-153","agency_name":"STAR Transit","route_count":0,"route_ids":"","route_short_names":"","route_types":"","route_type_names":"","routes_json":"[]"},"geometry":{"type":"Point","coordinates":[-96.601904,32.726202]}},{"type":"Feature","properties":{"stop_id":"2382410","stop_code":"","platform_code":"","stop_name":"S. Beltline Rd. & Spring Oak Dr.","stop_desc":"","zone_id":"","stop_url":"","location_type":"0","parent_station":"","stop_timezone":"America/Chicago","position":"","direction":"","wheelchair_boarding":"1","tts_stop_name":"","feed_id":"Texas__STAR_Transit__mdb_mdb-153","agency_name":"STAR Transit","route_count":0,"route_ids":"","route_short_names":"","route_types":"","route_type_names":"","routes_json":"[]"},"geometry":{"type":"Point","coordinates":[-96.591857,32.717503]}},{"type":"Feature","properties":{"stop_id":"2382411","stop_code":"","platform_code":"","stop_name":"S. Beltline Rd. & Lasater Rd.","stop_desc":"","zone_id":"","stop_url":"","location_type":"0","parent_station":"","stop_timezone":"America/Chicago","position":"","direction":"","wheelchair_boarding":"1","tts_stop_name":"","feed_id":"Texas__STAR_Transit__mdb_mdb-153","agency_name":"STAR Transit","route_count":0,"route_ids":"","route_short_names":"","route_types":"","route_type_names":"","routes_json":"[]"},"geometry":{"type":"Point","coordinates":[-96.58546,32.712098]}},{"type":"Feature","properties":{"stop_id":"2387291","stop_code":"","platform_code":"","stop_name":"Pioneer Rd @ Elam Rd","stop_desc":"","zone_id":"","stop_url":"","location_type":"0","parent_station":"","stop_timezone":"America/Chicago","position":"","direction":"","wheelchair_boarding":"1","tts_stop_name":"","feed_id":"Texas__STAR_Transit__mdb_mdb-153","agency_name":"STAR Transit","route_count":0,"route_ids":"","route_short_names":"","route_types":"","route_type_names":"","routes_json":"[]"},"geometry":{"type":"Point","coordinates":[-96.606451,32.719407]}},{"type":"Feature","properties":{"stop_id":"2387292","stop_code":"","platform_code":"","stop_name":"Elam Rd @ Loyd Dr","stop_desc":"","zone_id":"","stop_url":"","location_type":"0","parent_station":"","stop_timezone":"America/Chicago","position":"","direction":"","wheelchair_boarding":"2","tts_stop_name":"","feed_id":"Texas__STAR_Transit__mdb_mdb-153","agency_name":"STAR Transit","route_count":0,"route_ids":"","route_short_names":"","route_types":"","route_type_names":"","routes_json":"[]"},"geometry":{"type":"Point","coordinates":[-96.611208,32.71944]}},{"type":"Feature","properties":{"stop_id":"2428301","stop_code":"","platform_code":"","stop_name":"Terrell Depot","stop_desc":"","zone_id":"","stop_url":"http://www.startransit.org/fixed-routes/terrell-fixed-routes/","location_type":"0","parent_station":"","stop_timezone":"America/Chicago","position":"","direction":"","wheelchair_boarding":"1","tts_stop_name":"","feed_id":"Texas__STAR_Transit__mdb_mdb-153","agency_name":"STAR Transit","route_count":0,"route_ids":"","route_short_names":"","route_types":"","route_type_names":"","routes_json":"[]"},"geometry":{"type":"Point","coordinates":[-96.275991,32.735244]}},{"type":"Feature","properties":{"stop_id":"2428302","stop_code":"","platform_code":"","stop_name":"Pleasant Hill Baptist Church","stop_desc":"","zone_id":"","stop_url":"http://www.startransit.org/fixed-routes/terrell-fixed-routes/","location_type":"0","parent_station":"","stop_timezone":"America/Chicago","position":"","direction":"","wheelchair_boarding":"1","tts_stop_name":"","feed_id":"Texas__STAR_Transit__mdb_mdb-153","agency_name":"STAR Transit","route_count":0,"route_ids":"","route_short_names":"","route_types":"","route_type_names":"","routes_json":"[]"},"geometry":{"type":"Point","coordinates":[-96.268478,32.729943]}},{"type":"Feature","properties":{"stop_id":"2428303","stop_code":"","platform_code":"","stop_name":"Dellis St. @ High St.","stop_desc":"","zone_id":"","stop_url":"http://www.startransit.org/fixed-routes/terrell-fixed-routes/","location_type":"0","parent_station":"","stop_timezone":"America/Chicago","position":"","direction":"","wheelchair_boarding":"1","tts_stop_name":"","feed_id":"Texas__STAR_Transit__mdb_mdb-153","agency_name":"STAR Transit","route_count":0,"route_ids":"","route_short_names":"","route_types":"","route_type_names":"","routes_json":"[]"},"geometry":{"type":"Point","coordinates":[-96.266628,32.737111]}},{"type":"Feature","properties":{"stop_id":"2428304","stop_code":"","platform_code":"","stop_name":"Baylor Health Center","stop_desc":"","zone_id":"","stop_url":"http://www.startransit.org/fixed-routes/terrell-fixed-routes/","location_type":"0","parent_station":"","stop_timezone":"America/Chicago","position":"","direction":"","wheelchair_boarding":"1","tts_stop_name":"","feed_id":"Texas__STAR_Transit__mdb_mdb-153","agency_name":"STAR Transit","route_count":0,"route_ids":"","route_short_names":"","route_types":"","route_type_names":"","routes_json":"[]"},"geometry":{"type":"Point","coordinates":[-96.274408,32.737146]}},{"type":"Feature","properties":{"stop_id":"2428305","stop_code":"","platform_code":"","stop_name":"Terrell Senior Citizen Center","stop_desc":"","zone_id":"","stop_url":"http://www.startransit.org/fixed-routes/terrell-fixed-routes/","location_type":"0","parent_station":"","stop_timezone":"America/Chicago","position":"","direction":"","wheelchair_boarding":"1","tts_stop_name":"","feed_id":"Texas__STAR_Transit__mdb_mdb-153","agency_name":"STAR Transit","route_count":0,"route_ids":"","route_short_names":"","route_types":"","route_type_names":"","routes_json":"[]"},"geometry":{"type":"Point","coordinates":[-96.27614,32.737157]}},{"type":"Feature","properties":{"stop_id":"2428306","stop_code":"","platform_code":"","stop_name":"Riter Hulsey Public Library","stop_desc":"","zone_id":"","stop_url":"http://www.startransit.org/fixed-routes/terrell-fixed-routes/","location_type":"0","parent_station":"","stop_timezone":"America/Chicago","position":"","direction":"","wheelchair_boarding":"1","tts_stop_name":"","feed_id":"Texas__STAR_Transit__mdb_mdb-153","agency_name":"STAR Transit","route_count":0,"route_ids":"","route_short_names":"","route_types":"","route_type_names":"","routes_json":"[]"},"geometry":{"type":"Point","coordinates":[-96.280896,32.738875]}},{"type":"Feature","properties":{"stop_id":"2428307","stop_code":"","platform_code":"","stop_name":"Town West Plaza","stop_desc":"","zone_id":"","stop_url":"http://www.startransit.org/fixed-routes/terrell-fixed-routes/","location_type":"0","parent_station":"","stop_timezone":"America/Chicago","position":"","direction":"","wheelchair_boarding":"1","tts_stop_name":"","feed_id":"Texas__STAR_Transit__mdb_mdb-153","agency_name":"STAR Transit","route_count":0,"route_ids":"","route_short_names":"","route_types":"","route_type_names":"","routes_json":"[]"},"geometry":{"type":"Point","coordinates":[-96.299634,32.73792]}},{"type":"Feature","properties":{"stop_id":"2428308","stop_code":"","platform_code":"","stop_name":"Wal-Mart (Terrell)","stop_desc":"","zone_id":"","stop_url":"http://www.startransit.org/fixed-routes/terrell-fixed-routes/","location_type":"0","parent_station":"","stop_timezone":"America/Chicago","position":"","direction":"","wheelchair_boarding":"1","tts_stop_name":"","feed_id":"Texas__STAR_Transit__mdb_mdb-153","agency_name":"STAR Transit","route_count":0,"route_ids":"","route_short_names":"","route_types":"","route_type_names":"","routes_json":"[]"},"geometry":{"type":"Point","coordinates":[-96.305981,32.739043]}},{"type":"Feature","properties":{"stop_id":"2428309","stop_code":"","platform_code":"","stop_name":"Southwestern Christian College","stop_desc":"","zone_id":"","stop_url":"http://www.startransit.org/fixed-routes/terrell-fixed-routes/","location_type":"0","parent_station":"","stop_timezone":"America/Chicago","position":"","direction":"","wheelchair_boarding":"1","tts_stop_name":"","feed_id":"Texas__STAR_Transit__mdb_mdb-153","agency_name":"STAR Transit","route_count":0,"route_ids":"","route_short_names":"","route_types":"","route_type_names":"","routes_json":"[]"},"geometry":{"type":"Point","coordinates":[-96.284786,32.735978]}},{"type":"Feature","properties":{"stop_id":"2428342","stop_code":"","platform_code":"","stop_name":"Dollar General (Terrell)","stop_desc":"","zone_id":"","stop_url":"http://www.startransit.org/fixed-routes/terrell-fixed-routes/","location_type":"0","parent_station":"","stop_timezone":"America/Chicago","position":"","direction":"","wheelchair_boarding":"1","tts_stop_name":"","feed_id":"Texas__STAR_Transit__mdb_mdb-153","agency_name":"STAR Transit","route_count":0,"route_ids":"","route_short_names":"","route_types":"","route_type_names":"","routes_json":"[]"},"geometry":{"type":"Point","coordinates":[-96.27614,32.73151]}},{"type":"Feature","properties":{"stop_id":"2428343","stop_code":"","platform_code":"","stop_name":"Terrell Post Office","stop_desc":"","zone_id":"","stop_url":"http://www.startransit.org/fixed-routes/terrell-fixed-routes/","location_type":"0","parent_station":"","stop_timezone":"America/Chicago","position":"","direction":"","wheelchair_boarding":"1","tts_stop_name":"","feed_id":"Texas__STAR_Transit__mdb_mdb-153","agency_name":"STAR Transit","route_count":0,"route_ids":"","route_short_names":"","route_types":"","route_type_names":"","routes_json":"[]"},"geometry":{"type":"Point","coordinates":[-96.27967,32.71946]}},{"type":"Feature","properties":{"stop_id":"2428354","stop_code":"","platform_code":"","stop_name":"S. Rockwall Ave. & Hamilton Dr.","stop_desc":"","zone_id":"","stop_url":"http://www.startransit.org/fixed-routes/terrell-fixed-routes/weekday-schedulemap/","location_type":"0","parent_station":"","stop_timezone":"America/Chicago","position":"","direction":"","wheelchair_boarding":"1","tts_stop_name":"","feed_id":"Texas__STAR_Transit__mdb_mdb-153","agency_name":"STAR Transit","route_count":0,"route_ids":"","route_short_names":"","route_types":"","route_type_names":"","routes_json":"[]"},"geometry":{"type":"Point","coordinates":[-96.28591,32.71666]}},{"type":"Feature","properties":{"stop_id":"2428355","stop_code":"","platform_code":"","stop_name":"Terrell Senior Terraces 1","stop_desc":"","zone_id":"","stop_url":"http://www.startransit.org/fixed-routes/terrell-fixed-routes/weekday-schedulemap/","location_type":"0","parent_station":"","stop_timezone":"America/Chicago","position":"","direction":"","wheelchair_boarding":"1","tts_stop_name":"","feed_id":"Texas__STAR_Transit__mdb_mdb-153","agency_name":"STAR Transit","route_count":0,"route_ids":"","route_short_names":"","route_types":"","route_type_names":"","routes_json":"[]"},"geometry":{"type":"Point","coordinates":[-96.285982,32.712601]}},{"type":"Feature","properties":{"stop_id":"2428356","stop_code":"","platform_code":"","stop_name":"Hwy 34 @ Mira Pl.","stop_desc":"","zone_id":"","stop_url":"http://www.startransit.org/fixed-routes/terrell-fixed-routes/weekday-schedulemap/","location_type":"0","parent_station":"","stop_timezone":"America/Chicago","position":"","direction":"","wheelchair_boarding":"1","tts_stop_name":"","feed_id":"Texas__STAR_Transit__mdb_mdb-153","agency_name":"STAR Transit","route_count":0,"route_ids":"","route_short_names":"","route_types":"","route_type_names":"","routes_json":"[]"},"geometry":{"type":"Point","coordinates":[-96.27686,32.70454]}},{"type":"Feature","properties":{"stop_id":"2428358","stop_code":"","platform_code":"","stop_name":"Soulman's Bar-B-Que","stop_desc":"","zone_id":"","stop_url":"http://www.startransit.org/fixed-routes/terrell-fixed-routes/weekday-schedulemap/","location_type":"0","parent_station":"","stop_timezone":"America/Chicago","position":"","direction":"","wheelchair_boarding":"1","tts_stop_name":"","feed_id":"Texas__STAR_Transit__mdb_mdb-153","agency_name":"STAR Transit","route_count":0,"route_ids":"","route_short_names":"","route_types":"","route_type_names":"","routes_json":"[]"},"geometry":{"type":"Point","coordinates":[-96.316069,32.723698]}},{"type":"Feature","properties":{"stop_id":"2428359","stop_code":"","platform_code":"","stop_name":"Terrell Crossing","stop_desc":"","zone_id":"","stop_url":"http://www.startransit.org/fixed-routes/terrell-fixed-routes/weekday-schedulemap/","location_type":"0","parent_station":"","stop_timezone":"America/Chicago","position":"","direction":"","wheelchair_boarding":"1","tts_stop_name":"","feed_id":"Texas__STAR_Transit__mdb_mdb-153","agency_name":"STAR Transit","route_count":0,"route_ids":"","route_short_names":"","route_types":"","route_type_names":"","routes_json":"[]"},"geometry":{"type":"Point","coordinates":[-96.312555,32.737547]}},{"type":"Feature","properties":{"stop_id":"2428360","stop_code":"","platform_code":"","stop_name":"Metro Dr. & Apache Tr.","stop_desc":"","zone_id":"","stop_url":"http://www.startransit.org/fixed-routes/terrell-fixed-routes/weekday-schedulemap/","location_type":"0","parent_station":"","stop_timezone":"America/Chicago","position":"","direction":"","wheelchair_boarding":"1","tts_stop_name":"","feed_id":"Texas__STAR_Transit__mdb_mdb-153","agency_name":"STAR Transit","route_count":0,"route_ids":"","route_short_names":"","route_types":"","route_type_names":"","routes_json":"[]"},"geometry":{"type":"Point","coordinates":[-96.323634549364,32.72831688601]}},{"type":"Feature","properties":{"stop_id":"2428361","stop_code":"","platform_code":"","stop_name":"TigerMart","stop_desc":"","zone_id":"","stop_url":"http://www.startransit.org/fixed-routes/terrell-fixed-routes/weekday-schedulemap/","location_type":"0","parent_station":"","stop_timezone":"America/Chicago","position":"","direction":"","wheelchair_boarding":"1","tts_stop_name":"","feed_id":"Texas__STAR_Transit__mdb_mdb-153","agency_name":"STAR Transit","route_count":0,"route_ids":"","route_short_names":"","route_types":"","route_type_names":"","routes_json":"[]"},"geometry":{"type":"Point","coordinates":[-96.317666234763,32.723466509647]}},{"type":"Feature","properties":{"stop_id":"2428362","stop_code":"","platform_code":"","stop_name":"Crossroads of Terrell","stop_desc":"","zone_id":"","stop_url":"http://www.startransit.org/fixed-routes/terrell-fixed-routes/weekday-schedulemap/","location_type":"0","parent_station":"","stop_timezone":"America/Chicago","position":"","direction":"","wheelchair_boarding":"1","tts_stop_name":"","feed_id":"Texas__STAR_Transit__mdb_mdb-153","agency_name":"STAR Transit","route_count":0,"route_ids":"","route_short_names":"","route_types":"","route_type_names":"","routes_json":"[]"},"geometry":{"type":"Point","coordinates":[-96.32503,32.71774]}},{"type":"Feature","properties":{"stop_id":"2428363","stop_code":"","platform_code":"","stop_name":"Tanger Outlet Mall","stop_desc":"","zone_id":"","stop_url":"http://www.startransit.org/fixed-routes/terrell-fixed-routes/weekday-schedulemap/","location_type":"0","parent_station":"","stop_timezone":"America/Chicago","position":"","direction":"","wheelchair_boarding":"1","tts_stop_name":"","feed_id":"Texas__STAR_Transit__mdb_mdb-153","agency_name":"STAR Transit","route_count":0,"route_ids":"","route_short_names":"","route_types":"","route_type_names":"","routes_json":"[]"},"geometry":{"type":"Point","coordinates":[-96.284883098667,32.703144488535]}},{"type":"Feature","properties":{"stop_id":"2428364","stop_code":"","platform_code":"","stop_name":"Brownstone Apartments","stop_desc":"","zone_id":"","stop_url":"http://www.startransit.org/fixed-routes/terrell-fixed-routes/weekday-schedulemap/","location_type":"0","parent_station":"","stop_timezone":"America/Chicago","position":"","direction":"","wheelchair_boarding":"1","tts_stop_name":"","feed_id":"Texas__STAR_Transit__mdb_mdb-153","agency_name":"STAR Transit","route_count":0,"route_ids":"","route_short_names":"","route_types":"","route_type_names":"","routes_json":"[]"},"geometry":{"type":"Point","coordinates":[-96.27868,32.72163]}},{"type":"Feature","properties":{"stop_id":"2428365","stop_code":"","platform_code":"","stop_name":"Trinity Valley Community College - Terrell Campus","stop_desc":"","zone_id":"","stop_url":"http://www.startransit.org/fixed-routes/terrell-fixed-routes/weekday-schedulemap/","location_type":"0","parent_station":"","stop_timezone":"America/Chicago","position":"","direction":"","wheelchair_boarding":"1","tts_stop_name":"","feed_id":"Texas__STAR_Transit__mdb_mdb-153","agency_name":"STAR Transit","route_count":0,"route_ids":"","route_short_names":"","route_types":"","route_type_names":"","routes_json":"[]"},"geometry":{"type":"Point","coordinates":[-96.249843,32.691714]}},{"type":"Feature","properties":{"stop_id":"2428366","stop_code":"","platform_code":"","stop_name":"Autozone/Maines","stop_desc":"","zone_id":"","stop_url":"http://www.startransit.org/fixed-routes/terrell-fixed-routes/weekday-schedulemap/","location_type":"0","parent_station":"","stop_timezone":"America/Chicago","position":"","direction":"","wheelchair_boarding":"1","tts_stop_name":"","feed_id":"Texas__STAR_Transit__mdb_mdb-153","agency_name":"STAR Transit","route_count":0,"route_ids":"","route_short_names":"","route_types":"","route_type_names":"","routes_json":"[]"},"geometry":{"type":"Point","coordinates":[-96.252898,32.705562]}},{"type":"Feature","properties":{"stop_id":"2428367","stop_code":"","platform_code":"","stop_name":"Airport Rd. and Skyline Dr.","stop_desc":"","zone_id":"","stop_url":"http://www.startransit.org/fixed-routes/terrell-fixed-routes/weekday-schedulemap/","location_type":"0","parent_station":"","stop_timezone":"America/Chicago","position":"","direction":"","wheelchair_boarding":"1","tts_stop_name":"","feed_id":"Texas__STAR_Transit__mdb_mdb-153","agency_name":"STAR Transit","route_count":0,"route_ids":"","route_short_names":"","route_types":"","route_type_names":"","routes_json":"[]"},"geometry":{"type":"Point","coordinates":[-96.262279981654,32.713482725183]}},{"type":"Feature","properties":{"stop_id":"2428368","stop_code":"","platform_code":"","stop_name":"Old Castle BuildingEnvelope","stop_desc":"","zone_id":"","stop_url":"http://www.startransit.org/fixed-routes/terrell-fixed-routes/weekday-schedulemap/","location_type":"0","parent_station":"","stop_timezone":"America/Chicago","position":"","direction":"","wheelchair_boarding":"1","tts_stop_name":"","feed_id":"Texas__STAR_Transit__mdb_mdb-153","agency_name":"STAR Transit","route_count":0,"route_ids":"","route_short_names":"","route_types":"","route_type_names":"","routes_json":"[]"},"geometry":{"type":"Point","coordinates":[-96.271541,32.721509]}},{"type":"Feature","properties":{"stop_id":"2428369","stop_code":"","platform_code":"","stop_name":"Lakes Regional MHMR","stop_desc":"","zone_id":"","stop_url":"http://www.startransit.org/fixed-routes/terrell-fixed-routes/weekday-schedulemap/","location_type":"0","parent_station":"","stop_timezone":"America/Chicago","position":"","direction":"","wheelchair_boarding":"1","tts_stop_name":"","feed_id":"Texas__STAR_Transit__mdb_mdb-153","agency_name":"STAR Transit","route_count":0,"route_ids":"","route_short_names":"","route_types":"","route_type_names":"","routes_json":"[]"},"geometry":{"type":"Point","coordinates":[-96.276058709073,32.72502943177]}},{"type":"Feature","properties":{"stop_id":"2430336","stop_code":"","platform_code":"","stop_name":"FedEx Home Delivery","stop_desc":"","zone_id":"","stop_url":"http://www.startransit.org/hutchins-shuttle/","location_type":"0","parent_station":"","stop_timezone":"America/Chicago","position":"","direction":"","wheelchair_boarding":"1","tts_stop_name":"","feed_id":"Texas__STAR_Transit__mdb_mdb-153","agency_name":"STAR Transit","route_count":0,"route_ids":"","route_short_names":"","route_types":"","route_type_names":"","routes_json":"[]"},"geometry":{"type":"Point","coordinates":[-96.706983,32.656702]}},{"type":"Feature","properties":{"stop_id":"2430337","stop_code":"","platform_code":"","stop_name":"Hutchins Senior Center","stop_desc":"","zone_id":"","stop_url":"http://www.startransit.org/hutchins-shuttle/","location_type":"0","parent_station":"","stop_timezone":"America/Chicago","position":"","direction":"","wheelchair_boarding":"1","tts_stop_name":"","feed_id":"Texas__STAR_Transit__mdb_mdb-153","agency_name":"STAR Transit","route_count":0,"route_ids":"","route_short_names":"","route_types":"","route_type_names":"","routes_json":"[]"},"geometry":{"type":"Point","coordinates":[-96.716901,32.647976]}},{"type":"Feature","properties":{"stop_id":"2430338","stop_code":"","platform_code":"","stop_name":"York Dr. @ Methodist Charlton Medical Ctr.","stop_desc":"","zone_id":"","stop_url":"http://www.startransit.org","location_type":"0","parent_station":"","stop_timezone":"America/Chicago","position":"","direction":"","wheelchair_boarding":"1","tts_stop_name":"","feed_id":"Texas__STAR_Transit__mdb_mdb-153","agency_name":"STAR Transit","route_count":0,"route_ids":"","route_short_names":"","route_types":"","route_type_names":"","routes_json":"[]"},"geometry":{"type":"Point","coordinates":[-96.878600342998,32.645489117607]}},{"type":"Feature","properties":{"stop_id":"2430339","stop_code":"","platform_code":"","stop_name":"Wal-Mart (Cedar Hill)","stop_desc":"","zone_id":"","stop_url":"http://www.startransit.org/hutchins-shuttle/","location_type":"0","parent_station":"","stop_timezone":"America/Chicago","position":"","direction":"","wheelchair_boarding":"0","tts_stop_name":"","feed_id":"Texas__STAR_Transit__mdb_mdb-153","agency_name":"STAR Transit","route_count":0,"route_ids":"","route_short_names":"","route_types":"","route_type_names":"","routes_json":"[]"},"geometry":{"type":"Point","coordinates":[-96.946236,32.599422]}},{"type":"Feature","properties":{"stop_id":"2430342","stop_code":"","platform_code":"","stop_name":"Wal-Mart (DeSoto)","stop_desc":"","zone_id":"","stop_url":"http://www.startransit.org/hutchins-shuttle/","location_type":"0","parent_station":"","stop_timezone":"America/Chicago","position":"","direction":"","wheelchair_boarding":"1","tts_stop_name":"","feed_id":"Texas__STAR_Transit__mdb_mdb-153","agency_name":"STAR Transit","route_count":0,"route_ids":"","route_short_names":"","route_types":"","route_type_names":"","routes_json":"[]"},"geometry":{"type":"Point","coordinates":[-96.880197,32.590841]}},{"type":"Feature","properties":{"stop_id":"2430343","stop_code":"","platform_code":"","stop_name":"Wal-Mart (Lancaster)","stop_desc":"","zone_id":"","stop_url":"http://www.startransit.org/hutchins-shuttle/","location_type":"0","parent_station":"","stop_timezone":"America/Chicago","position":"","direction":"","wheelchair_boarding":"2","tts_stop_name":"","feed_id":"Texas__STAR_Transit__mdb_mdb-153","agency_name":"STAR Transit","route_count":0,"route_ids":"","route_short_names":"","route_types":"","route_type_names":"","routes_json":"[]"},"geometry":{"type":"Point","coordinates":[-96.821108,32.591137]}},{"type":"Feature","properties":{"stop_id":"2430344","stop_code":"","platform_code":"","stop_name":"DART UNT Dallas Station","stop_desc":"","zone_id":"","stop_url":"http://www.startransit.org/hutchins-shuttle/","location_type":"0","parent_station":"","stop_timezone":"America/Chicago","position":"","direction":"","wheelchair_boarding":"1","tts_stop_name":"","feed_id":"Texas__STAR_Transit__mdb_mdb-153","agency_name":"STAR Transit","route_count":0,"route_ids":"","route_short_names":"","route_types":"","route_type_names":"","routes_json":"[]"},"geometry":{"type":"Point","coordinates":[-96.802337,32.653643]}},{"type":"Feature","properties":{"stop_id":"2430345","stop_code":"","platform_code":"","stop_name":"Dollar General (Lancaster)","stop_desc":"","zone_id":"","stop_url":"http://www.startransit.org/hutchins-shuttle/","location_type":"0","parent_station":"","stop_timezone":"America/Chicago","position":"","direction":"","wheelchair_boarding":"1","tts_stop_name":"","feed_id":"Texas__STAR_Transit__mdb_mdb-153","agency_name":"STAR Transit","route_count":0,"route_ids":"","route_short_names":"","route_types":"","route_type_names":"","routes_json":"[]"},"geometry":{"type":"Point","coordinates":[-96.807161,32.618708]}},{"type":"Feature","properties":{"stop_id":"2430346","stop_code":"","platform_code":"","stop_name":"Cracker Barrel (DeSoto)","stop_desc":"","zone_id":"","stop_url":"http://www.startransit.org/hutchins-shuttle/","location_type":"0","parent_station":"","stop_timezone":"America/Chicago","position":"","direction":"","wheelchair_boarding":"1","tts_stop_name":"","feed_id":"Texas__STAR_Transit__mdb_mdb-153","agency_name":"STAR Transit","route_count":0,"route_ids":"","route_short_names":"","route_types":"","route_type_names":"","routes_json":"[]"},"geometry":{"type":"Point","coordinates":[-96.824069,32.617459]}},{"type":"Feature","properties":{"stop_id":"2430347","stop_code":"","platform_code":"","stop_name":"The Crossing Shopping Center","stop_desc":"","zone_id":"","stop_url":"http://www.startransit.org","location_type":"0","parent_station":"","stop_timezone":"America/Chicago","position":"","direction":"","wheelchair_boarding":"1","tts_stop_name":"","feed_id":"Texas__STAR_Transit__mdb_mdb-153","agency_name":"STAR Transit","route_count":0,"route_ids":"","route_short_names":"","route_types":"","route_type_names":"","routes_json":"[]"},"geometry":{"type":"Point","coordinates":[-96.823960516931,32.606732332527]}},{"type":"Feature","properties":{"stop_id":"2430348","stop_code":"","platform_code":"","stop_name":"Crescent Medical Center","stop_desc":"","zone_id":"","stop_url":"http://www.startransit.org/hutchins-shuttle/","location_type":"0","parent_station":"","stop_timezone":"America/Chicago","position":"","direction":"","wheelchair_boarding":"1","tts_stop_name":"","feed_id":"Texas__STAR_Transit__mdb_mdb-153","agency_name":"STAR Transit","route_count":0,"route_ids":"","route_short_names":"","route_types":"","route_type_names":"","routes_json":"[]"},"geometry":{"type":"Point","coordinates":[-96.812548,32.604067]}},{"type":"Feature","properties":{"stop_id":"2430349","stop_code":"","platform_code":"","stop_name":"Fiesta Mart (Lancaster)","stop_desc":"","zone_id":"","stop_url":"http://www.startransit.org/hutchins-shuttle/","location_type":"0","parent_station":"","stop_timezone":"America/Chicago","position":"","direction":"","wheelchair_boarding":"1","tts_stop_name":"","feed_id":"Texas__STAR_Transit__mdb_mdb-153","agency_name":"STAR Transit","route_count":0,"route_ids":"","route_short_names":"","route_types":"","route_type_names":"","routes_json":"[]"},"geometry":{"type":"Point","coordinates":[-96.787217,32.604107]}},{"type":"Feature","properties":{"stop_id":"2430350","stop_code":"","platform_code":"","stop_name":"Cedar Valley College","stop_desc":"Near building G.","zone_id":"","stop_url":"http://www.startransit.org/hutchins-shuttle/","location_type":"0","parent_station":"","stop_timezone":"America/Chicago","position":"","direction":"","wheelchair_boarding":"1","tts_stop_name":"","feed_id":"Texas__STAR_Transit__mdb_mdb-153","agency_name":"STAR Transit","route_count":0,"route_ids":"","route_short_names":"","route_types":"","route_type_names":"","routes_json":"[]"},"geometry":{"type":"Point","coordinates":[-96.765934,32.625611]}},{"type":"Feature","properties":{"stop_id":"2441010","stop_code":"","platform_code":"","stop_name":"Amazon Fulfillment Center","stop_desc":"","zone_id":"","stop_url":"http://www.startransit.org/hutchins-shuttle/","location_type":"0","parent_station":"","stop_timezone":"America/Chicago","position":"","direction":"","wheelchair_boarding":"0","tts_stop_name":"","feed_id":"Texas__STAR_Transit__mdb_mdb-153","agency_name":"STAR Transit","route_count":0,"route_ids":"","route_short_names":"","route_types":"","route_type_names":"","routes_json":"[]"},"geometry":{"type":"Point","coordinates":[-96.734333979167,32.661933370955]}},{"type":"Feature","properties":{"stop_id":"2441012","stop_code":"","platform_code":"","stop_name":"Hutchins Gateway Apartments - North","stop_desc":"","zone_id":"","stop_url":"http://www.startransit.org/hutchins-shuttle/","location_type":"0","parent_station":"","stop_timezone":"America/Chicago","position":"","direction":"","wheelchair_boarding":"1","tts_stop_name":"","feed_id":"Texas__STAR_Transit__mdb_mdb-153","agency_name":"STAR Transit","route_count":0,"route_ids":"","route_short_names":"","route_types":"","route_type_names":"","routes_json":"[]"},"geometry":{"type":"Point","coordinates":[-96.723656,32.650402]}},{"type":"Feature","properties":{"stop_id":"2452903","stop_code":"","platform_code":"","stop_name":"Riverbend Apts","stop_desc":"","zone_id":"","stop_url":"","location_type":"0","parent_station":"","stop_timezone":"America/Chicago","position":"","direction":"","wheelchair_boarding":"1","tts_stop_name":"","feed_id":"Texas__STAR_Transit__mdb_mdb-153","agency_name":"STAR Transit","route_count":0,"route_ids":"","route_short_names":"","route_types":"","route_type_names":"","routes_json":"[]"},"geometry":{"type":"Point","coordinates":[-96.85396,32.616525]}},{"type":"Feature","properties":{"stop_id":"2452904","stop_code":"","platform_code":"","stop_name":"The Corner Apts.","stop_desc":"","zone_id":"","stop_url":"http://www.startransit.org/","location_type":"0","parent_station":"","stop_timezone":"America/Chicago","position":"","direction":"","wheelchair_boarding":"1","tts_stop_name":"","feed_id":"Texas__STAR_Transit__mdb_mdb-153","agency_name":"STAR Transit","route_count":0,"route_ids":"","route_short_names":"","route_types":"","route_type_names":"","routes_json":"[]"},"geometry":{"type":"Point","coordinates":[-96.852695,32.618445]}},{"type":"Feature","properties":{"stop_id":"2452905","stop_code":"","platform_code":"","stop_name":"Windsong Place Apts","stop_desc":"","zone_id":"","stop_url":"","location_type":"0","parent_station":"","stop_timezone":"America/Chicago","position":"","direction":"","wheelchair_boarding":"1","tts_stop_name":"","feed_id":"Texas__STAR_Transit__mdb_mdb-153","agency_name":"STAR Transit","route_count":0,"route_ids":"","route_short_names":"","route_types":"","route_type_names":"","routes_json":"[]"},"geometry":{"type":"Point","coordinates":[-96.83054,32.61863]}},{"type":"Feature","properties":{"stop_id":"2452906","stop_code":"","platform_code":"","stop_name":"Pecan Crossing Apts","stop_desc":"","zone_id":"","stop_url":"http://www.startransit.org/","location_type":"0","parent_station":"","stop_timezone":"America/Chicago","position":"","direction":"","wheelchair_boarding":"1","tts_stop_name":"","feed_id":"Texas__STAR_Transit__mdb_mdb-153","agency_name":"STAR Transit","route_count":0,"route_ids":"","route_short_names":"","route_types":"","route_type_names":"","routes_json":"[]"},"geometry":{"type":"Point","coordinates":[-96.828454,32.604397]}},{"type":"Feature","properties":{"stop_id":"2452907","stop_code":"","platform_code":"","stop_name":"Townsend Square Shopping Ctr.","stop_desc":"","zone_id":"","stop_url":"http://www.startransit.org/","location_type":"0","parent_station":"","stop_timezone":"America/Chicago","position":"","direction":"","wheelchair_boarding":"1","tts_stop_name":"","feed_id":"Texas__STAR_Transit__mdb_mdb-153","agency_name":"STAR Transit","route_count":0,"route_ids":"","route_short_names":"","route_types":"","route_type_names":"","routes_json":"[]"},"geometry":{"type":"Point","coordinates":[-96.842039,32.604338]}},{"type":"Feature","properties":{"stop_id":"2452908","stop_code":"","platform_code":"","stop_name":"DeSoto Town Hall/Civic Ctr.","stop_desc":"","zone_id":"","stop_url":"http://www.startransit.org/","location_type":"0","parent_station":"","stop_timezone":"America/Chicago","position":"","direction":"","wheelchair_boarding":"1","tts_stop_name":"","feed_id":"Texas__STAR_Transit__mdb_mdb-153","agency_name":"STAR Transit","route_count":0,"route_ids":"","route_short_names":"","route_types":"","route_type_names":"","routes_json":"[]"},"geometry":{"type":"Point","coordinates":[-96.856957,32.605618]}},{"type":"Feature","properties":{"stop_id":"2452909","stop_code":"","platform_code":"","stop_name":"Creekwood Apts.","stop_desc":"","zone_id":"","stop_url":"http://www.startransit.org/","location_type":"0","parent_station":"","stop_timezone":"America/Chicago","position":"","direction":"","wheelchair_boarding":"1","tts_stop_name":"","feed_id":"Texas__STAR_Transit__mdb_mdb-153","agency_name":"STAR Transit","route_count":0,"route_ids":"","route_short_names":"","route_types":"","route_type_names":"","routes_json":"[]"},"geometry":{"type":"Point","coordinates":[-96.861301,32.618656]}},{"type":"Feature","properties":{"stop_id":"2452910","stop_code":"","platform_code":"","stop_name":"W. Wintergreen Rd. @ Franklin Park","stop_desc":"","zone_id":"","stop_url":"http://www.startransit.org/","location_type":"0","parent_station":"","stop_timezone":"America/Chicago","position":"","direction":"","wheelchair_boarding":"1","tts_stop_name":"","feed_id":"Texas__STAR_Transit__mdb_mdb-153","agency_name":"STAR Transit","route_count":0,"route_ids":"","route_short_names":"","route_types":"","route_type_names":"","routes_json":"[]"},"geometry":{"type":"Point","coordinates":[-96.863942,32.618681]}},{"type":"Feature","properties":{"stop_id":"2452911","stop_code":"","platform_code":"","stop_name":"Scotland Dr. @ Bolton Boone Dr.","stop_desc":"","zone_id":"","stop_url":"http://www.startransit.org/","location_type":"0","parent_station":"","stop_timezone":"America/Chicago","position":"","direction":"","wheelchair_boarding":"1","tts_stop_name":"","feed_id":"Texas__STAR_Transit__mdb_mdb-153","agency_name":"STAR Transit","route_count":0,"route_ids":"","route_short_names":"","route_types":"","route_type_names":"","routes_json":"[]"},"geometry":{"type":"Point","coordinates":[-96.879645,32.642372]}},{"type":"Feature","properties":{"stop_id":"2452912","stop_code":"","platform_code":"","stop_name":"Kohl's eFulfillment Center","stop_desc":"","zone_id":"","stop_url":"http://www.startransit.org/","location_type":"0","parent_station":"","stop_timezone":"America/Chicago","position":"","direction":"","wheelchair_boarding":"1","tts_stop_name":"","feed_id":"Texas__STAR_Transit__mdb_mdb-153","agency_name":"STAR Transit","route_count":0,"route_ids":"","route_short_names":"","route_types":"","route_type_names":"","routes_json":"[]"},"geometry":{"type":"Point","coordinates":[-96.82589,32.626358]}},{"type":"Feature","properties":{"stop_id":"2452913","stop_code":"","platform_code":"","stop_name":"Wal-Mart Distribution (DeSoto)","stop_desc":"","zone_id":"","stop_url":"http://www.startransit.org/","location_type":"0","parent_station":"","stop_timezone":"America/Chicago","position":"","direction":"","wheelchair_boarding":"1","tts_stop_name":"","feed_id":"Texas__STAR_Transit__mdb_mdb-153","agency_name":"STAR Transit","route_count":0,"route_ids":"","route_short_names":"","route_types":"","route_type_names":"","routes_json":"[]"},"geometry":{"type":"Point","coordinates":[-96.837932,32.624254]}},{"type":"Feature","properties":{"stop_id":"2452914","stop_code":"","platform_code":"","stop_name":"Solar Turbines Inc.","stop_desc":"","zone_id":"","stop_url":"http://www.startransit.org/","location_type":"0","parent_station":"","stop_timezone":"America/Chicago","position":"","direction":"","wheelchair_boarding":"1","tts_stop_name":"","feed_id":"Texas__STAR_Transit__mdb_mdb-153","agency_name":"STAR Transit","route_count":0,"route_ids":"","route_short_names":"","route_types":"","route_type_names":"","routes_json":"[]"},"geometry":{"type":"Point","coordinates":[-96.853729,32.627279]}},{"type":"Feature","properties":{"stop_id":"2455651","stop_code":"","platform_code":"","stop_name":"Genesis Center","stop_desc":"","zone_id":"","stop_url":"http://www.startransit.org/the-link-route-802/","location_type":"0","parent_station":"","stop_timezone":"America/Chicago","position":"","direction":"","wheelchair_boarding":"1","tts_stop_name":"","feed_id":"Texas__STAR_Transit__mdb_mdb-153","agency_name":"STAR Transit","route_count":0,"route_ids":"","route_short_names":"","route_types":"","route_type_names":"","routes_json":"[]"},"geometry":{"type":"Point","coordinates":[-96.27784687860576,32.607530266462206]}},{"type":"Feature","properties":{"stop_id":"2501530","stop_code":"","platform_code":"","stop_name":"Family Dollar (West) - Hutchins","stop_desc":"","zone_id":"","stop_url":"","location_type":"0","parent_station":"","stop_timezone":"America/Chicago","position":"","direction":"","wheelchair_boarding":"1","tts_stop_name":"","feed_id":"Texas__STAR_Transit__mdb_mdb-153","agency_name":"STAR Transit","route_count":0,"route_ids":"","route_short_names":"","route_types":"","route_type_names":"","routes_json":"[]"},"geometry":{"type":"Point","coordinates":[-96.711806,32.647688]}},{"type":"Feature","properties":{"stop_id":"2502232","stop_code":"","platform_code":"","stop_name":"Family Dollar (East) - Hutchins","stop_desc":"","zone_id":"","stop_url":"http://www.startransit.org/hutchins-shuttle/","location_type":"0","parent_station":"","stop_timezone":"America/Chicago","position":"","direction":"","wheelchair_boarding":"1","tts_stop_name":"","feed_id":"Texas__STAR_Transit__mdb_mdb-153","agency_name":"STAR Transit","route_count":0,"route_ids":"","route_short_names":"","route_types":"","route_type_names":"","routes_json":"[]"},"geometry":{"type":"Point","coordinates":[-96.711744,32.64759]}},{"type":"Feature","properties":{"stop_id":"2502233","stop_code":"","platform_code":"","stop_name":"Hutchins Gateway Apts (South)","stop_desc":"","zone_id":"","stop_url":"http://www.startransit.org/hutchins-shuttle/","location_type":"0","parent_station":"","stop_timezone":"America/Chicago","position":"","direction":"","wheelchair_boarding":"0","tts_stop_name":"","feed_id":"Texas__STAR_Transit__mdb_mdb-153","agency_name":"STAR Transit","route_count":0,"route_ids":"","route_short_names":"","route_types":"","route_type_names":"","routes_json":"[]"},"geometry":{"type":"Point","coordinates":[-96.723766,32.650348]}},{"type":"Feature","properties":{"stop_id":"2502553","stop_code":"75160","platform_code":"","stop_name":"Airport Rd. @ S. Virginia St.","stop_desc":"","zone_id":"","stop_url":"https://www.startransit.org/fixed-routes/terrell-fixed-routes/","location_type":"0","parent_station":"","stop_timezone":"America/Chicago","position":"","direction":"","wheelchair_boarding":"1","tts_stop_name":"","feed_id":"Texas__STAR_Transit__mdb_mdb-153","agency_name":"STAR Transit","route_count":0,"route_ids":"","route_short_names":"","route_types":"","route_type_names":"","routes_json":"[]"},"geometry":{"type":"Point","coordinates":[-96.276888,32.725663]}},{"type":"Feature","properties":{"stop_id":"2502554","stop_code":"","platform_code":"","stop_name":"Holiday Inn Express (Terrell)","stop_desc":"","zone_id":"","stop_url":"https://www.startransit.org/fixed-routes/terrell-fixed-routes/","location_type":"0","parent_station":"","stop_timezone":"America/Chicago","position":"","direction":"","wheelchair_boarding":"1","tts_stop_name":"","feed_id":"Texas__STAR_Transit__mdb_mdb-153","agency_name":"STAR Transit","route_count":0,"route_ids":"","route_short_names":"","route_types":"","route_type_names":"","routes_json":"[]"},"geometry":{"type":"Point","coordinates":[-96.2779673217902,32.7001791353099]}},{"type":"Feature","properties":{"stop_id":"2502555","stop_code":"75160","platform_code":"","stop_name":"Mattress Zone","stop_desc":"","zone_id":"","stop_url":"https://www.startransit.org/fixed-routes/terrell-fixed-routes/","location_type":"0","parent_station":"","stop_timezone":"America/Chicago","position":"","direction":"","wheelchair_boarding":"1","tts_stop_name":"","feed_id":"Texas__STAR_Transit__mdb_mdb-153","agency_name":"STAR Transit","route_count":0,"route_ids":"","route_short_names":"","route_types":"","route_type_names":"","routes_json":"[]"},"geometry":{"type":"Point","coordinates":[-96.2977438871311,32.7378436868766]}},{"type":"Feature","properties":{"stop_id":"2502556","stop_code":"","platform_code":"","stop_name":"Virginia Anne Apts.","stop_desc":"","zone_id":"","stop_url":"https://www.startransit.org/fixed-routes/terrell-fixed-routes/","location_type":"0","parent_station":"","stop_timezone":"America/Chicago","position":"","direction":"","wheelchair_boarding":"1","tts_stop_name":"","feed_id":"Texas__STAR_Transit__mdb_mdb-153","agency_name":"STAR Transit","route_count":0,"route_ids":"","route_short_names":"","route_types":"","route_type_names":"","routes_json":"[]"},"geometry":{"type":"Point","coordinates":[-96.3006457686424,32.7524723919094]}},{"type":"Feature","properties":{"stop_id":"2502557","stop_code":"75160","platform_code":"","stop_name":"Country Manor Club Apts","stop_desc":"","zone_id":"","stop_url":"https://www.startransit.org/fixed-routes/terrell-fixed-routes/","location_type":"0","parent_station":"","stop_timezone":"America/Chicago","position":"","direction":"","wheelchair_boarding":"1","tts_stop_name":"","feed_id":"Texas__STAR_Transit__mdb_mdb-153","agency_name":"STAR Transit","route_count":0,"route_ids":"","route_short_names":"","route_types":"","route_type_names":"","routes_json":"[]"},"geometry":{"type":"Point","coordinates":[-96.2963626385499,32.7482007448953]}},{"type":"Feature","properties":{"stop_id":"2502558","stop_code":"75160","platform_code":"","stop_name":"TISD ExCEL Center","stop_desc":"","zone_id":"","stop_url":"https://www.startransit.org/fixed-routes/terrell-fixed-routes/","location_type":"0","parent_station":"","stop_timezone":"America/Chicago","position":"","direction":"","wheelchair_boarding":"1","tts_stop_name":"","feed_id":"Texas__STAR_Transit__mdb_mdb-153","agency_name":"STAR Transit","route_count":0,"route_ids":"","route_short_names":"","route_types":"","route_type_names":"","routes_json":"[]"},"geometry":{"type":"Point","coordinates":[-96.294983625412,32.7469850385088]}},{"type":"Feature","properties":{"stop_id":"2502559","stop_code":"75160","platform_code":"","stop_name":"Bridge St. @ Hwy. 80","stop_desc":"","zone_id":"","stop_url":"https://www.startransit.org/fixed-routes/terrell-fixed-routes/","location_type":"0","parent_station":"","stop_timezone":"America/Chicago","position":"","direction":"","wheelchair_boarding":"0","tts_stop_name":"","feed_id":"Texas__STAR_Transit__mdb_mdb-153","agency_name":"STAR Transit","route_count":0,"route_ids":"","route_short_names":"","route_types":"","route_type_names":"","routes_json":"[]"},"geometry":{"type":"Point","coordinates":[-96.284488,32.737396]}},{"type":"Feature","properties":{"stop_id":"2502560","stop_code":"75160","platform_code":"","stop_name":"E. High St. @ Delphine St.","stop_desc":"","zone_id":"","stop_url":"https://www.startransit.org/fixed-routes/terrell-fixed-routes/","location_type":"0","parent_station":"","stop_timezone":"America/Chicago","position":"","direction":"","wheelchair_boarding":"0","tts_stop_name":"","feed_id":"Texas__STAR_Transit__mdb_mdb-153","agency_name":"STAR Transit","route_count":0,"route_ids":"","route_short_names":"","route_types":"","route_type_names":"","routes_json":"[]"},"geometry":{"type":"Point","coordinates":[-96.273819,32.737855]}},{"type":"Feature","properties":{"stop_id":"2512572","stop_code":"","platform_code":"","stop_name":"Peachtree Rd @ Slater Dr","stop_desc":"","zone_id":"","stop_url":"http://www.startransit.org","location_type":"0","parent_station":"","stop_timezone":"America/Chicago","position":"","direction":"","wheelchair_boarding":"1","tts_stop_name":"","feed_id":"Texas__STAR_Transit__mdb_mdb-153","agency_name":"STAR Transit","route_count":0,"route_ids":"","route_short_names":"","route_types":"","route_type_names":"","routes_json":"[]"},"geometry":{"type":"Point","coordinates":[-96.63117513563184,32.74444700569086]}},{"type":"Feature","properties":{"stop_id":"2512574","stop_code":"","platform_code":"","stop_name":"Hickory Tree @ W Bruton Rd","stop_desc":"","zone_id":"","stop_url":"https://www.startransit.org/","location_type":"0","parent_station":"","stop_timezone":"America/Chicago","position":"","direction":"","wheelchair_boarding":"1","tts_stop_name":"","feed_id":"Texas__STAR_Transit__mdb_mdb-153","agency_name":"STAR Transit","route_count":0,"route_ids":"","route_short_names":"","route_types":"","route_type_names":"","routes_json":"[]"},"geometry":{"type":"Point","coordinates":[-96.62332834368856,32.74855540653576]}},{"type":"Feature","properties":{"stop_id":"2512575","stop_code":"","platform_code":"","stop_name":"Hickory Tree @ Asher Ln","stop_desc":"","zone_id":"","stop_url":"http://www.startransit.org","location_type":"0","parent_station":"","stop_timezone":"America/Chicago","position":"","direction":"","wheelchair_boarding":"1","tts_stop_name":"","feed_id":"Texas__STAR_Transit__mdb_mdb-153","agency_name":"STAR Transit","route_count":0,"route_ids":"","route_short_names":"","route_types":"","route_type_names":"","routes_json":"[]"},"geometry":{"type":"Point","coordinates":[-96.6226559413398,32.74129887752477]}},{"type":"Feature","properties":{"stop_id":"2512576","stop_code":"","platform_code":"","stop_name":"Hickory Tree @ Lake June Rd","stop_desc":"","zone_id":"","stop_url":"http://www.startransit.org","location_type":"0","parent_station":"","stop_timezone":"America/Chicago","position":"","direction":"","wheelchair_boarding":"1","tts_stop_name":"","feed_id":"Texas__STAR_Transit__mdb_mdb-153","agency_name":"STAR Transit","route_count":0,"route_ids":"","route_short_names":"","route_types":"","route_type_names":"","routes_json":"[]"},"geometry":{"type":"Point","coordinates":[-96.6226817983497,32.7348765211313]}},{"type":"Feature","properties":{"stop_id":"2512577","stop_code":"","platform_code":"","stop_name":"Food Pantry/Senior Center","stop_desc":"","zone_id":"","stop_url":"http://www.startransit.org","location_type":"0","parent_station":"","stop_timezone":"America/Chicago","position":"","direction":"","wheelchair_boarding":"1","tts_stop_name":"","feed_id":"Texas__STAR_Transit__mdb_mdb-153","agency_name":"STAR Transit","route_count":0,"route_ids":"","route_short_names":"","route_types":"","route_type_names":"","routes_json":"[]"},"geometry":{"type":"Point","coordinates":[-96.610801,32.729026]}},{"type":"Feature","properties":{"stop_id":"2561411","stop_code":"","platform_code":"","stop_name":"E H Hanby Stadium, Mesquite, TX, USA","stop_desc":"","zone_id":"","stop_url":"http://www.STARtransit.org","location_type":"0","parent_station":"","stop_timezone":"America/Chicago","position":"","direction":"","wheelchair_boarding":"1","tts_stop_name":"","feed_id":"Texas__STAR_Transit__mdb_mdb-153","agency_name":"STAR Transit","route_count":0,"route_ids":"","route_short_names":"","route_types":"","route_type_names":"","routes_json":"[]"},"geometry":{"type":"Point","coordinates":[-96.5906795446568,32.7657540972602]}},{"type":"Feature","properties":{"stop_id":"2561422","stop_code":"","platform_code":"","stop_name":"Lawnview Station, Dallas, TX, USA","stop_desc":"","zone_id":"","stop_url":"http://www.STARtransit.org","location_type":"0","parent_station":"","stop_timezone":"America/Chicago","position":"","direction":"","wheelchair_boarding":"1","tts_stop_name":"","feed_id":"Texas__STAR_Transit__mdb_mdb-153","agency_name":"STAR Transit","route_count":0,"route_ids":"","route_short_names":"","route_types":"","route_type_names":"","routes_json":"[]"},"geometry":{"type":"Point","coordinates":[-96.719968196137,32.7654316102281]}},{"type":"Feature","properties":{"stop_id":"2629067","stop_code":"","platform_code":"","stop_name":"FedEx Cedardale Rd.","stop_desc":"","zone_id":"","stop_url":"https://www.startransit.org/","location_type":"0","parent_station":"","stop_timezone":"America/Chicago","position":"","direction":"","wheelchair_boarding":"1","tts_stop_name":"","feed_id":"Texas__STAR_Transit__mdb_mdb-153","agency_name":"STAR Transit","route_count":0,"route_ids":"","route_short_names":"","route_types":"","route_type_names":"","routes_json":"[]"},"geometry":{"type":"Point","coordinates":[-96.758899,32.643853]}},{"type":"Feature","properties":{"stop_id":"831913","stop_code":"","platform_code":"","stop_name":"Wal-Mart (Lake June)","stop_desc":"","zone_id":"","stop_url":"","location_type":"0","parent_station":"","stop_timezone":"America/Chicago","position":"","direction":"","wheelchair_boarding":"0","tts_stop_name":"","feed_id":"Texas__STAR_Transit__mdb_mdb-153","agency_name":"STAR Transit","route_count":1,"route_ids":"4514","route_short_names":"101","route_types":"3","route_type_names":"Bus","routes_json":"[{\"route_id\":\"4514\",\"route_short_name\":\"101\",\"route_long_name\":\"Balch Springs Midtown Express\",\"route_type\":\"3\",\"route_type_name\":\"Bus\",\"route_color\":\"3D8938\",\"route_text_color\":\"FFFFFF\"}]"},"geometry":{"type":"Point","coordinates":[-96.6149664,32.7338434]}},{"type":"Feature","properties":{"stop_id":"831914","stop_code":"","platform_code":"","stop_name":"Hickory Tree South of Lake June","stop_desc":"","zone_id":"","stop_url":"","location_type":"0","parent_station":"","stop_timezone":"America/Chicago","position":"","direction":"","wheelchair_boarding":"0","tts_stop_name":"","feed_id":"Texas__STAR_Transit__mdb_mdb-153","agency_name":"STAR Transit","route_count":1,"route_ids":"4514","route_short_names":"101","route_types":"3","route_type_names":"Bus","routes_json":"[{\"route_id\":\"4514\",\"route_short_name\":\"101\",\"route_long_name\":\"Balch Springs Midtown Express\",\"route_type\":\"3\",\"route_type_name\":\"Bus\",\"route_color\":\"3D8938\",\"route_text_color\":\"FFFFFF\"}]"},"geometry":{"type":"Point","coordinates":[-96.6226609,32.7331222]}},{"type":"Feature","properties":{"stop_id":"831916","stop_code":"","platform_code":"","stop_name":"Quail Drive at Glenshire Drive","stop_desc":"","zone_id":"","stop_url":"","location_type":"0","parent_station":"","stop_timezone":"America/Chicago","position":"","direction":"","wheelchair_boarding":"0","tts_stop_name":"","feed_id":"Texas__STAR_Transit__mdb_mdb-153","agency_name":"STAR Transit","route_count":1,"route_ids":"4514","route_short_names":"101","route_types":"3","route_type_names":"Bus","routes_json":"[{\"route_id\":\"4514\",\"route_short_name\":\"101\",\"route_long_name\":\"Balch Springs Midtown Express\",\"route_type\":\"3\",\"route_type_name\":\"Bus\",\"route_color\":\"3D8938\",\"route_text_color\":\"FFFFFF\"}]"},"geometry":{"type":"Point","coordinates":[-96.6162707,32.7246621]}},{"type":"Feature","properties":{"stop_id":"831917","stop_code":"","platform_code":"","stop_name":"Glenshire Drive at Home Depot entrance","stop_desc":"","zone_id":"","stop_url":"","location_type":"0","parent_station":"","stop_timezone":"America/Chicago","position":"","direction":"","wheelchair_boarding":"0","tts_stop_name":"","feed_id":"Texas__STAR_Transit__mdb_mdb-153","agency_name":"STAR Transit","route_count":1,"route_ids":"4514","route_short_names":"101","route_types":"3","route_type_names":"Bus","routes_json":"[{\"route_id\":\"4514\",\"route_short_name\":\"101\",\"route_long_name\":\"Balch Springs Midtown Express\",\"route_type\":\"3\",\"route_type_name\":\"Bus\",\"route_color\":\"3D8938\",\"route_text_color\":\"FFFFFF\"}]"},"geometry":{"type":"Point","coordinates":[-96.6170302,32.7207825]}},{"type":"Feature","properties":{"stop_id":"831918","stop_code":"","platform_code":"","stop_name":"Shepherd Lane at Elam Road","stop_desc":"","zone_id":"","stop_url":"","location_type":"0","parent_station":"","stop_timezone":"America/Chicago","position":"","direction":"","wheelchair_boarding":"0","tts_stop_name":"","feed_id":"Texas__STAR_Transit__mdb_mdb-153","agency_name":"STAR Transit","route_count":1,"route_ids":"4514","route_short_names":"101","route_types":"3","route_type_names":"Bus","routes_json":"[{\"route_id\":\"4514\",\"route_short_name\":\"101\",\"route_long_name\":\"Balch Springs Midtown Express\",\"route_type\":\"3\",\"route_type_name\":\"Bus\",\"route_color\":\"3D8938\",\"route_text_color\":\"FFFFFF\"}]"},"geometry":{"type":"Point","coordinates":[-96.6141433,32.7190626]}},{"type":"Feature","properties":{"stop_id":"831920","stop_code":"","platform_code":"","stop_name":"Peachtree Senior Living Apartments","stop_desc":"","zone_id":"","stop_url":"","location_type":"0","parent_station":"","stop_timezone":"America/Chicago","position":"","direction":"","wheelchair_boarding":"0","tts_stop_name":"","feed_id":"Texas__STAR_Transit__mdb_mdb-153","agency_name":"STAR Transit","route_count":1,"route_ids":"4514","route_short_names":"101","route_types":"3","route_type_names":"Bus","routes_json":"[{\"route_id\":\"4514\",\"route_short_name\":\"101\",\"route_long_name\":\"Balch Springs Midtown Express\",\"route_type\":\"3\",\"route_type_name\":\"Bus\",\"route_color\":\"3D8938\",\"route_text_color\":\"FFFFFF\"}]"},"geometry":{"type":"Point","coordinates":[-96.6328426,32.699569]}},{"type":"Feature","properties":{"stop_id":"831921","stop_code":"","platform_code":"","stop_name":"Ambassador Apartments","stop_desc":"","zone_id":"","stop_url":"","location_type":"0","parent_station":"","stop_timezone":"America/Chicago","position":"","direction":"","wheelchair_boarding":"0","tts_stop_name":"","feed_id":"Texas__STAR_Transit__mdb_mdb-153","agency_name":"STAR Transit","route_count":1,"route_ids":"4514","route_short_names":"101","route_types":"3","route_type_names":"Bus","routes_json":"[{\"route_id\":\"4514\",\"route_short_name\":\"101\",\"route_long_name\":\"Balch Springs Midtown Express\",\"route_type\":\"3\",\"route_type_name\":\"Bus\",\"route_color\":\"3D8938\",\"route_text_color\":\"FFFFFF\"}]"},"geometry":{"type":"Point","coordinates":[-96.6198773,32.7092837]}},{"type":"Feature","properties":{"stop_id":"831922","stop_code":"","platform_code":"","stop_name":"DART - Buckner Station","stop_desc":"","zone_id":"","stop_url":"","location_type":"0","parent_station":"","stop_timezone":"America/Chicago","position":"","direction":"","wheelchair_boarding":"0","tts_stop_name":"","feed_id":"Texas__STAR_Transit__mdb_mdb-153","agency_name":"STAR Transit","route_count":1,"route_ids":"4514","route_short_names":"101","route_types":"3","route_type_names":"Bus","routes_json":"[{\"route_id\":\"4514\",\"route_short_name\":\"101\",\"route_long_name\":\"Balch Springs Midtown Express\",\"route_type\":\"3\",\"route_type_name\":\"Bus\",\"route_color\":\"3D8938\",\"route_text_color\":\"FFFFFF\"}]"},"geometry":{"type":"Point","coordinates":[-96.685018,32.7185935]}},{"type":"Feature","properties":{"stop_id":"831923","stop_code":"","platform_code":"","stop_name":"Hickory Tree South of Lake June","stop_desc":"","zone_id":"","stop_url":"","location_type":"0","parent_station":"","stop_timezone":"America/Chicago","position":"","direction":"","wheelchair_boarding":"0","tts_stop_name":"","feed_id":"Texas__STAR_Transit__mdb_mdb-153","agency_name":"STAR Transit","route_count":1,"route_ids":"4514","route_short_names":"101","route_types":"3","route_type_names":"Bus","routes_json":"[{\"route_id\":\"4514\",\"route_short_name\":\"101\",\"route_long_name\":\"Balch Springs Midtown Express\",\"route_type\":\"3\",\"route_type_name\":\"Bus\",\"route_color\":\"3D8938\",\"route_text_color\":\"FFFFFF\"}]"},"geometry":{"type":"Point","coordinates":[-96.6225275,32.7331274]}},{"type":"Feature","properties":{"stop_id":"831924","stop_code":"","platform_code":"","stop_name":"Glenshire Drive at Home Depot entrance","stop_desc":"","zone_id":"","stop_url":"","location_type":"0","parent_station":"","stop_timezone":"America/Chicago","position":"","direction":"","wheelchair_boarding":"0","tts_stop_name":"","feed_id":"Texas__STAR_Transit__mdb_mdb-153","agency_name":"STAR Transit","route_count":1,"route_ids":"4514","route_short_names":"101","route_types":"3","route_type_names":"Bus","routes_json":"[{\"route_id\":\"4514\",\"route_short_name\":\"101\",\"route_long_name\":\"Balch Springs Midtown Express\",\"route_type\":\"3\",\"route_type_name\":\"Bus\",\"route_color\":\"3D8938\",\"route_text_color\":\"FFFFFF\"}]"},"geometry":{"type":"Point","coordinates":[-96.6171665,32.7205146]}},{"type":"Feature","properties":{"stop_id":"831925","stop_code":"","platform_code":"","stop_name":"Shepherd Lane at Elam Road","stop_desc":"","zone_id":"","stop_url":"","location_type":"0","parent_station":"","stop_timezone":"America/Chicago","position":"","direction":"","wheelchair_boarding":"0","tts_stop_name":"","feed_id":"Texas__STAR_Transit__mdb_mdb-153","agency_name":"STAR Transit","route_count":1,"route_ids":"4514","route_short_names":"101","route_types":"3","route_type_names":"Bus","routes_json":"[{\"route_id\":\"4514\",\"route_short_name\":\"101\",\"route_long_name\":\"Balch Springs Midtown Express\",\"route_type\":\"3\",\"route_type_name\":\"Bus\",\"route_color\":\"3D8938\",\"route_text_color\":\"FFFFFF\"}]"},"geometry":{"type":"Point","coordinates":[-96.6140213,32.7190645]}},{"type":"Feature","properties":{"stop_id":"831926","stop_code":"","platform_code":"","stop_name":"Balch Springs Recreation Center","stop_desc":"","zone_id":"","stop_url":"","location_type":"0","parent_station":"","stop_timezone":"America/Chicago","position":"","direction":"","wheelchair_boarding":"0","tts_stop_name":"","feed_id":"Texas__STAR_Transit__mdb_mdb-153","agency_name":"STAR Transit","route_count":1,"route_ids":"4514","route_short_names":"101","route_types":"3","route_type_names":"Bus","routes_json":"[{\"route_id\":\"4514\",\"route_short_name\":\"101\",\"route_long_name\":\"Balch Springs Midtown Express\",\"route_type\":\"3\",\"route_type_name\":\"Bus\",\"route_color\":\"3D8938\",\"route_text_color\":\"FFFFFF\"}]"},"geometry":{"type":"Point","coordinates":[-96.6140379,32.7110532]}},{"type":"Feature","properties":{"stop_id":"831927","stop_code":"","platform_code":"","stop_name":"Ambassador Apartments","stop_desc":"","zone_id":"","stop_url":"","location_type":"0","parent_station":"","stop_timezone":"America/Chicago","position":"","direction":"","wheelchair_boarding":"0","tts_stop_name":"","feed_id":"Texas__STAR_Transit__mdb_mdb-153","agency_name":"STAR Transit","route_count":1,"route_ids":"4514","route_short_names":"101","route_types":"3","route_type_names":"Bus","routes_json":"[{\"route_id\":\"4514\",\"route_short_name\":\"101\",\"route_long_name\":\"Balch Springs Midtown Express\",\"route_type\":\"3\",\"route_type_name\":\"Bus\",\"route_color\":\"3D8938\",\"route_text_color\":\"FFFFFF\"}]"},"geometry":{"type":"Point","coordinates":[-96.6197511,32.7092848]}},{"type":"Feature","properties":{"stop_id":"831928","stop_code":"","platform_code":"","stop_name":"Quail Drive at Glenshire Drive","stop_desc":"","zone_id":"","stop_url":"","location_type":"0","parent_station":"","stop_timezone":"America/Chicago","position":"","direction":"","wheelchair_boarding":"0","tts_stop_name":"","feed_id":"Texas__STAR_Transit__mdb_mdb-153","agency_name":"STAR Transit","route_count":1,"route_ids":"4514","route_short_names":"101","route_types":"3","route_type_names":"Bus","routes_json":"[{\"route_id\":\"4514\",\"route_short_name\":\"101\",\"route_long_name\":\"Balch Springs Midtown Express\",\"route_type\":\"3\",\"route_type_name\":\"Bus\",\"route_color\":\"3D8938\",\"route_text_color\":\"FFFFFF\"}]"},"geometry":{"type":"Point","coordinates":[-96.6163558,32.7247487]}},{"type":"Feature","properties":{"stop_id":"831929","stop_code":"","platform_code":"","stop_name":"David's Supermarket (E)","stop_desc":"","zone_id":"","stop_url":"","location_type":"0","parent_station":"","stop_timezone":"America/Chicago","position":"","direction":"","wheelchair_boarding":"0","tts_stop_name":"","feed_id":"Texas__STAR_Transit__mdb_mdb-153","agency_name":"STAR Transit","route_count":0,"route_ids":"","route_short_names":"","route_types":"","route_type_names":"","routes_json":"[]"},"geometry":{"type":"Point","coordinates":[-96.3041907,32.5887925]}},{"type":"Feature","properties":{"stop_id":"831930","stop_code":"","platform_code":"","stop_name":"Kaufman Christian Help Center (E)","stop_desc":"","zone_id":"","stop_url":"","location_type":"0","parent_station":"","stop_timezone":"America/Chicago","position":"","direction":"","wheelchair_boarding":"1","tts_stop_name":"","feed_id":"Texas__STAR_Transit__mdb_mdb-153","agency_name":"STAR Transit","route_count":0,"route_ids":"","route_short_names":"","route_types":"","route_type_names":"","routes_json":"[]"},"geometry":{"type":"Point","coordinates":[-96.2967099,32.5911476]}},{"type":"Feature","properties":{"stop_id":"831931","stop_code":"","platform_code":"","stop_name":"E. 1st North at Alton St. (E)","stop_desc":"","zone_id":"","stop_url":"","location_type":"0","parent_station":"","stop_timezone":"America/Chicago","position":"","direction":"","wheelchair_boarding":"0","tts_stop_name":"","feed_id":"Texas__STAR_Transit__mdb_mdb-153","agency_name":"STAR Transit","route_count":0,"route_ids":"","route_short_names":"","route_types":"","route_type_names":"","routes_json":"[]"},"geometry":{"type":"Point","coordinates":[-96.30176456,32.59186719]}},{"type":"Feature","properties":{"stop_id":"831932","stop_code":"","platform_code":"","stop_name":"Washington at E. Hickory Street (E)","stop_desc":"","zone_id":"","stop_url":"","location_type":"0","parent_station":"","stop_timezone":"America/Chicago","position":"","direction":"","wheelchair_boarding":"0","tts_stop_name":"","feed_id":"Texas__STAR_Transit__mdb_mdb-153","agency_name":"STAR Transit","route_count":0,"route_ids":"","route_short_names":"","route_types":"","route_type_names":"","routes_json":"[]"},"geometry":{"type":"Point","coordinates":[-96.3091415,32.5911848]}},{"type":"Feature","properties":{"stop_id":"831933","stop_code":"","platform_code":"","stop_name":"Texas Health Presbyterian Hospital (W)","stop_desc":"","zone_id":"","stop_url":"","location_type":"0","parent_station":"","stop_timezone":"America/Chicago","position":"","direction":"","wheelchair_boarding":"0","tts_stop_name":"","feed_id":"Texas__STAR_Transit__mdb_mdb-153","agency_name":"STAR Transit","route_count":0,"route_ids":"","route_short_names":"","route_types":"","route_type_names":"","routes_json":"[]"},"geometry":{"type":"Point","coordinates":[-96.319046,32.5918915]}},{"type":"Feature","properties":{"stop_id":"831934","stop_code":"","platform_code":"","stop_name":"W. Grove at Shannon (W)","stop_desc":"","zone_id":"","stop_url":"","location_type":"0","parent_station":"","stop_timezone":"America/Chicago","position":"","direction":"","wheelchair_boarding":"0","tts_stop_name":"","feed_id":"Texas__STAR_Transit__mdb_mdb-153","agency_name":"STAR Transit","route_count":0,"route_ids":"","route_short_names":"","route_types":"","route_type_names":"","routes_json":"[]"},"geometry":{"type":"Point","coordinates":[-96.316277,32.5899099]}},{"type":"Feature","properties":{"stop_id":"831935","stop_code":"","platform_code":"","stop_name":"Kaufman Square","stop_desc":"","zone_id":"","stop_url":"","location_type":"0","parent_station":"","stop_timezone":"America/Chicago","position":"","direction":"","wheelchair_boarding":"0","tts_stop_name":"","feed_id":"Texas__STAR_Transit__mdb_mdb-153","agency_name":"STAR Transit","route_count":0,"route_ids":"","route_short_names":"","route_types":"","route_type_names":"","routes_json":"[]"},"geometry":{"type":"Point","coordinates":[-96.30986875,32.58897246]}},{"type":"Feature","properties":{"stop_id":"831936","stop_code":"","platform_code":"","stop_name":"Kaufman County Library","stop_desc":"","zone_id":"","stop_url":"","location_type":"0","parent_station":"","stop_timezone":"America/Chicago","position":"","direction":"","wheelchair_boarding":"0","tts_stop_name":"","feed_id":"Texas__STAR_Transit__mdb_mdb-153","agency_name":"STAR Transit","route_count":0,"route_ids":"","route_short_names":"","route_types":"","route_type_names":"","routes_json":"[]"},"geometry":{"type":"Point","coordinates":[-96.316797,32.564837]}},{"type":"Feature","properties":{"stop_id":"831937","stop_code":"","platform_code":"","stop_name":"Washington at Cates","stop_desc":"","zone_id":"","stop_url":"","location_type":"0","parent_station":"","stop_timezone":"America/Chicago","position":"","direction":"","wheelchair_boarding":"0","tts_stop_name":"","feed_id":"Texas__STAR_Transit__mdb_mdb-153","agency_name":"STAR Transit","route_count":0,"route_ids":"","route_short_names":"","route_types":"","route_type_names":"","routes_json":"[]"},"geometry":{"type":"Point","coordinates":[-96.3146487,32.5699745]}},{"type":"Feature","properties":{"stop_id":"831938","stop_code":"","platform_code":"","stop_name":"Kings Fort Pkwy at Washington","stop_desc":"","zone_id":"","stop_url":"","location_type":"0","parent_station":"","stop_timezone":"America/Chicago","position":"","direction":"","wheelchair_boarding":"0","tts_stop_name":"","feed_id":"Texas__STAR_Transit__mdb_mdb-153","agency_name":"STAR Transit","route_count":0,"route_ids":"","route_short_names":"","route_types":"","route_type_names":"","routes_json":"[]"},"geometry":{"type":"Point","coordinates":[-96.3114442,32.5717013]}},{"type":"Feature","properties":{"stop_id":"831939","stop_code":"","platform_code":"","stop_name":"Wal-Mart","stop_desc":"","zone_id":"","stop_url":"","location_type":"0","parent_station":"","stop_timezone":"America/Chicago","position":"","direction":"","wheelchair_boarding":"0","tts_stop_name":"","feed_id":"Texas__STAR_Transit__mdb_mdb-153","agency_name":"STAR Transit","route_count":0,"route_ids":"","route_short_names":"","route_types":"","route_type_names":"","routes_json":"[]"},"geometry":{"type":"Point","coordinates":[-96.3079774,32.5704405]}},{"type":"Feature","properties":{"stop_id":"831940","stop_code":"","platform_code":"","stop_name":"Washington Square / Cash Store","stop_desc":"","zone_id":"","stop_url":"","location_type":"0","parent_station":"","stop_timezone":"America/Chicago","position":"","direction":"","wheelchair_boarding":"0","tts_stop_name":"","feed_id":"Texas__STAR_Transit__mdb_mdb-153","agency_name":"STAR Transit","route_count":0,"route_ids":"","route_short_names":"","route_types":"","route_type_names":"","routes_json":"[]"},"geometry":{"type":"Point","coordinates":[-96.3090293,32.5759199]}},{"type":"Feature","properties":{"stop_id":"831941","stop_code":"","platform_code":"","stop_name":"Washington at 7th (Northbound)","stop_desc":"","zone_id":"","stop_url":"","location_type":"0","parent_station":"","stop_timezone":"America/Chicago","position":"","direction":"","wheelchair_boarding":"0","tts_stop_name":"","feed_id":"Texas__STAR_Transit__mdb_mdb-153","agency_name":"STAR Transit","route_count":0,"route_ids":"","route_short_names":"","route_types":"","route_type_names":"","routes_json":"[]"},"geometry":{"type":"Point","coordinates":[-96.3087014,32.5802589]}},{"type":"Feature","properties":{"stop_id":"831942","stop_code":"","platform_code":"","stop_name":"E. 7th St. and S. Dallas Street","stop_desc":"","zone_id":"","stop_url":"","location_type":"0","parent_station":"","stop_timezone":"America/Chicago","position":"","direction":"","wheelchair_boarding":"0","tts_stop_name":"","feed_id":"Texas__STAR_Transit__mdb_mdb-153","agency_name":"STAR Transit","route_count":0,"route_ids":"","route_short_names":"","route_types":"","route_type_names":"","routes_json":"[]"},"geometry":{"type":"Point","coordinates":[-96.3066542,32.5802485]}},{"type":"Feature","properties":{"stop_id":"831943","stop_code":"","platform_code":"","stop_name":"E. 4th St. and Wilson","stop_desc":"","zone_id":"","stop_url":"","location_type":"0","parent_station":"","stop_timezone":"America/Chicago","position":"","direction":"","wheelchair_boarding":"0","tts_stop_name":"","feed_id":"Texas__STAR_Transit__mdb_mdb-153","agency_name":"STAR Transit","route_count":0,"route_ids":"","route_short_names":"","route_types":"","route_type_names":"","routes_json":"[]"},"geometry":{"type":"Point","coordinates":[-96.3057301,32.5823022]}},{"type":"Feature","properties":{"stop_id":"831944","stop_code":"","platform_code":"","stop_name":"Washington at Chestnut","stop_desc":"","zone_id":"","stop_url":"","location_type":"0","parent_station":"","stop_timezone":"America/Chicago","position":"","direction":"","wheelchair_boarding":"0","tts_stop_name":"","feed_id":"Texas__STAR_Transit__mdb_mdb-153","agency_name":"STAR Transit","route_count":0,"route_ids":"","route_short_names":"","route_types":"","route_type_names":"","routes_json":"[]"},"geometry":{"type":"Point","coordinates":[-96.3088824,32.5875752]}},{"type":"Feature","properties":{"stop_id":"831945","stop_code":"","platform_code":"","stop_name":"Hickory Tree at Municipal Center","stop_desc":"","zone_id":"","stop_url":"","location_type":"0","parent_station":"","stop_timezone":"America/Chicago","position":"","direction":"","wheelchair_boarding":"0","tts_stop_name":"","feed_id":"Texas__STAR_Transit__mdb_mdb-153","agency_name":"STAR Transit","route_count":1,"route_ids":"4514","route_short_names":"101","route_types":"3","route_type_names":"Bus","routes_json":"[{\"route_id\":\"4514\",\"route_short_name\":\"101\",\"route_long_name\":\"Balch Springs Midtown Express\",\"route_type\":\"3\",\"route_type_name\":\"Bus\",\"route_color\":\"3D8938\",\"route_text_color\":\"FFFFFF\"}]"},"geometry":{"type":"Point","coordinates":[-96.6227172,32.7268801]}},{"type":"Feature","properties":{"stop_id":"831946","stop_code":"","platform_code":"","stop_name":"Hickory Tree at Municipal Center","stop_desc":"","zone_id":"","stop_url":"","location_type":"0","parent_station":"","stop_timezone":"America/Chicago","position":"","direction":"","wheelchair_boarding":"0","tts_stop_name":"","feed_id":"Texas__STAR_Transit__mdb_mdb-153","agency_name":"STAR Transit","route_count":1,"route_ids":"4514","route_short_names":"101","route_types":"3","route_type_names":"Bus","routes_json":"[{\"route_id\":\"4514\",\"route_short_name\":\"101\",\"route_long_name\":\"Balch Springs Midtown Express\",\"route_type\":\"3\",\"route_type_name\":\"Bus\",\"route_color\":\"3D8938\",\"route_text_color\":\"FFFFFF\"}]"},"geometry":{"type":"Point","coordinates":[-96.62252274620664,32.727158383584786]}},{"type":"Feature","properties":{"stop_id":"835839","stop_code":"","platform_code":"","stop_name":"Villas of Seagoville","stop_desc":"","zone_id":"","stop_url":"","location_type":"0","parent_station":"","stop_timezone":"America/Chicago","position":"","direction":"","wheelchair_boarding":"0","tts_stop_name":"","feed_id":"Texas__STAR_Transit__mdb_mdb-153","agency_name":"STAR Transit","route_count":0,"route_ids":"","route_short_names":"","route_types":"","route_type_names":"","routes_json":"[]"},"geometry":{"type":"Point","coordinates":[-96.5290748,32.6505962]}},{"type":"Feature","properties":{"stop_id":"835841","stop_code":"","platform_code":"","stop_name":"Wal-Mart/Bealls","stop_desc":"","zone_id":"","stop_url":"","location_type":"0","parent_station":"","stop_timezone":"America/Chicago","position":"","direction":"","wheelchair_boarding":"0","tts_stop_name":"","feed_id":"Texas__STAR_Transit__mdb_mdb-153","agency_name":"STAR Transit","route_count":0,"route_ids":"","route_short_names":"","route_types":"","route_type_names":"","routes_json":"[]"},"geometry":{"type":"Point","coordinates":[-96.5355992,32.6503444]}},{"type":"Feature","properties":{"stop_id":"835842","stop_code":"","platform_code":"","stop_name":"Seagoville City Hall/Library","stop_desc":"","zone_id":"","stop_url":"","location_type":"0","parent_station":"","stop_timezone":"America/Chicago","position":"","direction":"","wheelchair_boarding":"0","tts_stop_name":"","feed_id":"Texas__STAR_Transit__mdb_mdb-153","agency_name":"STAR Transit","route_count":0,"route_ids":"","route_short_names":"","route_types":"","route_type_names":"","routes_json":"[]"},"geometry":{"type":"Point","coordinates":[-96.5407383,32.6487534]}},{"type":"Feature","properties":{"stop_id":"835843","stop_code":"","platform_code":"","stop_name":"US-175 Frontage Rd @ Creekstone Ct","stop_desc":"","zone_id":"","stop_url":"","location_type":"0","parent_station":"","stop_timezone":"America/Chicago","position":"","direction":"","wheelchair_boarding":"0","tts_stop_name":"","feed_id":"Texas__STAR_Transit__mdb_mdb-153","agency_name":"STAR Transit","route_count":0,"route_ids":"","route_short_names":"","route_types":"","route_type_names":"","routes_json":"[]"},"geometry":{"type":"Point","coordinates":[-96.5515342,32.6531131]}},{"type":"Feature","properties":{"stop_id":"835844","stop_code":"","platform_code":"","stop_name":"Cedar Point Apartments","stop_desc":"","zone_id":"","stop_url":"","location_type":"0","parent_station":"","stop_timezone":"America/Chicago","position":"","direction":"","wheelchair_boarding":"0","tts_stop_name":"","feed_id":"Texas__STAR_Transit__mdb_mdb-153","agency_name":"STAR Transit","route_count":0,"route_ids":"","route_short_names":"","route_types":"","route_type_names":"","routes_json":"[]"},"geometry":{"type":"Point","coordinates":[-96.5643552,32.658237]}},{"type":"Feature","properties":{"stop_id":"835845","stop_code":"","platform_code":"","stop_name":"Kimberly at Creekside","stop_desc":"","zone_id":"","stop_url":"","location_type":"0","parent_station":"","stop_timezone":"America/Chicago","position":"","direction":"","wheelchair_boarding":"0","tts_stop_name":"","feed_id":"Texas__STAR_Transit__mdb_mdb-153","agency_name":"STAR Transit","route_count":0,"route_ids":"","route_short_names":"","route_types":"","route_type_names":"","routes_json":"[]"},"geometry":{"type":"Point","coordinates":[-96.5712109,32.66129]}},{"type":"Feature","properties":{"stop_id":"835846","stop_code":"","platform_code":"","stop_name":"Creekside of Seagoville","stop_desc":"","zone_id":"","stop_url":"","location_type":"0","parent_station":"","stop_timezone":"America/Chicago","position":"","direction":"","wheelchair_boarding":"0","tts_stop_name":"","feed_id":"Texas__STAR_Transit__mdb_mdb-153","agency_name":"STAR Transit","route_count":0,"route_ids":"","route_short_names":"","route_types":"","route_type_names":"","routes_json":"[]"},"geometry":{"type":"Point","coordinates":[-96.5761609,32.6639568]}},{"type":"Feature","properties":{"stop_id":"835847","stop_code":"","platform_code":"","stop_name":"N Hwy 175 @ W. Simonds Rd","stop_desc":"","zone_id":"","stop_url":"","location_type":"0","parent_station":"","stop_timezone":"America/Chicago","position":"","direction":"","wheelchair_boarding":"0","tts_stop_name":"","feed_id":"Texas__STAR_Transit__mdb_mdb-153","agency_name":"STAR Transit","route_count":0,"route_ids":"","route_short_names":"","route_types":"","route_type_names":"","routes_json":"[]"},"geometry":{"type":"Point","coordinates":[-96.571579841215,32.660384338717]}},{"type":"Feature","properties":{"stop_id":"835848","stop_code":"","platform_code":"","stop_name":"Seagoville Shopping Ctr.","stop_desc":"","zone_id":"","stop_url":"","location_type":"0","parent_station":"","stop_timezone":"America/Chicago","position":"","direction":"","wheelchair_boarding":"0","tts_stop_name":"","feed_id":"Texas__STAR_Transit__mdb_mdb-153","agency_name":"STAR Transit","route_count":0,"route_ids":"","route_short_names":"","route_types":"","route_type_names":"","routes_json":"[]"},"geometry":{"type":"Point","coordinates":[-96.5475659,32.6493756]}},{"type":"Feature","properties":{"stop_id":"835849","stop_code":"","platform_code":"","stop_name":"Mathis St @ Howard St.","stop_desc":"","zone_id":"","stop_url":"","location_type":"0","parent_station":"","stop_timezone":"America/Chicago","position":"","direction":"","wheelchair_boarding":"0","tts_stop_name":"","feed_id":"Texas__STAR_Transit__mdb_mdb-153","agency_name":"STAR Transit","route_count":0,"route_ids":"","route_short_names":"","route_types":"","route_type_names":"","routes_json":"[]"},"geometry":{"type":"Point","coordinates":[-96.5508637,32.6471127]}},{"type":"Feature","properties":{"stop_id":"835850","stop_code":"","platform_code":"","stop_name":"Seagoville Senior Center","stop_desc":"","zone_id":"","stop_url":"","location_type":"0","parent_station":"","stop_timezone":"America/Chicago","position":"","direction":"","wheelchair_boarding":"0","tts_stop_name":"","feed_id":"Texas__STAR_Transit__mdb_mdb-153","agency_name":"STAR Transit","route_count":0,"route_ids":"","route_short_names":"","route_types":"","route_type_names":"","routes_json":"[]"},"geometry":{"type":"Point","coordinates":[-96.5426615,32.6473498]}}]}