{"type":"FeatureCollection","features":[{"type":"Feature","properties":{"stop_id":"4259372","stop_code":"1017","platform_code":"","stop_name":"Riverdale Grocery","stop_desc":"","zone_id":"","stop_url":"","location_type":"0","parent_station":"","stop_timezone":"America/Los_Angeles","position":"","direction":"","wheelchair_boarding":"1","tts_stop_name":"","feed_id":"Washington__Pacific_Transit__mdb_mdb-3112","agency_name":"Pacific Transit","route_count":2,"route_ids":"77777|77671","route_short_names":"Orange|Yellow","route_types":"3","route_type_names":"Bus","routes_json":"[{\"route_id\":\"77777\",\"route_short_name\":\"Orange\",\"route_long_name\":\"Raymond - South Bend (Frequency)\",\"route_type\":\"3\",\"route_type_name\":\"Bus\",\"route_color\":\"FFA500\",\"route_text_color\":\"FFFFFF\"},{\"route_id\":\"77671\",\"route_short_name\":\"Yellow\",\"route_long_name\":\"Raymond - South Bend (Local)\",\"route_type\":\"3\",\"route_type_name\":\"Bus\",\"route_color\":\"FFFF00\",\"route_text_color\":\"FFFFFF\"}]"},"geometry":{"type":"Point","coordinates":[-123.739275,46.693761]}},{"type":"Feature","properties":{"stop_id":"4259373","stop_code":"1025","platform_code":"","stop_name":"Pioneer Grocery","stop_desc":"","zone_id":"","stop_url":"","location_type":"0","parent_station":"","stop_timezone":"America/Los_Angeles","position":"","direction":"","wheelchair_boarding":"1","tts_stop_name":"","feed_id":"Washington__Pacific_Transit__mdb_mdb-3112","agency_name":"Pacific Transit","route_count":2,"route_ids":"77777|77671","route_short_names":"Orange|Yellow","route_types":"3","route_type_names":"Bus","routes_json":"[{\"route_id\":\"77777\",\"route_short_name\":\"Orange\",\"route_long_name\":\"Raymond - South Bend (Frequency)\",\"route_type\":\"3\",\"route_type_name\":\"Bus\",\"route_color\":\"FFA500\",\"route_text_color\":\"FFFFFF\"},{\"route_id\":\"77671\",\"route_short_name\":\"Yellow\",\"route_long_name\":\"Raymond - South Bend (Local)\",\"route_type\":\"3\",\"route_type_name\":\"Bus\",\"route_color\":\"FFFF00\",\"route_text_color\":\"FFFFFF\"}]"},"geometry":{"type":"Point","coordinates":[-123.811571,46.665526]}},{"type":"Feature","properties":{"stop_id":"4259374","stop_code":"1032","platform_code":"","stop_name":"Grays Harbor Riverview Campus","stop_desc":"","zone_id":"","stop_url":"","location_type":"0","parent_station":"","stop_timezone":"America/Los_Angeles","position":"","direction":"","wheelchair_boarding":"1","tts_stop_name":"","feed_id":"Washington__Pacific_Transit__mdb_mdb-3112","agency_name":"Pacific Transit","route_count":1,"route_ids":"77671","route_short_names":"Yellow","route_types":"3","route_type_names":"Bus","routes_json":"[{\"route_id\":\"77671\",\"route_short_name\":\"Yellow\",\"route_long_name\":\"Raymond - South Bend (Local)\",\"route_type\":\"3\",\"route_type_name\":\"Bus\",\"route_color\":\"FFFF00\",\"route_text_color\":\"FFFFFF\"}]"},"geometry":{"type":"Point","coordinates":[-123.740806,46.677355]}},{"type":"Feature","properties":{"stop_id":"4259375","stop_code":"1012","platform_code":"","stop_name":"Nahcotta / 270th","stop_desc":"","zone_id":"","stop_url":"","location_type":"0","parent_station":"","stop_timezone":"America/Los_Angeles","position":"","direction":"","wheelchair_boarding":"1","tts_stop_name":"","feed_id":"Washington__Pacific_Transit__mdb_mdb-3112","agency_name":"Pacific Transit","route_count":1,"route_ids":"77673","route_short_names":"Brown","route_types":"3","route_type_names":"Bus","routes_json":"[{\"route_id\":\"77673\",\"route_short_name\":\"Brown\",\"route_long_name\":\"Long Beach - Oysterville\",\"route_type\":\"3\",\"route_type_name\":\"Bus\",\"route_color\":\"694538\",\"route_text_color\":\"FFFFFF\"}]"},"geometry":{"type":"Point","coordinates":[-124.033638,46.497325]}},{"type":"Feature","properties":{"stop_id":"4259376","stop_code":"1037","platform_code":"","stop_name":"South Bend Pharmacy","stop_desc":"","zone_id":"","stop_url":"","location_type":"0","parent_station":"","stop_timezone":"America/Los_Angeles","position":"","direction":"","wheelchair_boarding":"1","tts_stop_name":"","feed_id":"Washington__Pacific_Transit__mdb_mdb-3112","agency_name":"Pacific Transit","route_count":2,"route_ids":"77777|77671","route_short_names":"Orange|Yellow","route_types":"3","route_type_names":"Bus","routes_json":"[{\"route_id\":\"77777\",\"route_short_name\":\"Orange\",\"route_long_name\":\"Raymond - South Bend (Frequency)\",\"route_type\":\"3\",\"route_type_name\":\"Bus\",\"route_color\":\"FFA500\",\"route_text_color\":\"FFFFFF\"},{\"route_id\":\"77671\",\"route_short_name\":\"Yellow\",\"route_long_name\":\"Raymond - South Bend (Local)\",\"route_type\":\"3\",\"route_type_name\":\"Bus\",\"route_color\":\"FFFF00\",\"route_text_color\":\"FFFFFF\"}]"},"geometry":{"type":"Point","coordinates":[-123.811729,46.665761]}},{"type":"Feature","properties":{"stop_id":"4259377","stop_code":"1036","platform_code":"","stop_name":"Alder & Co","stop_desc":"","zone_id":"","stop_url":"","location_type":"0","parent_station":"","stop_timezone":"America/Los_Angeles","position":"","direction":"","wheelchair_boarding":"1","tts_stop_name":"","feed_id":"Washington__Pacific_Transit__mdb_mdb-3112","agency_name":"Pacific Transit","route_count":1,"route_ids":"77671","route_short_names":"Yellow","route_types":"3","route_type_names":"Bus","routes_json":"[{\"route_id\":\"77671\",\"route_short_name\":\"Yellow\",\"route_long_name\":\"Raymond - South Bend (Local)\",\"route_type\":\"3\",\"route_type_name\":\"Bus\",\"route_color\":\"FFFF00\",\"route_text_color\":\"FFFFFF\"}]"},"geometry":{"type":"Point","coordinates":[-123.73219,46.683489]}},{"type":"Feature","properties":{"stop_id":"4259378","stop_code":"1035","platform_code":"","stop_name":"Raymond High School","stop_desc":"","zone_id":"","stop_url":"","location_type":"0","parent_station":"","stop_timezone":"America/Los_Angeles","position":"","direction":"","wheelchair_boarding":"1","tts_stop_name":"","feed_id":"Washington__Pacific_Transit__mdb_mdb-3112","agency_name":"Pacific Transit","route_count":1,"route_ids":"77671","route_short_names":"Yellow","route_types":"3","route_type_names":"Bus","routes_json":"[{\"route_id\":\"77671\",\"route_short_name\":\"Yellow\",\"route_long_name\":\"Raymond - South Bend (Local)\",\"route_type\":\"3\",\"route_type_name\":\"Bus\",\"route_color\":\"FFFF00\",\"route_text_color\":\"FFFFFF\"}]"},"geometry":{"type":"Point","coordinates":[-123.72581722600712,46.68513831974219]}},{"type":"Feature","properties":{"stop_id":"4259379","stop_code":"1034","platform_code":"","stop_name":"Thriftway","stop_desc":"","zone_id":"","stop_url":"","location_type":"0","parent_station":"","stop_timezone":"America/Los_Angeles","position":"","direction":"","wheelchair_boarding":"1","tts_stop_name":"","feed_id":"Washington__Pacific_Transit__mdb_mdb-3112","agency_name":"Pacific Transit","route_count":2,"route_ids":"77777|77671","route_short_names":"Orange|Yellow","route_types":"3","route_type_names":"Bus","routes_json":"[{\"route_id\":\"77777\",\"route_short_name\":\"Orange\",\"route_long_name\":\"Raymond - South Bend (Frequency)\",\"route_type\":\"3\",\"route_type_name\":\"Bus\",\"route_color\":\"FFA500\",\"route_text_color\":\"FFFFFF\"},{\"route_id\":\"77671\",\"route_short_name\":\"Yellow\",\"route_long_name\":\"Raymond - South Bend (Local)\",\"route_type\":\"3\",\"route_type_name\":\"Bus\",\"route_color\":\"FFFF00\",\"route_text_color\":\"FFFFFF\"}]"},"geometry":{"type":"Point","coordinates":[-123.738471,46.681947]}},{"type":"Feature","properties":{"stop_id":"4259380","stop_code":"1033","platform_code":"","stop_name":"Willapa Harbor Care Center","stop_desc":"","zone_id":"","stop_url":"","location_type":"0","parent_station":"","stop_timezone":"America/Los_Angeles","position":"","direction":"","wheelchair_boarding":"1","tts_stop_name":"","feed_id":"Washington__Pacific_Transit__mdb_mdb-3112","agency_name":"Pacific Transit","route_count":0,"route_ids":"","route_short_names":"","route_types":"","route_type_names":"","routes_json":"[]"},"geometry":{"type":"Point","coordinates":[-123.747528,46.675362]}},{"type":"Feature","properties":{"stop_id":"4259381","stop_code":"1031","platform_code":"","stop_name":"Fowler & 101","stop_desc":"","zone_id":"","stop_url":"","location_type":"0","parent_station":"","stop_timezone":"America/Los_Angeles","position":"","direction":"","wheelchair_boarding":"1","tts_stop_name":"","feed_id":"Washington__Pacific_Transit__mdb_mdb-3112","agency_name":"Pacific Transit","route_count":1,"route_ids":"77671","route_short_names":"Yellow","route_types":"3","route_type_names":"Bus","routes_json":"[{\"route_id\":\"77671\",\"route_short_name\":\"Yellow\",\"route_long_name\":\"Raymond - South Bend (Local)\",\"route_type\":\"3\",\"route_type_name\":\"Bus\",\"route_color\":\"FFFF00\",\"route_text_color\":\"FFFFFF\"}]"},"geometry":{"type":"Point","coordinates":[-123.74021,46.680196]}},{"type":"Feature","properties":{"stop_id":"4259382","stop_code":"1030","platform_code":"","stop_name":"Quincy & 101","stop_desc":"","zone_id":"","stop_url":"","location_type":"0","parent_station":"","stop_timezone":"America/Los_Angeles","position":"","direction":"","wheelchair_boarding":"1","tts_stop_name":"","feed_id":"Washington__Pacific_Transit__mdb_mdb-3112","agency_name":"Pacific Transit","route_count":2,"route_ids":"77777|77671","route_short_names":"Orange|Yellow","route_types":"3","route_type_names":"Bus","routes_json":"[{\"route_id\":\"77777\",\"route_short_name\":\"Orange\",\"route_long_name\":\"Raymond - South Bend (Frequency)\",\"route_type\":\"3\",\"route_type_name\":\"Bus\",\"route_color\":\"FFA500\",\"route_text_color\":\"FFFFFF\"},{\"route_id\":\"77671\",\"route_short_name\":\"Yellow\",\"route_long_name\":\"Raymond - South Bend (Local)\",\"route_type\":\"3\",\"route_type_name\":\"Bus\",\"route_color\":\"FFFF00\",\"route_text_color\":\"FFFFFF\"}]"},"geometry":{"type":"Point","coordinates":[-123.786582,46.668783]}},{"type":"Feature","properties":{"stop_id":"4259383","stop_code":"1029","platform_code":"","stop_name":"Grower's Outlet","stop_desc":"","zone_id":"","stop_url":"","location_type":"0","parent_station":"","stop_timezone":"America/Los_Angeles","position":"","direction":"","wheelchair_boarding":"2","tts_stop_name":"","feed_id":"Washington__Pacific_Transit__mdb_mdb-3112","agency_name":"Pacific Transit","route_count":1,"route_ids":"77671","route_short_names":"Yellow","route_types":"3","route_type_names":"Bus","routes_json":"[{\"route_id\":\"77671\",\"route_short_name\":\"Yellow\",\"route_long_name\":\"Raymond - South Bend (Local)\",\"route_type\":\"3\",\"route_type_name\":\"Bus\",\"route_color\":\"FFFF00\",\"route_text_color\":\"FFFFFF\"}]"},"geometry":{"type":"Point","coordinates":[-123.786954,46.668022]}},{"type":"Feature","properties":{"stop_id":"4259384","stop_code":"1028","platform_code":"","stop_name":"South Bend High School","stop_desc":"","zone_id":"","stop_url":"","location_type":"0","parent_station":"","stop_timezone":"America/Los_Angeles","position":"","direction":"","wheelchair_boarding":"1","tts_stop_name":"","feed_id":"Washington__Pacific_Transit__mdb_mdb-3112","agency_name":"Pacific Transit","route_count":0,"route_ids":"","route_short_names":"","route_types":"","route_type_names":"","routes_json":"[]"},"geometry":{"type":"Point","coordinates":[-123.79256,46.662422]}},{"type":"Feature","properties":{"stop_id":"4259385","stop_code":"1027","platform_code":"","stop_name":"Dollar Store Crosswalk","stop_desc":"","zone_id":"","stop_url":"","location_type":"0","parent_station":"","stop_timezone":"America/Los_Angeles","position":"","direction":"","wheelchair_boarding":"1","tts_stop_name":"","feed_id":"Washington__Pacific_Transit__mdb_mdb-3112","agency_name":"Pacific Transit","route_count":1,"route_ids":"77671","route_short_names":"Yellow","route_types":"3","route_type_names":"Bus","routes_json":"[{\"route_id\":\"77671\",\"route_short_name\":\"Yellow\",\"route_long_name\":\"Raymond - South Bend (Local)\",\"route_type\":\"3\",\"route_type_name\":\"Bus\",\"route_color\":\"FFFF00\",\"route_text_color\":\"FFFFFF\"}]"},"geometry":{"type":"Point","coordinates":[-123.794381,46.664129]}},{"type":"Feature","properties":{"stop_id":"4259386","stop_code":"1026","platform_code":"","stop_name":"Willapa Harbor Hospital","stop_desc":"","zone_id":"","stop_url":"","location_type":"0","parent_station":"","stop_timezone":"America/Los_Angeles","position":"","direction":"","wheelchair_boarding":"1","tts_stop_name":"","feed_id":"Washington__Pacific_Transit__mdb_mdb-3112","agency_name":"Pacific Transit","route_count":1,"route_ids":"77671","route_short_names":"Yellow","route_types":"3","route_type_names":"Bus","routes_json":"[{\"route_id\":\"77671\",\"route_short_name\":\"Yellow\",\"route_long_name\":\"Raymond - South Bend (Local)\",\"route_type\":\"3\",\"route_type_name\":\"Bus\",\"route_color\":\"FFFF00\",\"route_text_color\":\"FFFFFF\"}]"},"geometry":{"type":"Point","coordinates":[-123.812028,46.662165]}},{"type":"Feature","properties":{"stop_id":"4259387","stop_code":"1024","platform_code":"","stop_name":"3rd & Franklin","stop_desc":"","zone_id":"","stop_url":"","location_type":"0","parent_station":"","stop_timezone":"America/Los_Angeles","position":"","direction":"","wheelchair_boarding":"1","tts_stop_name":"","feed_id":"Washington__Pacific_Transit__mdb_mdb-3112","agency_name":"Pacific Transit","route_count":2,"route_ids":"77669|77671","route_short_names":"Green|Yellow","route_types":"3","route_type_names":"Bus","routes_json":"[{\"route_id\":\"77669\",\"route_short_name\":\"Green\",\"route_long_name\":\"Raymond - Aberdeen\",\"route_type\":\"3\",\"route_type_name\":\"Bus\",\"route_color\":\"2B672C\",\"route_text_color\":\"FFFFFF\"},{\"route_id\":\"77671\",\"route_short_name\":\"Yellow\",\"route_long_name\":\"Raymond - South Bend (Local)\",\"route_type\":\"3\",\"route_type_name\":\"Bus\",\"route_color\":\"FFFF00\",\"route_text_color\":\"FFFFFF\"}]"},"geometry":{"type":"Point","coordinates":[-123.732902,46.68871]}},{"type":"Feature","properties":{"stop_id":"4259388","stop_code":"1023","platform_code":"","stop_name":"Howard & Garfield","stop_desc":"","zone_id":"","stop_url":"","location_type":"0","parent_station":"","stop_timezone":"America/Los_Angeles","position":"","direction":"","wheelchair_boarding":"1","tts_stop_name":"","feed_id":"Washington__Pacific_Transit__mdb_mdb-3112","agency_name":"Pacific Transit","route_count":0,"route_ids":"","route_short_names":"","route_types":"","route_type_names":"","routes_json":"[]"},"geometry":{"type":"Point","coordinates":[-123.74672,46.692661]}},{"type":"Feature","properties":{"stop_id":"4259389","stop_code":"1022","platform_code":"","stop_name":"Swanson's","stop_desc":"","zone_id":"","stop_url":"","location_type":"0","parent_station":"","stop_timezone":"America/Los_Angeles","position":"","direction":"","wheelchair_boarding":"2","tts_stop_name":"","feed_id":"Washington__Pacific_Transit__mdb_mdb-3112","agency_name":"Pacific Transit","route_count":1,"route_ids":"77669","route_short_names":"Green","route_types":"3","route_type_names":"Bus","routes_json":"[{\"route_id\":\"77669\",\"route_short_name\":\"Green\",\"route_long_name\":\"Raymond - Aberdeen\",\"route_type\":\"3\",\"route_type_name\":\"Bus\",\"route_color\":\"2B672C\",\"route_text_color\":\"FFFFFF\"}]"},"geometry":{"type":"Point","coordinates":[-123.80342,46.970756]}},{"type":"Feature","properties":{"stop_id":"4259390","stop_code":"1021","platform_code":"","stop_name":"Grays Harbor College #3 (NW)","stop_desc":"","zone_id":"","stop_url":"","location_type":"0","parent_station":"","stop_timezone":"America/Los_Angeles","position":"","direction":"","wheelchair_boarding":"1","tts_stop_name":"","feed_id":"Washington__Pacific_Transit__mdb_mdb-3112","agency_name":"Pacific Transit","route_count":1,"route_ids":"77669","route_short_names":"Green","route_types":"3","route_type_names":"Bus","routes_json":"[{\"route_id\":\"77669\",\"route_short_name\":\"Green\",\"route_long_name\":\"Raymond - Aberdeen\",\"route_type\":\"3\",\"route_type_name\":\"Bus\",\"route_color\":\"2B672C\",\"route_text_color\":\"FFFFFF\"}]"},"geometry":{"type":"Point","coordinates":[-123.803362,46.952738]}},{"type":"Feature","properties":{"stop_id":"4259391","stop_code":"1020","platform_code":"","stop_name":"Aberdeen Transit Station","stop_desc":"","zone_id":"","stop_url":"","location_type":"0","parent_station":"","stop_timezone":"America/Los_Angeles","position":"","direction":"","wheelchair_boarding":"1","tts_stop_name":"","feed_id":"Washington__Pacific_Transit__mdb_mdb-3112","agency_name":"Pacific Transit","route_count":1,"route_ids":"77669","route_short_names":"Green","route_types":"3","route_type_names":"Bus","routes_json":"[{\"route_id\":\"77669\",\"route_short_name\":\"Green\",\"route_long_name\":\"Raymond - Aberdeen\",\"route_type\":\"3\",\"route_type_name\":\"Bus\",\"route_color\":\"2B672C\",\"route_text_color\":\"FFFFFF\"}]"},"geometry":{"type":"Point","coordinates":[-123.815095,46.976534]}},{"type":"Feature","properties":{"stop_id":"4259392","stop_code":"1019","platform_code":"","stop_name":"Clark's Restaurant","stop_desc":"","zone_id":"","stop_url":"","location_type":"0","parent_station":"","stop_timezone":"America/Los_Angeles","position":"","direction":"","wheelchair_boarding":"1","tts_stop_name":"","feed_id":"Washington__Pacific_Transit__mdb_mdb-3112","agency_name":"Pacific Transit","route_count":0,"route_ids":"","route_short_names":"","route_types":"","route_type_names":"","routes_json":"[]"},"geometry":{"type":"Point","coordinates":[-123.717424,46.905724]}},{"type":"Feature","properties":{"stop_id":"4259393","stop_code":"1018","platform_code":"","stop_name":"Artic RV","stop_desc":"","zone_id":"","stop_url":"","location_type":"0","parent_station":"","stop_timezone":"America/Los_Angeles","position":"","direction":"","wheelchair_boarding":"1","tts_stop_name":"","feed_id":"Washington__Pacific_Transit__mdb_mdb-3112","agency_name":"Pacific Transit","route_count":1,"route_ids":"77669","route_short_names":"Green","route_types":"3","route_type_names":"Bus","routes_json":"[{\"route_id\":\"77669\",\"route_short_name\":\"Green\",\"route_long_name\":\"Raymond - Aberdeen\",\"route_type\":\"3\",\"route_type_name\":\"Bus\",\"route_color\":\"2B672C\",\"route_text_color\":\"FFFFFF\"}]"},"geometry":{"type":"Point","coordinates":[-123.71445,46.890714]}},{"type":"Feature","properties":{"stop_id":"4259394","stop_code":"1016","platform_code":"","stop_name":"5th & Commercial","stop_desc":"","zone_id":"","stop_url":"","location_type":"0","parent_station":"","stop_timezone":"America/Los_Angeles","position":"","direction":"","wheelchair_boarding":"1","tts_stop_name":"","feed_id":"Washington__Pacific_Transit__mdb_mdb-3112","agency_name":"Pacific Transit","route_count":3,"route_ids":"77669|77777|77671","route_short_names":"Green|Orange|Yellow","route_types":"3","route_type_names":"Bus","routes_json":"[{\"route_id\":\"77669\",\"route_short_name\":\"Green\",\"route_long_name\":\"Raymond - Aberdeen\",\"route_type\":\"3\",\"route_type_name\":\"Bus\",\"route_color\":\"2B672C\",\"route_text_color\":\"FFFFFF\"},{\"route_id\":\"77777\",\"route_short_name\":\"Orange\",\"route_long_name\":\"Raymond - South Bend (Frequency)\",\"route_type\":\"3\",\"route_type_name\":\"Bus\",\"route_color\":\"FFA500\",\"route_text_color\":\"FFFFFF\"},{\"route_id\":\"77671\",\"route_short_name\":\"Yellow\",\"route_long_name\":\"Raymond - South Bend (Local)\",\"route_type\":\"3\",\"route_type_name\":\"Bus\",\"route_color\":\"FFFF00\",\"route_text_color\":\"FFFFFF\"}]"},"geometry":{"type":"Point","coordinates":[-123.731159,46.685394]}},{"type":"Feature","properties":{"stop_id":"4259395","stop_code":"1015","platform_code":"","stop_name":"Coastal Café","stop_desc":"","zone_id":"","stop_url":"","location_type":"0","parent_station":"","stop_timezone":"America/Los_Angeles","position":"","direction":"","wheelchair_boarding":"1","tts_stop_name":"","feed_id":"Washington__Pacific_Transit__mdb_mdb-3112","agency_name":"Pacific Transit","route_count":1,"route_ids":"77776","route_short_names":"Red","route_types":"3","route_type_names":"Bus","routes_json":"[{\"route_id\":\"77776\",\"route_short_name\":\"Red\",\"route_long_name\":\"Long Beach - Ilwaco\",\"route_type\":\"3\",\"route_type_name\":\"Bus\",\"route_color\":\"FF0000\",\"route_text_color\":\"FFFFFF\"}]"},"geometry":{"type":"Point","coordinates":[-124.050081,46.49064]}},{"type":"Feature","properties":{"stop_id":"4259396","stop_code":"1014","platform_code":"","stop_name":"County Offices","stop_desc":"","zone_id":"","stop_url":"","location_type":"0","parent_station":"","stop_timezone":"America/Los_Angeles","position":"","direction":"","wheelchair_boarding":"1","tts_stop_name":"","feed_id":"Washington__Pacific_Transit__mdb_mdb-3112","agency_name":"Pacific Transit","route_count":1,"route_ids":"77673","route_short_names":"Brown","route_types":"3","route_type_names":"Bus","routes_json":"[{\"route_id\":\"77673\",\"route_short_name\":\"Brown\",\"route_long_name\":\"Long Beach - Oysterville\",\"route_type\":\"3\",\"route_type_name\":\"Bus\",\"route_color\":\"694538\",\"route_text_color\":\"FFFFFF\"}]"},"geometry":{"type":"Point","coordinates":[-124.031458,46.354832]}},{"type":"Feature","properties":{"stop_id":"4259397","stop_code":"1013","platform_code":"","stop_name":"Bay Ave & Sandridge","stop_desc":"","zone_id":"","stop_url":"","location_type":"0","parent_station":"","stop_timezone":"America/Los_Angeles","position":"","direction":"","wheelchair_boarding":"2","tts_stop_name":"","feed_id":"Washington__Pacific_Transit__mdb_mdb-3112","agency_name":"Pacific Transit","route_count":1,"route_ids":"77673","route_short_names":"Brown","route_types":"3","route_type_names":"Bus","routes_json":"[{\"route_id\":\"77673\",\"route_short_name\":\"Brown\",\"route_long_name\":\"Long Beach - Oysterville\",\"route_type\":\"3\",\"route_type_name\":\"Bus\",\"route_color\":\"694538\",\"route_text_color\":\"FFFFFF\"}]"},"geometry":{"type":"Point","coordinates":[-124.033572,46.491595]}},{"type":"Feature","properties":{"stop_id":"4259398","stop_code":"1011","platform_code":"","stop_name":"Oysterville/Stackpole Rd.","stop_desc":"","zone_id":"","stop_url":"","location_type":"0","parent_station":"","stop_timezone":"America/Los_Angeles","position":"","direction":"","wheelchair_boarding":"1","tts_stop_name":"","feed_id":"Washington__Pacific_Transit__mdb_mdb-3112","agency_name":"Pacific Transit","route_count":1,"route_ids":"77673","route_short_names":"Brown","route_types":"3","route_type_names":"Bus","routes_json":"[{\"route_id\":\"77673\",\"route_short_name\":\"Brown\",\"route_long_name\":\"Long Beach - Oysterville\",\"route_type\":\"3\",\"route_type_name\":\"Bus\",\"route_color\":\"694538\",\"route_text_color\":\"FFFFFF\"}]"},"geometry":{"type":"Point","coordinates":[-124.03766,46.549125]}},{"type":"Feature","properties":{"stop_id":"4259399","stop_code":"1010","platform_code":"","stop_name":"Surfside Inn","stop_desc":"","zone_id":"","stop_url":"","location_type":"0","parent_station":"","stop_timezone":"America/Los_Angeles","position":"","direction":"","wheelchair_boarding":"1","tts_stop_name":"","feed_id":"Washington__Pacific_Transit__mdb_mdb-3112","agency_name":"Pacific Transit","route_count":1,"route_ids":"77673","route_short_names":"Brown","route_types":"3","route_type_names":"Bus","routes_json":"[{\"route_id\":\"77673\",\"route_short_name\":\"Brown\",\"route_long_name\":\"Long Beach - Oysterville\",\"route_type\":\"3\",\"route_type_name\":\"Bus\",\"route_color\":\"694538\",\"route_text_color\":\"FFFFFF\"}]"},"geometry":{"type":"Point","coordinates":[-124.055615,46.531286]}},{"type":"Feature","properties":{"stop_id":"4259400","stop_code":"1009","platform_code":"","stop_name":"Jack's Country Store","stop_desc":"","zone_id":"","stop_url":"","location_type":"0","parent_station":"","stop_timezone":"America/Los_Angeles","position":"","direction":"","wheelchair_boarding":"1","tts_stop_name":"","feed_id":"Washington__Pacific_Transit__mdb_mdb-3112","agency_name":"Pacific Transit","route_count":2,"route_ids":"77673|77776","route_short_names":"Brown|Red","route_types":"3","route_type_names":"Bus","routes_json":"[{\"route_id\":\"77673\",\"route_short_name\":\"Brown\",\"route_long_name\":\"Long Beach - Oysterville\",\"route_type\":\"3\",\"route_type_name\":\"Bus\",\"route_color\":\"694538\",\"route_text_color\":\"FFFFFF\"},{\"route_id\":\"77776\",\"route_short_name\":\"Red\",\"route_long_name\":\"Long Beach - Ilwaco\",\"route_type\":\"3\",\"route_type_name\":\"Bus\",\"route_color\":\"FF0000\",\"route_text_color\":\"FFFFFF\"}]"},"geometry":{"type":"Point","coordinates":[-124.049984,46.490576]}},{"type":"Feature","properties":{"stop_id":"4259401","stop_code":"1008","platform_code":"","stop_name":"N. 3rd St. Coulter Park","stop_desc":"","zone_id":"","stop_url":"","location_type":"0","parent_station":"","stop_timezone":"America/Los_Angeles","position":"","direction":"","wheelchair_boarding":"1","tts_stop_name":"","feed_id":"Washington__Pacific_Transit__mdb_mdb-3112","agency_name":"Pacific Transit","route_count":1,"route_ids":"77776","route_short_names":"Red","route_types":"3","route_type_names":"Bus","routes_json":"[{\"route_id\":\"77776\",\"route_short_name\":\"Red\",\"route_long_name\":\"Long Beach - Ilwaco\",\"route_type\":\"3\",\"route_type_name\":\"Bus\",\"route_color\":\"FF0000\",\"route_text_color\":\"FFFFFF\"}]"},"geometry":{"type":"Point","coordinates":[-124.054301,46.352458]}},{"type":"Feature","properties":{"stop_id":"4259402","stop_code":"1007","platform_code":"","stop_name":"Pacific & 101","stop_desc":"","zone_id":"","stop_url":"","location_type":"0","parent_station":"","stop_timezone":"America/Los_Angeles","position":"","direction":"","wheelchair_boarding":"1","tts_stop_name":"","feed_id":"Washington__Pacific_Transit__mdb_mdb-3112","agency_name":"Pacific Transit","route_count":3,"route_ids":"77777|77670|77671","route_short_names":"Orange|Purple|Yellow","route_types":"3","route_type_names":"Bus","routes_json":"[{\"route_id\":\"77777\",\"route_short_name\":\"Orange\",\"route_long_name\":\"Raymond - South Bend (Frequency)\",\"route_type\":\"3\",\"route_type_name\":\"Bus\",\"route_color\":\"FFA500\",\"route_text_color\":\"FFFFFF\"},{\"route_id\":\"77670\",\"route_short_name\":\"Purple\",\"route_long_name\":\"South Bend - Long Beach\",\"route_type\":\"3\",\"route_type_name\":\"Bus\",\"route_color\":\"6D1950\",\"route_text_color\":\"FFFFFF\"},{\"route_id\":\"77671\",\"route_short_name\":\"Yellow\",\"route_long_name\":\"Raymond - South Bend (Local)\",\"route_type\":\"3\",\"route_type_name\":\"Bus\",\"route_color\":\"FFFF00\",\"route_text_color\":\"FFFFFF\"}]"},"geometry":{"type":"Point","coordinates":[-123.812789,46.666993]}},{"type":"Feature","properties":{"stop_id":"4259403","stop_code":"1006","platform_code":"","stop_name":"Skylar's Restaurant","stop_desc":"","zone_id":"","stop_url":"","location_type":"0","parent_station":"","stop_timezone":"America/Los_Angeles","position":"","direction":"","wheelchair_boarding":"1","tts_stop_name":"","feed_id":"Washington__Pacific_Transit__mdb_mdb-3112","agency_name":"Pacific Transit","route_count":0,"route_ids":"","route_short_names":"","route_types":"","route_type_names":"","routes_json":"[]"},"geometry":{"type":"Point","coordinates":[-123.952477,46.628642]}},{"type":"Feature","properties":{"stop_id":"4259404","stop_code":"1005","platform_code":"","stop_name":"Naselle Shelter","stop_desc":"","zone_id":"","stop_url":"","location_type":"0","parent_station":"","stop_timezone":"America/Los_Angeles","position":"","direction":"","wheelchair_boarding":"1","tts_stop_name":"","feed_id":"Washington__Pacific_Transit__mdb_mdb-3112","agency_name":"Pacific Transit","route_count":0,"route_ids":"","route_short_names":"","route_types":"","route_type_names":"","routes_json":"[]"},"geometry":{"type":"Point","coordinates":[-123.804499,46.376446]}},{"type":"Feature","properties":{"stop_id":"4259405","stop_code":"1004","platform_code":"","stop_name":"Chinook Post Office","stop_desc":"","zone_id":"","stop_url":"","location_type":"0","parent_station":"","stop_timezone":"America/Los_Angeles","position":"","direction":"","wheelchair_boarding":"1","tts_stop_name":"","feed_id":"Washington__Pacific_Transit__mdb_mdb-3112","agency_name":"Pacific Transit","route_count":1,"route_ids":"77672","route_short_names":"Blue","route_types":"3","route_type_names":"Bus","routes_json":"[{\"route_id\":\"77672\",\"route_short_name\":\"Blue\",\"route_long_name\":\"Long Beach - Astoria\",\"route_type\":\"3\",\"route_type_name\":\"Bus\",\"route_color\":\"3284C0\",\"route_text_color\":\"FFFFFF\"}]"},"geometry":{"type":"Point","coordinates":[-123.94597,46.27347]}},{"type":"Feature","properties":{"stop_id":"4259406","stop_code":"1003","platform_code":"","stop_name":"Astoria Transit Center","stop_desc":"","zone_id":"","stop_url":"","location_type":"0","parent_station":"","stop_timezone":"America/Los_Angeles","position":"","direction":"","wheelchair_boarding":"1","tts_stop_name":"","feed_id":"Washington__Pacific_Transit__mdb_mdb-3112","agency_name":"Pacific Transit","route_count":1,"route_ids":"77672","route_short_names":"Blue","route_types":"3","route_type_names":"Bus","routes_json":"[{\"route_id\":\"77672\",\"route_short_name\":\"Blue\",\"route_long_name\":\"Long Beach - Astoria\",\"route_type\":\"3\",\"route_type_name\":\"Bus\",\"route_color\":\"3284C0\",\"route_text_color\":\"FFFFFF\"}]"},"geometry":{"type":"Point","coordinates":[-123.833288207,46.190200154]}},{"type":"Feature","properties":{"stop_id":"4259407","stop_code":"1002","platform_code":"","stop_name":"Chinook Store","stop_desc":"","zone_id":"","stop_url":"","location_type":"0","parent_station":"","stop_timezone":"America/Los_Angeles","position":"","direction":"","wheelchair_boarding":"1","tts_stop_name":"","feed_id":"Washington__Pacific_Transit__mdb_mdb-3112","agency_name":"Pacific Transit","route_count":1,"route_ids":"77672","route_short_names":"Blue","route_types":"3","route_type_names":"Bus","routes_json":"[{\"route_id\":\"77672\",\"route_short_name\":\"Blue\",\"route_long_name\":\"Long Beach - Astoria\",\"route_type\":\"3\",\"route_type_name\":\"Bus\",\"route_color\":\"3284C0\",\"route_text_color\":\"FFFFFF\"}]"},"geometry":{"type":"Point","coordinates":[-123.946665,46.273954]}},{"type":"Feature","properties":{"stop_id":"4259408","stop_code":"1001","platform_code":"","stop_name":"Ilwaco Port","stop_desc":"","zone_id":"","stop_url":"","location_type":"0","parent_station":"","stop_timezone":"America/Los_Angeles","position":"","direction":"","wheelchair_boarding":"1","tts_stop_name":"","feed_id":"Washington__Pacific_Transit__mdb_mdb-3112","agency_name":"Pacific Transit","route_count":1,"route_ids":"77776","route_short_names":"Red","route_types":"3","route_type_names":"Bus","routes_json":"[{\"route_id\":\"77776\",\"route_short_name\":\"Red\",\"route_long_name\":\"Long Beach - Ilwaco\",\"route_type\":\"3\",\"route_type_name\":\"Bus\",\"route_color\":\"FF0000\",\"route_text_color\":\"FFFFFF\"}]"},"geometry":{"type":"Point","coordinates":[-124.039612,46.306246]}},{"type":"Feature","properties":{"stop_id":"4259947","stop_code":"1040","platform_code":"","stop_name":"Long Beach Transit Center","stop_desc":"","zone_id":"","stop_url":"","location_type":"0","parent_station":"","stop_timezone":"America/Los_Angeles","position":"","direction":"","wheelchair_boarding":"0","tts_stop_name":"","feed_id":"Washington__Pacific_Transit__mdb_mdb-3112","agency_name":"Pacific Transit","route_count":4,"route_ids":"77672|77673|77670|77776","route_short_names":"Blue|Brown|Purple|Red","route_types":"3","route_type_names":"Bus","routes_json":"[{\"route_id\":\"77672\",\"route_short_name\":\"Blue\",\"route_long_name\":\"Long Beach - Astoria\",\"route_type\":\"3\",\"route_type_name\":\"Bus\",\"route_color\":\"3284C0\",\"route_text_color\":\"FFFFFF\"},{\"route_id\":\"77673\",\"route_short_name\":\"Brown\",\"route_long_name\":\"Long Beach - Oysterville\",\"route_type\":\"3\",\"route_type_name\":\"Bus\",\"route_color\":\"694538\",\"route_text_color\":\"FFFFFF\"},{\"route_id\":\"77670\",\"route_short_name\":\"Purple\",\"route_long_name\":\"South Bend - Long Beach\",\"route_type\":\"3\",\"route_type_name\":\"Bus\",\"route_color\":\"6D1950\",\"route_text_color\":\"FFFFFF\"},{\"route_id\":\"77776\",\"route_short_name\":\"Red\",\"route_long_name\":\"Long Beach - Ilwaco\",\"route_type\":\"3\",\"route_type_name\":\"Bus\",\"route_color\":\"FF0000\",\"route_text_color\":\"FFFFFF\"}]"},"geometry":{"type":"Point","coordinates":[-124.05351187305092,46.34862809308174]}},{"type":"Feature","properties":{"stop_id":"4259948","stop_code":"1037","platform_code":"","stop_name":"Dennis Co.","stop_desc":"","zone_id":"","stop_url":"","location_type":"0","parent_station":"","stop_timezone":"America/Los_Angeles","position":"","direction":"","wheelchair_boarding":"0","tts_stop_name":"","feed_id":"Washington__Pacific_Transit__mdb_mdb-3112","agency_name":"Pacific Transit","route_count":1,"route_ids":"77777","route_short_names":"Orange","route_types":"3","route_type_names":"Bus","routes_json":"[{\"route_id\":\"77777\",\"route_short_name\":\"Orange\",\"route_long_name\":\"Raymond - South Bend (Frequency)\",\"route_type\":\"3\",\"route_type_name\":\"Bus\",\"route_color\":\"FFA500\",\"route_text_color\":\"FFFFFF\"}]"},"geometry":{"type":"Point","coordinates":[-123.73099735131962,46.68429808951539]}},{"type":"Feature","properties":{"stop_id":"4259949","stop_code":"1038","platform_code":"","stop_name":"Boondocks","stop_desc":"","zone_id":"","stop_url":"","location_type":"0","parent_station":"","stop_timezone":"America/Los_Angeles","position":"","direction":"","wheelchair_boarding":"0","tts_stop_name":"","feed_id":"Washington__Pacific_Transit__mdb_mdb-3112","agency_name":"Pacific Transit","route_count":1,"route_ids":"77777","route_short_names":"Orange","route_types":"3","route_type_names":"Bus","routes_json":"[{\"route_id\":\"77777\",\"route_short_name\":\"Orange\",\"route_long_name\":\"Raymond - South Bend (Frequency)\",\"route_type\":\"3\",\"route_type_name\":\"Bus\",\"route_color\":\"FFA500\",\"route_text_color\":\"FFFFFF\"}]"},"geometry":{"type":"Point","coordinates":[-123.77412383548692,46.6723170955278]}},{"type":"Feature","properties":{"stop_id":"4259950","stop_code":"1039","platform_code":"","stop_name":"Dollar General","stop_desc":"","zone_id":"","stop_url":"","location_type":"0","parent_station":"","stop_timezone":"America/Los_Angeles","position":"","direction":"","wheelchair_boarding":"0","tts_stop_name":"","feed_id":"Washington__Pacific_Transit__mdb_mdb-3112","agency_name":"Pacific Transit","route_count":1,"route_ids":"77777","route_short_names":"Orange","route_types":"3","route_type_names":"Bus","routes_json":"[{\"route_id\":\"77777\",\"route_short_name\":\"Orange\",\"route_long_name\":\"Raymond - South Bend (Frequency)\",\"route_type\":\"3\",\"route_type_name\":\"Bus\",\"route_color\":\"FFA500\",\"route_text_color\":\"FFFFFF\"}]"},"geometry":{"type":"Point","coordinates":[-123.79461673471644,46.664467966323]}},{"type":"Feature","properties":{"stop_id":"4259951","stop_code":"1041","platform_code":"","stop_name":"Black Lake Shelter","stop_desc":"","zone_id":"","stop_url":"","location_type":"0","parent_station":"","stop_timezone":"America/Los_Angeles","position":"","direction":"","wheelchair_boarding":"0","tts_stop_name":"","feed_id":"Washington__Pacific_Transit__mdb_mdb-3112","agency_name":"Pacific Transit","route_count":1,"route_ids":"77776","route_short_names":"Red","route_types":"3","route_type_names":"Bus","routes_json":"[{\"route_id\":\"77776\",\"route_short_name\":\"Red\",\"route_long_name\":\"Long Beach - Ilwaco\",\"route_type\":\"3\",\"route_type_name\":\"Bus\",\"route_color\":\"FF0000\",\"route_text_color\":\"FFFFFF\"}]"},"geometry":{"type":"Point","coordinates":[-124.04380554250493,46.31669515043734]}},{"type":"Feature","properties":{"stop_id":"4259952","stop_code":"1042","platform_code":"","stop_name":"Ilwaco City Hall","stop_desc":"","zone_id":"","stop_url":"","location_type":"0","parent_station":"","stop_timezone":"America/Los_Angeles","position":"","direction":"","wheelchair_boarding":"0","tts_stop_name":"","feed_id":"Washington__Pacific_Transit__mdb_mdb-3112","agency_name":"Pacific Transit","route_count":1,"route_ids":"77776","route_short_names":"Red","route_types":"3","route_type_names":"Bus","routes_json":"[{\"route_id\":\"77776\",\"route_short_name\":\"Red\",\"route_long_name\":\"Long Beach - Ilwaco\",\"route_type\":\"3\",\"route_type_name\":\"Bus\",\"route_color\":\"FF0000\",\"route_text_color\":\"FFFFFF\"}]"},"geometry":{"type":"Point","coordinates":[-124.04325591917724,46.30945641852945]}},{"type":"Feature","properties":{"stop_id":"4259953","stop_code":"1043","platform_code":"","stop_name":"Ilwaco Timberland Library","stop_desc":"","zone_id":"","stop_url":"","location_type":"0","parent_station":"","stop_timezone":"America/Los_Angeles","position":"","direction":"","wheelchair_boarding":"0","tts_stop_name":"","feed_id":"Washington__Pacific_Transit__mdb_mdb-3112","agency_name":"Pacific Transit","route_count":1,"route_ids":"77776","route_short_names":"Red","route_types":"3","route_type_names":"Bus","routes_json":"[{\"route_id\":\"77776\",\"route_short_name\":\"Red\",\"route_long_name\":\"Long Beach - Ilwaco\",\"route_type\":\"3\",\"route_type_name\":\"Bus\",\"route_color\":\"FF0000\",\"route_text_color\":\"FFFFFF\"}]"},"geometry":{"type":"Point","coordinates":[-124.04328626489831,46.31080581200663]}},{"type":"Feature","properties":{"stop_id":"4259954","stop_code":"1044","platform_code":"","stop_name":"Ocean Beach Hospital","stop_desc":"","zone_id":"","stop_url":"","location_type":"0","parent_station":"","stop_timezone":"America/Los_Angeles","position":"","direction":"","wheelchair_boarding":"0","tts_stop_name":"","feed_id":"Washington__Pacific_Transit__mdb_mdb-3112","agency_name":"Pacific Transit","route_count":1,"route_ids":"77776","route_short_names":"Red","route_types":"3","route_type_names":"Bus","routes_json":"[{\"route_id\":\"77776\",\"route_short_name\":\"Red\",\"route_long_name\":\"Long Beach - Ilwaco\",\"route_type\":\"3\",\"route_type_name\":\"Bus\",\"route_color\":\"FF0000\",\"route_text_color\":\"FFFFFF\"}]"},"geometry":{"type":"Point","coordinates":[-124.04293728902832,46.31301717325415]}},{"type":"Feature","properties":{"stop_id":"4259955","stop_code":"1045","platform_code":"","stop_name":"26th and Pacific","stop_desc":"","zone_id":"","stop_url":"","location_type":"0","parent_station":"","stop_timezone":"America/Los_Angeles","position":"","direction":"","wheelchair_boarding":"0","tts_stop_name":"","feed_id":"Washington__Pacific_Transit__mdb_mdb-3112","agency_name":"Pacific Transit","route_count":2,"route_ids":"77673|77776","route_short_names":"Brown|Red","route_types":"3","route_type_names":"Bus","routes_json":"[{\"route_id\":\"77673\",\"route_short_name\":\"Brown\",\"route_long_name\":\"Long Beach - Oysterville\",\"route_type\":\"3\",\"route_type_name\":\"Bus\",\"route_color\":\"694538\",\"route_text_color\":\"FFFFFF\"},{\"route_id\":\"77776\",\"route_short_name\":\"Red\",\"route_long_name\":\"Long Beach - Ilwaco\",\"route_type\":\"3\",\"route_type_name\":\"Bus\",\"route_color\":\"FF0000\",\"route_text_color\":\"FFFFFF\"}]"},"geometry":{"type":"Point","coordinates":[-124.05328843285366,46.37098768920167]}},{"type":"Feature","properties":{"stop_id":"4259956","stop_code":"1046","platform_code":"","stop_name":"Peninsula Senior Activity Center","stop_desc":"","zone_id":"","stop_url":"","location_type":"0","parent_station":"","stop_timezone":"America/Los_Angeles","position":"","direction":"","wheelchair_boarding":"0","tts_stop_name":"","feed_id":"Washington__Pacific_Transit__mdb_mdb-3112","agency_name":"Pacific Transit","route_count":2,"route_ids":"77673|77776","route_short_names":"Brown|Red","route_types":"3","route_type_names":"Bus","routes_json":"[{\"route_id\":\"77673\",\"route_short_name\":\"Brown\",\"route_long_name\":\"Long Beach - Oysterville\",\"route_type\":\"3\",\"route_type_name\":\"Bus\",\"route_color\":\"694538\",\"route_text_color\":\"FFFFFF\"},{\"route_id\":\"77776\",\"route_short_name\":\"Red\",\"route_long_name\":\"Long Beach - Ilwaco\",\"route_type\":\"3\",\"route_type_name\":\"Bus\",\"route_color\":\"FF0000\",\"route_text_color\":\"FFFFFF\"}]"},"geometry":{"type":"Point","coordinates":[-124.05274908003196,46.458488109485394]}},{"type":"Feature","properties":{"stop_id":"4259957","stop_code":"1047","platform_code":"","stop_name":"Klipsan Beach and 227th","stop_desc":"","zone_id":"","stop_url":"","location_type":"0","parent_station":"","stop_timezone":"America/Los_Angeles","position":"","direction":"","wheelchair_boarding":"0","tts_stop_name":"","feed_id":"Washington__Pacific_Transit__mdb_mdb-3112","agency_name":"Pacific Transit","route_count":1,"route_ids":"77776","route_short_names":"Red","route_types":"3","route_type_names":"Bus","routes_json":"[{\"route_id\":\"77776\",\"route_short_name\":\"Red\",\"route_long_name\":\"Long Beach - Ilwaco\",\"route_type\":\"3\",\"route_type_name\":\"Bus\",\"route_color\":\"FF0000\",\"route_text_color\":\"FFFFFF\"}]"},"geometry":{"type":"Point","coordinates":[-124.05244519069429,46.466404367137145]}},{"type":"Feature","properties":{"stop_id":"4259958","stop_code":"1048","platform_code":"","stop_name":"Buds Lumber","stop_desc":"","zone_id":"","stop_url":"","location_type":"0","parent_station":"","stop_timezone":"America/Los_Angeles","position":"","direction":"","wheelchair_boarding":"0","tts_stop_name":"","feed_id":"Washington__Pacific_Transit__mdb_mdb-3112","agency_name":"Pacific Transit","route_count":1,"route_ids":"77777","route_short_names":"Orange","route_types":"3","route_type_names":"Bus","routes_json":"[{\"route_id\":\"77777\",\"route_short_name\":\"Orange\",\"route_long_name\":\"Raymond - South Bend (Frequency)\",\"route_type\":\"3\",\"route_type_name\":\"Bus\",\"route_color\":\"FFA500\",\"route_text_color\":\"FFFFFF\"}]"},"geometry":{"type":"Point","coordinates":[-123.80114405726135,46.66310503151835]}},{"type":"Feature","properties":{"stop_id":"4262084","stop_code":"","platform_code":"","stop_name":"Sid's Supermarket","stop_desc":"","zone_id":"","stop_url":"","location_type":"0","parent_station":"","stop_timezone":"America/Los_Angeles","position":"","direction":"","wheelchair_boarding":"0","tts_stop_name":"","feed_id":"Washington__Pacific_Transit__mdb_mdb-3112","agency_name":"Pacific Transit","route_count":0,"route_ids":"","route_short_names":"","route_types":"","route_type_names":"","routes_json":"[]"},"geometry":{"type":"Point","coordinates":[-124.05465283050928,46.334630084783214]}},{"type":"Feature","properties":{"stop_id":"4262085","stop_code":"","platform_code":"","stop_name":"Mcdonald's","stop_desc":"","zone_id":"","stop_url":"","location_type":"0","parent_station":"","stop_timezone":"America/Los_Angeles","position":"","direction":"","wheelchair_boarding":"0","tts_stop_name":"","feed_id":"Washington__Pacific_Transit__mdb_mdb-3112","agency_name":"Pacific Transit","route_count":0,"route_ids":"","route_short_names":"","route_types":"","route_type_names":"","routes_json":"[]"},"geometry":{"type":"Point","coordinates":[-124.05438606585588,46.34224311900347]}},{"type":"Feature","properties":{"stop_id":"4262086","stop_code":"","platform_code":"","stop_name":"Sid Snyder Beach Approach","stop_desc":"","zone_id":"","stop_url":"","location_type":"0","parent_station":"","stop_timezone":"America/Los_Angeles","position":"","direction":"","wheelchair_boarding":"0","tts_stop_name":"","feed_id":"Washington__Pacific_Transit__mdb_mdb-3112","agency_name":"Pacific Transit","route_count":0,"route_ids":"","route_short_names":"","route_types":"","route_type_names":"","routes_json":"[]"},"geometry":{"type":"Point","coordinates":[-124.06099721585404,46.34599450198736]}},{"type":"Feature","properties":{"stop_id":"4262087","stop_code":"","platform_code":"","stop_name":"Bolstad Pavillion","stop_desc":"","zone_id":"","stop_url":"","location_type":"0","parent_station":"","stop_timezone":"America/Los_Angeles","position":"","direction":"","wheelchair_boarding":"0","tts_stop_name":"","feed_id":"Washington__Pacific_Transit__mdb_mdb-3112","agency_name":"Pacific Transit","route_count":0,"route_ids":"","route_short_names":"","route_types":"","route_type_names":"","routes_json":"[]"},"geometry":{"type":"Point","coordinates":[-124.05899528449804,46.35119134196379]}}]}