{"type":"FeatureCollection","features":[{"type":"Feature","properties":{"stop_id":"STOP_78d52cbe-205e-47fd-a3e7-0e423fbcc7f7","stop_code":"","stop_name":"A&W/ Chase/ Mobil","stop_desc":"","zone_id":"","stop_url":"","location_type":"0","parent_station":"","stop_timezone":"","wheelchair_boarding":"0","platform_code":"","feed_id":"New_York__Clinton_County_Public_Transit_(CCPT)__mdb_mdb-544","agency_name":"Clinton County Public Transit","route_count":0,"route_ids":"","route_short_names":"","route_types":"","route_type_names":"","routes_json":"[]"},"geometry":{"type":"Point","coordinates":[-73.435246,44.727816]}},{"type":"Feature","properties":{"stop_id":"29","stop_code":"29","stop_name":"ALDI's - UR","stop_desc":"328 Cornelia St","zone_id":"","stop_url":"","location_type":"0","parent_station":"","stop_timezone":"","wheelchair_boarding":"0","platform_code":"","feed_id":"New_York__Clinton_County_Public_Transit_(CCPT)__mdb_mdb-544","agency_name":"Clinton County Public Transit","route_count":0,"route_ids":"","route_short_names":"","route_types":"","route_type_names":"","routes_json":"[]"},"geometry":{"type":"Point","coordinates":[-73.481487,44.698571]}},{"type":"Feature","properties":{"stop_id":"30w4","stop_code":"","stop_name":"Broad St Commons","stop_desc":"","zone_id":"","stop_url":"","location_type":"","parent_station":"","stop_timezone":"","wheelchair_boarding":"","platform_code":"","feed_id":"New_York__Clinton_County_Public_Transit_(CCPT)__mdb_mdb-544","agency_name":"Clinton County Public Transit","route_count":0,"route_ids":"","route_short_names":"","route_types":"","route_type_names":"","routes_json":"[]"},"geometry":{"type":"Point","coordinates":[-73.460521,44.69474]}},{"type":"Feature","properties":{"stop_id":"25","stop_code":"25","stop_name":"Kinney Drugs","stop_desc":"","zone_id":"","stop_url":"","location_type":"0","parent_station":"","stop_timezone":"","wheelchair_boarding":"0","platform_code":"","feed_id":"New_York__Clinton_County_Public_Transit_(CCPT)__mdb_mdb-544","agency_name":"Clinton County Public Transit","route_count":0,"route_ids":"","route_short_names":"","route_types":"","route_type_names":"","routes_json":"[]"},"geometry":{"type":"Point","coordinates":[-73.456371,44.709292]}},{"type":"Feature","properties":{"stop_id":"xiw7","stop_code":"","stop_name":"80 Sharron Ave Plaza","stop_desc":"","zone_id":"","stop_url":"","location_type":"","parent_station":"","stop_timezone":"","wheelchair_boarding":"","platform_code":"","feed_id":"New_York__Clinton_County_Public_Transit_(CCPT)__mdb_mdb-544","agency_name":"Clinton County Public Transit","route_count":0,"route_ids":"","route_short_names":"","route_types":"","route_type_names":"","routes_json":"[]"},"geometry":{"type":"Point","coordinates":[-73.451689,44.679116]}},{"type":"Feature","properties":{"stop_id":"1323-UR","stop_code":"1323-UR","stop_name":"Seton Catholic Central - UR","stop_desc":"","zone_id":"","stop_url":"","location_type":"0","parent_station":"","stop_timezone":"","wheelchair_boarding":"0","platform_code":"","feed_id":"New_York__Clinton_County_Public_Transit_(CCPT)__mdb_mdb-544","agency_name":"Clinton County Public Transit","route_count":0,"route_ids":"","route_short_names":"","route_types":"","route_type_names":"","routes_json":"[]"},"geometry":{"type":"Point","coordinates":[-73.451219,44.673222]}},{"type":"Feature","properties":{"stop_id":"28","stop_code":"28","stop_name":"Meadowbrook Healthcare","stop_desc":"","zone_id":"","stop_url":"","location_type":"0","parent_station":"","stop_timezone":"","wheelchair_boarding":"0","platform_code":"","feed_id":"New_York__Clinton_County_Public_Transit_(CCPT)__mdb_mdb-544","agency_name":"Clinton County Public Transit","route_count":0,"route_ids":"","route_short_names":"","route_types":"","route_type_names":"","routes_json":"[]"},"geometry":{"type":"Point","coordinates":[-73.473697,44.70357]}},{"type":"Feature","properties":{"stop_id":"74","stop_code":"74","stop_name":"PFCU Keeseville","stop_desc":"","zone_id":"","stop_url":"","location_type":"0","parent_station":"","stop_timezone":"","wheelchair_boarding":"0","platform_code":"","feed_id":"New_York__Clinton_County_Public_Transit_(CCPT)__mdb_mdb-544","agency_name":"Clinton County Public Transit","route_count":0,"route_ids":"","route_short_names":"","route_types":"","route_type_names":"","routes_json":"[]"},"geometry":{"type":"Point","coordinates":[-73.480354,44.5041]}},{"type":"Feature","properties":{"stop_id":"20","stop_code":"20","stop_name":"Lakeview Towers / Russell Barnard","stop_desc":"","zone_id":"","stop_url":"","location_type":"0","parent_station":"","stop_timezone":"","wheelchair_boarding":"0","platform_code":"","feed_id":"New_York__Clinton_County_Public_Transit_(CCPT)__mdb_mdb-544","agency_name":"Clinton County Public Transit","route_count":0,"route_ids":"","route_short_names":"","route_types":"","route_type_names":"","routes_json":"[]"},"geometry":{"type":"Point","coordinates":[-73.458899,44.680473]}},{"type":"Feature","properties":{"stop_id":"lwni","stop_code":"lwni","stop_name":"A N Deringer","stop_desc":"","zone_id":"","stop_url":"","location_type":"0","parent_station":"","stop_timezone":"","wheelchair_boarding":"0","platform_code":"","feed_id":"New_York__Clinton_County_Public_Transit_(CCPT)__mdb_mdb-544","agency_name":"Clinton County Public Transit","route_count":0,"route_ids":"","route_short_names":"","route_types":"","route_type_names":"","routes_json":"[]"},"geometry":{"type":"Point","coordinates":[-73.456224,45.002481]}},{"type":"Feature","properties":{"stop_id":"72","stop_code":"72","stop_name":"Across from AuSable Point Entrance - Flag","stop_desc":"","zone_id":"","stop_url":"","location_type":"0","parent_station":"","stop_timezone":"","wheelchair_boarding":"0","platform_code":"","feed_id":"New_York__Clinton_County_Public_Transit_(CCPT)__mdb_mdb-544","agency_name":"Clinton County Public Transit","route_count":0,"route_ids":"","route_short_names":"","route_types":"","route_type_names":"","routes_json":"[]"},"geometry":{"type":"Point","coordinates":[-73.441443,44.580005]}},{"type":"Feature","properties":{"stop_id":"STOP_6e1d1303-0f60-403c-b478-63012610f2d1","stop_code":"631d","stop_name":"Across from Dannemora Prison","stop_desc":"","zone_id":"","stop_url":"","location_type":"0","parent_station":"","stop_timezone":"","wheelchair_boarding":"0","platform_code":"","feed_id":"New_York__Clinton_County_Public_Transit_(CCPT)__mdb_mdb-544","agency_name":"Clinton County Public Transit","route_count":0,"route_ids":"","route_short_names":"","route_types":"","route_type_names":"","routes_json":"[]"},"geometry":{"type":"Point","coordinates":[-73.723701,44.721744]}},{"type":"Feature","properties":{"stop_id":"58","stop_code":"58","stop_name":"Art Lefevre Senior Housing - UR","stop_desc":"","zone_id":"","stop_url":"","location_type":"0","parent_station":"","stop_timezone":"","wheelchair_boarding":"0","platform_code":"","feed_id":"New_York__Clinton_County_Public_Transit_(CCPT)__mdb_mdb-544","agency_name":"Clinton County Public Transit","route_count":0,"route_ids":"","route_short_names":"","route_types":"","route_type_names":"","routes_json":"[]"},"geometry":{"type":"Point","coordinates":[-73.564443,44.707426]}},{"type":"Feature","properties":{"stop_id":"STOP_25b3a3eb-b759-4244-946b-a3498cb6dac4","stop_code":"25b3","stop_name":"AuSable Chasm - Flag","stop_desc":"","zone_id":"","stop_url":"","location_type":"0","parent_station":"","stop_timezone":"","wheelchair_boarding":"0","platform_code":"","feed_id":"New_York__Clinton_County_Public_Transit_(CCPT)__mdb_mdb-544","agency_name":"Clinton County Public Transit","route_count":0,"route_ids":"","route_short_names":"","route_types":"","route_type_names":"","routes_json":"[]"},"geometry":{"type":"Point","coordinates":[-73.46372,44.524212]}},{"type":"Feature","properties":{"stop_id":"75","stop_code":"75","stop_name":"AuSable Forks Post Office","stop_desc":"","zone_id":"","stop_url":"","location_type":"0","parent_station":"","stop_timezone":"","wheelchair_boarding":"0","platform_code":"","feed_id":"New_York__Clinton_County_Public_Transit_(CCPT)__mdb_mdb-544","agency_name":"Clinton County Public Transit","route_count":0,"route_ids":"","route_short_names":"","route_types":"","route_type_names":"","routes_json":"[]"},"geometry":{"type":"Point","coordinates":[-73.677366,44.440577]}},{"type":"Feature","properties":{"stop_id":"4b4a","stop_code":"4b4a","stop_name":"B's Country Quick Stop","stop_desc":"","zone_id":"","stop_url":"","location_type":"0","parent_station":"","stop_timezone":"","wheelchair_boarding":"0","platform_code":"","feed_id":"New_York__Clinton_County_Public_Transit_(CCPT)__mdb_mdb-544","agency_name":"Clinton County Public Transit","route_count":0,"route_ids":"","route_short_names":"","route_types":"","route_type_names":"","routes_json":"[]"},"geometry":{"type":"Point","coordinates":[-73.797044,44.906105]}},{"type":"Feature","properties":{"stop_id":"22","stop_code":"22","stop_name":"Big Lots","stop_desc":"","zone_id":"","stop_url":"","location_type":"0","parent_station":"","stop_timezone":"","wheelchair_boarding":"0","platform_code":"","feed_id":"New_York__Clinton_County_Public_Transit_(CCPT)__mdb_mdb-544","agency_name":"Clinton County Public Transit","route_count":0,"route_ids":"","route_short_names":"","route_types":"","route_type_names":"","routes_json":"[]"},"geometry":{"type":"Point","coordinates":[-73.477463,44.697965]}},{"type":"Feature","properties":{"stop_id":"59","stop_code":"59","stop_name":"Cadyville Fire Station - Flag","stop_desc":"","zone_id":"","stop_url":"","location_type":"0","parent_station":"","stop_timezone":"","wheelchair_boarding":"0","platform_code":"","feed_id":"New_York__Clinton_County_Public_Transit_(CCPT)__mdb_mdb-544","agency_name":"Clinton County Public Transit","route_count":0,"route_ids":"","route_short_names":"","route_types":"","route_type_names":"","routes_json":"[]"},"geometry":{"type":"Point","coordinates":[-73.633914,44.69717]}},{"type":"Feature","properties":{"stop_id":"66","stop_code":"66","stop_name":"Chazy Post Office","stop_desc":"","zone_id":"","stop_url":"","location_type":"0","parent_station":"","stop_timezone":"","wheelchair_boarding":"0","platform_code":"","feed_id":"New_York__Clinton_County_Public_Transit_(CCPT)__mdb_mdb-544","agency_name":"Clinton County Public Transit","route_count":0,"route_ids":"","route_short_names":"","route_types":"","route_type_names":"","routes_json":"[]"},"geometry":{"type":"Point","coordinates":[-73.433375,44.883961]}},{"type":"Feature","properties":{"stop_id":"aidc","stop_code":"aidc","stop_name":"Clinton County Fairgrounds","stop_desc":"","zone_id":"","stop_url":"","location_type":"0","parent_station":"","stop_timezone":"","wheelchair_boarding":"0","platform_code":"","feed_id":"New_York__Clinton_County_Public_Transit_(CCPT)__mdb_mdb-544","agency_name":"Clinton County Public Transit","route_count":0,"route_ids":"","route_short_names":"","route_types":"","route_type_names":"","routes_json":"[]"},"geometry":{"type":"Point","coordinates":[-73.532886,44.688084]}},{"type":"Feature","properties":{"stop_id":"53","stop_code":"53","stop_name":"Cody's Store - Flag","stop_desc":"","zone_id":"","stop_url":"","location_type":"0","parent_station":"","stop_timezone":"","wheelchair_boarding":"0","platform_code":"","feed_id":"New_York__Clinton_County_Public_Transit_(CCPT)__mdb_mdb-544","agency_name":"Clinton County Public Transit","route_count":0,"route_ids":"","route_short_names":"","route_types":"","route_type_names":"","routes_json":"[]"},"geometry":{"type":"Point","coordinates":[-73.55699,44.780585]}},{"type":"Feature","properties":{"stop_id":"11","stop_code":"11","stop_name":"College Suites","stop_desc":"","zone_id":"","stop_url":"","location_type":"0","parent_station":"","stop_timezone":"","wheelchair_boarding":"0","platform_code":"","feed_id":"New_York__Clinton_County_Public_Transit_(CCPT)__mdb_mdb-544","agency_name":"Clinton County Public Transit","route_count":0,"route_ids":"","route_short_names":"","route_types":"","route_type_names":"","routes_json":"[]"},"geometry":{"type":"Point","coordinates":[-73.46048,44.694567]}},{"type":"Feature","properties":{"stop_id":"33","stop_code":"","stop_name":"Consumer Square","stop_desc":"","zone_id":"","stop_url":"","location_type":"0","parent_station":"","stop_timezone":"","wheelchair_boarding":"0","platform_code":"","feed_id":"New_York__Clinton_County_Public_Transit_(CCPT)__mdb_mdb-544","agency_name":"Clinton County Public Transit","route_count":0,"route_ids":"","route_short_names":"","route_types":"","route_type_names":"","routes_json":"[]"},"geometry":{"type":"Point","coordinates":[-73.485847,44.692736]}},{"type":"Feature","properties":{"stop_id":"STOP_ec2ff98d-cf7d-47e8-9b15-07703ae48eeb","stop_code":"ec2ff","stop_name":"Elm St./ Church St.","stop_desc":"","zone_id":"","stop_url":"","location_type":"0","parent_station":"","stop_timezone":"","wheelchair_boarding":"0","platform_code":"","feed_id":"New_York__Clinton_County_Public_Transit_(CCPT)__mdb_mdb-544","agency_name":"Clinton County Public Transit","route_count":0,"route_ids":"","route_short_names":"","route_types":"","route_type_names":"","routes_json":"[]"},"geometry":{"type":"Point","coordinates":[-73.447123,44.986616]}},{"type":"Feature","properties":{"stop_id":"35","stop_code":"35","stop_name":"Military Recruitment Center","stop_desc":"","zone_id":"","stop_url":"","location_type":"0","parent_station":"","stop_timezone":"","wheelchair_boarding":"0","platform_code":"","feed_id":"New_York__Clinton_County_Public_Transit_(CCPT)__mdb_mdb-544","agency_name":"Clinton County Public Transit","route_count":0,"route_ids":"","route_short_names":"","route_types":"","route_type_names":"","routes_json":"[]"},"geometry":{"type":"Point","coordinates":[-73.499351,44.695741]}},{"type":"Feature","properties":{"stop_id":"b88b","stop_code":"b88b","stop_name":"Plattsburgh High School","stop_desc":"","zone_id":"","stop_url":"","location_type":"0","parent_station":"","stop_timezone":"","wheelchair_boarding":"0","platform_code":"","feed_id":"New_York__Clinton_County_Public_Transit_(CCPT)__mdb_mdb-544","agency_name":"Clinton County Public Transit","route_count":0,"route_ids":"","route_short_names":"","route_types":"","route_type_names":"","routes_json":"[]"},"geometry":{"type":"Point","coordinates":[-73.471584,44.687443]}},{"type":"Feature","properties":{"stop_id":"STOP_bab069fd-93aa-4162-bb5b-7c2ed1d1160e","stop_code":"bab0","stop_name":"Plattsburgh Medical Care - UR","stop_desc":"","zone_id":"","stop_url":"","location_type":"0","parent_station":"","stop_timezone":"","wheelchair_boarding":"0","platform_code":"","feed_id":"New_York__Clinton_County_Public_Transit_(CCPT)__mdb_mdb-544","agency_name":"Clinton County Public Transit","route_count":0,"route_ids":"","route_short_names":"","route_types":"","route_type_names":"","routes_json":"[]"},"geometry":{"type":"Point","coordinates":[-73.513534,44.695146]}},{"type":"Feature","properties":{"stop_id":"79","stop_code":"79","stop_name":"Roderick Rock Senior Housing - UR","stop_desc":"","zone_id":"","stop_url":"","location_type":"0","parent_station":"","stop_timezone":"","wheelchair_boarding":"0","platform_code":"","feed_id":"New_York__Clinton_County_Public_Transit_(CCPT)__mdb_mdb-544","agency_name":"Clinton County Public Transit","route_count":0,"route_ids":"","route_short_names":"","route_types":"","route_type_names":"","routes_json":"[]"},"geometry":{"type":"Point","coordinates":[-73.55558,44.698357]}},{"type":"Feature","properties":{"stop_id":"39","stop_code":"39","stop_name":"St. John's Church","stop_desc":"","zone_id":"","stop_url":"","location_type":"0","parent_station":"","stop_timezone":"","wheelchair_boarding":"0","platform_code":"","feed_id":"New_York__Clinton_County_Public_Transit_(CCPT)__mdb_mdb-544","agency_name":"Clinton County Public Transit","route_count":0,"route_ids":"","route_short_names":"","route_types":"","route_type_names":"","routes_json":"[]"},"geometry":{"type":"Point","coordinates":[-73.454859,44.695324]}},{"type":"Feature","properties":{"stop_id":"38","stop_code":"38","stop_name":"YMCA on the Oval- Flag","stop_desc":"","zone_id":"","stop_url":"","location_type":"0","parent_station":"","stop_timezone":"","wheelchair_boarding":"0","platform_code":"","feed_id":"New_York__Clinton_County_Public_Transit_(CCPT)__mdb_mdb-544","agency_name":"Clinton County Public Transit","route_count":0,"route_ids":"","route_short_names":"","route_types":"","route_type_names":"","routes_json":"[]"},"geometry":{"type":"Point","coordinates":[-73.445817,44.68673]}},{"type":"Feature","properties":{"stop_id":"STOP_7411e588-14fe-4813-aa1b-d5a639bd2b20","stop_code":"7411","stop_name":"Westwood Drive - UR","stop_desc":"","zone_id":"","stop_url":"","location_type":"0","parent_station":"","stop_timezone":"","wheelchair_boarding":"0","platform_code":"","feed_id":"New_York__Clinton_County_Public_Transit_(CCPT)__mdb_mdb-544","agency_name":"Clinton County Public Transit","route_count":0,"route_ids":"","route_short_names":"","route_types":"","route_type_names":"","routes_json":"[]"},"geometry":{"type":"Point","coordinates":[-73.48345,44.688633]}},{"type":"Feature","properties":{"stop_id":"16","stop_code":"16","stop_name":"Yando's Big M","stop_desc":"","zone_id":"","stop_url":"","location_type":"0","parent_station":"","stop_timezone":"","wheelchair_boarding":"0","platform_code":"","feed_id":"New_York__Clinton_County_Public_Transit_(CCPT)__mdb_mdb-544","agency_name":"Clinton County Public Transit","route_count":0,"route_ids":"","route_short_names":"","route_types":"","route_type_names":"","routes_json":"[]"},"geometry":{"type":"Point","coordinates":[-73.450101,44.681526]}},{"type":"Feature","properties":{"stop_id":"37","stop_code":"37","stop_name":"YMCA / Library","stop_desc":"","zone_id":"","stop_url":"","location_type":"0","parent_station":"","stop_timezone":"","wheelchair_boarding":"0","platform_code":"","feed_id":"New_York__Clinton_County_Public_Transit_(CCPT)__mdb_mdb-544","agency_name":"Clinton County Public Transit","route_count":0,"route_ids":"","route_short_names":"","route_types":"","route_type_names":"","routes_json":"[]"},"geometry":{"type":"Point","coordinates":[-73.455448,44.696906]}},{"type":"Feature","properties":{"stop_id":"fecp","stop_code":"","stop_name":"Hammond Ln","stop_desc":"will pull into any lot along road upon request","zone_id":"","stop_url":"","location_type":"","parent_station":"","stop_timezone":"","wheelchair_boarding":"","platform_code":"","feed_id":"New_York__Clinton_County_Public_Transit_(CCPT)__mdb_mdb-544","agency_name":"Clinton County Public Transit","route_count":0,"route_ids":"","route_short_names":"","route_types":"","route_type_names":"","routes_json":"[]"},"geometry":{"type":"Point","coordinates":[-73.499329,44.69102]}},{"type":"Feature","properties":{"stop_id":"sts7","stop_code":"","stop_name":"Plattsburgh Plaza A-Plus Nails","stop_desc":"","zone_id":"","stop_url":"","location_type":"","parent_station":"","stop_timezone":"","wheelchair_boarding":"","platform_code":"","feed_id":"New_York__Clinton_County_Public_Transit_(CCPT)__mdb_mdb-544","agency_name":"Clinton County Public Transit","route_count":0,"route_ids":"","route_short_names":"","route_types":"","route_type_names":"","routes_json":"[]"},"geometry":{"type":"Point","coordinates":[-73.477506,44.698619]}},{"type":"Feature","properties":{"stop_id":"u65q","stop_code":"","stop_name":"Lake Country Village - UR","stop_desc":"","zone_id":"","stop_url":"","location_type":"","parent_station":"","stop_timezone":"","wheelchair_boarding":"","platform_code":"","feed_id":"New_York__Clinton_County_Public_Transit_(CCPT)__mdb_mdb-544","agency_name":"Clinton County Public Transit","route_count":0,"route_ids":"","route_short_names":"","route_types":"","route_type_names":"","routes_json":"[]"},"geometry":{"type":"Point","coordinates":[-73.449934,44.676508]}},{"type":"Feature","properties":{"stop_id":"72x","stop_code":"72x","stop_name":"AuSable Point Entrance","stop_desc":"","zone_id":"","stop_url":"","location_type":"0","parent_station":"","stop_timezone":"","wheelchair_boarding":"0","platform_code":"","feed_id":"New_York__Clinton_County_Public_Transit_(CCPT)__mdb_mdb-544","agency_name":"Clinton County Public Transit","route_count":0,"route_ids":"","route_short_names":"","route_types":"","route_type_names":"","routes_json":"[]"},"geometry":{"type":"Point","coordinates":[-73.441306,44.579893]}},{"type":"Feature","properties":{"stop_id":"0cnt","stop_code":"","stop_name":"Connecticut Avenue & Peaceful Way - UR","stop_desc":"","zone_id":"","stop_url":"","location_type":"","parent_station":"","stop_timezone":"","wheelchair_boarding":"","platform_code":"","feed_id":"New_York__Clinton_County_Public_Transit_(CCPT)__mdb_mdb-544","agency_name":"Clinton County Public Transit","route_count":0,"route_ids":"","route_short_names":"","route_types":"","route_type_names":"","routes_json":"[]"},"geometry":{"type":"Point","coordinates":[-73.452775,44.662485]}},{"type":"Feature","properties":{"stop_id":"twv9","stop_code":"","stop_name":"Plattsburgh Plaza A-Plus Nails - UR","stop_desc":"","zone_id":"","stop_url":"","location_type":"","parent_station":"","stop_timezone":"","wheelchair_boarding":"","platform_code":"","feed_id":"New_York__Clinton_County_Public_Transit_(CCPT)__mdb_mdb-544","agency_name":"Clinton County Public Transit","route_count":0,"route_ids":"","route_short_names":"","route_types":"","route_type_names":"","routes_json":"[]"},"geometry":{"type":"Point","coordinates":[-73.477507,44.698544]}},{"type":"Feature","properties":{"stop_id":"j1w8","stop_code":"","stop_name":"Plattsburgh International Airport - UR","stop_desc":"","zone_id":"","stop_url":"","location_type":"","parent_station":"","stop_timezone":"","wheelchair_boarding":"","platform_code":"","feed_id":"New_York__Clinton_County_Public_Transit_(CCPT)__mdb_mdb-544","agency_name":"Clinton County Public Transit","route_count":0,"route_ids":"","route_short_names":"","route_types":"","route_type_names":"","routes_json":"[]"},"geometry":{"type":"Point","coordinates":[-73.471277,44.669582]}},{"type":"Feature","properties":{"stop_id":"vdqx","stop_code":"","stop_name":"Commutair - UR","stop_desc":"","zone_id":"","stop_url":"","location_type":"","parent_station":"","stop_timezone":"","wheelchair_boarding":"","platform_code":"","feed_id":"New_York__Clinton_County_Public_Transit_(CCPT)__mdb_mdb-544","agency_name":"Clinton County Public Transit","route_count":0,"route_ids":"","route_short_names":"","route_types":"","route_type_names":"","routes_json":"[]"},"geometry":{"type":"Point","coordinates":[-73.50902,44.686217]}},{"type":"Feature","properties":{"stop_id":"7q61","stop_code":"","stop_name":"One Stop Shop (Northern Cakes)","stop_desc":"","zone_id":"","stop_url":"","location_type":"","parent_station":"","stop_timezone":"","wheelchair_boarding":"","platform_code":"","feed_id":"New_York__Clinton_County_Public_Transit_(CCPT)__mdb_mdb-544","agency_name":"Clinton County Public Transit","route_count":0,"route_ids":"","route_short_names":"","route_types":"","route_type_names":"","routes_json":"[]"},"geometry":{"type":"Point","coordinates":[-73.505283,44.676737]}},{"type":"Feature","properties":{"stop_id":"12-1","stop_code":"","stop_name":"The Village Suites - Flag","stop_desc":"","zone_id":"","stop_url":"","location_type":"","parent_station":"","stop_timezone":"","wheelchair_boarding":"","platform_code":"","feed_id":"New_York__Clinton_County_Public_Transit_(CCPT)__mdb_mdb-544","agency_name":"Clinton County Public Transit","route_count":0,"route_ids":"","route_short_names":"","route_types":"","route_type_names":"","routes_json":"[]"},"geometry":{"type":"Point","coordinates":[-73.457884,44.690936]}},{"type":"Feature","properties":{"stop_id":"5eqh","stop_code":"","stop_name":"Route 9 in Front of Chazy Rural School - Flag","stop_desc":"","zone_id":"","stop_url":"","location_type":"","parent_station":"","stop_timezone":"","wheelchair_boarding":"","platform_code":"","feed_id":"New_York__Clinton_County_Public_Transit_(CCPT)__mdb_mdb-544","agency_name":"Clinton County Public Transit","route_count":0,"route_ids":"","route_short_names":"","route_types":"","route_type_names":"","routes_json":"[]"},"geometry":{"type":"Point","coordinates":[-73.436316,44.887119]}},{"type":"Feature","properties":{"stop_id":"13-F","stop_code":"13-F","stop_name":"Momot Elementary School - UR","stop_desc":"","zone_id":"","stop_url":"","location_type":"0","parent_station":"","stop_timezone":"","wheelchair_boarding":"0","platform_code":"","feed_id":"New_York__Clinton_County_Public_Transit_(CCPT)__mdb_mdb-544","agency_name":"Clinton County Public Transit","route_count":0,"route_ids":"","route_short_names":"","route_types":"","route_type_names":"","routes_json":"[]"},"geometry":{"type":"Point","coordinates":[-73.454564,44.683405]}},{"type":"Feature","properties":{"stop_id":"25jo","stop_code":"","stop_name":"Broad Street & Durkee St","stop_desc":"","zone_id":"","stop_url":"","location_type":"","parent_station":"","stop_timezone":"","wheelchair_boarding":"","platform_code":"","feed_id":"New_York__Clinton_County_Public_Transit_(CCPT)__mdb_mdb-544","agency_name":"Clinton County Public Transit","route_count":1,"route_ids":"3","route_short_names":"Champlain/Rouses Point","route_types":"3","route_type_names":"Bus","routes_json":"[{\"route_id\":\"3\",\"route_short_name\":\"Champlain/Rouses Point\",\"route_long_name\":\"Champlain/Rouses Point - CCPT\",\"route_type\":\"3\",\"route_type_name\":\"Bus\",\"route_color\":\"FFC000\",\"route_text_color\":\"000000\"}]"},"geometry":{"type":"Point","coordinates":[-73.452369,44.695299]}},{"type":"Feature","properties":{"stop_id":"27","stop_code":"27","stop_name":"Beekman Towers","stop_desc":"50 Asbury Lane","zone_id":"","stop_url":"","location_type":"0","parent_station":"","stop_timezone":"","wheelchair_boarding":"0","platform_code":"","feed_id":"New_York__Clinton_County_Public_Transit_(CCPT)__mdb_mdb-544","agency_name":"Clinton County Public Transit","route_count":1,"route_ids":"NWC","route_short_names":"North-West City","route_types":"3","route_type_names":"Bus","routes_json":"[{\"route_id\":\"NWC\",\"route_short_name\":\"North-West City\",\"route_long_name\":\"North-West City - CCPT\",\"route_type\":\"3\",\"route_type_name\":\"Bus\",\"route_color\":\"969696\",\"route_text_color\":\"000000\"}]"},"geometry":{"type":"Point","coordinates":[-73.467296,44.709631]}},{"type":"Feature","properties":{"stop_id":"STOP_6f2217bd-eb77-4fba-90af-751ef3e261cf","stop_code":"6f221","stop_name":"Clinton Community College","stop_desc":"136 Clinton Point Dr, Plattsburgh","zone_id":"","stop_url":"","location_type":"0","parent_station":"","stop_timezone":"","wheelchair_boarding":"0","platform_code":"","feed_id":"New_York__Clinton_County_Public_Transit_(CCPT)__mdb_mdb-544","agency_name":"Clinton County Public Transit","route_count":1,"route_ids":"1","route_short_names":"Keeseville/AuSable","route_types":"3","route_type_names":"Bus","routes_json":"[{\"route_id\":\"1\",\"route_short_name\":\"Keeseville/AuSable\",\"route_long_name\":\"Keeseville/AuSable - CCPT\",\"route_type\":\"3\",\"route_type_name\":\"Bus\",\"route_color\":\"981F40\",\"route_text_color\":\"FFFFFF\"}]"},"geometry":{"type":"Point","coordinates":[-73.440138,44.648261]}},{"type":"Feature","properties":{"stop_id":"48","stop_code":"48","stop_name":"Clinton Correctional Facility","stop_desc":"1156 Cook Street, Dannemora","zone_id":"","stop_url":"","location_type":"0","parent_station":"","stop_timezone":"","wheelchair_boarding":"0","platform_code":"","feed_id":"New_York__Clinton_County_Public_Transit_(CCPT)__mdb_mdb-544","agency_name":"Clinton County Public Transit","route_count":2,"route_ids":"4|8","route_short_names":"Clayburg|Lyon Mountain","route_types":"3","route_type_names":"Bus","routes_json":"[{\"route_id\":\"4\",\"route_short_name\":\"Clayburg\",\"route_long_name\":\"Clayburg - CCPT\",\"route_type\":\"3\",\"route_type_name\":\"Bus\",\"route_color\":\"4CFF00\",\"route_text_color\":\"000000\"},{\"route_id\":\"8\",\"route_short_name\":\"Lyon Mountain\",\"route_long_name\":\"Lyon Mountain - CCPT\",\"route_type\":\"3\",\"route_type_name\":\"Bus\",\"route_color\":\"7E06A3\",\"route_text_color\":\"FFFFFF\"}]"},"geometry":{"type":"Point","coordinates":[-73.723691,44.721853]}},{"type":"Feature","properties":{"stop_id":"69","stop_code":"69","stop_name":"Dollar General (Rouses Point)","stop_desc":"64 Lake Street, Champlain","zone_id":"","stop_url":"","location_type":"0","parent_station":"","stop_timezone":"","wheelchair_boarding":"0","platform_code":"","feed_id":"New_York__Clinton_County_Public_Transit_(CCPT)__mdb_mdb-544","agency_name":"Clinton County Public Transit","route_count":1,"route_ids":"3","route_short_names":"Champlain/Rouses Point","route_types":"3","route_type_names":"Bus","routes_json":"[{\"route_id\":\"3\",\"route_short_name\":\"Champlain/Rouses Point\",\"route_long_name\":\"Champlain/Rouses Point - CCPT\",\"route_type\":\"3\",\"route_type_name\":\"Bus\",\"route_color\":\"FFC000\",\"route_text_color\":\"000000\"}]"},"geometry":{"type":"Point","coordinates":[-73.365755,44.99457]}},{"type":"Feature","properties":{"stop_id":"62","stop_code":"62","stop_name":"Clinton County Government Center","stop_desc":"Cornelia Street, Plattsburgh","zone_id":"","stop_url":"","location_type":"0","parent_station":"","stop_timezone":"","wheelchair_boarding":"0","platform_code":"","feed_id":"New_York__Clinton_County_Public_Transit_(CCPT)__mdb_mdb-544","agency_name":"Clinton County Public Transit","route_count":10,"route_ids":"3|4|5|6|1|8|1076|NWC|i03v|fmvc","route_short_names":"Champlain/Rouses Point|Clayburg|Ellenburg|Express Shuttle|Keeseville/AuSable|Lyon Mountain|Mooers|North-West City|SUNY Shuttle|South-West City","route_types":"3","route_type_names":"Bus","routes_json":"[{\"route_id\":\"3\",\"route_short_name\":\"Champlain/Rouses Point\",\"route_long_name\":\"Champlain/Rouses Point - CCPT\",\"route_type\":\"3\",\"route_type_name\":\"Bus\",\"route_color\":\"FFC000\",\"route_text_color\":\"000000\"},{\"route_id\":\"4\",\"route_short_name\":\"Clayburg\",\"route_long_name\":\"Clayburg - CCPT\",\"route_type\":\"3\",\"route_type_name\":\"Bus\",\"route_color\":\"4CFF00\",\"route_text_color\":\"000000\"},{\"route_id\":\"5\",\"route_short_name\":\"Ellenburg\",\"route_long_name\":\"Ellenburg - CCPT\",\"route_type\":\"3\",\"route_type_name\":\"Bus\",\"route_color\":\"00C3FF\",\"route_text_color\":\"000000\"},{\"route_id\":\"6\",\"route_short_name\":\"Express Shuttle\",\"route_long_name\":\"Express Shuttle - CCPT\",\"route_type\":\"3\",\"route_type_name\":\"Bus\",\"route_color\":\"FF99CC\",\"route_text_color\":\"000000\"},{\"route_id\":\"1\",\"route_short_name\":\"Keeseville/AuSable\",\"route_long_name\":\"Keeseville/AuSable - CCPT\",\"route_type\":\"3\",\"route_type_name\":\"Bus\",\"route_color\":\"981F40\",\"route_text_color\":\"FFFFFF\"},{\"route_id\":\"8\",\"route_short_name\":\"Lyon Mountain\",\"route_long_name\":\"Lyon Mountain - CCPT\",\"route_type\":\"3\",\"route_type_name\":\"Bus\",\"route_color\":\"7E06A3\",\"route_text_color\":\"FFFFFF\"},{\"route_id\":\"1076\",\"route_short_name\":\"Mooers\",\"route_long_name\":\"Mooers - CCPT\",\"route_type\":\"3\",\"route_type_name\":\"Bus\",\"route_color\":\"34A600\",\"route_text_color\":\"000000\"},{\"route_id\":\"NWC\",\"route_short_name\":\"North-West City\",\"route_long_name\":\"North-West City - CCPT\",\"route_type\":\"3\",\"route_type_name\":\"Bus\",\"route_color\":\"969696\",\"route_text_color\":\"000000\"},{\"route_id\":\"i03v\",\"route_short_name\":\"SUNY Shuttle\",\"route_long_name\":\"SUNY Shuttle - CCPT\",\"route_type\":\"3\",\"route_type_name\":\"Bus\",\"route_color\":\"F9461C\",\"route_text_color\":\"000000\"},{\"route_id\":\"fmvc\",\"route_short_name\":\"South-West City\",\"route_long_name\":\"South-West City - CCPT\",\"route_type\":\"3\",\"route_type_name\":\"Bus\",\"route_color\":\"000000\",\"route_text_color\":\"FFFFFF\"}]"},"geometry":{"type":"Point","coordinates":[-73.454489,44.699343]}},{"type":"Feature","properties":{"stop_id":"b4v2","stop_code":"","stop_name":"Hannaford","stop_desc":"70 Pyramid Dr, Plattsburgh","zone_id":"","stop_url":"","location_type":"","parent_station":"","stop_timezone":"","wheelchair_boarding":"","platform_code":"","feed_id":"New_York__Clinton_County_Public_Transit_(CCPT)__mdb_mdb-544","agency_name":"Clinton County Public Transit","route_count":1,"route_ids":"NWC","route_short_names":"North-West City","route_types":"3","route_type_names":"Bus","routes_json":"[{\"route_id\":\"NWC\",\"route_short_name\":\"North-West City\",\"route_long_name\":\"North-West City - CCPT\",\"route_type\":\"3\",\"route_type_name\":\"Bus\",\"route_color\":\"969696\",\"route_text_color\":\"000000\"}]"},"geometry":{"type":"Point","coordinates":[-73.495616,44.701457]}},{"type":"Feature","properties":{"stop_id":"bn6a","stop_code":"","stop_name":"Lakeview Towers","stop_desc":"34 Flynn Ave, Plattsburgh","zone_id":"","stop_url":"","location_type":"","parent_station":"","stop_timezone":"","wheelchair_boarding":"","platform_code":"","feed_id":"New_York__Clinton_County_Public_Transit_(CCPT)__mdb_mdb-544","agency_name":"Clinton County Public Transit","route_count":1,"route_ids":"fmvc","route_short_names":"South-West City","route_types":"3","route_type_names":"Bus","routes_json":"[{\"route_id\":\"fmvc\",\"route_short_name\":\"South-West City\",\"route_long_name\":\"South-West City - CCPT\",\"route_type\":\"3\",\"route_type_name\":\"Bus\",\"route_color\":\"000000\",\"route_text_color\":\"FFFFFF\"}]"},"geometry":{"type":"Point","coordinates":[-73.458382,44.680589]}},{"type":"Feature","properties":{"stop_id":"z9d4","stop_code":"","stop_name":"Across from Morrisonville Post Office","stop_desc":"","zone_id":"","stop_url":"","location_type":"","parent_station":"","stop_timezone":"","wheelchair_boarding":"","platform_code":"","feed_id":"New_York__Clinton_County_Public_Transit_(CCPT)__mdb_mdb-544","agency_name":"Clinton County Public Transit","route_count":2,"route_ids":"4|8","route_short_names":"Clayburg|Lyon Mountain","route_types":"3","route_type_names":"Bus","routes_json":"[{\"route_id\":\"4\",\"route_short_name\":\"Clayburg\",\"route_long_name\":\"Clayburg - CCPT\",\"route_type\":\"3\",\"route_type_name\":\"Bus\",\"route_color\":\"4CFF00\",\"route_text_color\":\"000000\"},{\"route_id\":\"8\",\"route_short_name\":\"Lyon Mountain\",\"route_long_name\":\"Lyon Mountain - CCPT\",\"route_type\":\"3\",\"route_type_name\":\"Bus\",\"route_color\":\"7E06A3\",\"route_text_color\":\"FFFFFF\"}]"},"geometry":{"type":"Point","coordinates":[-73.563274,44.694539]}},{"type":"Feature","properties":{"stop_id":"STOP_14adaad4-3d1c-4212-9e2b-d27601e4eb8d","stop_code":"14ad","stop_name":"Stonehelm Motel","stop_desc":"72 Spellman Rd, Beekmantown","zone_id":"","stop_url":"","location_type":"0","parent_station":"","stop_timezone":"","wheelchair_boarding":"0","platform_code":"","feed_id":"New_York__Clinton_County_Public_Transit_(CCPT)__mdb_mdb-544","agency_name":"Clinton County Public Transit","route_count":1,"route_ids":"3","route_short_names":"Champlain/Rouses Point","route_types":"3","route_type_names":"Bus","routes_json":"[{\"route_id\":\"3\",\"route_short_name\":\"Champlain/Rouses Point\",\"route_long_name\":\"Champlain/Rouses Point - CCPT\",\"route_type\":\"3\",\"route_type_name\":\"Bus\",\"route_color\":\"FFC000\",\"route_text_color\":\"000000\"}]"},"geometry":{"type":"Point","coordinates":[-73.43354,44.782214]}},{"type":"Feature","properties":{"stop_id":"49","stop_code":"","stop_name":"Mountain Top Housing","stop_desc":"3921 Route 374, Lyon Mountain","zone_id":"","stop_url":"","location_type":"0","parent_station":"","stop_timezone":"","wheelchair_boarding":"0","platform_code":"","feed_id":"New_York__Clinton_County_Public_Transit_(CCPT)__mdb_mdb-544","agency_name":"Clinton County Public Transit","route_count":1,"route_ids":"8","route_short_names":"Lyon Mountain","route_types":"3","route_type_names":"Bus","routes_json":"[{\"route_id\":\"8\",\"route_short_name\":\"Lyon Mountain\",\"route_long_name\":\"Lyon Mountain - CCPT\",\"route_type\":\"3\",\"route_type_name\":\"Bus\",\"route_color\":\"7E06A3\",\"route_text_color\":\"FFFFFF\"}]"},"geometry":{"type":"Point","coordinates":[-73.911075,44.732693]}},{"type":"Feature","properties":{"stop_id":"61","stop_code":"61","stop_name":"Mr. Modular","stop_desc":"4732 Route 3, Saranac","zone_id":"","stop_url":"","location_type":"0","parent_station":"","stop_timezone":"","wheelchair_boarding":"0","platform_code":"","feed_id":"New_York__Clinton_County_Public_Transit_(CCPT)__mdb_mdb-544","agency_name":"Clinton County Public Transit","route_count":1,"route_ids":"4","route_short_names":"Clayburg","route_types":"3","route_type_names":"Bus","routes_json":"[{\"route_id\":\"4\",\"route_short_name\":\"Clayburg\",\"route_long_name\":\"Clayburg - CCPT\",\"route_type\":\"3\",\"route_type_name\":\"Bus\",\"route_color\":\"4CFF00\",\"route_text_color\":\"000000\"}]"},"geometry":{"type":"Point","coordinates":[-73.832465,44.596873]}},{"type":"Feature","properties":{"stop_id":"STOP_9c70acde-6963-4aa8-a257-ae83440772b6","stop_code":"9c70","stop_name":"Northern Adirondack Central School","stop_desc":"5572 Route 11, Ellenburg","zone_id":"","stop_url":"","location_type":"0","parent_station":"","stop_timezone":"","wheelchair_boarding":"0","platform_code":"","feed_id":"New_York__Clinton_County_Public_Transit_(CCPT)__mdb_mdb-544","agency_name":"Clinton County Public Transit","route_count":1,"route_ids":"5","route_short_names":"Ellenburg","route_types":"3","route_type_names":"Bus","routes_json":"[{\"route_id\":\"5\",\"route_short_name\":\"Ellenburg\",\"route_long_name\":\"Ellenburg - CCPT\",\"route_type\":\"3\",\"route_type_name\":\"Bus\",\"route_color\":\"00C3FF\",\"route_text_color\":\"000000\"}]"},"geometry":{"type":"Point","coordinates":[-73.841,44.892098]}},{"type":"Feature","properties":{"stop_id":"15","stop_code":"15","stop_name":"ETS / One Work Source","stop_desc":"194 US Oval, Plattsburgh","zone_id":"","stop_url":"","location_type":"0","parent_station":"","stop_timezone":"","wheelchair_boarding":"0","platform_code":"","feed_id":"New_York__Clinton_County_Public_Transit_(CCPT)__mdb_mdb-544","agency_name":"Clinton County Public Transit","route_count":1,"route_ids":"fmvc","route_short_names":"South-West City","route_types":"3","route_type_names":"Bus","routes_json":"[{\"route_id\":\"fmvc\",\"route_short_name\":\"South-West City\",\"route_long_name\":\"South-West City - CCPT\",\"route_type\":\"3\",\"route_type_name\":\"Bus\",\"route_color\":\"000000\",\"route_text_color\":\"FFFFFF\"}]"},"geometry":{"type":"Point","coordinates":[-73.448803,44.684328]}},{"type":"Feature","properties":{"stop_id":"67","stop_code":"67","stop_name":"Price Chopper (Champlain)","stop_desc":"860 Route 11, Champlain","zone_id":"","stop_url":"","location_type":"0","parent_station":"","stop_timezone":"","wheelchair_boarding":"0","platform_code":"","feed_id":"New_York__Clinton_County_Public_Transit_(CCPT)__mdb_mdb-544","agency_name":"Clinton County Public Transit","route_count":1,"route_ids":"3","route_short_names":"Champlain/Rouses Point","route_types":"3","route_type_names":"Bus","routes_json":"[{\"route_id\":\"3\",\"route_short_name\":\"Champlain/Rouses Point\",\"route_long_name\":\"Champlain/Rouses Point - CCPT\",\"route_type\":\"3\",\"route_type_name\":\"Bus\",\"route_color\":\"FFC000\",\"route_text_color\":\"000000\"}]"},"geometry":{"type":"Point","coordinates":[-73.444258,44.979121]}},{"type":"Feature","properties":{"stop_id":"55","stop_code":"55","stop_name":"Altona Post Office","stop_desc":"499 Devils Den Rd, Altona","zone_id":"","stop_url":"","location_type":"0","parent_station":"","stop_timezone":"","wheelchair_boarding":"0","platform_code":"","feed_id":"New_York__Clinton_County_Public_Transit_(CCPT)__mdb_mdb-544","agency_name":"Clinton County Public Transit","route_count":1,"route_ids":"5","route_short_names":"Ellenburg","route_types":"3","route_type_names":"Bus","routes_json":"[{\"route_id\":\"5\",\"route_short_name\":\"Ellenburg\",\"route_long_name\":\"Ellenburg - CCPT\",\"route_type\":\"3\",\"route_type_name\":\"Bus\",\"route_color\":\"00C3FF\",\"route_text_color\":\"000000\"}]"},"geometry":{"type":"Point","coordinates":[-73.655927,44.888356]}},{"type":"Feature","properties":{"stop_id":"9att","stop_code":"","stop_name":"Russell Barnard Apts","stop_desc":"36 Flynn Ave, Plattsburgh","zone_id":"","stop_url":"","location_type":"","parent_station":"","stop_timezone":"","wheelchair_boarding":"","platform_code":"","feed_id":"New_York__Clinton_County_Public_Transit_(CCPT)__mdb_mdb-544","agency_name":"Clinton County Public Transit","route_count":1,"route_ids":"fmvc","route_short_names":"South-West City","route_types":"3","route_type_names":"Bus","routes_json":"[{\"route_id\":\"fmvc\",\"route_short_name\":\"South-West City\",\"route_long_name\":\"South-West City - CCPT\",\"route_type\":\"3\",\"route_type_name\":\"Bus\",\"route_color\":\"000000\",\"route_text_color\":\"FFFFFF\"}]"},"geometry":{"type":"Point","coordinates":[-73.459134,44.680532]}},{"type":"Feature","properties":{"stop_id":"pndo","stop_code":"","stop_name":"Senior Citizen's Center","stop_desc":"5139 North Catherine, Plattsburgh","zone_id":"","stop_url":"","location_type":"","parent_station":"","stop_timezone":"","wheelchair_boarding":"","platform_code":"","feed_id":"New_York__Clinton_County_Public_Transit_(CCPT)__mdb_mdb-544","agency_name":"Clinton County Public Transit","route_count":0,"route_ids":"","route_short_names":"","route_types":"","route_type_names":"","routes_json":"[]"},"geometry":{"type":"Point","coordinates":[-73.459098,44.697907]}},{"type":"Feature","properties":{"stop_id":"STOP_af403855-cec0-4552-8f96-7bafd0624d17","stop_code":"af403","stop_name":"Senior Citizens Council","stop_desc":"5139 North Catherine, Plattsburgh","zone_id":"","stop_url":"","location_type":"0","parent_station":"","stop_timezone":"","wheelchair_boarding":"0","platform_code":"","feed_id":"New_York__Clinton_County_Public_Transit_(CCPT)__mdb_mdb-544","agency_name":"Clinton County Public Transit","route_count":2,"route_ids":"NWC|fmvc","route_short_names":"North-West City|South-West City","route_types":"3","route_type_names":"Bus","routes_json":"[{\"route_id\":\"NWC\",\"route_short_name\":\"North-West City\",\"route_long_name\":\"North-West City - CCPT\",\"route_type\":\"3\",\"route_type_name\":\"Bus\",\"route_color\":\"969696\",\"route_text_color\":\"000000\"},{\"route_id\":\"fmvc\",\"route_short_name\":\"South-West City\",\"route_long_name\":\"South-West City - CCPT\",\"route_type\":\"3\",\"route_type_name\":\"Bus\",\"route_color\":\"000000\",\"route_text_color\":\"FFFFFF\"}]"},"geometry":{"type":"Point","coordinates":[-73.458087,44.697244]}},{"type":"Feature","properties":{"stop_id":"STOP_fdb38586-a260-4704-8e27-9a1e85dd52ae","stop_code":"fdb38","stop_name":"Skyway Plaza","stop_desc":"34 Skyway Shopping Center, Plattsburgh","zone_id":"","stop_url":"","location_type":"0","parent_station":"","stop_timezone":"","wheelchair_boarding":"0","platform_code":"","feed_id":"New_York__Clinton_County_Public_Transit_(CCPT)__mdb_mdb-544","agency_name":"Clinton County Public Transit","route_count":1,"route_ids":"fmvc","route_short_names":"South-West City","route_types":"3","route_type_names":"Bus","routes_json":"[{\"route_id\":\"fmvc\",\"route_short_name\":\"South-West City\",\"route_long_name\":\"South-West City - CCPT\",\"route_type\":\"3\",\"route_type_name\":\"Bus\",\"route_color\":\"000000\",\"route_text_color\":\"FFFFFF\"}]"},"geometry":{"type":"Point","coordinates":[-73.449504,44.681665]}},{"type":"Feature","properties":{"stop_id":"19","stop_code":"19","stop_name":"Southside Grocery - South Peru Street","stop_desc":"4788 Crete Blvd, Plattsburgh","zone_id":"","stop_url":"","location_type":"0","parent_station":"","stop_timezone":"","wheelchair_boarding":"0","platform_code":"","feed_id":"New_York__Clinton_County_Public_Transit_(CCPT)__mdb_mdb-544","agency_name":"Clinton County Public Transit","route_count":1,"route_ids":"6","route_short_names":"Express Shuttle","route_types":"3","route_type_names":"Bus","routes_json":"[{\"route_id\":\"6\",\"route_short_name\":\"Express Shuttle\",\"route_long_name\":\"Express Shuttle - CCPT\",\"route_type\":\"3\",\"route_type_name\":\"Bus\",\"route_color\":\"FF99CC\",\"route_text_color\":\"000000\"}]"},"geometry":{"type":"Point","coordinates":[-73.461757,44.67403]}},{"type":"Feature","properties":{"stop_id":"36","stop_code":"36","stop_name":"UVM-CVPH Health Plaza / Hudson Head Waters","stop_desc":"89 Plaza Blvd","zone_id":"","stop_url":"","location_type":"0","parent_station":"","stop_timezone":"","wheelchair_boarding":"0","platform_code":"","feed_id":"New_York__Clinton_County_Public_Transit_(CCPT)__mdb_mdb-544","agency_name":"Clinton County Public Transit","route_count":0,"route_ids":"","route_short_names":"","route_types":"","route_type_names":"","routes_json":"[]"},"geometry":{"type":"Point","coordinates":[-73.498106,44.702094]}},{"type":"Feature","properties":{"stop_id":"78","stop_code":"","stop_name":"Stewarts Rouses Point","stop_desc":"222 Lake St, Rouses Point","zone_id":"","stop_url":"","location_type":"0","parent_station":"","stop_timezone":"","wheelchair_boarding":"0","platform_code":"","feed_id":"New_York__Clinton_County_Public_Transit_(CCPT)__mdb_mdb-544","agency_name":"Clinton County Public Transit","route_count":0,"route_ids":"","route_short_names":"","route_types":"","route_type_names":"","routes_json":"[]"},"geometry":{"type":"Point","coordinates":[-73.363424,44.983026]}},{"type":"Feature","properties":{"stop_id":"76","stop_code":"76","stop_name":"Villa Motel","stop_desc":"1875 Route 9, Keeseville","zone_id":"","stop_url":"","location_type":"0","parent_station":"","stop_timezone":"","wheelchair_boarding":"0","platform_code":"","feed_id":"New_York__Clinton_County_Public_Transit_(CCPT)__mdb_mdb-544","agency_name":"Clinton County Public Transit","route_count":1,"route_ids":"1","route_short_names":"Keeseville/AuSable","route_types":"3","route_type_names":"Bus","routes_json":"[{\"route_id\":\"1\",\"route_short_name\":\"Keeseville/AuSable\",\"route_long_name\":\"Keeseville/AuSable - CCPT\",\"route_type\":\"3\",\"route_type_name\":\"Bus\",\"route_color\":\"981F40\",\"route_text_color\":\"FFFFFF\"}]"},"geometry":{"type":"Point","coordinates":[-73.473188,44.512411]}},{"type":"Feature","properties":{"stop_id":"80","stop_code":"","stop_name":"Maplefields (Rt3, Saranac)","stop_desc":"4340 Route 3, Saranac","zone_id":"","stop_url":"","location_type":"0","parent_station":"","stop_timezone":"","wheelchair_boarding":"0","platform_code":"","feed_id":"New_York__Clinton_County_Public_Transit_(CCPT)__mdb_mdb-544","agency_name":"Clinton County Public Transit","route_count":1,"route_ids":"4","route_short_names":"Clayburg","route_types":"3","route_type_names":"Bus","routes_json":"[{\"route_id\":\"4\",\"route_short_name\":\"Clayburg\",\"route_long_name\":\"Clayburg - CCPT\",\"route_type\":\"3\",\"route_type_name\":\"Bus\",\"route_color\":\"4CFF00\",\"route_text_color\":\"000000\"}]"},"geometry":{"type":"Point","coordinates":[-73.796308,44.609839]}},{"type":"Feature","properties":{"stop_id":"sts8","stop_code":"","stop_name":"Plattsburgh Plaza Family Dollar - UR","stop_desc":"","zone_id":"","stop_url":"","location_type":"","parent_station":"","stop_timezone":"","wheelchair_boarding":"","platform_code":"","feed_id":"New_York__Clinton_County_Public_Transit_(CCPT)__mdb_mdb-544","agency_name":"Clinton County Public Transit","route_count":0,"route_ids":"","route_short_names":"","route_types":"","route_type_names":"","routes_json":"[]"},"geometry":{"type":"Point","coordinates":[-73.477498,44.697823]}},{"type":"Feature","properties":{"stop_id":"wzij","stop_code":"wzij","stop_name":"3rd Street Lyon Mountain","stop_desc":"","zone_id":"","stop_url":"","location_type":"0","parent_station":"","stop_timezone":"","wheelchair_boarding":"0","platform_code":"","feed_id":"New_York__Clinton_County_Public_Transit_(CCPT)__mdb_mdb-544","agency_name":"Clinton County Public Transit","route_count":0,"route_ids":"","route_short_names":"","route_types":"","route_type_names":"","routes_json":"[]"},"geometry":{"type":"Point","coordinates":[-73.913698,44.726125]}},{"type":"Feature","properties":{"stop_id":"4b4b","stop_code":"4b4b","stop_name":"Across B's County Quick Stop- R","stop_desc":"","zone_id":"","stop_url":"","location_type":"0","parent_station":"","stop_timezone":"","wheelchair_boarding":"0","platform_code":"","feed_id":"New_York__Clinton_County_Public_Transit_(CCPT)__mdb_mdb-544","agency_name":"Clinton County Public Transit","route_count":0,"route_ids":"","route_short_names":"","route_types":"","route_type_names":"","routes_json":"[]"},"geometry":{"type":"Point","coordinates":[-73.797074,44.906271]}},{"type":"Feature","properties":{"stop_id":"592","stop_code":"592","stop_name":"Across from Cadyville Fire Station - Flag","stop_desc":"","zone_id":"","stop_url":"","location_type":"0","parent_station":"","stop_timezone":"","wheelchair_boarding":"0","platform_code":"","feed_id":"New_York__Clinton_County_Public_Transit_(CCPT)__mdb_mdb-544","agency_name":"Clinton County Public Transit","route_count":0,"route_ids":"","route_short_names":"","route_types":"","route_type_names":"","routes_json":"[]"},"geometry":{"type":"Point","coordinates":[-73.633843,44.697028]}},{"type":"Feature","properties":{"stop_id":"532","stop_code":"532","stop_name":"Across from Cody's Store - Flag","stop_desc":"","zone_id":"","stop_url":"","location_type":"0","parent_station":"","stop_timezone":"","wheelchair_boarding":"0","platform_code":"","feed_id":"New_York__Clinton_County_Public_Transit_(CCPT)__mdb_mdb-544","agency_name":"Clinton County Public Transit","route_count":0,"route_ids":"","route_short_names":"","route_types":"","route_type_names":"","routes_json":"[]"},"geometry":{"type":"Point","coordinates":[-73.557218,44.780539]}},{"type":"Feature","properties":{"stop_id":"b88c","stop_code":"b88c","stop_name":"Across from Plattsburgh High School - Flag","stop_desc":"","zone_id":"","stop_url":"","location_type":"0","parent_station":"","stop_timezone":"","wheelchair_boarding":"0","platform_code":"","feed_id":"New_York__Clinton_County_Public_Transit_(CCPT)__mdb_mdb-544","agency_name":"Clinton County Public Transit","route_count":0,"route_ids":"","route_short_names":"","route_types":"","route_type_names":"","routes_json":"[]"},"geometry":{"type":"Point","coordinates":[-73.471738,44.687644]}},{"type":"Feature","properties":{"stop_id":"9bd2-1","stop_code":"9bd2-1","stop_name":"Across from Tara Lane - Flag","stop_desc":"","zone_id":"","stop_url":"","location_type":"0","parent_station":"","stop_timezone":"","wheelchair_boarding":"0","platform_code":"","feed_id":"New_York__Clinton_County_Public_Transit_(CCPT)__mdb_mdb-544","agency_name":"Clinton County Public Transit","route_count":0,"route_ids":"","route_short_names":"","route_types":"","route_type_names":"","routes_json":"[]"},"geometry":{"type":"Point","coordinates":[-73.431426,44.731893]}},{"type":"Feature","properties":{"stop_id":"4lqa","stop_code":"","stop_name":"Behind Starbucks - UR","stop_desc":"","zone_id":"","stop_url":"","location_type":"","parent_station":"","stop_timezone":"","wheelchair_boarding":"","platform_code":"","feed_id":"New_York__Clinton_County_Public_Transit_(CCPT)__mdb_mdb-544","agency_name":"Clinton County Public Transit","route_count":0,"route_ids":"","route_short_names":"","route_types":"","route_type_names":"","routes_json":"[]"},"geometry":{"type":"Point","coordinates":[-73.48327,44.696554]}},{"type":"Feature","properties":{"stop_id":"25F","stop_code":"25F","stop_name":"Boynton Avenue in Front of Kinney Drugs - Flag","stop_desc":"","zone_id":"","stop_url":"","location_type":"0","parent_station":"","stop_timezone":"","wheelchair_boarding":"0","platform_code":"","feed_id":"New_York__Clinton_County_Public_Transit_(CCPT)__mdb_mdb-544","agency_name":"Clinton County Public Transit","route_count":0,"route_ids":"","route_short_names":"","route_types":"","route_type_names":"","routes_json":"[]"},"geometry":{"type":"Point","coordinates":[-73.456148,44.708984]}},{"type":"Feature","properties":{"stop_id":"n0yj","stop_code":"","stop_name":"Champlain Valley Industries","stop_desc":"","zone_id":"","stop_url":"","location_type":"","parent_station":"","stop_timezone":"","wheelchair_boarding":"","platform_code":"","feed_id":"New_York__Clinton_County_Public_Transit_(CCPT)__mdb_mdb-544","agency_name":"Clinton County Public Transit","route_count":0,"route_ids":"","route_short_names":"","route_types":"","route_type_names":"","routes_json":"[]"},"geometry":{"type":"Point","coordinates":[-73.511132,44.689606]}},{"type":"Feature","properties":{"stop_id":"70","stop_code":"70","stop_name":"Chazy Stewart's - UR","stop_desc":"","zone_id":"","stop_url":"","location_type":"0","parent_station":"","stop_timezone":"","wheelchair_boarding":"0","platform_code":"","feed_id":"New_York__Clinton_County_Public_Transit_(CCPT)__mdb_mdb-544","agency_name":"Clinton County Public Transit","route_count":0,"route_ids":"","route_short_names":"","route_types":"","route_type_names":"","routes_json":"[]"},"geometry":{"type":"Point","coordinates":[-73.436181,44.886201]}},{"type":"Feature","properties":{"stop_id":"STOP_fe705f77-073a-443e-aeab-48fa6e4fc006","stop_code":"fe705","stop_name":"DeGrandpre Way Medical Offices - UR","stop_desc":"","zone_id":"","stop_url":"","location_type":"0","parent_station":"","stop_timezone":"","wheelchair_boarding":"0","platform_code":"","feed_id":"New_York__Clinton_County_Public_Transit_(CCPT)__mdb_mdb-544","agency_name":"Clinton County Public Transit","route_count":0,"route_ids":"","route_short_names":"","route_types":"","route_type_names":"","routes_json":"[]"},"geometry":{"type":"Point","coordinates":[-73.49978,44.701987]}},{"type":"Feature","properties":{"stop_id":"4t2s","stop_code":"","stop_name":"Diamond Comics - Flag","stop_desc":"","zone_id":"","stop_url":"","location_type":"","parent_station":"","stop_timezone":"","wheelchair_boarding":"","platform_code":"","feed_id":"New_York__Clinton_County_Public_Transit_(CCPT)__mdb_mdb-544","agency_name":"Clinton County Public Transit","route_count":0,"route_ids":"","route_short_names":"","route_types":"","route_type_names":"","routes_json":"[]"},"geometry":{"type":"Point","coordinates":[-73.51468,44.6934]}},{"type":"Feature","properties":{"stop_id":"i93x","stop_code":"i93x","stop_name":"Gus's Red Hots","stop_desc":"","zone_id":"","stop_url":"","location_type":"0","parent_station":"","stop_timezone":"","wheelchair_boarding":"0","platform_code":"","feed_id":"New_York__Clinton_County_Public_Transit_(CCPT)__mdb_mdb-544","agency_name":"Clinton County Public Transit","route_count":0,"route_ids":"","route_short_names":"","route_types":"","route_type_names":"","routes_json":"[]"},"geometry":{"type":"Point","coordinates":[-73.436387,44.725484]}},{"type":"Feature","properties":{"stop_id":"b751","stop_code":"","stop_name":"Macdonough Hall","stop_desc":"","zone_id":"","stop_url":"","location_type":"","parent_station":"","stop_timezone":"","wheelchair_boarding":"","platform_code":"","feed_id":"New_York__Clinton_County_Public_Transit_(CCPT)__mdb_mdb-544","agency_name":"Clinton County Public Transit","route_count":0,"route_ids":"","route_short_names":"","route_types":"","route_type_names":"","routes_json":"[]"},"geometry":{"type":"Point","coordinates":[-73.462662,44.69457]}},{"type":"Feature","properties":{"stop_id":"13","stop_code":"13","stop_name":"Momot Elementary School","stop_desc":"","zone_id":"","stop_url":"","location_type":"0","parent_station":"","stop_timezone":"","wheelchair_boarding":"0","platform_code":"","feed_id":"New_York__Clinton_County_Public_Transit_(CCPT)__mdb_mdb-544","agency_name":"Clinton County Public Transit","route_count":0,"route_ids":"","route_short_names":"","route_types":"","route_type_names":"","routes_json":"[]"},"geometry":{"type":"Point","coordinates":[-73.454478,44.683418]}},{"type":"Feature","properties":{"stop_id":"fa25c","stop_code":"fa25c","stop_name":"Route 374 - Across from Lyon Mountain Post Office - Flag","stop_desc":"","zone_id":"","stop_url":"","location_type":"0","parent_station":"","stop_timezone":"","wheelchair_boarding":"0","platform_code":"","feed_id":"New_York__Clinton_County_Public_Transit_(CCPT)__mdb_mdb-544","agency_name":"Clinton County Public Transit","route_count":0,"route_ids":"","route_short_names":"","route_types":"","route_type_names":"","routes_json":"[]"},"geometry":{"type":"Point","coordinates":[-73.90707,44.72993]}},{"type":"Feature","properties":{"stop_id":"STOP_b5716be3-e067-454b-8046-6a7e64986b83","stop_code":"b57","stop_name":"Sailly Avenue - Flag","stop_desc":"","zone_id":"","stop_url":"","location_type":"0","parent_station":"","stop_timezone":"","wheelchair_boarding":"0","platform_code":"","feed_id":"New_York__Clinton_County_Public_Transit_(CCPT)__mdb_mdb-544","agency_name":"Clinton County Public Transit","route_count":0,"route_ids":"","route_short_names":"","route_types":"","route_type_names":"","routes_json":"[]"},"geometry":{"type":"Point","coordinates":[-73.451564,44.708941]}},{"type":"Feature","properties":{"stop_id":"1323","stop_code":"1323","stop_name":"Seton Catholic Central","stop_desc":"","zone_id":"","stop_url":"","location_type":"0","parent_station":"","stop_timezone":"","wheelchair_boarding":"0","platform_code":"","feed_id":"New_York__Clinton_County_Public_Transit_(CCPT)__mdb_mdb-544","agency_name":"Clinton County Public Transit","route_count":0,"route_ids":"","route_short_names":"","route_types":"","route_type_names":"","routes_json":"[]"},"geometry":{"type":"Point","coordinates":[-73.451176,44.673316]}},{"type":"Feature","properties":{"stop_id":"t9go","stop_code":"","stop_name":"Shell Station Route 3 - UR","stop_desc":"","zone_id":"","stop_url":"","location_type":"","parent_station":"","stop_timezone":"","wheelchair_boarding":"","platform_code":"","feed_id":"New_York__Clinton_County_Public_Transit_(CCPT)__mdb_mdb-544","agency_name":"Clinton County Public Transit","route_count":0,"route_ids":"","route_short_names":"","route_types":"","route_type_names":"","routes_json":"[]"},"geometry":{"type":"Point","coordinates":[-73.491463,44.696338]}},{"type":"Feature","properties":{"stop_id":"12-2","stop_code":"12-2","stop_name":"South Catherine Street & Village Suites - Flag","stop_desc":"","zone_id":"","stop_url":"","location_type":"0","parent_station":"","stop_timezone":"","wheelchair_boarding":"0","platform_code":"","feed_id":"New_York__Clinton_County_Public_Transit_(CCPT)__mdb_mdb-544","agency_name":"Clinton County Public Transit","route_count":0,"route_ids":"","route_short_names":"","route_types":"","route_type_names":"","routes_json":"[]"},"geometry":{"type":"Point","coordinates":[-73.45742,44.690779]}},{"type":"Feature","properties":{"stop_id":"12-3","stop_code":"12-3","stop_name":"South Catherine Street Across from Renaissance Village - Flag","stop_desc":"","zone_id":"","stop_url":"","location_type":"0","parent_station":"","stop_timezone":"","wheelchair_boarding":"0","platform_code":"","feed_id":"New_York__Clinton_County_Public_Transit_(CCPT)__mdb_mdb-544","agency_name":"Clinton County Public Transit","route_count":0,"route_ids":"","route_short_names":"","route_types":"","route_type_names":"","routes_json":"[]"},"geometry":{"type":"Point","coordinates":[-73.457225,44.690762]}},{"type":"Feature","properties":{"stop_id":"19x","stop_code":"19x","stop_name":"South Peru Street - Across from Southside Grocery","stop_desc":"","zone_id":"","stop_url":"","location_type":"0","parent_station":"","stop_timezone":"","wheelchair_boarding":"0","platform_code":"","feed_id":"New_York__Clinton_County_Public_Transit_(CCPT)__mdb_mdb-544","agency_name":"Clinton County Public Transit","route_count":0,"route_ids":"","route_short_names":"","route_types":"","route_type_names":"","routes_json":"[]"},"geometry":{"type":"Point","coordinates":[-73.461576,44.673957]}},{"type":"Feature","properties":{"stop_id":"h294","stop_code":"","stop_name":"Clinton County Sheriff's Office","stop_desc":"25 McCarthy Dr, Plattsburgh","zone_id":"","stop_url":"","location_type":"","parent_station":"","stop_timezone":"","wheelchair_boarding":"","platform_code":"","feed_id":"New_York__Clinton_County_Public_Transit_(CCPT)__mdb_mdb-544","agency_name":"Clinton County Public Transit","route_count":1,"route_ids":"1076","route_short_names":"Mooers","route_types":"3","route_type_names":"Bus","routes_json":"[{\"route_id\":\"1076\",\"route_short_name\":\"Mooers\",\"route_long_name\":\"Mooers - CCPT\",\"route_type\":\"3\",\"route_type_name\":\"Bus\",\"route_color\":\"34A600\",\"route_text_color\":\"000000\"}]"},"geometry":{"type":"Point","coordinates":[-73.467044,44.719696]}},{"type":"Feature","properties":{"stop_id":"uziq","stop_code":"","stop_name":"West Chazy Post Office","stop_desc":"7634 Route 2, West Chazy","zone_id":"","stop_url":"","location_type":"","parent_station":"","stop_timezone":"","wheelchair_boarding":"","platform_code":"","feed_id":"New_York__Clinton_County_Public_Transit_(CCPT)__mdb_mdb-544","agency_name":"Clinton County Public Transit","route_count":0,"route_ids":"","route_short_names":"","route_types":"","route_type_names":"","routes_json":"[]"},"geometry":{"type":"Point","coordinates":[-73.507392,44.815641]}},{"type":"Feature","properties":{"stop_id":"5tcl","stop_code":"","stop_name":"2nd St & Center St","stop_desc":"Lyon Mountain","zone_id":"","stop_url":"","location_type":"","parent_station":"","stop_timezone":"","wheelchair_boarding":"","platform_code":"","feed_id":"New_York__Clinton_County_Public_Transit_(CCPT)__mdb_mdb-544","agency_name":"Clinton County Public Transit","route_count":1,"route_ids":"8","route_short_names":"Lyon Mountain","route_types":"3","route_type_names":"Bus","routes_json":"[{\"route_id\":\"8\",\"route_short_name\":\"Lyon Mountain\",\"route_long_name\":\"Lyon Mountain - CCPT\",\"route_type\":\"3\",\"route_type_name\":\"Bus\",\"route_color\":\"7E06A3\",\"route_text_color\":\"FFFFFF\"}]"},"geometry":{"type":"Point","coordinates":[-73.913816,44.722626]}},{"type":"Feature","properties":{"stop_id":"78d2-2","stop_code":"","stop_name":"Mobile Station/Dunkin (Route 9)","stop_desc":"7155 State Route 9, Plattsburgh","zone_id":"","stop_url":"","location_type":"0","parent_station":"","stop_timezone":"","wheelchair_boarding":"0","platform_code":"","feed_id":"New_York__Clinton_County_Public_Transit_(CCPT)__mdb_mdb-544","agency_name":"Clinton County Public Transit","route_count":1,"route_ids":"3","route_short_names":"Champlain/Rouses Point","route_types":"3","route_type_names":"Bus","routes_json":"[{\"route_id\":\"3\",\"route_short_name\":\"Champlain/Rouses Point\",\"route_long_name\":\"Champlain/Rouses Point - CCPT\",\"route_type\":\"3\",\"route_type_name\":\"Bus\",\"route_color\":\"FFC000\",\"route_text_color\":\"000000\"}]"},"geometry":{"type":"Point","coordinates":[-73.435083,44.727741]}},{"type":"Feature","properties":{"stop_id":"y179","stop_code":"","stop_name":"ALDI","stop_desc":"328 Cornelia St, Plattsburgh","zone_id":"","stop_url":"","location_type":"","parent_station":"","stop_timezone":"","wheelchair_boarding":"","platform_code":"","feed_id":"New_York__Clinton_County_Public_Transit_(CCPT)__mdb_mdb-544","agency_name":"Clinton County Public Transit","route_count":1,"route_ids":"fmvc","route_short_names":"South-West City","route_types":"3","route_type_names":"Bus","routes_json":"[{\"route_id\":\"fmvc\",\"route_short_name\":\"South-West City\",\"route_long_name\":\"South-West City - CCPT\",\"route_type\":\"3\",\"route_type_name\":\"Bus\",\"route_color\":\"000000\",\"route_text_color\":\"FFFFFF\"}]"},"geometry":{"type":"Point","coordinates":[-73.480827,44.698567]}},{"type":"Feature","properties":{"stop_id":"9","stop_code":"9","stop_name":"Angell College Center","stop_desc":"","zone_id":"","stop_url":"","location_type":"0","parent_station":"","stop_timezone":"","wheelchair_boarding":"0","platform_code":"","feed_id":"New_York__Clinton_County_Public_Transit_(CCPT)__mdb_mdb-544","agency_name":"Clinton County Public Transit","route_count":1,"route_ids":"i03v","route_short_names":"SUNY Shuttle","route_types":"3","route_type_names":"Bus","routes_json":"[{\"route_id\":\"i03v\",\"route_short_name\":\"SUNY Shuttle\",\"route_long_name\":\"SUNY Shuttle - CCPT\",\"route_type\":\"3\",\"route_type_name\":\"Bus\",\"route_color\":\"F9461C\",\"route_text_color\":\"000000\"}]"},"geometry":{"type":"Point","coordinates":[-73.465859,44.692984]}},{"type":"Feature","properties":{"stop_id":"STOP_1c1139f8-4ef8-4d3e-88ce-c696c8e469a9","stop_code":"1c113","stop_name":"Behavioral Health Services North (BHSN)","stop_desc":"2155 Route 22B","zone_id":"","stop_url":"","location_type":"0","parent_station":"","stop_timezone":"","wheelchair_boarding":"0","platform_code":"","feed_id":"New_York__Clinton_County_Public_Transit_(CCPT)__mdb_mdb-544","agency_name":"Clinton County Public Transit","route_count":0,"route_ids":"","route_short_names":"","route_types":"","route_type_names":"","routes_json":"[]"},"geometry":{"type":"Point","coordinates":[-73.535399,44.696901]}},{"type":"Feature","properties":{"stop_id":"l2ka","stop_code":"","stop_name":"Behavioral Health Services North (BHSN)","stop_desc":"2155 Route 22B","zone_id":"","stop_url":"","location_type":"","parent_station":"","stop_timezone":"","wheelchair_boarding":"","platform_code":"","feed_id":"New_York__Clinton_County_Public_Transit_(CCPT)__mdb_mdb-544","agency_name":"Clinton County Public Transit","route_count":3,"route_ids":"4|8|NWC","route_short_names":"Clayburg|Lyon Mountain|North-West City","route_types":"3","route_type_names":"Bus","routes_json":"[{\"route_id\":\"4\",\"route_short_name\":\"Clayburg\",\"route_long_name\":\"Clayburg - CCPT\",\"route_type\":\"3\",\"route_type_name\":\"Bus\",\"route_color\":\"4CFF00\",\"route_text_color\":\"000000\"},{\"route_id\":\"8\",\"route_short_name\":\"Lyon Mountain\",\"route_long_name\":\"Lyon Mountain - CCPT\",\"route_type\":\"3\",\"route_type_name\":\"Bus\",\"route_color\":\"7E06A3\",\"route_text_color\":\"FFFFFF\"},{\"route_id\":\"NWC\",\"route_short_name\":\"North-West City\",\"route_long_name\":\"North-West City - CCPT\",\"route_type\":\"3\",\"route_type_name\":\"Bus\",\"route_color\":\"969696\",\"route_text_color\":\"000000\"}]"},"geometry":{"type":"Point","coordinates":[-73.535609,44.696485]}},{"type":"Feature","properties":{"stop_id":"vhii","stop_code":"","stop_name":"Beekmantown Fire Dept","stop_desc":"6973 Route 22","zone_id":"","stop_url":"","location_type":"","parent_station":"","stop_timezone":"","wheelchair_boarding":"","platform_code":"","feed_id":"New_York__Clinton_County_Public_Transit_(CCPT)__mdb_mdb-544","agency_name":"Clinton County Public Transit","route_count":1,"route_ids":"1076","route_short_names":"Mooers","route_types":"3","route_type_names":"Bus","routes_json":"[{\"route_id\":\"1076\",\"route_short_name\":\"Mooers\",\"route_long_name\":\"Mooers - CCPT\",\"route_type\":\"3\",\"route_type_name\":\"Bus\",\"route_color\":\"34A600\",\"route_text_color\":\"000000\"}]"},"geometry":{"type":"Point","coordinates":[-73.49198,44.775053]}},{"type":"Feature","properties":{"stop_id":"gxrr","stop_code":"","stop_name":"Cumberland 12","stop_desc":"18 North Bowl Lane, Plattsburgh","zone_id":"","stop_url":"","location_type":"","parent_station":"","stop_timezone":"","wheelchair_boarding":"","platform_code":"","feed_id":"New_York__Clinton_County_Public_Transit_(CCPT)__mdb_mdb-544","agency_name":"Clinton County Public Transit","route_count":1,"route_ids":"3","route_short_names":"Champlain/Rouses Point","route_types":"3","route_type_names":"Bus","routes_json":"[{\"route_id\":\"3\",\"route_short_name\":\"Champlain/Rouses Point\",\"route_long_name\":\"Champlain/Rouses Point - CCPT\",\"route_type\":\"3\",\"route_type_name\":\"Bus\",\"route_color\":\"FFC000\",\"route_text_color\":\"000000\"}]"},"geometry":{"type":"Point","coordinates":[-73.431298,44.733679]}},{"type":"Feature","properties":{"stop_id":"52","stop_code":"52","stop_name":"Champlain Centre Mall (Target)","stop_desc":"60 Smithfield Blvd","zone_id":"","stop_url":"","location_type":"0","parent_station":"","stop_timezone":"","wheelchair_boarding":"0","platform_code":"","feed_id":"New_York__Clinton_County_Public_Transit_(CCPT)__mdb_mdb-544","agency_name":"Clinton County Public Transit","route_count":7,"route_ids":"4|5|8|1076|NWC|i03v|fmvc","route_short_names":"Clayburg|Ellenburg|Lyon Mountain|Mooers|North-West City|SUNY Shuttle|South-West City","route_types":"3","route_type_names":"Bus","routes_json":"[{\"route_id\":\"4\",\"route_short_name\":\"Clayburg\",\"route_long_name\":\"Clayburg - CCPT\",\"route_type\":\"3\",\"route_type_name\":\"Bus\",\"route_color\":\"4CFF00\",\"route_text_color\":\"000000\"},{\"route_id\":\"5\",\"route_short_name\":\"Ellenburg\",\"route_long_name\":\"Ellenburg - CCPT\",\"route_type\":\"3\",\"route_type_name\":\"Bus\",\"route_color\":\"00C3FF\",\"route_text_color\":\"000000\"},{\"route_id\":\"8\",\"route_short_name\":\"Lyon Mountain\",\"route_long_name\":\"Lyon Mountain - CCPT\",\"route_type\":\"3\",\"route_type_name\":\"Bus\",\"route_color\":\"7E06A3\",\"route_text_color\":\"FFFFFF\"},{\"route_id\":\"1076\",\"route_short_name\":\"Mooers\",\"route_long_name\":\"Mooers - CCPT\",\"route_type\":\"3\",\"route_type_name\":\"Bus\",\"route_color\":\"34A600\",\"route_text_color\":\"000000\"},{\"route_id\":\"NWC\",\"route_short_name\":\"North-West City\",\"route_long_name\":\"North-West City - CCPT\",\"route_type\":\"3\",\"route_type_name\":\"Bus\",\"route_color\":\"969696\",\"route_text_color\":\"000000\"},{\"route_id\":\"i03v\",\"route_short_name\":\"SUNY Shuttle\",\"route_long_name\":\"SUNY Shuttle - CCPT\",\"route_type\":\"3\",\"route_type_name\":\"Bus\",\"route_color\":\"F9461C\",\"route_text_color\":\"000000\"},{\"route_id\":\"fmvc\",\"route_short_name\":\"South-West City\",\"route_long_name\":\"South-West City - CCPT\",\"route_type\":\"3\",\"route_type_name\":\"Bus\",\"route_color\":\"000000\",\"route_text_color\":\"FFFFFF\"}]"},"geometry":{"type":"Point","coordinates":[-73.49269,44.703237]}},{"type":"Feature","properties":{"stop_id":"02sc","stop_code":"","stop_name":"Dollar General (West Chazy)","stop_desc":"7576 Route 22, West Chazy","zone_id":"","stop_url":"","location_type":"0","parent_station":"","stop_timezone":"","wheelchair_boarding":"","platform_code":"","feed_id":"New_York__Clinton_County_Public_Transit_(CCPT)__mdb_mdb-544","agency_name":"Clinton County Public Transit","route_count":1,"route_ids":"1076","route_short_names":"Mooers","route_types":"3","route_type_names":"Bus","routes_json":"[{\"route_id\":\"1076\",\"route_short_name\":\"Mooers\",\"route_long_name\":\"Mooers - CCPT\",\"route_type\":\"3\",\"route_type_name\":\"Bus\",\"route_color\":\"34A600\",\"route_text_color\":\"000000\"}]"},"geometry":{"type":"Point","coordinates":[-73.50711,44.81351]}},{"type":"Feature","properties":{"stop_id":"vsia","stop_code":"","stop_name":"Champlain Family Health (Hudson Headwaters) - UR","stop_desc":"828 US Route 11, Champlain","zone_id":"","stop_url":"","location_type":"","parent_station":"","stop_timezone":"","wheelchair_boarding":"","platform_code":"","feed_id":"New_York__Clinton_County_Public_Transit_(CCPT)__mdb_mdb-544","agency_name":"Clinton County Public Transit","route_count":1,"route_ids":"3","route_short_names":"Champlain/Rouses Point","route_types":"3","route_type_names":"Bus","routes_json":"[{\"route_id\":\"3\",\"route_short_name\":\"Champlain/Rouses Point\",\"route_long_name\":\"Champlain/Rouses Point - CCPT\",\"route_type\":\"3\",\"route_type_name\":\"Bus\",\"route_color\":\"FFC000\",\"route_text_color\":\"000000\"}]"},"geometry":{"type":"Point","coordinates":[-73.439827,44.978745]}},{"type":"Feature","properties":{"stop_id":"73vi","stop_code":"","stop_name":"Champlain Valley Family Center (CVFC)","stop_desc":"20 Ampersand Drive, Plattsburgh","zone_id":"","stop_url":"","location_type":"","parent_station":"","stop_timezone":"","wheelchair_boarding":"","platform_code":"","feed_id":"New_York__Clinton_County_Public_Transit_(CCPT)__mdb_mdb-544","agency_name":"Clinton County Public Transit","route_count":0,"route_ids":"","route_short_names":"","route_types":"","route_type_names":"","routes_json":"[]"},"geometry":{"type":"Point","coordinates":[-73.484699,44.687983]}},{"type":"Feature","properties":{"stop_id":"STOP_e2378a98-7e11-403b-8560-963a0bfbdd25","stop_code":"e237","stop_name":"Clinton County Mental Health","stop_desc":"130 Arizona Ave","zone_id":"","stop_url":"","location_type":"0","parent_station":"","stop_timezone":"","wheelchair_boarding":"0","platform_code":"","feed_id":"New_York__Clinton_County_Public_Transit_(CCPT)__mdb_mdb-544","agency_name":"Clinton County Public Transit","route_count":1,"route_ids":"fmvc","route_short_names":"South-West City","route_types":"3","route_type_names":"Bus","routes_json":"[{\"route_id\":\"fmvc\",\"route_short_name\":\"South-West City\",\"route_long_name\":\"South-West City - CCPT\",\"route_type\":\"3\",\"route_type_name\":\"Bus\",\"route_color\":\"000000\",\"route_text_color\":\"FFFFFF\"}]"},"geometry":{"type":"Point","coordinates":[-73.459868,44.661137]}},{"type":"Feature","properties":{"stop_id":"mt2j","stop_code":"","stop_name":"Eye Care for the ADKs","stop_desc":"450 Margaret Street, Plattsburgh","zone_id":"","stop_url":"","location_type":"","parent_station":"","stop_timezone":"","wheelchair_boarding":"","platform_code":"","feed_id":"New_York__Clinton_County_Public_Transit_(CCPT)__mdb_mdb-544","agency_name":"Clinton County Public Transit","route_count":1,"route_ids":"NWC","route_short_names":"North-West City","route_types":"3","route_type_names":"Bus","routes_json":"[{\"route_id\":\"NWC\",\"route_short_name\":\"North-West City\",\"route_long_name\":\"North-West City - CCPT\",\"route_type\":\"3\",\"route_type_name\":\"Bus\",\"route_color\":\"969696\",\"route_text_color\":\"000000\"}]"},"geometry":{"type":"Point","coordinates":[-73.444061,44.716544]}},{"type":"Feature","properties":{"stop_id":"STOP_12adb595-f6b1-45d8-8678-597a649d39d0","stop_code":"12adt","stop_name":"Family Dollar (Plattsburgh)","stop_desc":"357 Cornelia St, Plattsburgh","zone_id":"","stop_url":"","location_type":"0","parent_station":"","stop_timezone":"","wheelchair_boarding":"0","platform_code":"","feed_id":"New_York__Clinton_County_Public_Transit_(CCPT)__mdb_mdb-544","agency_name":"Clinton County Public Transit","route_count":1,"route_ids":"i03v","route_short_names":"SUNY Shuttle","route_types":"3","route_type_names":"Bus","routes_json":"[{\"route_id\":\"i03v\",\"route_short_name\":\"SUNY Shuttle\",\"route_long_name\":\"SUNY Shuttle - CCPT\",\"route_type\":\"3\",\"route_type_name\":\"Bus\",\"route_color\":\"F9461C\",\"route_text_color\":\"000000\"}]"},"geometry":{"type":"Point","coordinates":[-73.482839,44.696382]}},{"type":"Feature","properties":{"stop_id":"mlzj","stop_code":"","stop_name":"Ganienkeh Laundromat & Store","stop_desc":"2 Devils Den Rd, Altona","zone_id":"","stop_url":"","location_type":"","parent_station":"","stop_timezone":"America/New_York","wheelchair_boarding":"","platform_code":"","feed_id":"New_York__Clinton_County_Public_Transit_(CCPT)__mdb_mdb-544","agency_name":"Clinton County Public Transit","route_count":1,"route_ids":"5","route_short_names":"Ellenburg","route_types":"3","route_type_names":"Bus","routes_json":"[{\"route_id\":\"5\",\"route_short_name\":\"Ellenburg\",\"route_long_name\":\"Ellenburg - CCPT\",\"route_type\":\"3\",\"route_type_name\":\"Bus\",\"route_color\":\"00C3FF\",\"route_text_color\":\"000000\"}]"},"geometry":{"type":"Point","coordinates":[-73.671124,44.867363]}},{"type":"Feature","properties":{"stop_id":"42","stop_code":"42","stop_name":"Hannaford - UR","stop_desc":"70 Pyramid Dr, Plattsburgh","zone_id":"","stop_url":"","location_type":"0","parent_station":"","stop_timezone":"","wheelchair_boarding":"0","platform_code":"","feed_id":"New_York__Clinton_County_Public_Transit_(CCPT)__mdb_mdb-544","agency_name":"Clinton County Public Transit","route_count":0,"route_ids":"","route_short_names":"","route_types":"","route_type_names":"","routes_json":"[]"},"geometry":{"type":"Point","coordinates":[-73.495531,44.701469]}},{"type":"Feature","properties":{"stop_id":"STOP_b097e14e-54c4-4c70-a55c-ae907a5c1f48","stop_code":"b097","stop_name":"Kinney Drugs  - West (off Military Turnpike) - UR","stop_desc":"1588 Military Turnpike, Plattsburgh","zone_id":"","stop_url":"","location_type":"0","parent_station":"","stop_timezone":"","wheelchair_boarding":"0","platform_code":"","feed_id":"New_York__Clinton_County_Public_Transit_(CCPT)__mdb_mdb-544","agency_name":"Clinton County Public Transit","route_count":0,"route_ids":"","route_short_names":"","route_types":"","route_type_names":"","routes_json":"[]"},"geometry":{"type":"Point","coordinates":[-73.516352,44.694623]}},{"type":"Feature","properties":{"stop_id":"mm60","stop_code":"mm60","stop_name":"Maplefields Dannemora - UR","stop_desc":"936 Route 374, Dannemora","zone_id":"","stop_url":"","location_type":"0","parent_station":"","stop_timezone":"","wheelchair_boarding":"0","platform_code":"","feed_id":"New_York__Clinton_County_Public_Transit_(CCPT)__mdb_mdb-544","agency_name":"Clinton County Public Transit","route_count":0,"route_ids":"","route_short_names":"","route_types":"","route_type_names":"","routes_json":"[]"},"geometry":{"type":"Point","coordinates":[-73.703879,44.722083]}},{"type":"Feature","properties":{"stop_id":"STOP_397b4c02-5575-472d-a596-8783c3b211a3","stop_code":"379b","stop_name":"Market 32","stop_desc":"32 Centre Drive, Plattsburgh","zone_id":"","stop_url":"","location_type":"0","parent_station":"","stop_timezone":"","wheelchair_boarding":"0","platform_code":"","feed_id":"New_York__Clinton_County_Public_Transit_(CCPT)__mdb_mdb-544","agency_name":"Clinton County Public Transit","route_count":2,"route_ids":"i03v|fmvc","route_short_names":"SUNY Shuttle|South-West City","route_types":"3","route_type_names":"Bus","routes_json":"[{\"route_id\":\"i03v\",\"route_short_name\":\"SUNY Shuttle\",\"route_long_name\":\"SUNY Shuttle - CCPT\",\"route_type\":\"3\",\"route_type_name\":\"Bus\",\"route_color\":\"F9461C\",\"route_text_color\":\"000000\"},{\"route_id\":\"fmvc\",\"route_short_name\":\"South-West City\",\"route_long_name\":\"South-West City - CCPT\",\"route_type\":\"3\",\"route_type_name\":\"Bus\",\"route_color\":\"000000\",\"route_text_color\":\"FFFFFF\"}]"},"geometry":{"type":"Point","coordinates":[-73.492656,44.695363]}},{"type":"Feature","properties":{"stop_id":"14","stop_code":"14","stop_name":"MHAB","stop_desc":"14 Dormitory Drive, Plattsburgh","zone_id":"","stop_url":"","location_type":"0","parent_station":"","stop_timezone":"","wheelchair_boarding":"0","platform_code":"","feed_id":"New_York__Clinton_County_Public_Transit_(CCPT)__mdb_mdb-544","agency_name":"Clinton County Public Transit","route_count":1,"route_ids":"fmvc","route_short_names":"South-West City","route_types":"3","route_type_names":"Bus","routes_json":"[{\"route_id\":\"fmvc\",\"route_short_name\":\"South-West City\",\"route_long_name\":\"South-West City - CCPT\",\"route_type\":\"3\",\"route_type_name\":\"Bus\",\"route_color\":\"000000\",\"route_text_color\":\"FFFFFF\"}]"},"geometry":{"type":"Point","coordinates":[-73.457042,44.664096]}},{"type":"Feature","properties":{"stop_id":"u6o3","stop_code":"u6o3","stop_name":"Mobil Station (Spellman Road)","stop_desc":"93 Spellman Rd, Beekmantown","zone_id":"","stop_url":"","location_type":"0","parent_station":"","stop_timezone":"","wheelchair_boarding":"0","platform_code":"","feed_id":"New_York__Clinton_County_Public_Transit_(CCPT)__mdb_mdb-544","agency_name":"Clinton County Public Transit","route_count":0,"route_ids":"","route_short_names":"","route_types":"","route_type_names":"","routes_json":"[]"},"geometry":{"type":"Point","coordinates":[-73.434355,44.781195]}},{"type":"Feature","properties":{"stop_id":"z2qu","stop_code":"","stop_name":"Mooers Free Library","stop_desc":"25 School St, Mooers","zone_id":"","stop_url":"","location_type":"","parent_station":"","stop_timezone":"","wheelchair_boarding":"","platform_code":"","feed_id":"New_York__Clinton_County_Public_Transit_(CCPT)__mdb_mdb-544","agency_name":"Clinton County Public Transit","route_count":1,"route_ids":"1076","route_short_names":"Mooers","route_types":"3","route_type_names":"Bus","routes_json":"[{\"route_id\":\"1076\",\"route_short_name\":\"Mooers\",\"route_long_name\":\"Mooers - CCPT\",\"route_type\":\"3\",\"route_type_name\":\"Bus\",\"route_color\":\"34A600\",\"route_text_color\":\"000000\"}]"},"geometry":{"type":"Point","coordinates":[-73.586259,44.961443]}},{"type":"Feature","properties":{"stop_id":"xxhm","stop_code":"","stop_name":"Mooers Post Office","stop_desc":"2578 Route 11, Mooers","zone_id":"","stop_url":"","location_type":"","parent_station":"","stop_timezone":"","wheelchair_boarding":"","platform_code":"","feed_id":"New_York__Clinton_County_Public_Transit_(CCPT)__mdb_mdb-544","agency_name":"Clinton County Public Transit","route_count":1,"route_ids":"1076","route_short_names":"Mooers","route_types":"3","route_type_names":"Bus","routes_json":"[{\"route_id\":\"1076\",\"route_short_name\":\"Mooers\",\"route_long_name\":\"Mooers - CCPT\",\"route_type\":\"3\",\"route_type_name\":\"Bus\",\"route_color\":\"34A600\",\"route_text_color\":\"000000\"}]"},"geometry":{"type":"Point","coordinates":[-73.596345,44.960368]}},{"type":"Feature","properties":{"stop_id":"0857","stop_code":"","stop_name":"Mooers Town Office","stop_desc":"2508 Route 11, Mooers","zone_id":"","stop_url":"","location_type":"","parent_station":"","stop_timezone":"","wheelchair_boarding":"","platform_code":"","feed_id":"New_York__Clinton_County_Public_Transit_(CCPT)__mdb_mdb-544","agency_name":"Clinton County Public Transit","route_count":1,"route_ids":"1076","route_short_names":"Mooers","route_types":"3","route_type_names":"Bus","routes_json":"[{\"route_id\":\"1076\",\"route_short_name\":\"Mooers\",\"route_long_name\":\"Mooers - CCPT\",\"route_type\":\"3\",\"route_type_name\":\"Bus\",\"route_color\":\"34A600\",\"route_text_color\":\"000000\"}]"},"geometry":{"type":"Point","coordinates":[-73.588883,44.960516]}},{"type":"Feature","properties":{"stop_id":"2hm3","stop_code":"","stop_name":"North Woods Apartments","stop_desc":"159 Plaza Blvd, Plattsburgh","zone_id":"","stop_url":"","location_type":"","parent_station":"","stop_timezone":"","wheelchair_boarding":"","platform_code":"","feed_id":"New_York__Clinton_County_Public_Transit_(CCPT)__mdb_mdb-544","agency_name":"Clinton County Public Transit","route_count":1,"route_ids":"NWC","route_short_names":"North-West City","route_types":"3","route_type_names":"Bus","routes_json":"[{\"route_id\":\"NWC\",\"route_short_name\":\"North-West City\",\"route_long_name\":\"North-West City - CCPT\",\"route_type\":\"3\",\"route_type_name\":\"Bus\",\"route_color\":\"969696\",\"route_text_color\":\"000000\"}]"},"geometry":{"type":"Point","coordinates":[-73.501998,44.701749]}},{"type":"Feature","properties":{"stop_id":"ig6z","stop_code":"","stop_name":"Lot Between PFCU and Adk Hardware","stop_desc":"Front St, Keeseville","zone_id":"","stop_url":"","location_type":"","parent_station":"","stop_timezone":"","wheelchair_boarding":"","platform_code":"","feed_id":"New_York__Clinton_County_Public_Transit_(CCPT)__mdb_mdb-544","agency_name":"Clinton County Public Transit","route_count":0,"route_ids":"","route_short_names":"","route_types":"","route_type_names":"","routes_json":"[]"},"geometry":{"type":"Point","coordinates":[-73.480446,44.503936]}},{"type":"Feature","properties":{"stop_id":"76x","stop_code":"76x","stop_name":"Across from Villa Motel","stop_desc":"Across from 1875 Route 9, Keeseville","zone_id":"","stop_url":"","location_type":"0","parent_station":"","stop_timezone":"","wheelchair_boarding":"0","platform_code":"","feed_id":"New_York__Clinton_County_Public_Transit_(CCPT)__mdb_mdb-544","agency_name":"Clinton County Public Transit","route_count":1,"route_ids":"1","route_short_names":"Keeseville/AuSable","route_types":"3","route_type_names":"Bus","routes_json":"[{\"route_id\":\"1\",\"route_short_name\":\"Keeseville/AuSable\",\"route_long_name\":\"Keeseville/AuSable - CCPT\",\"route_type\":\"3\",\"route_type_name\":\"Bus\",\"route_color\":\"981F40\",\"route_text_color\":\"FFFFFF\"}]"},"geometry":{"type":"Point","coordinates":[-73.472948,44.51237]}},{"type":"Feature","properties":{"stop_id":"rtoz","stop_code":"","stop_name":"Lyon Mountain Post Office","stop_desc":"8 Langey St, Lyon Mountain","zone_id":"","stop_url":"","location_type":"","parent_station":"","stop_timezone":"","wheelchair_boarding":"","platform_code":"","feed_id":"New_York__Clinton_County_Public_Transit_(CCPT)__mdb_mdb-544","agency_name":"Clinton County Public Transit","route_count":1,"route_ids":"8","route_short_names":"Lyon Mountain","route_types":"3","route_type_names":"Bus","routes_json":"[{\"route_id\":\"8\",\"route_short_name\":\"Lyon Mountain\",\"route_long_name\":\"Lyon Mountain - CCPT\",\"route_type\":\"3\",\"route_type_name\":\"Bus\",\"route_color\":\"7E06A3\",\"route_text_color\":\"FFFFFF\"}]"},"geometry":{"type":"Point","coordinates":[-73.907068,44.729475]}},{"type":"Feature","properties":{"stop_id":"STOP_76c8c976-6222-45b6-8c85-0eaccfd5f10a","stop_code":"76c8","stop_name":"Morrisonville Post Office","stop_desc":"1934 Route 22B, Morrisonville","zone_id":"","stop_url":"","location_type":"0","parent_station":"","stop_timezone":"","wheelchair_boarding":"0","platform_code":"","feed_id":"New_York__Clinton_County_Public_Transit_(CCPT)__mdb_mdb-544","agency_name":"Clinton County Public Transit","route_count":2,"route_ids":"4|8","route_short_names":"Clayburg|Lyon Mountain","route_types":"3","route_type_names":"Bus","routes_json":"[{\"route_id\":\"4\",\"route_short_name\":\"Clayburg\",\"route_long_name\":\"Clayburg - CCPT\",\"route_type\":\"3\",\"route_type_name\":\"Bus\",\"route_color\":\"4CFF00\",\"route_text_color\":\"000000\"},{\"route_id\":\"8\",\"route_short_name\":\"Lyon Mountain\",\"route_long_name\":\"Lyon Mountain - CCPT\",\"route_type\":\"3\",\"route_type_name\":\"Bus\",\"route_color\":\"7E06A3\",\"route_text_color\":\"FFFFFF\"}]"},"geometry":{"type":"Point","coordinates":[-73.56315,44.694384]}},{"type":"Feature","properties":{"stop_id":"STOP_0e077b17-3f6e-4b44-8fc6-813833d9459c","stop_code":"0e07","stop_name":"Saranac Country Store","stop_desc":"3346 Route 3, Saranac","zone_id":"","stop_url":"","location_type":"0","parent_station":"","stop_timezone":"","wheelchair_boarding":"0","platform_code":"","feed_id":"New_York__Clinton_County_Public_Transit_(CCPT)__mdb_mdb-544","agency_name":"Clinton County Public Transit","route_count":1,"route_ids":"4","route_short_names":"Clayburg","route_types":"3","route_type_names":"Bus","routes_json":"[{\"route_id\":\"4\",\"route_short_name\":\"Clayburg\",\"route_long_name\":\"Clayburg - CCPT\",\"route_type\":\"3\",\"route_type_name\":\"Bus\",\"route_color\":\"4CFF00\",\"route_text_color\":\"000000\"}]"},"geometry":{"type":"Point","coordinates":[-73.73576,44.659549]}},{"type":"Feature","properties":{"stop_id":"slo1","stop_code":"","stop_name":"St Joseph's Outreach","stop_desc":"1349 Military Turnpike, Plattsburgh","zone_id":"","stop_url":"","location_type":"","parent_station":"","stop_timezone":"","wheelchair_boarding":"","platform_code":"","feed_id":"New_York__Clinton_County_Public_Transit_(CCPT)__mdb_mdb-544","agency_name":"Clinton County Public Transit","route_count":1,"route_ids":"NWC","route_short_names":"North-West City","route_types":"3","route_type_names":"Bus","routes_json":"[{\"route_id\":\"NWC\",\"route_short_name\":\"North-West City\",\"route_long_name\":\"North-West City - CCPT\",\"route_type\":\"3\",\"route_type_name\":\"Bus\",\"route_color\":\"969696\",\"route_text_color\":\"000000\"}]"},"geometry":{"type":"Point","coordinates":[-73.506331,44.680649]}},{"type":"Feature","properties":{"stop_id":"STOP_4ea3bf5f-734c-4247-9c50-12b9e1b90cee","stop_code":"43a3","stop_name":"Stewarts Dannemora","stop_desc":"1173 Cook St, Dannemora","zone_id":"","stop_url":"","location_type":"0","parent_station":"","stop_timezone":"","wheelchair_boarding":"0","platform_code":"","feed_id":"New_York__Clinton_County_Public_Transit_(CCPT)__mdb_mdb-544","agency_name":"Clinton County Public Transit","route_count":2,"route_ids":"4|8","route_short_names":"Clayburg|Lyon Mountain","route_types":"3","route_type_names":"Bus","routes_json":"[{\"route_id\":\"4\",\"route_short_name\":\"Clayburg\",\"route_long_name\":\"Clayburg - CCPT\",\"route_type\":\"3\",\"route_type_name\":\"Bus\",\"route_color\":\"4CFF00\",\"route_text_color\":\"000000\"},{\"route_id\":\"8\",\"route_short_name\":\"Lyon Mountain\",\"route_long_name\":\"Lyon Mountain - CCPT\",\"route_type\":\"3\",\"route_type_name\":\"Bus\",\"route_color\":\"7E06A3\",\"route_text_color\":\"FFFFFF\"}]"},"geometry":{"type":"Point","coordinates":[-73.725107,44.721348]}},{"type":"Feature","properties":{"stop_id":"t5zm","stop_code":"","stop_name":"Anchorage Motel","stop_desc":"164 Lake St, Rouses Point","zone_id":"","stop_url":"","location_type":"","parent_station":"","stop_timezone":"","wheelchair_boarding":"","platform_code":"","feed_id":"New_York__Clinton_County_Public_Transit_(CCPT)__mdb_mdb-544","agency_name":"Clinton County Public Transit","route_count":1,"route_ids":"3","route_short_names":"Champlain/Rouses Point","route_types":"3","route_type_names":"Bus","routes_json":"[{\"route_id\":\"3\",\"route_short_name\":\"Champlain/Rouses Point\",\"route_long_name\":\"Champlain/Rouses Point - CCPT\",\"route_type\":\"3\",\"route_type_name\":\"Bus\",\"route_color\":\"FFC000\",\"route_text_color\":\"000000\"}]"},"geometry":{"type":"Point","coordinates":[-73.363797,44.988026]}},{"type":"Feature","properties":{"stop_id":"26o3","stop_code":"","stop_name":"Top's Market","stop_desc":"14228 Route 9N, Ausable Forks","zone_id":"","stop_url":"","location_type":"","parent_station":"","stop_timezone":"","wheelchair_boarding":"","platform_code":"","feed_id":"New_York__Clinton_County_Public_Transit_(CCPT)__mdb_mdb-544","agency_name":"Clinton County Public Transit","route_count":1,"route_ids":"1","route_short_names":"Keeseville/AuSable","route_types":"3","route_type_names":"Bus","routes_json":"[{\"route_id\":\"1\",\"route_short_name\":\"Keeseville/AuSable\",\"route_long_name\":\"Keeseville/AuSable - CCPT\",\"route_type\":\"3\",\"route_type_name\":\"Bus\",\"route_color\":\"981F40\",\"route_text_color\":\"FFFFFF\"}]"},"geometry":{"type":"Point","coordinates":[-73.675738,44.440456]}},{"type":"Feature","properties":{"stop_id":"d0zz","stop_code":"","stop_name":"Wal-Mart Plaza","stop_desc":"Consumer Square, Plattsburgh","zone_id":"","stop_url":"","location_type":"","parent_station":"","stop_timezone":"","wheelchair_boarding":"","platform_code":"","feed_id":"New_York__Clinton_County_Public_Transit_(CCPT)__mdb_mdb-544","agency_name":"Clinton County Public Transit","route_count":6,"route_ids":"4|5|8|NWC|i03v|fmvc","route_short_names":"Clayburg|Ellenburg|Lyon Mountain|North-West City|SUNY Shuttle|South-West City","route_types":"3","route_type_names":"Bus","routes_json":"[{\"route_id\":\"4\",\"route_short_name\":\"Clayburg\",\"route_long_name\":\"Clayburg - CCPT\",\"route_type\":\"3\",\"route_type_name\":\"Bus\",\"route_color\":\"4CFF00\",\"route_text_color\":\"000000\"},{\"route_id\":\"5\",\"route_short_name\":\"Ellenburg\",\"route_long_name\":\"Ellenburg - CCPT\",\"route_type\":\"3\",\"route_type_name\":\"Bus\",\"route_color\":\"00C3FF\",\"route_text_color\":\"000000\"},{\"route_id\":\"8\",\"route_short_name\":\"Lyon Mountain\",\"route_long_name\":\"Lyon Mountain - CCPT\",\"route_type\":\"3\",\"route_type_name\":\"Bus\",\"route_color\":\"7E06A3\",\"route_text_color\":\"FFFFFF\"},{\"route_id\":\"NWC\",\"route_short_name\":\"North-West City\",\"route_long_name\":\"North-West City - CCPT\",\"route_type\":\"3\",\"route_type_name\":\"Bus\",\"route_color\":\"969696\",\"route_text_color\":\"000000\"},{\"route_id\":\"i03v\",\"route_short_name\":\"SUNY Shuttle\",\"route_long_name\":\"SUNY Shuttle - CCPT\",\"route_type\":\"3\",\"route_type_name\":\"Bus\",\"route_color\":\"F9461C\",\"route_text_color\":\"000000\"},{\"route_id\":\"fmvc\",\"route_short_name\":\"South-West City\",\"route_long_name\":\"South-West City - CCPT\",\"route_type\":\"3\",\"route_type_name\":\"Bus\",\"route_color\":\"000000\",\"route_text_color\":\"FFFFFF\"}]"},"geometry":{"type":"Point","coordinates":[-73.485645,44.692722]}},{"type":"Feature","properties":{"stop_id":"STOP_ea13dd38-f6a9-4066-a30c-ba9e63aa326a","stop_code":"ea13","stop_name":"Maplefields (Military Turnpike)","stop_desc":"1785 Military Turnpike, Plattsburgh","zone_id":"","stop_url":"","location_type":"0","parent_station":"","stop_timezone":"","wheelchair_boarding":"0","platform_code":"","feed_id":"New_York__Clinton_County_Public_Transit_(CCPT)__mdb_mdb-544","agency_name":"Clinton County Public Transit","route_count":1,"route_ids":"5","route_short_names":"Ellenburg","route_types":"3","route_type_names":"Bus","routes_json":"[{\"route_id\":\"5\",\"route_short_name\":\"Ellenburg\",\"route_long_name\":\"Ellenburg - CCPT\",\"route_type\":\"3\",\"route_type_name\":\"Bus\",\"route_color\":\"00C3FF\",\"route_text_color\":\"000000\"}]"},"geometry":{"type":"Point","coordinates":[-73.526956,44.705239]}},{"type":"Feature","properties":{"stop_id":"STOP_90048be2-5cef-4178-aca5-1003f5b63af3","stop_code":"9004","stop_name":"UVM-CVPH (Hospital)","stop_desc":"75 Beekman St, Plattsburgh","zone_id":"","stop_url":"","location_type":"0","parent_station":"","stop_timezone":"","wheelchair_boarding":"0","platform_code":"","feed_id":"New_York__Clinton_County_Public_Transit_(CCPT)__mdb_mdb-544","agency_name":"Clinton County Public Transit","route_count":2,"route_ids":"NWC|fmvc","route_short_names":"North-West City|South-West City","route_types":"3","route_type_names":"Bus","routes_json":"[{\"route_id\":\"NWC\",\"route_short_name\":\"North-West City\",\"route_long_name\":\"North-West City - CCPT\",\"route_type\":\"3\",\"route_type_name\":\"Bus\",\"route_color\":\"969696\",\"route_text_color\":\"000000\"},{\"route_id\":\"fmvc\",\"route_short_name\":\"South-West City\",\"route_long_name\":\"South-West City - CCPT\",\"route_type\":\"3\",\"route_type_name\":\"Bus\",\"route_color\":\"000000\",\"route_text_color\":\"FFFFFF\"}]"},"geometry":{"type":"Point","coordinates":[-73.468784,44.700645]}},{"type":"Feature","properties":{"stop_id":"y0em","stop_code":"","stop_name":"Champlain Valley Family Center (CVFC)","stop_desc":"20 Ampersand Drive, Plattsburgh","zone_id":"","stop_url":"","location_type":"","parent_station":"","stop_timezone":"","wheelchair_boarding":"","platform_code":"","feed_id":"New_York__Clinton_County_Public_Transit_(CCPT)__mdb_mdb-544","agency_name":"Clinton County Public Transit","route_count":1,"route_ids":"NWC","route_short_names":"North-West City","route_types":"3","route_type_names":"Bus","routes_json":"[{\"route_id\":\"NWC\",\"route_short_name\":\"North-West City\",\"route_long_name\":\"North-West City - CCPT\",\"route_type\":\"3\",\"route_type_name\":\"Bus\",\"route_color\":\"969696\",\"route_text_color\":\"000000\"}]"},"geometry":{"type":"Point","coordinates":[-73.485011,44.688679]}},{"type":"Feature","properties":{"stop_id":"oywn","stop_code":"oywn","stop_name":"Village Liquor Shoppe","stop_desc":"1735 Main St, Keeseville","zone_id":"","stop_url":"","location_type":"0","parent_station":"","stop_timezone":"","wheelchair_boarding":"","platform_code":"","feed_id":"New_York__Clinton_County_Public_Transit_(CCPT)__mdb_mdb-544","agency_name":"Clinton County Public Transit","route_count":1,"route_ids":"1","route_short_names":"Keeseville/AuSable","route_types":"3","route_type_names":"Bus","routes_json":"[{\"route_id\":\"1\",\"route_short_name\":\"Keeseville/AuSable\",\"route_long_name\":\"Keeseville/AuSable - CCPT\",\"route_type\":\"3\",\"route_type_name\":\"Bus\",\"route_color\":\"981F40\",\"route_text_color\":\"FFFFFF\"}]"},"geometry":{"type":"Point","coordinates":[-73.480393,44.504919]}}]}