{"type":"FeatureCollection","features":[{"type":"Feature","properties":{"stop_id":"2629068","stop_code":"","stop_name":"Grocery Outlet","stop_desc":"","zone_id":"","stop_url":"","location_type":"0","parent_station":"","stop_timezone":"America/Los_Angeles","wheelchair_boarding":"0","platform_code":"","tts_stop_name":"","feed_id":"Oregon__Rhody_Express__mdb_mdb-24","agency_name":"Rhody Express","route_count":2,"route_ids":"1124|1125","route_short_names":"","route_types":"3","route_type_names":"Bus","routes_json":"[{\"route_id\":\"1124\",\"route_short_name\":\"\",\"route_long_name\":\"North Loop\",\"route_type\":\"3\",\"route_type_name\":\"Bus\",\"route_color\":\"429440\",\"route_text_color\":\"000000\"},{\"route_id\":\"1125\",\"route_short_name\":\"\",\"route_long_name\":\"South Loop\",\"route_type\":\"3\",\"route_type_name\":\"Bus\",\"route_color\":\"0081C5\",\"route_text_color\":\"000000\"}]"},"geometry":{"type":"Point","coordinates":[-124.099318463923,43.9849588081944]}},{"type":"Feature","properties":{"stop_id":"759387","stop_code":"","stop_name":"Spruce St & 18th St SB","stop_desc":"","zone_id":"","stop_url":"","location_type":"0","parent_station":"","stop_timezone":"America/Los_Angeles","wheelchair_boarding":"0","platform_code":"","tts_stop_name":"","feed_id":"Oregon__Rhody_Express__mdb_mdb-24","agency_name":"Rhody Express","route_count":1,"route_ids":"1125","route_short_names":"","route_types":"3","route_type_names":"Bus","routes_json":"[{\"route_id\":\"1125\",\"route_short_name\":\"\",\"route_long_name\":\"South Loop\",\"route_type\":\"3\",\"route_type_name\":\"Bus\",\"route_color\":\"0081C5\",\"route_text_color\":\"000000\"}]"},"geometry":{"type":"Point","coordinates":[-124.0988481,43.98241469]}},{"type":"Feature","properties":{"stop_id":"759388","stop_code":"","stop_name":"Windsong Apartments","stop_desc":"","zone_id":"","stop_url":"","location_type":"0","parent_station":"","stop_timezone":"America/Los_Angeles","wheelchair_boarding":"0","platform_code":"","tts_stop_name":"","feed_id":"Oregon__Rhody_Express__mdb_mdb-24","agency_name":"Rhody Express","route_count":1,"route_ids":"1125","route_short_names":"","route_types":"3","route_type_names":"Bus","routes_json":"[{\"route_id\":\"1125\",\"route_short_name\":\"\",\"route_long_name\":\"South Loop\",\"route_type\":\"3\",\"route_type_name\":\"Bus\",\"route_color\":\"0081C5\",\"route_text_color\":\"000000\"}]"},"geometry":{"type":"Point","coordinates":[-124.098861421502,43.9787719551926]}},{"type":"Feature","properties":{"stop_id":"759389","stop_code":"","stop_name":"Dollar Tree at Dunes Village Center","stop_desc":"","zone_id":"","stop_url":"","location_type":"0","parent_station":"","stop_timezone":"America/Los_Angeles","wheelchair_boarding":"0","platform_code":"","tts_stop_name":"","feed_id":"Oregon__Rhody_Express__mdb_mdb-24","agency_name":"Rhody Express","route_count":1,"route_ids":"1125","route_short_names":"","route_types":"3","route_type_names":"Bus","routes_json":"[{\"route_id\":\"1125\",\"route_short_name\":\"\",\"route_long_name\":\"South Loop\",\"route_type\":\"3\",\"route_type_name\":\"Bus\",\"route_color\":\"0081C5\",\"route_text_color\":\"000000\"}]"},"geometry":{"type":"Point","coordinates":[-124.102947361345,43.9738055687682]}},{"type":"Feature","properties":{"stop_id":"759390","stop_code":"","stop_name":"The Pines Apartments","stop_desc":"","zone_id":"","stop_url":"","location_type":"0","parent_station":"","stop_timezone":"America/Los_Angeles","wheelchair_boarding":"0","platform_code":"","tts_stop_name":"","feed_id":"Oregon__Rhody_Express__mdb_mdb-24","agency_name":"Rhody Express","route_count":1,"route_ids":"1125","route_short_names":"","route_types":"3","route_type_names":"Bus","routes_json":"[{\"route_id\":\"1125\",\"route_short_name\":\"\",\"route_long_name\":\"South Loop\",\"route_type\":\"3\",\"route_type_name\":\"Bus\",\"route_color\":\"0081C5\",\"route_text_color\":\"000000\"}]"},"geometry":{"type":"Point","coordinates":[-124.1048844,43.97954665]}},{"type":"Feature","properties":{"stop_id":"759391","stop_code":"","stop_name":"Airport Rd & Kingwood St","stop_desc":"","zone_id":"","stop_url":"","location_type":"0","parent_station":"","stop_timezone":"America/Los_Angeles","wheelchair_boarding":"0","platform_code":"","tts_stop_name":"","feed_id":"Oregon__Rhody_Express__mdb_mdb-24","agency_name":"Rhody Express","route_count":1,"route_ids":"1125","route_short_names":"","route_types":"3","route_type_names":"Bus","routes_json":"[{\"route_id\":\"1125\",\"route_short_name\":\"\",\"route_long_name\":\"South Loop\",\"route_type\":\"3\",\"route_type_name\":\"Bus\",\"route_color\":\"0081C5\",\"route_text_color\":\"000000\"}]"},"geometry":{"type":"Point","coordinates":[-124.108426284,43.978704168]}},{"type":"Feature","properties":{"stop_id":"759392","stop_code":"","stop_name":"Laurelwood Homes","stop_desc":"","zone_id":"","stop_url":"","location_type":"0","parent_station":"","stop_timezone":"America/Los_Angeles","wheelchair_boarding":"0","platform_code":"","tts_stop_name":"","feed_id":"Oregon__Rhody_Express__mdb_mdb-24","agency_name":"Rhody Express","route_count":1,"route_ids":"1125","route_short_names":"","route_types":"3","route_type_names":"Bus","routes_json":"[{\"route_id\":\"1125\",\"route_short_name\":\"\",\"route_long_name\":\"South Loop\",\"route_type\":\"3\",\"route_type_name\":\"Bus\",\"route_color\":\"0081C5\",\"route_text_color\":\"000000\"}]"},"geometry":{"type":"Point","coordinates":[-124.1060351,43.97549237]}},{"type":"Feature","properties":{"stop_id":"759393","stop_code":"","stop_name":"Siuslaw Public Library","stop_desc":"","zone_id":"","stop_url":"","location_type":"0","parent_station":"","stop_timezone":"America/Los_Angeles","wheelchair_boarding":"0","platform_code":"","tts_stop_name":"","feed_id":"Oregon__Rhody_Express__mdb_mdb-24","agency_name":"Rhody Express","route_count":1,"route_ids":"1125","route_short_names":"","route_types":"3","route_type_names":"Bus","routes_json":"[{\"route_id\":\"1125\",\"route_short_name\":\"\",\"route_long_name\":\"South Loop\",\"route_type\":\"3\",\"route_type_name\":\"Bus\",\"route_color\":\"0081C5\",\"route_text_color\":\"000000\"}]"},"geometry":{"type":"Point","coordinates":[-124.105213,43.97447321]}},{"type":"Feature","properties":{"stop_id":"759394","stop_code":"","stop_name":"Peace Harbor Medical Center","stop_desc":"","zone_id":"","stop_url":"","location_type":"0","parent_station":"","stop_timezone":"America/Los_Angeles","wheelchair_boarding":"0","platform_code":"","tts_stop_name":"","feed_id":"Oregon__Rhody_Express__mdb_mdb-24","agency_name":"Rhody Express","route_count":1,"route_ids":"1125","route_short_names":"","route_types":"3","route_type_names":"Bus","routes_json":"[{\"route_id\":\"1125\",\"route_short_name\":\"\",\"route_long_name\":\"South Loop\",\"route_type\":\"3\",\"route_type_name\":\"Bus\",\"route_color\":\"0081C5\",\"route_text_color\":\"000000\"}]"},"geometry":{"type":"Point","coordinates":[-124.1178985,43.97324556]}},{"type":"Feature","properties":{"stop_id":"759396","stop_code":"","stop_name":"Greentrees Village East","stop_desc":"","zone_id":"","stop_url":"","location_type":"0","parent_station":"","stop_timezone":"America/Los_Angeles","wheelchair_boarding":"0","platform_code":"","tts_stop_name":"","feed_id":"Oregon__Rhody_Express__mdb_mdb-24","agency_name":"Rhody Express","route_count":1,"route_ids":"1125","route_short_names":"","route_types":"3","route_type_names":"Bus","routes_json":"[{\"route_id\":\"1125\",\"route_short_name\":\"\",\"route_long_name\":\"South Loop\",\"route_type\":\"3\",\"route_type_name\":\"Bus\",\"route_color\":\"0081C5\",\"route_text_color\":\"000000\"}]"},"geometry":{"type":"Point","coordinates":[-124.1176021,43.98050976]}},{"type":"Feature","properties":{"stop_id":"759397","stop_code":"","stop_name":"Kingwood St & 7th St","stop_desc":"","zone_id":"","stop_url":"","location_type":"0","parent_station":"","stop_timezone":"America/Los_Angeles","wheelchair_boarding":"0","platform_code":"","tts_stop_name":"","feed_id":"Oregon__Rhody_Express__mdb_mdb-24","agency_name":"Rhody Express","route_count":1,"route_ids":"1125","route_short_names":"","route_types":"3","route_type_names":"Bus","routes_json":"[{\"route_id\":\"1125\",\"route_short_name\":\"\",\"route_long_name\":\"South Loop\",\"route_type\":\"3\",\"route_type_name\":\"Bus\",\"route_color\":\"0081C5\",\"route_text_color\":\"000000\"}]"},"geometry":{"type":"Point","coordinates":[-124.108758895,43.972874938]}},{"type":"Feature","properties":{"stop_id":"759415","stop_code":"","stop_name":"Kingwood St & Rhododendron Dr","stop_desc":"","zone_id":"","stop_url":"","location_type":"0","parent_station":"","stop_timezone":"America/Los_Angeles","wheelchair_boarding":"0","platform_code":"","tts_stop_name":"","feed_id":"Oregon__Rhody_Express__mdb_mdb-24","agency_name":"Rhody Express","route_count":1,"route_ids":"1125","route_short_names":"","route_types":"3","route_type_names":"Bus","routes_json":"[{\"route_id\":\"1125\",\"route_short_name\":\"\",\"route_long_name\":\"South Loop\",\"route_type\":\"3\",\"route_type_name\":\"Bus\",\"route_color\":\"0081C5\",\"route_text_color\":\"000000\"}]"},"geometry":{"type":"Point","coordinates":[-124.108809,43.970903]}},{"type":"Feature","properties":{"stop_id":"759398","stop_code":"","stop_name":"Old Town Park","stop_desc":"","zone_id":"","stop_url":"","location_type":"0","parent_station":"","stop_timezone":"America/Los_Angeles","wheelchair_boarding":"0","platform_code":"","tts_stop_name":"","feed_id":"Oregon__Rhody_Express__mdb_mdb-24","agency_name":"Rhody Express","route_count":1,"route_ids":"1125","route_short_names":"","route_types":"3","route_type_names":"Bus","routes_json":"[{\"route_id\":\"1125\",\"route_short_name\":\"\",\"route_long_name\":\"South Loop\",\"route_type\":\"3\",\"route_type_name\":\"Bus\",\"route_color\":\"0081C5\",\"route_text_color\":\"000000\"}]"},"geometry":{"type":"Point","coordinates":[-124.1067385845969,43.96632921581482]}},{"type":"Feature","properties":{"stop_id":"759399","stop_code":"","stop_name":"Florence City Hall (Laurel St)","stop_desc":"","zone_id":"","stop_url":"","location_type":"0","parent_station":"","stop_timezone":"America/Los_Angeles","wheelchair_boarding":"0","platform_code":"","tts_stop_name":"","feed_id":"Oregon__Rhody_Express__mdb_mdb-24","agency_name":"Rhody Express","route_count":1,"route_ids":"1125","route_short_names":"","route_types":"3","route_type_names":"Bus","routes_json":"[{\"route_id\":\"1125\",\"route_short_name\":\"\",\"route_long_name\":\"South Loop\",\"route_type\":\"3\",\"route_type_name\":\"Bus\",\"route_color\":\"0081C5\",\"route_text_color\":\"000000\"}]"},"geometry":{"type":"Point","coordinates":[-124.106774,43.96805092]}},{"type":"Feature","properties":{"stop_id":"759400","stop_code":"","stop_name":"Florence Events Center","stop_desc":"","zone_id":"","stop_url":"","location_type":"0","parent_station":"","stop_timezone":"America/Los_Angeles","wheelchair_boarding":"0","platform_code":"","tts_stop_name":"","feed_id":"Oregon__Rhody_Express__mdb_mdb-24","agency_name":"Rhody Express","route_count":1,"route_ids":"1125","route_short_names":"","route_types":"3","route_type_names":"Bus","routes_json":"[{\"route_id\":\"1125\",\"route_short_name\":\"\",\"route_long_name\":\"South Loop\",\"route_type\":\"3\",\"route_type_name\":\"Bus\",\"route_color\":\"0081C5\",\"route_text_color\":\"000000\"}]"},"geometry":{"type":"Point","coordinates":[-124.1024356,43.97224083]}},{"type":"Feature","properties":{"stop_id":"759401","stop_code":"","stop_name":"Safeway (700 Hwy 101)","stop_desc":"","zone_id":"","stop_url":"","location_type":"0","parent_station":"","stop_timezone":"America/Los_Angeles","wheelchair_boarding":"0","platform_code":"","tts_stop_name":"","feed_id":"Oregon__Rhody_Express__mdb_mdb-24","agency_name":"Rhody Express","route_count":1,"route_ids":"1125","route_short_names":"","route_types":"3","route_type_names":"Bus","routes_json":"[{\"route_id\":\"1125\",\"route_short_name\":\"\",\"route_long_name\":\"South Loop\",\"route_type\":\"3\",\"route_type_name\":\"Bus\",\"route_color\":\"0081C5\",\"route_text_color\":\"000000\"}]"},"geometry":{"type":"Point","coordinates":[-124.1031316,43.9736596]}},{"type":"Feature","properties":{"stop_id":"2629069","stop_code":"","stop_name":"Three Rivers Casino","stop_desc":"","zone_id":"","stop_url":"","location_type":"0","parent_station":"","stop_timezone":"America/Los_Angeles","wheelchair_boarding":"0","platform_code":"","tts_stop_name":"","feed_id":"Oregon__Rhody_Express__mdb_mdb-24","agency_name":"Rhody Express","route_count":1,"route_ids":"1125","route_short_names":"","route_types":"3","route_type_names":"Bus","routes_json":"[{\"route_id\":\"1125\",\"route_short_name\":\"\",\"route_long_name\":\"South Loop\",\"route_type\":\"3\",\"route_type_name\":\"Bus\",\"route_color\":\"0081C5\",\"route_text_color\":\"000000\"}]"},"geometry":{"type":"Point","coordinates":[-124.086991158899,43.9822204773744]}},{"type":"Feature","properties":{"stop_id":"759403","stop_code":"","stop_name":"Spruce St & 12th St","stop_desc":"","zone_id":"","stop_url":"","location_type":"0","parent_station":"","stop_timezone":"America/Los_Angeles","wheelchair_boarding":"0","platform_code":"","tts_stop_name":"","feed_id":"Oregon__Rhody_Express__mdb_mdb-24","agency_name":"Rhody Express","route_count":1,"route_ids":"1125","route_short_names":"","route_types":"3","route_type_names":"Bus","routes_json":"[{\"route_id\":\"1125\",\"route_short_name\":\"\",\"route_long_name\":\"South Loop\",\"route_type\":\"3\",\"route_type_name\":\"Bus\",\"route_color\":\"0081C5\",\"route_text_color\":\"000000\"}]"},"geometry":{"type":"Point","coordinates":[-124.098608,43.97750169]}},{"type":"Feature","properties":{"stop_id":"759404","stop_code":"","stop_name":"Spruce St & 18th St NB","stop_desc":"","zone_id":"","stop_url":"","location_type":"0","parent_station":"","stop_timezone":"America/Los_Angeles","wheelchair_boarding":"0","platform_code":"","tts_stop_name":"","feed_id":"Oregon__Rhody_Express__mdb_mdb-24","agency_name":"Rhody Express","route_count":1,"route_ids":"1125","route_short_names":"","route_types":"3","route_type_names":"Bus","routes_json":"[{\"route_id\":\"1125\",\"route_short_name\":\"\",\"route_long_name\":\"South Loop\",\"route_type\":\"3\",\"route_type_name\":\"Bus\",\"route_color\":\"0081C5\",\"route_text_color\":\"000000\"}]"},"geometry":{"type":"Point","coordinates":[-124.0986778,43.98257488]}},{"type":"Feature","properties":{"stop_id":"759405","stop_code":"","stop_name":"Florence Food Share","stop_desc":"","zone_id":"","stop_url":"","location_type":"0","parent_station":"","stop_timezone":"America/Los_Angeles","wheelchair_boarding":"0","platform_code":"","tts_stop_name":"","feed_id":"Oregon__Rhody_Express__mdb_mdb-24","agency_name":"Rhody Express","route_count":2,"route_ids":"1124|1125","route_short_names":"","route_types":"3","route_type_names":"Bus","routes_json":"[{\"route_id\":\"1124\",\"route_short_name\":\"\",\"route_long_name\":\"North Loop\",\"route_type\":\"3\",\"route_type_name\":\"Bus\",\"route_color\":\"429440\",\"route_text_color\":\"000000\"},{\"route_id\":\"1125\",\"route_short_name\":\"\",\"route_long_name\":\"South Loop\",\"route_type\":\"3\",\"route_type_name\":\"Bus\",\"route_color\":\"0081C5\",\"route_text_color\":\"000000\"}]"},"geometry":{"type":"Point","coordinates":[-124.098738357608,43.9857614876861]}},{"type":"Feature","properties":{"stop_id":"784459","stop_code":"","stop_name":"Coast Village","stop_desc":"","zone_id":"","stop_url":"","location_type":"0","parent_station":"","stop_timezone":"America/Los_Angeles","wheelchair_boarding":"0","platform_code":"","tts_stop_name":"","feed_id":"Oregon__Rhody_Express__mdb_mdb-24","agency_name":"Rhody Express","route_count":1,"route_ids":"1124","route_short_names":"","route_types":"3","route_type_names":"Bus","routes_json":"[{\"route_id\":\"1124\",\"route_short_name\":\"\",\"route_long_name\":\"North Loop\",\"route_type\":\"3\",\"route_type_name\":\"Bus\",\"route_color\":\"429440\",\"route_text_color\":\"000000\"}]"},"geometry":{"type":"Point","coordinates":[-124.098801345192,43.9906312674389]}},{"type":"Feature","properties":{"stop_id":"759406","stop_code":"","stop_name":"Spruce St & 40th St","stop_desc":"","zone_id":"","stop_url":"","location_type":"0","parent_station":"","stop_timezone":"America/Los_Angeles","wheelchair_boarding":"0","platform_code":"","tts_stop_name":"","feed_id":"Oregon__Rhody_Express__mdb_mdb-24","agency_name":"Rhody Express","route_count":1,"route_ids":"1124","route_short_names":"","route_types":"3","route_type_names":"Bus","routes_json":"[{\"route_id\":\"1124\",\"route_short_name\":\"\",\"route_long_name\":\"North Loop\",\"route_type\":\"3\",\"route_type_name\":\"Bus\",\"route_color\":\"429440\",\"route_text_color\":\"000000\"}]"},"geometry":{"type":"Point","coordinates":[-124.0982755,44.00128411]}},{"type":"Feature","properties":{"stop_id":"759407","stop_code":"","stop_name":"42nd St & Hwy 101","stop_desc":"","zone_id":"","stop_url":"","location_type":"0","parent_station":"","stop_timezone":"America/Los_Angeles","wheelchair_boarding":"0","platform_code":"","tts_stop_name":"","feed_id":"Oregon__Rhody_Express__mdb_mdb-24","agency_name":"Rhody Express","route_count":1,"route_ids":"1124","route_short_names":"","route_types":"3","route_type_names":"Bus","routes_json":"[{\"route_id\":\"1124\",\"route_short_name\":\"\",\"route_long_name\":\"North Loop\",\"route_type\":\"3\",\"route_type_name\":\"Bus\",\"route_color\":\"429440\",\"route_text_color\":\"000000\"}]"},"geometry":{"type":"Point","coordinates":[-124.10050246,44.003223976]}},{"type":"Feature","properties":{"stop_id":"759408","stop_code":"","stop_name":"Bi-Mart (4310 Hwy 101)","stop_desc":"","zone_id":"","stop_url":"","location_type":"0","parent_station":"","stop_timezone":"America/Los_Angeles","wheelchair_boarding":"0","platform_code":"","tts_stop_name":"","feed_id":"Oregon__Rhody_Express__mdb_mdb-24","agency_name":"Rhody Express","route_count":1,"route_ids":"1124","route_short_names":"","route_types":"3","route_type_names":"Bus","routes_json":"[{\"route_id\":\"1124\",\"route_short_name\":\"\",\"route_long_name\":\"North Loop\",\"route_type\":\"3\",\"route_type_name\":\"Bus\",\"route_color\":\"429440\",\"route_text_color\":\"000000\"}]"},"geometry":{"type":"Point","coordinates":[-124.0999759,44.0039968]}},{"type":"Feature","properties":{"stop_id":"759409","stop_code":"","stop_name":"Fred Meyer (4701 Hwy 101)","stop_desc":"","zone_id":"","stop_url":"","location_type":"0","parent_station":"","stop_timezone":"America/Los_Angeles","wheelchair_boarding":"0","platform_code":"","tts_stop_name":"","feed_id":"Oregon__Rhody_Express__mdb_mdb-24","agency_name":"Rhody Express","route_count":1,"route_ids":"1124","route_short_names":"","route_types":"3","route_type_names":"Bus","routes_json":"[{\"route_id\":\"1124\",\"route_short_name\":\"\",\"route_long_name\":\"North Loop\",\"route_type\":\"3\",\"route_type_name\":\"Bus\",\"route_color\":\"429440\",\"route_text_color\":\"000000\"}]"},"geometry":{"type":"Point","coordinates":[-124.1027078,44.00783688]}},{"type":"Feature","properties":{"stop_id":"759410","stop_code":"","stop_name":"Siuslaw Dunes Apartments","stop_desc":"","zone_id":"","stop_url":"","location_type":"0","parent_station":"","stop_timezone":"America/Los_Angeles","wheelchair_boarding":"0","platform_code":"","tts_stop_name":"","feed_id":"Oregon__Rhody_Express__mdb_mdb-24","agency_name":"Rhody Express","route_count":1,"route_ids":"1124","route_short_names":"","route_types":"3","route_type_names":"Bus","routes_json":"[{\"route_id\":\"1124\",\"route_short_name\":\"\",\"route_long_name\":\"North Loop\",\"route_type\":\"3\",\"route_type_name\":\"Bus\",\"route_color\":\"429440\",\"route_text_color\":\"000000\"}]"},"geometry":{"type":"Point","coordinates":[-124.104067674344,44.0039851779163]}},{"type":"Feature","properties":{"stop_id":"759411","stop_code":"","stop_name":"Lane Community College","stop_desc":"","zone_id":"","stop_url":"","location_type":"0","parent_station":"","stop_timezone":"America/Los_Angeles","wheelchair_boarding":"0","platform_code":"","tts_stop_name":"","feed_id":"Oregon__Rhody_Express__mdb_mdb-24","agency_name":"Rhody Express","route_count":1,"route_ids":"1124","route_short_names":"","route_types":"3","route_type_names":"Bus","routes_json":"[{\"route_id\":\"1124\",\"route_short_name\":\"\",\"route_long_name\":\"North Loop\",\"route_type\":\"3\",\"route_type_name\":\"Bus\",\"route_color\":\"429440\",\"route_text_color\":\"000000\"}]"},"geometry":{"type":"Point","coordinates":[-124.1039939,43.99424725]}},{"type":"Feature","properties":{"stop_id":"759412","stop_code":"","stop_name":"Siuslaw High School","stop_desc":"","zone_id":"","stop_url":"","location_type":"0","parent_station":"","stop_timezone":"America/Los_Angeles","wheelchair_boarding":"0","platform_code":"","tts_stop_name":"","feed_id":"Oregon__Rhody_Express__mdb_mdb-24","agency_name":"Rhody Express","route_count":1,"route_ids":"1124","route_short_names":"","route_types":"3","route_type_names":"Bus","routes_json":"[{\"route_id\":\"1124\",\"route_short_name\":\"\",\"route_long_name\":\"North Loop\",\"route_type\":\"3\",\"route_type_name\":\"Bus\",\"route_color\":\"429440\",\"route_text_color\":\"000000\"}]"},"geometry":{"type":"Point","coordinates":[-124.103943,43.98995276]}},{"type":"Feature","properties":{"stop_id":"759413","stop_code":"","stop_name":"Siuslaw Elementary School","stop_desc":"","zone_id":"","stop_url":"","location_type":"0","parent_station":"","stop_timezone":"America/Los_Angeles","wheelchair_boarding":"0","platform_code":"","tts_stop_name":"","feed_id":"Oregon__Rhody_Express__mdb_mdb-24","agency_name":"Rhody Express","route_count":1,"route_ids":"1124","route_short_names":"","route_types":"3","route_type_names":"Bus","routes_json":"[{\"route_id\":\"1124\",\"route_short_name\":\"\",\"route_long_name\":\"North Loop\",\"route_type\":\"3\",\"route_type_name\":\"Bus\",\"route_color\":\"429440\",\"route_text_color\":\"000000\"}]"},"geometry":{"type":"Point","coordinates":[-124.10395860474,43.9854966263243]}}]}