{"type":"FeatureCollection","features":[{"type":"Feature","properties":{"stop_id":"2430139","stop_code":"","stop_name":"Central Park","stop_desc":"","zone_id":"","stop_url":"","location_type":"0","parent_station":"","stop_timezone":"America/Chicago","wheelchair_boarding":"0","platform_code":"","tts_stop_name":"","feed_id":"Iowa__Mason_City_Public_Transit__mdb_mdb-204","agency_name":"Mason City Public Transit","route_count":5,"route_ids":"9743|9744|9745|9747|9746","route_short_names":"Blue|Green|Orange|Purple|Red","route_types":"3","route_type_names":"Bus","routes_json":"[{\"route_id\":\"9743\",\"route_short_name\":\"Blue\",\"route_long_name\":\"West Central\",\"route_type\":\"3\",\"route_type_name\":\"Bus\",\"route_color\":\"0059EA\",\"route_text_color\":\"FFFFFF\"},{\"route_id\":\"9744\",\"route_short_name\":\"Green\",\"route_long_name\":\"North Central\",\"route_type\":\"3\",\"route_type_name\":\"Bus\",\"route_color\":\"076900\",\"route_text_color\":\"FFFFFF\"},{\"route_id\":\"9745\",\"route_short_name\":\"Orange\",\"route_long_name\":\"South Central\",\"route_type\":\"3\",\"route_type_name\":\"Bus\",\"route_color\":\"EA9631\",\"route_text_color\":\"FFFFFF\"},{\"route_id\":\"9747\",\"route_short_name\":\"Purple\",\"route_long_name\":\"Northeast\",\"route_type\":\"3\",\"route_type_name\":\"Bus\",\"route_color\":\"5B00B5\",\"route_text_color\":\"FFFFFF\"},{\"route_id\":\"9746\",\"route_short_name\":\"Red\",\"route_long_name\":\"East Central\",\"route_type\":\"3\",\"route_type_name\":\"Bus\",\"route_color\":\"FF0000\",\"route_text_color\":\"FFFFFF\"}]"},"geometry":{"type":"Point","coordinates":[-93.201672,43.152563]}},{"type":"Feature","properties":{"stop_id":"2430179","stop_code":"","stop_name":"1st St. SW and S Jefferson Ave.","stop_desc":"","zone_id":"","stop_url":"","location_type":"0","parent_station":"","stop_timezone":"America/Chicago","wheelchair_boarding":"0","platform_code":"","tts_stop_name":"","feed_id":"Iowa__Mason_City_Public_Transit__mdb_mdb-204","agency_name":"Mason City Public Transit","route_count":1,"route_ids":"9743","route_short_names":"Blue","route_types":"3","route_type_names":"Bus","routes_json":"[{\"route_id\":\"9743\",\"route_short_name\":\"Blue\",\"route_long_name\":\"West Central\",\"route_type\":\"3\",\"route_type_name\":\"Bus\",\"route_color\":\"0059EA\",\"route_text_color\":\"FFFFFF\"}]"},"geometry":{"type":"Point","coordinates":[-93.206168534545,43.150983686969]}},{"type":"Feature","properties":{"stop_id":"2430128","stop_code":"","stop_name":"1st St. SW and S Monroe Ave.","stop_desc":"","zone_id":"","stop_url":"","location_type":"0","parent_station":"","stop_timezone":"America/Chicago","wheelchair_boarding":"0","platform_code":"","tts_stop_name":"","feed_id":"Iowa__Mason_City_Public_Transit__mdb_mdb-204","agency_name":"Mason City Public Transit","route_count":1,"route_ids":"9743","route_short_names":"Blue","route_types":"3","route_type_names":"Bus","routes_json":"[{\"route_id\":\"9743\",\"route_short_name\":\"Blue\",\"route_long_name\":\"West Central\",\"route_type\":\"3\",\"route_type_name\":\"Bus\",\"route_color\":\"0059EA\",\"route_text_color\":\"FFFFFF\"}]"},"geometry":{"type":"Point","coordinates":[-93.208501,43.150998]}},{"type":"Feature","properties":{"stop_id":"2430180","stop_code":"","stop_name":"1st St. SW and S Crescent Dr.","stop_desc":"","zone_id":"","stop_url":"","location_type":"0","parent_station":"","stop_timezone":"America/Chicago","wheelchair_boarding":"0","platform_code":"","tts_stop_name":"","feed_id":"Iowa__Mason_City_Public_Transit__mdb_mdb-204","agency_name":"Mason City Public Transit","route_count":1,"route_ids":"9743","route_short_names":"Blue","route_types":"3","route_type_names":"Bus","routes_json":"[{\"route_id\":\"9743\",\"route_short_name\":\"Blue\",\"route_long_name\":\"West Central\",\"route_type\":\"3\",\"route_type_name\":\"Bus\",\"route_color\":\"0059EA\",\"route_text_color\":\"FFFFFF\"}]"},"geometry":{"type":"Point","coordinates":[-93.212536501643,43.151016476551]}},{"type":"Feature","properties":{"stop_id":"2430129","stop_code":"","stop_name":"Mercy Medical Center","stop_desc":"","zone_id":"","stop_url":"","location_type":"0","parent_station":"","stop_timezone":"America/Chicago","wheelchair_boarding":"0","platform_code":"","tts_stop_name":"","feed_id":"Iowa__Mason_City_Public_Transit__mdb_mdb-204","agency_name":"Mason City Public Transit","route_count":1,"route_ids":"9743","route_short_names":"Blue","route_types":"3","route_type_names":"Bus","routes_json":"[{\"route_id\":\"9743\",\"route_short_name\":\"Blue\",\"route_long_name\":\"West Central\",\"route_type\":\"3\",\"route_type_name\":\"Bus\",\"route_color\":\"0059EA\",\"route_text_color\":\"FFFFFF\"}]"},"geometry":{"type":"Point","coordinates":[-93.216634613507,43.149283474]}},{"type":"Feature","properties":{"stop_id":"2430131","stop_code":"","stop_name":"West Plaza (HyVee West)","stop_desc":"","zone_id":"","stop_url":"","location_type":"0","parent_station":"","stop_timezone":"America/Chicago","wheelchair_boarding":"0","platform_code":"","tts_stop_name":"","feed_id":"Iowa__Mason_City_Public_Transit__mdb_mdb-204","agency_name":"Mason City Public Transit","route_count":1,"route_ids":"9743","route_short_names":"Blue","route_types":"3","route_type_names":"Bus","routes_json":"[{\"route_id\":\"9743\",\"route_short_name\":\"Blue\",\"route_long_name\":\"West Central\",\"route_type\":\"3\",\"route_type_name\":\"Bus\",\"route_color\":\"0059EA\",\"route_text_color\":\"FFFFFF\"}]"},"geometry":{"type":"Point","coordinates":[-93.23548,43.149267]}},{"type":"Feature","properties":{"stop_id":"2430203","stop_code":"","stop_name":"Frontage Rd. NW (McGregor Furniture)","stop_desc":"","zone_id":"","stop_url":"","location_type":"0","parent_station":"","stop_timezone":"America/Chicago","wheelchair_boarding":"0","platform_code":"","tts_stop_name":"","feed_id":"Iowa__Mason_City_Public_Transit__mdb_mdb-204","agency_name":"Mason City Public Transit","route_count":1,"route_ids":"9743","route_short_names":"Blue","route_types":"3","route_type_names":"Bus","routes_json":"[{\"route_id\":\"9743\",\"route_short_name\":\"Blue\",\"route_long_name\":\"West Central\",\"route_type\":\"3\",\"route_type_name\":\"Bus\",\"route_color\":\"0059EA\",\"route_text_color\":\"FFFFFF\"}]"},"geometry":{"type":"Point","coordinates":[-93.24423749657,43.148677253246]}},{"type":"Feature","properties":{"stop_id":"2430202","stop_code":"","stop_name":"Mills Fleet Farm","stop_desc":"","zone_id":"","stop_url":"","location_type":"0","parent_station":"","stop_timezone":"America/Chicago","wheelchair_boarding":"0","platform_code":"","tts_stop_name":"","feed_id":"Iowa__Mason_City_Public_Transit__mdb_mdb-204","agency_name":"Mason City Public Transit","route_count":1,"route_ids":"9743","route_short_names":"Blue","route_types":"3","route_type_names":"Bus","routes_json":"[{\"route_id\":\"9743\",\"route_short_name\":\"Blue\",\"route_long_name\":\"West Central\",\"route_type\":\"3\",\"route_type_name\":\"Bus\",\"route_color\":\"0059EA\",\"route_text_color\":\"FFFFFF\"}]"},"geometry":{"type":"Point","coordinates":[-93.249138891168,43.150293662034]}},{"type":"Feature","properties":{"stop_id":"2430132","stop_code":"","stop_name":"Target Super Center","stop_desc":"","zone_id":"","stop_url":"","location_type":"0","parent_station":"","stop_timezone":"America/Chicago","wheelchair_boarding":"0","platform_code":"","tts_stop_name":"","feed_id":"Iowa__Mason_City_Public_Transit__mdb_mdb-204","agency_name":"Mason City Public Transit","route_count":1,"route_ids":"9743","route_short_names":"Blue","route_types":"3","route_type_names":"Bus","routes_json":"[{\"route_id\":\"9743\",\"route_short_name\":\"Blue\",\"route_long_name\":\"West Central\",\"route_type\":\"3\",\"route_type_name\":\"Bus\",\"route_color\":\"0059EA\",\"route_text_color\":\"FFFFFF\"}]"},"geometry":{"type":"Point","coordinates":[-93.252881,43.149793]}},{"type":"Feature","properties":{"stop_id":"2430133","stop_code":"","stop_name":"Mercy Medical Center West","stop_desc":"","zone_id":"","stop_url":"","location_type":"0","parent_station":"","stop_timezone":"America/Chicago","wheelchair_boarding":"0","platform_code":"","tts_stop_name":"","feed_id":"Iowa__Mason_City_Public_Transit__mdb_mdb-204","agency_name":"Mason City Public Transit","route_count":1,"route_ids":"9743","route_short_names":"Blue","route_types":"3","route_type_names":"Bus","routes_json":"[{\"route_id\":\"9743\",\"route_short_name\":\"Blue\",\"route_long_name\":\"West Central\",\"route_type\":\"3\",\"route_type_name\":\"Bus\",\"route_color\":\"0059EA\",\"route_text_color\":\"FFFFFF\"}]"},"geometry":{"type":"Point","coordinates":[-93.263915,43.155599]}},{"type":"Feature","properties":{"stop_id":"2430204","stop_code":"","stop_name":"Best Buy","stop_desc":"","zone_id":"","stop_url":"","location_type":"0","parent_station":"","stop_timezone":"America/Chicago","wheelchair_boarding":"0","platform_code":"","tts_stop_name":"","feed_id":"Iowa__Mason_City_Public_Transit__mdb_mdb-204","agency_name":"Mason City Public Transit","route_count":1,"route_ids":"9743","route_short_names":"Blue","route_types":"3","route_type_names":"Bus","routes_json":"[{\"route_id\":\"9743\",\"route_short_name\":\"Blue\",\"route_long_name\":\"West Central\",\"route_type\":\"3\",\"route_type_name\":\"Bus\",\"route_color\":\"0059EA\",\"route_text_color\":\"FFFFFF\"}]"},"geometry":{"type":"Point","coordinates":[-93.267866896241,43.146825044944]}},{"type":"Feature","properties":{"stop_id":"2430134","stop_code":"","stop_name":"Wal-Mart","stop_desc":"","zone_id":"","stop_url":"","location_type":"0","parent_station":"","stop_timezone":"America/Chicago","wheelchair_boarding":"0","platform_code":"","tts_stop_name":"","feed_id":"Iowa__Mason_City_Public_Transit__mdb_mdb-204","agency_name":"Mason City Public Transit","route_count":1,"route_ids":"9743","route_short_names":"Blue","route_types":"3","route_type_names":"Bus","routes_json":"[{\"route_id\":\"9743\",\"route_short_name\":\"Blue\",\"route_long_name\":\"West Central\",\"route_type\":\"3\",\"route_type_name\":\"Bus\",\"route_color\":\"0059EA\",\"route_text_color\":\"FFFFFF\"}]"},"geometry":{"type":"Point","coordinates":[-93.2626,43.146128]}},{"type":"Feature","properties":{"stop_id":"2430135","stop_code":"","stop_name":"Salvation Army Thrift Store","stop_desc":"","zone_id":"","stop_url":"","location_type":"0","parent_station":"","stop_timezone":"America/Chicago","wheelchair_boarding":"0","platform_code":"","tts_stop_name":"","feed_id":"Iowa__Mason_City_Public_Transit__mdb_mdb-204","agency_name":"Mason City Public Transit","route_count":1,"route_ids":"9743","route_short_names":"Blue","route_types":"3","route_type_names":"Bus","routes_json":"[{\"route_id\":\"9743\",\"route_short_name\":\"Blue\",\"route_long_name\":\"West Central\",\"route_type\":\"3\",\"route_type_name\":\"Bus\",\"route_color\":\"0059EA\",\"route_text_color\":\"FFFFFF\"}]"},"geometry":{"type":"Point","coordinates":[-93.254726,43.148037]}},{"type":"Feature","properties":{"stop_id":"2430178","stop_code":"","stop_name":"Salvation Army Activity Center","stop_desc":"","zone_id":"","stop_url":"","location_type":"0","parent_station":"","stop_timezone":"America/Chicago","wheelchair_boarding":"0","platform_code":"","tts_stop_name":"","feed_id":"Iowa__Mason_City_Public_Transit__mdb_mdb-204","agency_name":"Mason City Public Transit","route_count":1,"route_ids":"9743","route_short_names":"Blue","route_types":"3","route_type_names":"Bus","routes_json":"[{\"route_id\":\"9743\",\"route_short_name\":\"Blue\",\"route_long_name\":\"West Central\",\"route_type\":\"3\",\"route_type_name\":\"Bus\",\"route_color\":\"0059EA\",\"route_text_color\":\"FFFFFF\"}]"},"geometry":{"type":"Point","coordinates":[-93.248513907623,43.146646853182]}},{"type":"Feature","properties":{"stop_id":"2430205","stop_code":"","stop_name":"S Taft Ave. and Briarstone Dr.","stop_desc":"","zone_id":"","stop_url":"","location_type":"0","parent_station":"","stop_timezone":"America/Chicago","wheelchair_boarding":"0","platform_code":"","tts_stop_name":"","feed_id":"Iowa__Mason_City_Public_Transit__mdb_mdb-204","agency_name":"Mason City Public Transit","route_count":1,"route_ids":"9743","route_short_names":"Blue","route_types":"3","route_type_names":"Bus","routes_json":"[{\"route_id\":\"9743\",\"route_short_name\":\"Blue\",\"route_long_name\":\"West Central\",\"route_type\":\"3\",\"route_type_name\":\"Bus\",\"route_color\":\"0059EA\",\"route_text_color\":\"FFFFFF\"}]"},"geometry":{"type":"Point","coordinates":[-93.240436168134,43.143939929197]}},{"type":"Feature","properties":{"stop_id":"2430206","stop_code":"","stop_name":"S Taft Ave. and Frontage Rd. SW","stop_desc":"","zone_id":"","stop_url":"","location_type":"0","parent_station":"","stop_timezone":"America/Chicago","wheelchair_boarding":"0","platform_code":"","tts_stop_name":"","feed_id":"Iowa__Mason_City_Public_Transit__mdb_mdb-204","agency_name":"Mason City Public Transit","route_count":1,"route_ids":"9743","route_short_names":"Blue","route_types":"3","route_type_names":"Bus","routes_json":"[{\"route_id\":\"9743\",\"route_short_name\":\"Blue\",\"route_long_name\":\"West Central\",\"route_type\":\"3\",\"route_type_name\":\"Bus\",\"route_color\":\"0059EA\",\"route_text_color\":\"FFFFFF\"}]"},"geometry":{"type":"Point","coordinates":[-93.240438518852,43.147913354187]}},{"type":"Feature","properties":{"stop_id":"2430207","stop_code":"","stop_name":"Frontage Rd. SW and Briarstone Dr. (Perkins)","stop_desc":"","zone_id":"","stop_url":"","location_type":"0","parent_station":"","stop_timezone":"America/Chicago","wheelchair_boarding":"0","platform_code":"","tts_stop_name":"","feed_id":"Iowa__Mason_City_Public_Transit__mdb_mdb-204","agency_name":"Mason City Public Transit","route_count":1,"route_ids":"9743","route_short_names":"Blue","route_types":"3","route_type_names":"Bus","routes_json":"[{\"route_id\":\"9743\",\"route_short_name\":\"Blue\",\"route_long_name\":\"West Central\",\"route_type\":\"3\",\"route_type_name\":\"Bus\",\"route_color\":\"0059EA\",\"route_text_color\":\"FFFFFF\"}]"},"geometry":{"type":"Point","coordinates":[-93.234092061038,43.148017699767]}},{"type":"Feature","properties":{"stop_id":"2430136","stop_code":"","stop_name":"Willowbrook Mall","stop_desc":"","zone_id":"","stop_url":"","location_type":"0","parent_station":"","stop_timezone":"America/Chicago","wheelchair_boarding":"0","platform_code":"","tts_stop_name":"","feed_id":"Iowa__Mason_City_Public_Transit__mdb_mdb-204","agency_name":"Mason City Public Transit","route_count":1,"route_ids":"9743","route_short_names":"Blue","route_types":"3","route_type_names":"Bus","routes_json":"[{\"route_id\":\"9743\",\"route_short_name\":\"Blue\",\"route_long_name\":\"West Central\",\"route_type\":\"3\",\"route_type_name\":\"Bus\",\"route_color\":\"0059EA\",\"route_text_color\":\"FFFFFF\"}]"},"geometry":{"type":"Point","coordinates":[-93.226087560391,43.147475185471]}},{"type":"Feature","properties":{"stop_id":"2430137","stop_code":"","stop_name":"S Pierce Ave. and 8th St. SW","stop_desc":"","zone_id":"","stop_url":"","location_type":"0","parent_station":"","stop_timezone":"America/Chicago","wheelchair_boarding":"0","platform_code":"","tts_stop_name":"","feed_id":"Iowa__Mason_City_Public_Transit__mdb_mdb-204","agency_name":"Mason City Public Transit","route_count":1,"route_ids":"9743","route_short_names":"Blue","route_types":"3","route_type_names":"Bus","routes_json":"[{\"route_id\":\"9743\",\"route_short_name\":\"Blue\",\"route_long_name\":\"West Central\",\"route_type\":\"3\",\"route_type_name\":\"Bus\",\"route_color\":\"0059EA\",\"route_text_color\":\"FFFFFF\"}]"},"geometry":{"type":"Point","coordinates":[-93.221188753267,43.144230447755]}},{"type":"Feature","properties":{"stop_id":"2430183","stop_code":"","stop_name":"8th St. SW and S Polk Pl.","stop_desc":"","zone_id":"","stop_url":"","location_type":"0","parent_station":"","stop_timezone":"America/Chicago","wheelchair_boarding":"0","platform_code":"","tts_stop_name":"","feed_id":"Iowa__Mason_City_Public_Transit__mdb_mdb-204","agency_name":"Mason City Public Transit","route_count":1,"route_ids":"9743","route_short_names":"Blue","route_types":"3","route_type_names":"Bus","routes_json":"[{\"route_id\":\"9743\",\"route_short_name\":\"Blue\",\"route_long_name\":\"West Central\",\"route_type\":\"3\",\"route_type_name\":\"Bus\",\"route_color\":\"0059EA\",\"route_text_color\":\"FFFFFF\"}]"},"geometry":{"type":"Point","coordinates":[-93.217084647576,43.143793539805]}},{"type":"Feature","properties":{"stop_id":"2430184","stop_code":"","stop_name":"S Polk Ave. and 6th St. SW","stop_desc":"","zone_id":"","stop_url":"","location_type":"0","parent_station":"","stop_timezone":"America/Chicago","wheelchair_boarding":"0","platform_code":"","tts_stop_name":"","feed_id":"Iowa__Mason_City_Public_Transit__mdb_mdb-204","agency_name":"Mason City Public Transit","route_count":1,"route_ids":"9743","route_short_names":"Blue","route_types":"3","route_type_names":"Bus","routes_json":"[{\"route_id\":\"9743\",\"route_short_name\":\"Blue\",\"route_long_name\":\"West Central\",\"route_type\":\"3\",\"route_type_name\":\"Bus\",\"route_color\":\"0059EA\",\"route_text_color\":\"FFFFFF\"}]"},"geometry":{"type":"Point","coordinates":[-93.215996370694,43.146220842082]}},{"type":"Feature","properties":{"stop_id":"2430167","stop_code":"","stop_name":"N Georgia Ave. and 4th St. NE","stop_desc":"","zone_id":"","stop_url":"","location_type":"0","parent_station":"","stop_timezone":"America/Chicago","wheelchair_boarding":"0","platform_code":"","tts_stop_name":"","feed_id":"Iowa__Mason_City_Public_Transit__mdb_mdb-204","agency_name":"Mason City Public Transit","route_count":2,"route_ids":"9744|9747","route_short_names":"Green|Purple","route_types":"3","route_type_names":"Bus","routes_json":"[{\"route_id\":\"9744\",\"route_short_name\":\"Green\",\"route_long_name\":\"North Central\",\"route_type\":\"3\",\"route_type_name\":\"Bus\",\"route_color\":\"076900\",\"route_text_color\":\"FFFFFF\"},{\"route_id\":\"9747\",\"route_short_name\":\"Purple\",\"route_long_name\":\"Northeast\",\"route_type\":\"3\",\"route_type_name\":\"Bus\",\"route_color\":\"5B00B5\",\"route_text_color\":\"FFFFFF\"}]"},"geometry":{"type":"Point","coordinates":[-93.196131172394,43.155275269083]}},{"type":"Feature","properties":{"stop_id":"2430140","stop_code":"","stop_name":"Fareway","stop_desc":"","zone_id":"","stop_url":"","location_type":"0","parent_station":"","stop_timezone":"America/Chicago","wheelchair_boarding":"0","platform_code":"","tts_stop_name":"","feed_id":"Iowa__Mason_City_Public_Transit__mdb_mdb-204","agency_name":"Mason City Public Transit","route_count":1,"route_ids":"9744","route_short_names":"Green","route_types":"3","route_type_names":"Bus","routes_json":"[{\"route_id\":\"9744\",\"route_short_name\":\"Green\",\"route_long_name\":\"North Central\",\"route_type\":\"3\",\"route_type_name\":\"Bus\",\"route_color\":\"076900\",\"route_text_color\":\"FFFFFF\"}]"},"geometry":{"type":"Point","coordinates":[-93.200142911628,43.155873867959]}},{"type":"Feature","properties":{"stop_id":"2430186","stop_code":"","stop_name":"N Pennsylvania Ave. and 6th St. N","stop_desc":"","zone_id":"","stop_url":"","location_type":"0","parent_station":"","stop_timezone":"America/Chicago","wheelchair_boarding":"0","platform_code":"","tts_stop_name":"","feed_id":"Iowa__Mason_City_Public_Transit__mdb_mdb-204","agency_name":"Mason City Public Transit","route_count":1,"route_ids":"9744","route_short_names":"Green","route_types":"3","route_type_names":"Bus","routes_json":"[{\"route_id\":\"9744\",\"route_short_name\":\"Green\",\"route_long_name\":\"North Central\",\"route_type\":\"3\",\"route_type_name\":\"Bus\",\"route_color\":\"076900\",\"route_text_color\":\"FFFFFF\"}]"},"geometry":{"type":"Point","coordinates":[-93.197743203112,43.157043440953]}},{"type":"Feature","properties":{"stop_id":"2430187","stop_code":"","stop_name":"N Pennsylvania Ave. and 9th St. N","stop_desc":"","zone_id":"","stop_url":"","location_type":"0","parent_station":"","stop_timezone":"America/Chicago","wheelchair_boarding":"0","platform_code":"","tts_stop_name":"","feed_id":"Iowa__Mason_City_Public_Transit__mdb_mdb-204","agency_name":"Mason City Public Transit","route_count":1,"route_ids":"9744","route_short_names":"Green","route_types":"3","route_type_names":"Bus","routes_json":"[{\"route_id\":\"9744\",\"route_short_name\":\"Green\",\"route_long_name\":\"North Central\",\"route_type\":\"3\",\"route_type_name\":\"Bus\",\"route_color\":\"076900\",\"route_text_color\":\"FFFFFF\"}]"},"geometry":{"type":"Point","coordinates":[-93.197743497309,43.159927309664]}},{"type":"Feature","properties":{"stop_id":"2430188","stop_code":"","stop_name":"N Pennsylvania Ave. and 11th St. N","stop_desc":"","zone_id":"","stop_url":"","location_type":"0","parent_station":"","stop_timezone":"America/Chicago","wheelchair_boarding":"0","platform_code":"","tts_stop_name":"","feed_id":"Iowa__Mason_City_Public_Transit__mdb_mdb-204","agency_name":"Mason City Public Transit","route_count":1,"route_ids":"9744","route_short_names":"Green","route_types":"3","route_type_names":"Bus","routes_json":"[{\"route_id\":\"9744\",\"route_short_name\":\"Green\",\"route_long_name\":\"North Central\",\"route_type\":\"3\",\"route_type_name\":\"Bus\",\"route_color\":\"076900\",\"route_text_color\":\"FFFFFF\"}]"},"geometry":{"type":"Point","coordinates":[-93.19772520798,43.162214575988]}},{"type":"Feature","properties":{"stop_id":"2430201","stop_code":"","stop_name":"N Pennsylvania Ave. and 13th St. N","stop_desc":"","zone_id":"","stop_url":"","location_type":"0","parent_station":"","stop_timezone":"America/Chicago","wheelchair_boarding":"0","platform_code":"","tts_stop_name":"","feed_id":"Iowa__Mason_City_Public_Transit__mdb_mdb-204","agency_name":"Mason City Public Transit","route_count":1,"route_ids":"9744","route_short_names":"Green","route_types":"3","route_type_names":"Bus","routes_json":"[{\"route_id\":\"9744\",\"route_short_name\":\"Green\",\"route_long_name\":\"North Central\",\"route_type\":\"3\",\"route_type_name\":\"Bus\",\"route_color\":\"076900\",\"route_text_color\":\"FFFFFF\"}]"},"geometry":{"type":"Point","coordinates":[-93.197761471845,43.163393012331]}},{"type":"Feature","properties":{"stop_id":"2430192","stop_code":"","stop_name":"N Pennsylvania Ave. and 15th St. N (Gooch Park)","stop_desc":"","zone_id":"","stop_url":"","location_type":"0","parent_station":"","stop_timezone":"America/Chicago","wheelchair_boarding":"0","platform_code":"","tts_stop_name":"","feed_id":"Iowa__Mason_City_Public_Transit__mdb_mdb-204","agency_name":"Mason City Public Transit","route_count":1,"route_ids":"9744","route_short_names":"Green","route_types":"3","route_type_names":"Bus","routes_json":"[{\"route_id\":\"9744\",\"route_short_name\":\"Green\",\"route_long_name\":\"North Central\",\"route_type\":\"3\",\"route_type_name\":\"Bus\",\"route_color\":\"076900\",\"route_text_color\":\"FFFFFF\"}]"},"geometry":{"type":"Point","coordinates":[-93.198499008283,43.166219660296]}},{"type":"Feature","properties":{"stop_id":"2430144","stop_code":"","stop_name":"N Pennsylvania Ave. and 17th St. NE","stop_desc":"","zone_id":"","stop_url":"","location_type":"0","parent_station":"","stop_timezone":"America/Chicago","wheelchair_boarding":"0","platform_code":"","tts_stop_name":"","feed_id":"Iowa__Mason_City_Public_Transit__mdb_mdb-204","agency_name":"Mason City Public Transit","route_count":1,"route_ids":"9744","route_short_names":"Green","route_types":"3","route_type_names":"Bus","routes_json":"[{\"route_id\":\"9744\",\"route_short_name\":\"Green\",\"route_long_name\":\"North Central\",\"route_type\":\"3\",\"route_type_name\":\"Bus\",\"route_color\":\"076900\",\"route_text_color\":\"FFFFFF\"}]"},"geometry":{"type":"Point","coordinates":[-93.198541904669,43.169472329595]}},{"type":"Feature","properties":{"stop_id":"2430193","stop_code":"","stop_name":"15th St. NW and N Federal Ave.","stop_desc":"","zone_id":"","stop_url":"","location_type":"0","parent_station":"","stop_timezone":"America/Chicago","wheelchair_boarding":"0","platform_code":"","tts_stop_name":"","feed_id":"Iowa__Mason_City_Public_Transit__mdb_mdb-204","agency_name":"Mason City Public Transit","route_count":1,"route_ids":"9744","route_short_names":"Green","route_types":"3","route_type_names":"Bus","routes_json":"[{\"route_id\":\"9744\",\"route_short_name\":\"Green\",\"route_long_name\":\"North Central\",\"route_type\":\"3\",\"route_type_name\":\"Bus\",\"route_color\":\"076900\",\"route_text_color\":\"FFFFFF\"}]"},"geometry":{"type":"Point","coordinates":[-93.201254213236,43.16631939975]}},{"type":"Feature","properties":{"stop_id":"2430194","stop_code":"","stop_name":"15th St. NW and N Adams Ave.","stop_desc":"","zone_id":"","stop_url":"","location_type":"0","parent_station":"","stop_timezone":"America/Chicago","wheelchair_boarding":"0","platform_code":"","tts_stop_name":"","feed_id":"Iowa__Mason_City_Public_Transit__mdb_mdb-204","agency_name":"Mason City Public Transit","route_count":1,"route_ids":"9744","route_short_names":"Green","route_types":"3","route_type_names":"Bus","routes_json":"[{\"route_id\":\"9744\",\"route_short_name\":\"Green\",\"route_long_name\":\"North Central\",\"route_type\":\"3\",\"route_type_name\":\"Bus\",\"route_color\":\"076900\",\"route_text_color\":\"FFFFFF\"}]"},"geometry":{"type":"Point","coordinates":[-93.204926101821,43.166419797377]}},{"type":"Feature","properties":{"stop_id":"2430195","stop_code":"","stop_name":"15th St. NW and N Madison Ave.","stop_desc":"","zone_id":"","stop_url":"","location_type":"0","parent_station":"","stop_timezone":"America/Chicago","wheelchair_boarding":"0","platform_code":"","tts_stop_name":"","feed_id":"Iowa__Mason_City_Public_Transit__mdb_mdb-204","agency_name":"Mason City Public Transit","route_count":1,"route_ids":"9744","route_short_names":"Green","route_types":"3","route_type_names":"Bus","routes_json":"[{\"route_id\":\"9744\",\"route_short_name\":\"Green\",\"route_long_name\":\"North Central\",\"route_type\":\"3\",\"route_type_name\":\"Bus\",\"route_color\":\"076900\",\"route_text_color\":\"FFFFFF\"}]"},"geometry":{"type":"Point","coordinates":[-93.207656590601,43.166380670916]}},{"type":"Feature","properties":{"stop_id":"2430145","stop_code":"","stop_name":"N Madison Ave. and 12th St. NW","stop_desc":"","zone_id":"","stop_url":"","location_type":"0","parent_station":"","stop_timezone":"America/Chicago","wheelchair_boarding":"0","platform_code":"","tts_stop_name":"","feed_id":"Iowa__Mason_City_Public_Transit__mdb_mdb-204","agency_name":"Mason City Public Transit","route_count":1,"route_ids":"9744","route_short_names":"Green","route_types":"3","route_type_names":"Bus","routes_json":"[{\"route_id\":\"9744\",\"route_short_name\":\"Green\",\"route_long_name\":\"North Central\",\"route_type\":\"3\",\"route_type_name\":\"Bus\",\"route_color\":\"076900\",\"route_text_color\":\"FFFFFF\"}]"},"geometry":{"type":"Point","coordinates":[-93.207934,43.162829]}},{"type":"Feature","properties":{"stop_id":"2430196","stop_code":"","stop_name":"12th St. NW and N Harrison Ave.","stop_desc":"","zone_id":"","stop_url":"","location_type":"0","parent_station":"","stop_timezone":"America/Chicago","wheelchair_boarding":"0","platform_code":"","tts_stop_name":"","feed_id":"Iowa__Mason_City_Public_Transit__mdb_mdb-204","agency_name":"Mason City Public Transit","route_count":1,"route_ids":"9744","route_short_names":"Green","route_types":"3","route_type_names":"Bus","routes_json":"[{\"route_id\":\"9744\",\"route_short_name\":\"Green\",\"route_long_name\":\"North Central\",\"route_type\":\"3\",\"route_type_name\":\"Bus\",\"route_color\":\"076900\",\"route_text_color\":\"FFFFFF\"}]"},"geometry":{"type":"Point","coordinates":[-93.214110717066,43.162817459485]}},{"type":"Feature","properties":{"stop_id":"2430197","stop_code":"","stop_name":"12th St. NW and N Polk Ave. (Jell-o)","stop_desc":"","zone_id":"","stop_url":"","location_type":"0","parent_station":"","stop_timezone":"America/Chicago","wheelchair_boarding":"0","platform_code":"","tts_stop_name":"","feed_id":"Iowa__Mason_City_Public_Transit__mdb_mdb-204","agency_name":"Mason City Public Transit","route_count":1,"route_ids":"9744","route_short_names":"Green","route_types":"3","route_type_names":"Bus","routes_json":"[{\"route_id\":\"9744\",\"route_short_name\":\"Green\",\"route_long_name\":\"North Central\",\"route_type\":\"3\",\"route_type_name\":\"Bus\",\"route_color\":\"076900\",\"route_text_color\":\"FFFFFF\"}]"},"geometry":{"type":"Point","coordinates":[-93.216595569657,43.162839652191]}},{"type":"Feature","properties":{"stop_id":"2430146","stop_code":"","stop_name":"N Fillmore Ave. and 8th St. NW (Hoover School)","stop_desc":"","zone_id":"","stop_url":"","location_type":"0","parent_station":"","stop_timezone":"America/Chicago","wheelchair_boarding":"0","platform_code":"","tts_stop_name":"","feed_id":"Iowa__Mason_City_Public_Transit__mdb_mdb-204","agency_name":"Mason City Public Transit","route_count":1,"route_ids":"9744","route_short_names":"Green","route_types":"3","route_type_names":"Bus","routes_json":"[{\"route_id\":\"9744\",\"route_short_name\":\"Green\",\"route_long_name\":\"North Central\",\"route_type\":\"3\",\"route_type_name\":\"Bus\",\"route_color\":\"076900\",\"route_text_color\":\"FFFFFF\"}]"},"geometry":{"type":"Point","coordinates":[-93.219592382099,43.159035521482]}},{"type":"Feature","properties":{"stop_id":"2430147","stop_code":"","stop_name":"Community Kitchen","stop_desc":"","zone_id":"","stop_url":"","location_type":"0","parent_station":"","stop_timezone":"America/Chicago","wheelchair_boarding":"0","platform_code":"","tts_stop_name":"","feed_id":"Iowa__Mason_City_Public_Transit__mdb_mdb-204","agency_name":"Mason City Public Transit","route_count":1,"route_ids":"9744","route_short_names":"Green","route_types":"3","route_type_names":"Bus","routes_json":"[{\"route_id\":\"9744\",\"route_short_name\":\"Green\",\"route_long_name\":\"North Central\",\"route_type\":\"3\",\"route_type_name\":\"Bus\",\"route_color\":\"076900\",\"route_text_color\":\"FFFFFF\"}]"},"geometry":{"type":"Point","coordinates":[-93.208754279758,43.157606333292]}},{"type":"Feature","properties":{"stop_id":"2430200","stop_code":"","stop_name":"N Jefferson Ave. and 4th St. NW","stop_desc":"","zone_id":"","stop_url":"","location_type":"0","parent_station":"","stop_timezone":"America/Chicago","wheelchair_boarding":"0","platform_code":"","tts_stop_name":"","feed_id":"Iowa__Mason_City_Public_Transit__mdb_mdb-204","agency_name":"Mason City Public Transit","route_count":1,"route_ids":"9744","route_short_names":"Green","route_types":"3","route_type_names":"Bus","routes_json":"[{\"route_id\":\"9744\",\"route_short_name\":\"Green\",\"route_long_name\":\"North Central\",\"route_type\":\"3\",\"route_type_name\":\"Bus\",\"route_color\":\"076900\",\"route_text_color\":\"FFFFFF\"}]"},"geometry":{"type":"Point","coordinates":[-93.206053515686,43.155462066623]}},{"type":"Feature","properties":{"stop_id":"2430148","stop_code":"","stop_name":"4th St. NW and N Washington Ave.","stop_desc":"","zone_id":"","stop_url":"","location_type":"0","parent_station":"","stop_timezone":"America/Chicago","wheelchair_boarding":"0","platform_code":"","tts_stop_name":"","feed_id":"Iowa__Mason_City_Public_Transit__mdb_mdb-204","agency_name":"Mason City Public Transit","route_count":1,"route_ids":"9744","route_short_names":"Green","route_types":"3","route_type_names":"Bus","routes_json":"[{\"route_id\":\"9744\",\"route_short_name\":\"Green\",\"route_long_name\":\"North Central\",\"route_type\":\"3\",\"route_type_name\":\"Bus\",\"route_color\":\"076900\",\"route_text_color\":\"FFFFFF\"}]"},"geometry":{"type":"Point","coordinates":[-93.202868219545,43.155339776353]}},{"type":"Feature","properties":{"stop_id":"2430149","stop_code":"","stop_name":"S President Ave. and 6th St. SW","stop_desc":"","zone_id":"","stop_url":"","location_type":"0","parent_station":"","stop_timezone":"America/Chicago","wheelchair_boarding":"0","platform_code":"","tts_stop_name":"","feed_id":"Iowa__Mason_City_Public_Transit__mdb_mdb-204","agency_name":"Mason City Public Transit","route_count":1,"route_ids":"9745","route_short_names":"Orange","route_types":"3","route_type_names":"Bus","routes_json":"[{\"route_id\":\"9745\",\"route_short_name\":\"Orange\",\"route_long_name\":\"South Central\",\"route_type\":\"3\",\"route_type_name\":\"Bus\",\"route_color\":\"EA9631\",\"route_text_color\":\"FFFFFF\"}]"},"geometry":{"type":"Point","coordinates":[-93.203610314711,43.146789102892]}},{"type":"Feature","properties":{"stop_id":"2430208","stop_code":"","stop_name":"S President Ave. and 7th St. SW","stop_desc":"","zone_id":"","stop_url":"","location_type":"0","parent_station":"","stop_timezone":"America/Chicago","wheelchair_boarding":"0","platform_code":"","tts_stop_name":"","feed_id":"Iowa__Mason_City_Public_Transit__mdb_mdb-204","agency_name":"Mason City Public Transit","route_count":1,"route_ids":"9745","route_short_names":"Orange","route_types":"3","route_type_names":"Bus","routes_json":"[{\"route_id\":\"9745\",\"route_short_name\":\"Orange\",\"route_long_name\":\"South Central\",\"route_type\":\"3\",\"route_type_name\":\"Bus\",\"route_color\":\"EA9631\",\"route_text_color\":\"FFFFFF\"}]"},"geometry":{"type":"Point","coordinates":[-93.203662978291,43.144748729795]}},{"type":"Feature","properties":{"stop_id":"2430150","stop_code":"","stop_name":"8th St. SW and S Federal Ave.","stop_desc":"","zone_id":"","stop_url":"","location_type":"0","parent_station":"","stop_timezone":"America/Chicago","wheelchair_boarding":"0","platform_code":"","tts_stop_name":"","feed_id":"Iowa__Mason_City_Public_Transit__mdb_mdb-204","agency_name":"Mason City Public Transit","route_count":1,"route_ids":"9745","route_short_names":"Orange","route_types":"3","route_type_names":"Bus","routes_json":"[{\"route_id\":\"9745\",\"route_short_name\":\"Orange\",\"route_long_name\":\"South Central\",\"route_type\":\"3\",\"route_type_name\":\"Bus\",\"route_color\":\"EA9631\",\"route_text_color\":\"FFFFFF\"}]"},"geometry":{"type":"Point","coordinates":[-93.201345869879,43.143661189873]}},{"type":"Feature","properties":{"stop_id":"2574504","stop_code":"","stop_name":"Kwik Star","stop_desc":"","zone_id":"","stop_url":"","location_type":"0","parent_station":"","stop_timezone":"America/Chicago","wheelchair_boarding":"0","platform_code":"","tts_stop_name":"","feed_id":"Iowa__Mason_City_Public_Transit__mdb_mdb-204","agency_name":"Mason City Public Transit","route_count":1,"route_ids":"9745","route_short_names":"Orange","route_types":"3","route_type_names":"Bus","routes_json":"[{\"route_id\":\"9745\",\"route_short_name\":\"Orange\",\"route_long_name\":\"South Central\",\"route_type\":\"3\",\"route_type_name\":\"Bus\",\"route_color\":\"EA9631\",\"route_text_color\":\"FFFFFF\"}]"},"geometry":{"type":"Point","coordinates":[-93.20157126842912,43.13692425644567]}},{"type":"Feature","properties":{"stop_id":"2430152","stop_code":"","stop_name":"North Iowa Vocational Center","stop_desc":"","zone_id":"","stop_url":"","location_type":"0","parent_station":"","stop_timezone":"America/Chicago","wheelchair_boarding":"0","platform_code":"","tts_stop_name":"","feed_id":"Iowa__Mason_City_Public_Transit__mdb_mdb-204","agency_name":"Mason City Public Transit","route_count":1,"route_ids":"9745","route_short_names":"Orange","route_types":"3","route_type_names":"Bus","routes_json":"[{\"route_id\":\"9745\",\"route_short_name\":\"Orange\",\"route_long_name\":\"South Central\",\"route_type\":\"3\",\"route_type_name\":\"Bus\",\"route_color\":\"EA9631\",\"route_text_color\":\"FFFFFF\"}]"},"geometry":{"type":"Point","coordinates":[-93.211494872417,43.139936831909]}},{"type":"Feature","properties":{"stop_id":"2430153","stop_code":"","stop_name":"S Monroe Ave. and 19th St. SW","stop_desc":"","zone_id":"","stop_url":"","location_type":"0","parent_station":"","stop_timezone":"America/Chicago","wheelchair_boarding":"0","platform_code":"","tts_stop_name":"","feed_id":"Iowa__Mason_City_Public_Transit__mdb_mdb-204","agency_name":"Mason City Public Transit","route_count":1,"route_ids":"9745","route_short_names":"Orange","route_types":"3","route_type_names":"Bus","routes_json":"[{\"route_id\":\"9745\",\"route_short_name\":\"Orange\",\"route_long_name\":\"South Central\",\"route_type\":\"3\",\"route_type_name\":\"Bus\",\"route_color\":\"EA9631\",\"route_text_color\":\"FFFFFF\"}]"},"geometry":{"type":"Point","coordinates":[-93.211203,43.133903]}},{"type":"Feature","properties":{"stop_id":"2430209","stop_code":"","stop_name":"S Monroe Ave. and 20th Pl. SW","stop_desc":"","zone_id":"","stop_url":"","location_type":"0","parent_station":"","stop_timezone":"America/Chicago","wheelchair_boarding":"0","platform_code":"","tts_stop_name":"","feed_id":"Iowa__Mason_City_Public_Transit__mdb_mdb-204","agency_name":"Mason City Public Transit","route_count":1,"route_ids":"9745","route_short_names":"Orange","route_types":"3","route_type_names":"Bus","routes_json":"[{\"route_id\":\"9745\",\"route_short_name\":\"Orange\",\"route_long_name\":\"South Central\",\"route_type\":\"3\",\"route_type_name\":\"Bus\",\"route_color\":\"EA9631\",\"route_text_color\":\"FFFFFF\"}]"},"geometry":{"type":"Point","coordinates":[-93.211195801335,43.132173874165]}},{"type":"Feature","properties":{"stop_id":"2574505","stop_code":"","stop_name":"23rd St. SW and S Jefferson Ave.","stop_desc":"","zone_id":"","stop_url":"","location_type":"0","parent_station":"","stop_timezone":"America/Chicago","wheelchair_boarding":"0","platform_code":"","tts_stop_name":"","feed_id":"Iowa__Mason_City_Public_Transit__mdb_mdb-204","agency_name":"Mason City Public Transit","route_count":1,"route_ids":"9745","route_short_names":"Orange","route_types":"3","route_type_names":"Bus","routes_json":"[{\"route_id\":\"9745\",\"route_short_name\":\"Orange\",\"route_long_name\":\"South Central\",\"route_type\":\"3\",\"route_type_name\":\"Bus\",\"route_color\":\"EA9631\",\"route_text_color\":\"FFFFFF\"}]"},"geometry":{"type":"Point","coordinates":[-93.20754241794786,43.12989260243654]}},{"type":"Feature","properties":{"stop_id":"2574506","stop_code":"","stop_name":"23rd St. SW and S Federal Ave.","stop_desc":"","zone_id":"","stop_url":"","location_type":"0","parent_station":"","stop_timezone":"America/Chicago","wheelchair_boarding":"0","platform_code":"","tts_stop_name":"","feed_id":"Iowa__Mason_City_Public_Transit__mdb_mdb-204","agency_name":"Mason City Public Transit","route_count":1,"route_ids":"9745","route_short_names":"Orange","route_types":"3","route_type_names":"Bus","routes_json":"[{\"route_id\":\"9745\",\"route_short_name\":\"Orange\",\"route_long_name\":\"South Central\",\"route_type\":\"3\",\"route_type_name\":\"Bus\",\"route_color\":\"EA9631\",\"route_text_color\":\"FFFFFF\"}]"},"geometry":{"type":"Point","coordinates":[-93.20150113978772,43.12978090160232]}},{"type":"Feature","properties":{"stop_id":"2430155","stop_code":"","stop_name":"21st St. SE and S Pennsylvania Ave.","stop_desc":"","zone_id":"","stop_url":"","location_type":"0","parent_station":"","stop_timezone":"America/Chicago","wheelchair_boarding":"0","platform_code":"","tts_stop_name":"","feed_id":"Iowa__Mason_City_Public_Transit__mdb_mdb-204","agency_name":"Mason City Public Transit","route_count":1,"route_ids":"9745","route_short_names":"Orange","route_types":"3","route_type_names":"Bus","routes_json":"[{\"route_id\":\"9745\",\"route_short_name\":\"Orange\",\"route_long_name\":\"South Central\",\"route_type\":\"3\",\"route_type_name\":\"Bus\",\"route_color\":\"EA9631\",\"route_text_color\":\"FFFFFF\"}]"},"geometry":{"type":"Point","coordinates":[-93.198674882907,43.131420312509]}},{"type":"Feature","properties":{"stop_id":"2430211","stop_code":"","stop_name":"S Pennsylvania Ave. and 19th St. SE","stop_desc":"","zone_id":"","stop_url":"","location_type":"0","parent_station":"","stop_timezone":"America/Chicago","wheelchair_boarding":"0","platform_code":"","tts_stop_name":"","feed_id":"Iowa__Mason_City_Public_Transit__mdb_mdb-204","agency_name":"Mason City Public Transit","route_count":1,"route_ids":"9745","route_short_names":"Orange","route_types":"3","route_type_names":"Bus","routes_json":"[{\"route_id\":\"9745\",\"route_short_name\":\"Orange\",\"route_long_name\":\"South Central\",\"route_type\":\"3\",\"route_type_name\":\"Bus\",\"route_color\":\"EA9631\",\"route_text_color\":\"FFFFFF\"}]"},"geometry":{"type":"Point","coordinates":[-93.198357579662,43.13343030857]}},{"type":"Feature","properties":{"stop_id":"2430212","stop_code":"","stop_name":"S Pennsylvania Ave. and 17th St. SE (Lincoln Intermediate)","stop_desc":"","zone_id":"","stop_url":"","location_type":"0","parent_station":"","stop_timezone":"America/Chicago","wheelchair_boarding":"0","platform_code":"","tts_stop_name":"","feed_id":"Iowa__Mason_City_Public_Transit__mdb_mdb-204","agency_name":"Mason City Public Transit","route_count":1,"route_ids":"9745","route_short_names":"Orange","route_types":"3","route_type_names":"Bus","routes_json":"[{\"route_id\":\"9745\",\"route_short_name\":\"Orange\",\"route_long_name\":\"South Central\",\"route_type\":\"3\",\"route_type_name\":\"Bus\",\"route_color\":\"EA9631\",\"route_text_color\":\"FFFFFF\"}]"},"geometry":{"type":"Point","coordinates":[-93.198276786444,43.135168304422]}},{"type":"Feature","properties":{"stop_id":"2430156","stop_code":"","stop_name":"15th St. SE and S Federal Ave.","stop_desc":"","zone_id":"","stop_url":"","location_type":"0","parent_station":"","stop_timezone":"America/Chicago","wheelchair_boarding":"0","platform_code":"","tts_stop_name":"","feed_id":"Iowa__Mason_City_Public_Transit__mdb_mdb-204","agency_name":"Mason City Public Transit","route_count":1,"route_ids":"9745","route_short_names":"Orange","route_types":"3","route_type_names":"Bus","routes_json":"[{\"route_id\":\"9745\",\"route_short_name\":\"Orange\",\"route_long_name\":\"South Central\",\"route_type\":\"3\",\"route_type_name\":\"Bus\",\"route_color\":\"EA9631\",\"route_text_color\":\"FFFFFF\"}]"},"geometry":{"type":"Point","coordinates":[-93.200840272941,43.137338795678]}},{"type":"Feature","properties":{"stop_id":"2430213","stop_code":"","stop_name":"S Federal Ave. and 12th St. SE","stop_desc":"","zone_id":"","stop_url":"","location_type":"0","parent_station":"","stop_timezone":"America/Chicago","wheelchair_boarding":"0","platform_code":"","tts_stop_name":"","feed_id":"Iowa__Mason_City_Public_Transit__mdb_mdb-204","agency_name":"Mason City Public Transit","route_count":1,"route_ids":"9745","route_short_names":"Orange","route_types":"3","route_type_names":"Bus","routes_json":"[{\"route_id\":\"9745\",\"route_short_name\":\"Orange\",\"route_long_name\":\"South Central\",\"route_type\":\"3\",\"route_type_name\":\"Bus\",\"route_color\":\"EA9631\",\"route_text_color\":\"FFFFFF\"}]"},"geometry":{"type":"Point","coordinates":[-93.20091559018,43.140158927083]}},{"type":"Feature","properties":{"stop_id":"2430214","stop_code":"","stop_name":"S Federal Ave. and 7th St. SE","stop_desc":"","zone_id":"","stop_url":"","location_type":"0","parent_station":"","stop_timezone":"America/Chicago","wheelchair_boarding":"0","platform_code":"","tts_stop_name":"","feed_id":"Iowa__Mason_City_Public_Transit__mdb_mdb-204","agency_name":"Mason City Public Transit","route_count":1,"route_ids":"9745","route_short_names":"Orange","route_types":"3","route_type_names":"Bus","routes_json":"[{\"route_id\":\"9745\",\"route_short_name\":\"Orange\",\"route_long_name\":\"South Central\",\"route_type\":\"3\",\"route_type_name\":\"Bus\",\"route_color\":\"EA9631\",\"route_text_color\":\"FFFFFF\"}]"},"geometry":{"type":"Point","coordinates":[-93.2009643043,43.144578145982]}},{"type":"Feature","properties":{"stop_id":"2430217","stop_code":"","stop_name":"S Delaware Ave. and 2nd St. SW","stop_desc":"","zone_id":"","stop_url":"","location_type":"0","parent_station":"","stop_timezone":"America/Chicago","wheelchair_boarding":"0","platform_code":"","tts_stop_name":"","feed_id":"Iowa__Mason_City_Public_Transit__mdb_mdb-204","agency_name":"Mason City Public Transit","route_count":1,"route_ids":"9745","route_short_names":"Orange","route_types":"3","route_type_names":"Bus","routes_json":"[{\"route_id\":\"9745\",\"route_short_name\":\"Orange\",\"route_long_name\":\"South Central\",\"route_type\":\"3\",\"route_type_name\":\"Bus\",\"route_color\":\"EA9631\",\"route_text_color\":\"FFFFFF\"}]"},"geometry":{"type":"Point","coordinates":[-93.199378045665,43.15014240912]}},{"type":"Feature","properties":{"stop_id":"2430158","stop_code":"","stop_name":"S Pennsylvania Ave. and 2nd St. SE","stop_desc":"","zone_id":"","stop_url":"","location_type":"0","parent_station":"","stop_timezone":"America/Chicago","wheelchair_boarding":"0","platform_code":"","tts_stop_name":"","feed_id":"Iowa__Mason_City_Public_Transit__mdb_mdb-204","agency_name":"Mason City Public Transit","route_count":1,"route_ids":"9746","route_short_names":"Red","route_types":"3","route_type_names":"Bus","routes_json":"[{\"route_id\":\"9746\",\"route_short_name\":\"Red\",\"route_long_name\":\"East Central\",\"route_type\":\"3\",\"route_type_name\":\"Bus\",\"route_color\":\"FF0000\",\"route_text_color\":\"FFFFFF\"}]"},"geometry":{"type":"Point","coordinates":[-93.197932035281,43.150031243176]}},{"type":"Feature","properties":{"stop_id":"2430159","stop_code":"","stop_name":"S Pennsylvania Ave. and 6th St. SE","stop_desc":"","zone_id":"","stop_url":"","location_type":"0","parent_station":"","stop_timezone":"America/Chicago","wheelchair_boarding":"0","platform_code":"","tts_stop_name":"","feed_id":"Iowa__Mason_City_Public_Transit__mdb_mdb-204","agency_name":"Mason City Public Transit","route_count":1,"route_ids":"9746","route_short_names":"Red","route_types":"3","route_type_names":"Bus","routes_json":"[{\"route_id\":\"9746\",\"route_short_name\":\"Red\",\"route_long_name\":\"East Central\",\"route_type\":\"3\",\"route_type_name\":\"Bus\",\"route_color\":\"FF0000\",\"route_text_color\":\"FFFFFF\"}]"},"geometry":{"type":"Point","coordinates":[-93.198593411047,43.14629824801]}},{"type":"Feature","properties":{"stop_id":"2430219","stop_code":"","stop_name":"6th St. SE and S Connecticut Ave.","stop_desc":"","zone_id":"","stop_url":"","location_type":"0","parent_station":"","stop_timezone":"America/Chicago","wheelchair_boarding":"0","platform_code":"","tts_stop_name":"","feed_id":"Iowa__Mason_City_Public_Transit__mdb_mdb-204","agency_name":"Mason City Public Transit","route_count":1,"route_ids":"9746","route_short_names":"Red","route_types":"3","route_type_names":"Bus","routes_json":"[{\"route_id\":\"9746\",\"route_short_name\":\"Red\",\"route_long_name\":\"East Central\",\"route_type\":\"3\",\"route_type_name\":\"Bus\",\"route_color\":\"FF0000\",\"route_text_color\":\"FFFFFF\"}]"},"geometry":{"type":"Point","coordinates":[-93.194871008087,43.146077719669]}},{"type":"Feature","properties":{"stop_id":"2430160","stop_code":"","stop_name":"6th St. SE and S Carolina Ave.","stop_desc":"","zone_id":"","stop_url":"","location_type":"0","parent_station":"","stop_timezone":"America/Chicago","wheelchair_boarding":"0","platform_code":"","tts_stop_name":"","feed_id":"Iowa__Mason_City_Public_Transit__mdb_mdb-204","agency_name":"Mason City Public Transit","route_count":1,"route_ids":"9746","route_short_names":"Red","route_types":"3","route_type_names":"Bus","routes_json":"[{\"route_id\":\"9746\",\"route_short_name\":\"Red\",\"route_long_name\":\"East Central\",\"route_type\":\"3\",\"route_type_name\":\"Bus\",\"route_color\":\"FF0000\",\"route_text_color\":\"FFFFFF\"}]"},"geometry":{"type":"Point","coordinates":[-93.191272493642,43.146069334859]}},{"type":"Feature","properties":{"stop_id":"2558974","stop_code":"","stop_name":"Department of Human Services","stop_desc":"","zone_id":"","stop_url":"","location_type":"0","parent_station":"","stop_timezone":"America/Chicago","wheelchair_boarding":"0","platform_code":"","tts_stop_name":"","feed_id":"Iowa__Mason_City_Public_Transit__mdb_mdb-204","agency_name":"Mason City Public Transit","route_count":1,"route_ids":"9746","route_short_names":"Red","route_types":"3","route_type_names":"Bus","routes_json":"[{\"route_id\":\"9746\",\"route_short_name\":\"Red\",\"route_long_name\":\"East Central\",\"route_type\":\"3\",\"route_type_name\":\"Bus\",\"route_color\":\"FF0000\",\"route_text_color\":\"FFFFFF\"}]"},"geometry":{"type":"Point","coordinates":[-93.1936983400372,43.14284286077921]}},{"type":"Feature","properties":{"stop_id":"2430221","stop_code":"","stop_name":"8th St. SE and S Virginia Ave.","stop_desc":"","zone_id":"","stop_url":"","location_type":"0","parent_station":"","stop_timezone":"America/Chicago","wheelchair_boarding":"0","platform_code":"","tts_stop_name":"","feed_id":"Iowa__Mason_City_Public_Transit__mdb_mdb-204","agency_name":"Mason City Public Transit","route_count":1,"route_ids":"9746","route_short_names":"Red","route_types":"3","route_type_names":"Bus","routes_json":"[{\"route_id\":\"9746\",\"route_short_name\":\"Red\",\"route_long_name\":\"East Central\",\"route_type\":\"3\",\"route_type_name\":\"Bus\",\"route_color\":\"FF0000\",\"route_text_color\":\"FFFFFF\"}]"},"geometry":{"type":"Point","coordinates":[-93.1862207752,43.143481822155]}},{"type":"Feature","properties":{"stop_id":"2430222","stop_code":"","stop_name":"S Virginia Ave. and 6th St. SE","stop_desc":"","zone_id":"","stop_url":"","location_type":"0","parent_station":"","stop_timezone":"America/Chicago","wheelchair_boarding":"0","platform_code":"","tts_stop_name":"","feed_id":"Iowa__Mason_City_Public_Transit__mdb_mdb-204","agency_name":"Mason City Public Transit","route_count":1,"route_ids":"9746","route_short_names":"Red","route_types":"3","route_type_names":"Bus","routes_json":"[{\"route_id\":\"9746\",\"route_short_name\":\"Red\",\"route_long_name\":\"East Central\",\"route_type\":\"3\",\"route_type_name\":\"Bus\",\"route_color\":\"FF0000\",\"route_text_color\":\"FFFFFF\"}]"},"geometry":{"type":"Point","coordinates":[-93.185931983955,43.146058757888]}},{"type":"Feature","properties":{"stop_id":"2430161","stop_code":"","stop_name":"6th St. SE and S Kentucky Ave.","stop_desc":"","zone_id":"","stop_url":"","location_type":"0","parent_station":"","stop_timezone":"America/Chicago","wheelchair_boarding":"0","platform_code":"","tts_stop_name":"","feed_id":"Iowa__Mason_City_Public_Transit__mdb_mdb-204","agency_name":"Mason City Public Transit","route_count":1,"route_ids":"9746","route_short_names":"Red","route_types":"3","route_type_names":"Bus","routes_json":"[{\"route_id\":\"9746\",\"route_short_name\":\"Red\",\"route_long_name\":\"East Central\",\"route_type\":\"3\",\"route_type_name\":\"Bus\",\"route_color\":\"FF0000\",\"route_text_color\":\"FFFFFF\"}]"},"geometry":{"type":"Point","coordinates":[-93.181265047995,43.146119764715]}},{"type":"Feature","properties":{"stop_id":"2430223","stop_code":"","stop_name":"4th St. SE and S Kentucky Ave. (Heritage Care)","stop_desc":"","zone_id":"","stop_url":"","location_type":"0","parent_station":"","stop_timezone":"America/Chicago","wheelchair_boarding":"0","platform_code":"","tts_stop_name":"","feed_id":"Iowa__Mason_City_Public_Transit__mdb_mdb-204","agency_name":"Mason City Public Transit","route_count":1,"route_ids":"9746","route_short_names":"Red","route_types":"3","route_type_names":"Bus","routes_json":"[{\"route_id\":\"9746\",\"route_short_name\":\"Red\",\"route_long_name\":\"East Central\",\"route_type\":\"3\",\"route_type_name\":\"Bus\",\"route_color\":\"FF0000\",\"route_text_color\":\"FFFFFF\"}]"},"geometry":{"type":"Point","coordinates":[-93.180458469795,43.147417046056]}},{"type":"Feature","properties":{"stop_id":"2430162","stop_code":"","stop_name":"S Tennessee Ave. and Manor Dr.","stop_desc":"","zone_id":"","stop_url":"","location_type":"0","parent_station":"","stop_timezone":"America/Chicago","wheelchair_boarding":"0","platform_code":"","tts_stop_name":"","feed_id":"Iowa__Mason_City_Public_Transit__mdb_mdb-204","agency_name":"Mason City Public Transit","route_count":1,"route_ids":"9746","route_short_names":"Red","route_types":"3","route_type_names":"Bus","routes_json":"[{\"route_id\":\"9746\",\"route_short_name\":\"Red\",\"route_long_name\":\"East Central\",\"route_type\":\"3\",\"route_type_name\":\"Bus\",\"route_color\":\"FF0000\",\"route_text_color\":\"FFFFFF\"}]"},"geometry":{"type":"Point","coordinates":[-93.178932327411,43.143523908363]}},{"type":"Feature","properties":{"stop_id":"2430224","stop_code":"","stop_name":"9th St. SE and S Indiana Ave.","stop_desc":"","zone_id":"","stop_url":"","location_type":"0","parent_station":"","stop_timezone":"America/Chicago","wheelchair_boarding":"0","platform_code":"","tts_stop_name":"","feed_id":"Iowa__Mason_City_Public_Transit__mdb_mdb-204","agency_name":"Mason City Public Transit","route_count":1,"route_ids":"9746","route_short_names":"Red","route_types":"3","route_type_names":"Bus","routes_json":"[{\"route_id\":\"9746\",\"route_short_name\":\"Red\",\"route_long_name\":\"East Central\",\"route_type\":\"3\",\"route_type_name\":\"Bus\",\"route_color\":\"FF0000\",\"route_text_color\":\"FFFFFF\"}]"},"geometry":{"type":"Point","coordinates":[-93.174384384187,43.142540116405]}},{"type":"Feature","properties":{"stop_id":"2430225","stop_code":"","stop_name":"9th St. SE and S Illinois Ave.","stop_desc":"","zone_id":"","stop_url":"","location_type":"0","parent_station":"","stop_timezone":"America/Chicago","wheelchair_boarding":"0","platform_code":"","tts_stop_name":"","feed_id":"Iowa__Mason_City_Public_Transit__mdb_mdb-204","agency_name":"Mason City Public Transit","route_count":1,"route_ids":"9746","route_short_names":"Red","route_types":"3","route_type_names":"Bus","routes_json":"[{\"route_id\":\"9746\",\"route_short_name\":\"Red\",\"route_long_name\":\"East Central\",\"route_type\":\"3\",\"route_type_name\":\"Bus\",\"route_color\":\"FF0000\",\"route_text_color\":\"FFFFFF\"}]"},"geometry":{"type":"Point","coordinates":[-93.171347926617,43.142542575306]}},{"type":"Feature","properties":{"stop_id":"2430163","stop_code":"","stop_name":"Regency Mall (HyVee East)","stop_desc":"","zone_id":"","stop_url":"","location_type":"0","parent_station":"","stop_timezone":"America/Chicago","wheelchair_boarding":"0","platform_code":"","tts_stop_name":"","feed_id":"Iowa__Mason_City_Public_Transit__mdb_mdb-204","agency_name":"Mason City Public Transit","route_count":1,"route_ids":"9746","route_short_names":"Red","route_types":"3","route_type_names":"Bus","routes_json":"[{\"route_id\":\"9746\",\"route_short_name\":\"Red\",\"route_long_name\":\"East Central\",\"route_type\":\"3\",\"route_type_name\":\"Bus\",\"route_color\":\"FF0000\",\"route_text_color\":\"FFFFFF\"}]"},"geometry":{"type":"Point","coordinates":[-93.169284993193,43.14678120678]}},{"type":"Feature","properties":{"stop_id":"2430164","stop_code":"","stop_name":"Mason City Middle & High School","stop_desc":"","zone_id":"","stop_url":"","location_type":"0","parent_station":"","stop_timezone":"America/Chicago","wheelchair_boarding":"0","platform_code":"","tts_stop_name":"","feed_id":"Iowa__Mason_City_Public_Transit__mdb_mdb-204","agency_name":"Mason City Public Transit","route_count":1,"route_ids":"9746","route_short_names":"Red","route_types":"3","route_type_names":"Bus","routes_json":"[{\"route_id\":\"9746\",\"route_short_name\":\"Red\",\"route_long_name\":\"East Central\",\"route_type\":\"3\",\"route_type_name\":\"Bus\",\"route_color\":\"FF0000\",\"route_text_color\":\"FFFFFF\"}]"},"geometry":{"type":"Point","coordinates":[-93.171048946872,43.151485708108]}},{"type":"Feature","properties":{"stop_id":"2430226","stop_code":"","stop_name":"E State St. and N Ohio Ave.","stop_desc":"","zone_id":"","stop_url":"","location_type":"0","parent_station":"","stop_timezone":"America/Chicago","wheelchair_boarding":"0","platform_code":"","tts_stop_name":"","feed_id":"Iowa__Mason_City_Public_Transit__mdb_mdb-204","agency_name":"Mason City Public Transit","route_count":1,"route_ids":"9746","route_short_names":"Red","route_types":"3","route_type_names":"Bus","routes_json":"[{\"route_id\":\"9746\",\"route_short_name\":\"Red\",\"route_long_name\":\"East Central\",\"route_type\":\"3\",\"route_type_name\":\"Bus\",\"route_color\":\"FF0000\",\"route_text_color\":\"FFFFFF\"}]"},"geometry":{"type":"Point","coordinates":[-93.176199669771,43.151737897568]}},{"type":"Feature","properties":{"stop_id":"2430165","stop_code":"","stop_name":"E State St. and N Kentucky Ave.","stop_desc":"","zone_id":"","stop_url":"","location_type":"0","parent_station":"","stop_timezone":"America/Chicago","wheelchair_boarding":"0","platform_code":"","tts_stop_name":"","feed_id":"Iowa__Mason_City_Public_Transit__mdb_mdb-204","agency_name":"Mason City Public Transit","route_count":1,"route_ids":"9746","route_short_names":"Red","route_types":"3","route_type_names":"Bus","routes_json":"[{\"route_id\":\"9746\",\"route_short_name\":\"Red\",\"route_long_name\":\"East Central\",\"route_type\":\"3\",\"route_type_name\":\"Bus\",\"route_color\":\"FF0000\",\"route_text_color\":\"FFFFFF\"}]"},"geometry":{"type":"Point","coordinates":[-93.180869812197,43.151810252993]}},{"type":"Feature","properties":{"stop_id":"2430230","stop_code":"","stop_name":"E State St. and S Virginia Ave.","stop_desc":"","zone_id":"","stop_url":"","location_type":"0","parent_station":"","stop_timezone":"America/Chicago","wheelchair_boarding":"0","platform_code":"","tts_stop_name":"","feed_id":"Iowa__Mason_City_Public_Transit__mdb_mdb-204","agency_name":"Mason City Public Transit","route_count":1,"route_ids":"9746","route_short_names":"Red","route_types":"3","route_type_names":"Bus","routes_json":"[{\"route_id\":\"9746\",\"route_short_name\":\"Red\",\"route_long_name\":\"East Central\",\"route_type\":\"3\",\"route_type_name\":\"Bus\",\"route_color\":\"FF0000\",\"route_text_color\":\"FFFFFF\"}]"},"geometry":{"type":"Point","coordinates":[-93.185876416776,43.151852244855]}},{"type":"Feature","properties":{"stop_id":"2430229","stop_code":"","stop_name":"E State St. and 1st St. NE","stop_desc":"","zone_id":"","stop_url":"","location_type":"0","parent_station":"","stop_timezone":"America/Chicago","wheelchair_boarding":"0","platform_code":"","tts_stop_name":"","feed_id":"Iowa__Mason_City_Public_Transit__mdb_mdb-204","agency_name":"Mason City Public Transit","route_count":1,"route_ids":"9746","route_short_names":"Red","route_types":"3","route_type_names":"Bus","routes_json":"[{\"route_id\":\"9746\",\"route_short_name\":\"Red\",\"route_long_name\":\"East Central\",\"route_type\":\"3\",\"route_type_name\":\"Bus\",\"route_color\":\"FF0000\",\"route_text_color\":\"FFFFFF\"}]"},"geometry":{"type":"Point","coordinates":[-93.191916702262,43.151871813016]}},{"type":"Feature","properties":{"stop_id":"2430227","stop_code":"","stop_name":"N Georgia Ave. and 3rd St. NE (Good Shepherd Health)","stop_desc":"","zone_id":"","stop_url":"","location_type":"0","parent_station":"","stop_timezone":"America/Chicago","wheelchair_boarding":"0","platform_code":"","tts_stop_name":"","feed_id":"Iowa__Mason_City_Public_Transit__mdb_mdb-204","agency_name":"Mason City Public Transit","route_count":2,"route_ids":"9747|9746","route_short_names":"Purple|Red","route_types":"3","route_type_names":"Bus","routes_json":"[{\"route_id\":\"9747\",\"route_short_name\":\"Purple\",\"route_long_name\":\"Northeast\",\"route_type\":\"3\",\"route_type_name\":\"Bus\",\"route_color\":\"5B00B5\",\"route_text_color\":\"FFFFFF\"},{\"route_id\":\"9746\",\"route_short_name\":\"Red\",\"route_long_name\":\"East Central\",\"route_type\":\"3\",\"route_type_name\":\"Bus\",\"route_color\":\"FF0000\",\"route_text_color\":\"FFFFFF\"}]"},"geometry":{"type":"Point","coordinates":[-93.196120820659,43.154322876052]}},{"type":"Feature","properties":{"stop_id":"2430166","stop_code":"","stop_name":"3rd St. NE and N Pennsylvania Ave.","stop_desc":"","zone_id":"","stop_url":"","location_type":"0","parent_station":"","stop_timezone":"America/Chicago","wheelchair_boarding":"0","platform_code":"","tts_stop_name":"","feed_id":"Iowa__Mason_City_Public_Transit__mdb_mdb-204","agency_name":"Mason City Public Transit","route_count":1,"route_ids":"9746","route_short_names":"Red","route_types":"3","route_type_names":"Bus","routes_json":"[{\"route_id\":\"9746\",\"route_short_name\":\"Red\",\"route_long_name\":\"East Central\",\"route_type\":\"3\",\"route_type_name\":\"Bus\",\"route_color\":\"FF0000\",\"route_text_color\":\"FFFFFF\"}]"},"geometry":{"type":"Point","coordinates":[-93.197589611272,43.154603207538]}},{"type":"Feature","properties":{"stop_id":"2430231","stop_code":"","stop_name":"4th St. NE and N Connecticut Ave.","stop_desc":"","zone_id":"","stop_url":"","location_type":"0","parent_station":"","stop_timezone":"America/Chicago","wheelchair_boarding":"0","platform_code":"","tts_stop_name":"","feed_id":"Iowa__Mason_City_Public_Transit__mdb_mdb-204","agency_name":"Mason City Public Transit","route_count":1,"route_ids":"9747","route_short_names":"Purple","route_types":"3","route_type_names":"Bus","routes_json":"[{\"route_id\":\"9747\",\"route_short_name\":\"Purple\",\"route_long_name\":\"Northeast\",\"route_type\":\"3\",\"route_type_name\":\"Bus\",\"route_color\":\"5B00B5\",\"route_text_color\":\"FFFFFF\"}]"},"geometry":{"type":"Point","coordinates":[-93.194774715624,43.155396229355]}},{"type":"Feature","properties":{"stop_id":"2430232","stop_code":"","stop_name":"4th St. NE and N Carolina Ave. (Northbound)","stop_desc":"","zone_id":"","stop_url":"","location_type":"0","parent_station":"","stop_timezone":"America/Chicago","wheelchair_boarding":"0","platform_code":"","tts_stop_name":"","feed_id":"Iowa__Mason_City_Public_Transit__mdb_mdb-204","agency_name":"Mason City Public Transit","route_count":1,"route_ids":"9747","route_short_names":"Purple","route_types":"3","route_type_names":"Bus","routes_json":"[{\"route_id\":\"9747\",\"route_short_name\":\"Purple\",\"route_long_name\":\"Northeast\",\"route_type\":\"3\",\"route_type_name\":\"Bus\",\"route_color\":\"5B00B5\",\"route_text_color\":\"FFFFFF\"}]"},"geometry":{"type":"Point","coordinates":[-93.190259114895,43.155386130788]}},{"type":"Feature","properties":{"stop_id":"2430233","stop_code":"","stop_name":"N Carolina Ave. and 7th St. (Northbound)","stop_desc":"","zone_id":"","stop_url":"","location_type":"0","parent_station":"","stop_timezone":"America/Chicago","wheelchair_boarding":"0","platform_code":"","tts_stop_name":"","feed_id":"Iowa__Mason_City_Public_Transit__mdb_mdb-204","agency_name":"Mason City Public Transit","route_count":1,"route_ids":"9747","route_short_names":"Purple","route_types":"3","route_type_names":"Bus","routes_json":"[{\"route_id\":\"9747\",\"route_short_name\":\"Purple\",\"route_long_name\":\"Northeast\",\"route_type\":\"3\",\"route_type_name\":\"Bus\",\"route_color\":\"5B00B5\",\"route_text_color\":\"FFFFFF\"}]"},"geometry":{"type":"Point","coordinates":[-93.190051318692,43.157500920411]}},{"type":"Feature","properties":{"stop_id":"2430168","stop_code":"","stop_name":"N Carolina Ave. and 9th St. NE (Northbound)","stop_desc":"","zone_id":"","stop_url":"","location_type":"0","parent_station":"","stop_timezone":"America/Chicago","wheelchair_boarding":"0","platform_code":"","tts_stop_name":"","feed_id":"Iowa__Mason_City_Public_Transit__mdb_mdb-204","agency_name":"Mason City Public Transit","route_count":1,"route_ids":"9747","route_short_names":"Purple","route_types":"3","route_type_names":"Bus","routes_json":"[{\"route_id\":\"9747\",\"route_short_name\":\"Purple\",\"route_long_name\":\"Northeast\",\"route_type\":\"3\",\"route_type_name\":\"Bus\",\"route_color\":\"5B00B5\",\"route_text_color\":\"FFFFFF\"}]"},"geometry":{"type":"Point","coordinates":[-93.19033787814,43.159928056463]}},{"type":"Feature","properties":{"stop_id":"2430234","stop_code":"","stop_name":"Birch Dr. and N Virginia Ave. (Swimming Pool)","stop_desc":"","zone_id":"","stop_url":"","location_type":"0","parent_station":"","stop_timezone":"America/Chicago","wheelchair_boarding":"0","platform_code":"","tts_stop_name":"","feed_id":"Iowa__Mason_City_Public_Transit__mdb_mdb-204","agency_name":"Mason City Public Transit","route_count":1,"route_ids":"9747","route_short_names":"Purple","route_types":"3","route_type_names":"Bus","routes_json":"[{\"route_id\":\"9747\",\"route_short_name\":\"Purple\",\"route_long_name\":\"Northeast\",\"route_type\":\"3\",\"route_type_name\":\"Bus\",\"route_color\":\"5B00B5\",\"route_text_color\":\"FFFFFF\"}]"},"geometry":{"type":"Point","coordinates":[-93.185287803774,43.159205199574]}},{"type":"Feature","properties":{"stop_id":"2430169","stop_code":"","stop_name":"Birch Dr. and N Kentucky Ave.","stop_desc":"","zone_id":"","stop_url":"","location_type":"0","parent_station":"","stop_timezone":"America/Chicago","wheelchair_boarding":"0","platform_code":"","tts_stop_name":"","feed_id":"Iowa__Mason_City_Public_Transit__mdb_mdb-204","agency_name":"Mason City Public Transit","route_count":1,"route_ids":"9747","route_short_names":"Purple","route_types":"3","route_type_names":"Bus","routes_json":"[{\"route_id\":\"9747\",\"route_short_name\":\"Purple\",\"route_long_name\":\"Northeast\",\"route_type\":\"3\",\"route_type_name\":\"Bus\",\"route_color\":\"5B00B5\",\"route_text_color\":\"FFFFFF\"}]"},"geometry":{"type":"Point","coordinates":[-93.181485171766,43.158242338522]}},{"type":"Feature","properties":{"stop_id":"2430235","stop_code":"","stop_name":"N Kentucky Ave. and 9th St. NE","stop_desc":"","zone_id":"","stop_url":"","location_type":"0","parent_station":"","stop_timezone":"America/Chicago","wheelchair_boarding":"0","platform_code":"","tts_stop_name":"","feed_id":"Iowa__Mason_City_Public_Transit__mdb_mdb-204","agency_name":"Mason City Public Transit","route_count":1,"route_ids":"9747","route_short_names":"Purple","route_types":"3","route_type_names":"Bus","routes_json":"[{\"route_id\":\"9747\",\"route_short_name\":\"Purple\",\"route_long_name\":\"Northeast\",\"route_type\":\"3\",\"route_type_name\":\"Bus\",\"route_color\":\"5B00B5\",\"route_text_color\":\"FFFFFF\"}]"},"geometry":{"type":"Point","coordinates":[-93.181069815859,43.160104249311]}},{"type":"Feature","properties":{"stop_id":"2430170","stop_code":"","stop_name":"N Kentucky Ave. and 12th St. NE","stop_desc":"","zone_id":"","stop_url":"","location_type":"0","parent_station":"","stop_timezone":"America/Chicago","wheelchair_boarding":"0","platform_code":"","tts_stop_name":"","feed_id":"Iowa__Mason_City_Public_Transit__mdb_mdb-204","agency_name":"Mason City Public Transit","route_count":1,"route_ids":"9747","route_short_names":"Purple","route_types":"3","route_type_names":"Bus","routes_json":"[{\"route_id\":\"9747\",\"route_short_name\":\"Purple\",\"route_long_name\":\"Northeast\",\"route_type\":\"3\",\"route_type_name\":\"Bus\",\"route_color\":\"5B00B5\",\"route_text_color\":\"FFFFFF\"}]"},"geometry":{"type":"Point","coordinates":[-93.181096552423,43.162811587876]}},{"type":"Feature","properties":{"stop_id":"2430171","stop_code":"","stop_name":"North Iowa Area Community College","stop_desc":"","zone_id":"","stop_url":"","location_type":"0","parent_station":"","stop_timezone":"America/Chicago","wheelchair_boarding":"0","platform_code":"","tts_stop_name":"","feed_id":"Iowa__Mason_City_Public_Transit__mdb_mdb-204","agency_name":"Mason City Public Transit","route_count":1,"route_ids":"9747","route_short_names":"Purple","route_types":"3","route_type_names":"Bus","routes_json":"[{\"route_id\":\"9747\",\"route_short_name\":\"Purple\",\"route_long_name\":\"Northeast\",\"route_type\":\"3\",\"route_type_name\":\"Bus\",\"route_color\":\"5B00B5\",\"route_text_color\":\"FFFFFF\"}]"},"geometry":{"type":"Point","coordinates":[-93.130789378269,43.157418079301]}},{"type":"Feature","properties":{"stop_id":"2430191","stop_code":"","stop_name":"12th St. NE and N Carolina Ave.","stop_desc":"","zone_id":"","stop_url":"","location_type":"0","parent_station":"","stop_timezone":"America/Chicago","wheelchair_boarding":"0","platform_code":"","tts_stop_name":"","feed_id":"Iowa__Mason_City_Public_Transit__mdb_mdb-204","agency_name":"Mason City Public Transit","route_count":1,"route_ids":"9747","route_short_names":"Purple","route_types":"3","route_type_names":"Bus","routes_json":"[{\"route_id\":\"9747\",\"route_short_name\":\"Purple\",\"route_long_name\":\"Northeast\",\"route_type\":\"3\",\"route_type_name\":\"Bus\",\"route_color\":\"5B00B5\",\"route_text_color\":\"FFFFFF\"}]"},"geometry":{"type":"Point","coordinates":[-93.190112105687,43.162932355307]}},{"type":"Feature","properties":{"stop_id":"2430237","stop_code":"","stop_name":"N Carolina Ave. and 9th St. NE (Southbound)","stop_desc":"","zone_id":"","stop_url":"","location_type":"0","parent_station":"","stop_timezone":"America/Chicago","wheelchair_boarding":"0","platform_code":"","tts_stop_name":"","feed_id":"Iowa__Mason_City_Public_Transit__mdb_mdb-204","agency_name":"Mason City Public Transit","route_count":1,"route_ids":"9747","route_short_names":"Purple","route_types":"3","route_type_names":"Bus","routes_json":"[{\"route_id\":\"9747\",\"route_short_name\":\"Purple\",\"route_long_name\":\"Northeast\",\"route_type\":\"3\",\"route_type_name\":\"Bus\",\"route_color\":\"5B00B5\",\"route_text_color\":\"FFFFFF\"}]"},"geometry":{"type":"Point","coordinates":[-93.190599890897,43.160192163442]}},{"type":"Feature","properties":{"stop_id":"2430238","stop_code":"","stop_name":"N Carolina Ave. and 7th St. NE (Southbound)","stop_desc":"","zone_id":"","stop_url":"","location_type":"0","parent_station":"","stop_timezone":"America/Chicago","wheelchair_boarding":"0","platform_code":"","tts_stop_name":"","feed_id":"Iowa__Mason_City_Public_Transit__mdb_mdb-204","agency_name":"Mason City Public Transit","route_count":1,"route_ids":"9747","route_short_names":"Purple","route_types":"3","route_type_names":"Bus","routes_json":"[{\"route_id\":\"9747\",\"route_short_name\":\"Purple\",\"route_long_name\":\"Northeast\",\"route_type\":\"3\",\"route_type_name\":\"Bus\",\"route_color\":\"5B00B5\",\"route_text_color\":\"FFFFFF\"}]"},"geometry":{"type":"Point","coordinates":[-93.190323129167,43.157659267711]}},{"type":"Feature","properties":{"stop_id":"2430239","stop_code":"","stop_name":"N Carolina Ave. and 4th St. NE (Southbound)","stop_desc":"","zone_id":"","stop_url":"","location_type":"0","parent_station":"","stop_timezone":"America/Chicago","wheelchair_boarding":"0","platform_code":"","tts_stop_name":"","feed_id":"Iowa__Mason_City_Public_Transit__mdb_mdb-204","agency_name":"Mason City Public Transit","route_count":1,"route_ids":"9747","route_short_names":"Purple","route_types":"3","route_type_names":"Bus","routes_json":"[{\"route_id\":\"9747\",\"route_short_name\":\"Purple\",\"route_long_name\":\"Northeast\",\"route_type\":\"3\",\"route_type_name\":\"Bus\",\"route_color\":\"5B00B5\",\"route_text_color\":\"FFFFFF\"}]"},"geometry":{"type":"Point","coordinates":[-93.190274349195,43.15557551871]}},{"type":"Feature","properties":{"stop_id":"2430173","stop_code":"","stop_name":"4th St. NE and N Georgia Ave.","stop_desc":"","zone_id":"","stop_url":"","location_type":"0","parent_station":"","stop_timezone":"America/Chicago","wheelchair_boarding":"0","platform_code":"","tts_stop_name":"","feed_id":"Iowa__Mason_City_Public_Transit__mdb_mdb-204","agency_name":"Mason City Public Transit","route_count":1,"route_ids":"9747","route_short_names":"Purple","route_types":"3","route_type_names":"Bus","routes_json":"[{\"route_id\":\"9747\",\"route_short_name\":\"Purple\",\"route_long_name\":\"Northeast\",\"route_type\":\"3\",\"route_type_name\":\"Bus\",\"route_color\":\"5B00B5\",\"route_text_color\":\"FFFFFF\"}]"},"geometry":{"type":"Point","coordinates":[-93.196043278631,43.15554355159]}}]}