{"type":"FeatureCollection","features":[{"type":"Feature","properties":{"stop_id":"2583094","stop_code":"","platform_code":"","stop_name":"RRT Office","stop_desc":"","zone_id":"","stop_url":"","location_type":"0","parent_station":"","stop_timezone":"America/Denver","position":"","direction":"","wheelchair_boarding":"0","tts_stop_name":"","feed_id":"Colorado__RoadrunnerTransit__mdb_mdb-805","agency_name":"Road Runner Transit","route_count":1,"route_ids":"15638","route_short_names":"","route_types":"3","route_type_names":"Bus","routes_json":"[{\"route_id\":\"15638\",\"route_short_name\":\"\",\"route_long_name\":\"Ignacio/Bayfield to Durango\",\"route_type\":\"3\",\"route_type_name\":\"Bus\",\"route_color\":\"64748B\",\"route_text_color\":\"000000\"}]"},"geometry":{"type":"Point","coordinates":[-107.634552053742,37.1183460640876]}},{"type":"Feature","properties":{"stop_id":"2583095","stop_code":"","platform_code":"","stop_name":"Ignacio Post Office","stop_desc":"","zone_id":"","stop_url":"","location_type":"0","parent_station":"","stop_timezone":"America/Denver","position":"","direction":"","wheelchair_boarding":"0","tts_stop_name":"","feed_id":"Colorado__RoadrunnerTransit__mdb_mdb-805","agency_name":"Road Runner Transit","route_count":1,"route_ids":"15638","route_short_names":"","route_types":"3","route_type_names":"Bus","routes_json":"[{\"route_id\":\"15638\",\"route_short_name\":\"\",\"route_long_name\":\"Ignacio/Bayfield to Durango\",\"route_type\":\"3\",\"route_type_name\":\"Bus\",\"route_color\":\"64748B\",\"route_text_color\":\"000000\"}]"},"geometry":{"type":"Point","coordinates":[-107.63287346454,37.1096545125949]}},{"type":"Feature","properties":{"stop_id":"2583096","stop_code":"","platform_code":"","stop_name":"Cedar Point East","stop_desc":"","zone_id":"","stop_url":"","location_type":"0","parent_station":"","stop_timezone":"America/Denver","position":"","direction":"","wheelchair_boarding":"0","tts_stop_name":"","feed_id":"Colorado__RoadrunnerTransit__mdb_mdb-805","agency_name":"Road Runner Transit","route_count":1,"route_ids":"15638","route_short_names":"","route_types":"3","route_type_names":"Bus","routes_json":"[{\"route_id\":\"15638\",\"route_short_name\":\"\",\"route_long_name\":\"Ignacio/Bayfield to Durango\",\"route_type\":\"3\",\"route_type_name\":\"Bus\",\"route_color\":\"64748B\",\"route_text_color\":\"000000\"}]"},"geometry":{"type":"Point","coordinates":[-107.64345426806813,37.10112200085737]}},{"type":"Feature","properties":{"stop_id":"2583097","stop_code":"","platform_code":"","stop_name":"Ignacio Library","stop_desc":"","zone_id":"","stop_url":"","location_type":"0","parent_station":"","stop_timezone":"America/Denver","position":"","direction":"","wheelchair_boarding":"0","tts_stop_name":"","feed_id":"Colorado__RoadrunnerTransit__mdb_mdb-805","agency_name":"Road Runner Transit","route_count":1,"route_ids":"15638","route_short_names":"","route_types":"3","route_type_names":"Bus","routes_json":"[{\"route_id\":\"15638\",\"route_short_name\":\"\",\"route_long_name\":\"Ignacio/Bayfield to Durango\",\"route_type\":\"3\",\"route_type_name\":\"Bus\",\"route_color\":\"64748B\",\"route_text_color\":\"000000\"}]"},"geometry":{"type":"Point","coordinates":[-107.632808280786,37.1162850150001]}},{"type":"Feature","properties":{"stop_id":"2583098","stop_code":"","platform_code":"","stop_name":"Ignacio Senior Center","stop_desc":"","zone_id":"","stop_url":"","location_type":"0","parent_station":"","stop_timezone":"America/Denver","position":"","direction":"","wheelchair_boarding":"0","tts_stop_name":"","feed_id":"Colorado__RoadrunnerTransit__mdb_mdb-805","agency_name":"Road Runner Transit","route_count":1,"route_ids":"15638","route_short_names":"","route_types":"3","route_type_names":"Bus","routes_json":"[{\"route_id\":\"15638\",\"route_short_name\":\"\",\"route_long_name\":\"Ignacio/Bayfield to Durango\",\"route_type\":\"3\",\"route_type_name\":\"Bus\",\"route_color\":\"64748B\",\"route_text_color\":\"000000\"}]"},"geometry":{"type":"Point","coordinates":[-107.63559655015705,37.124139514029736]}},{"type":"Feature","properties":{"stop_id":"2583099","stop_code":"","platform_code":"","stop_name":"Growth Fund Building","stop_desc":"","zone_id":"","stop_url":"","location_type":"0","parent_station":"","stop_timezone":"America/Denver","position":"","direction":"","wheelchair_boarding":"0","tts_stop_name":"","feed_id":"Colorado__RoadrunnerTransit__mdb_mdb-805","agency_name":"Road Runner Transit","route_count":1,"route_ids":"15638","route_short_names":"","route_types":"3","route_type_names":"Bus","routes_json":"[{\"route_id\":\"15638\",\"route_short_name\":\"\",\"route_long_name\":\"Ignacio/Bayfield to Durango\",\"route_type\":\"3\",\"route_type_name\":\"Bus\",\"route_color\":\"64748B\",\"route_text_color\":\"000000\"}]"},"geometry":{"type":"Point","coordinates":[-107.63689871503892,37.13032433510506]}},{"type":"Feature","properties":{"stop_id":"2583100","stop_code":"","platform_code":"","stop_name":"Annex Building","stop_desc":"","zone_id":"","stop_url":"","location_type":"0","parent_station":"","stop_timezone":"America/Denver","position":"","direction":"","wheelchair_boarding":"0","tts_stop_name":"","feed_id":"Colorado__RoadrunnerTransit__mdb_mdb-805","agency_name":"Road Runner Transit","route_count":1,"route_ids":"15638","route_short_names":"","route_types":"3","route_type_names":"Bus","routes_json":"[{\"route_id\":\"15638\",\"route_short_name\":\"\",\"route_long_name\":\"Ignacio/Bayfield to Durango\",\"route_type\":\"3\",\"route_type_name\":\"Bus\",\"route_color\":\"64748B\",\"route_text_color\":\"000000\"}]"},"geometry":{"type":"Point","coordinates":[-107.635431929444,37.1267499350154]}},{"type":"Feature","properties":{"stop_id":"2583101","stop_code":"","platform_code":"","stop_name":"LCB Building","stop_desc":"","zone_id":"","stop_url":"","location_type":"0","parent_station":"","stop_timezone":"America/Denver","position":"","direction":"","wheelchair_boarding":"0","tts_stop_name":"","feed_id":"Colorado__RoadrunnerTransit__mdb_mdb-805","agency_name":"Road Runner Transit","route_count":1,"route_ids":"15638","route_short_names":"","route_types":"3","route_type_names":"Bus","routes_json":"[{\"route_id\":\"15638\",\"route_short_name\":\"\",\"route_long_name\":\"Ignacio/Bayfield to Durango\",\"route_type\":\"3\",\"route_type_name\":\"Bus\",\"route_color\":\"64748B\",\"route_text_color\":\"000000\"}]"},"geometry":{"type":"Point","coordinates":[-107.63431629396258,37.13067929248236]}},{"type":"Feature","properties":{"stop_id":"2583102","stop_code":"","platform_code":"","stop_name":"Casino","stop_desc":"","zone_id":"","stop_url":"","location_type":"0","parent_station":"","stop_timezone":"America/Denver","position":"","direction":"","wheelchair_boarding":"0","tts_stop_name":"","feed_id":"Colorado__RoadrunnerTransit__mdb_mdb-805","agency_name":"Road Runner Transit","route_count":1,"route_ids":"15638","route_short_names":"","route_types":"3","route_type_names":"Bus","routes_json":"[{\"route_id\":\"15638\",\"route_short_name\":\"\",\"route_long_name\":\"Ignacio/Bayfield to Durango\",\"route_type\":\"3\",\"route_type_name\":\"Bus\",\"route_color\":\"64748B\",\"route_text_color\":\"000000\"}]"},"geometry":{"type":"Point","coordinates":[-107.632736544045,37.1379475031076]}},{"type":"Feature","properties":{"stop_id":"2583103","stop_code":"","platform_code":"","stop_name":"Bayfield Town Hall","stop_desc":"","zone_id":"","stop_url":"","location_type":"0","parent_station":"","stop_timezone":"America/Denver","position":"","direction":"","wheelchair_boarding":"0","tts_stop_name":"","feed_id":"Colorado__RoadrunnerTransit__mdb_mdb-805","agency_name":"Road Runner Transit","route_count":1,"route_ids":"15638","route_short_names":"","route_types":"3","route_type_names":"Bus","routes_json":"[{\"route_id\":\"15638\",\"route_short_name\":\"\",\"route_long_name\":\"Ignacio/Bayfield to Durango\",\"route_type\":\"3\",\"route_type_name\":\"Bus\",\"route_color\":\"64748B\",\"route_text_color\":\"000000\"}]"},"geometry":{"type":"Point","coordinates":[-107.60432770569446,37.2255316118309]}},{"type":"Feature","properties":{"stop_id":"2583104","stop_code":"","platform_code":"","stop_name":"Conoco East","stop_desc":"","zone_id":"","stop_url":"","location_type":"0","parent_station":"","stop_timezone":"America/Denver","position":"","direction":"","wheelchair_boarding":"0","tts_stop_name":"","feed_id":"Colorado__RoadrunnerTransit__mdb_mdb-805","agency_name":"Road Runner Transit","route_count":1,"route_ids":"15638","route_short_names":"","route_types":"3","route_type_names":"Bus","routes_json":"[{\"route_id\":\"15638\",\"route_short_name\":\"\",\"route_long_name\":\"Ignacio/Bayfield to Durango\",\"route_type\":\"3\",\"route_type_name\":\"Bus\",\"route_color\":\"64748B\",\"route_text_color\":\"000000\"}]"},"geometry":{"type":"Point","coordinates":[-107.586597082991,37.2338871062792]}},{"type":"Feature","properties":{"stop_id":"2583105","stop_code":"","platform_code":"","stop_name":"Bayfield Library","stop_desc":"","zone_id":"","stop_url":"","location_type":"0","parent_station":"","stop_timezone":"America/Denver","position":"","direction":"","wheelchair_boarding":"0","tts_stop_name":"","feed_id":"Colorado__RoadrunnerTransit__mdb_mdb-805","agency_name":"Road Runner Transit","route_count":1,"route_ids":"15638","route_short_names":"","route_types":"3","route_type_names":"Bus","routes_json":"[{\"route_id\":\"15638\",\"route_short_name\":\"\",\"route_long_name\":\"Ignacio/Bayfield to Durango\",\"route_type\":\"3\",\"route_type_name\":\"Bus\",\"route_color\":\"64748B\",\"route_text_color\":\"000000\"}]"},"geometry":{"type":"Point","coordinates":[-107.596017311,37.234006234]}},{"type":"Feature","properties":{"stop_id":"2583106","stop_code":"","platform_code":"","stop_name":"Park and Ride","stop_desc":"","zone_id":"","stop_url":"","location_type":"0","parent_station":"","stop_timezone":"America/Denver","position":"","direction":"","wheelchair_boarding":"0","tts_stop_name":"","feed_id":"Colorado__RoadrunnerTransit__mdb_mdb-805","agency_name":"Road Runner Transit","route_count":1,"route_ids":"15638","route_short_names":"","route_types":"3","route_type_names":"Bus","routes_json":"[{\"route_id\":\"15638\",\"route_short_name\":\"\",\"route_long_name\":\"Ignacio/Bayfield to Durango\",\"route_type\":\"3\",\"route_type_name\":\"Bus\",\"route_color\":\"64748B\",\"route_text_color\":\"000000\"}]"},"geometry":{"type":"Point","coordinates":[-107.665529132569,37.2262664852852]}},{"type":"Feature","properties":{"stop_id":"2583107","stop_code":"","platform_code":"","stop_name":"Florida Mesa","stop_desc":"","zone_id":"","stop_url":"","location_type":"0","parent_station":"","stop_timezone":"America/Denver","position":"","direction":"","wheelchair_boarding":"0","tts_stop_name":"","feed_id":"Colorado__RoadrunnerTransit__mdb_mdb-805","agency_name":"Road Runner Transit","route_count":1,"route_ids":"15638","route_short_names":"","route_types":"3","route_type_names":"Bus","routes_json":"[{\"route_id\":\"15638\",\"route_short_name\":\"\",\"route_long_name\":\"Ignacio/Bayfield to Durango\",\"route_type\":\"3\",\"route_type_name\":\"Bus\",\"route_color\":\"64748B\",\"route_text_color\":\"000000\"}]"},"geometry":{"type":"Point","coordinates":[-107.79559,37.226931]}},{"type":"Feature","properties":{"stop_id":"2583108","stop_code":"","platform_code":"","stop_name":"Mercy","stop_desc":"","zone_id":"","stop_url":"","location_type":"0","parent_station":"","stop_timezone":"America/Denver","position":"","direction":"","wheelchair_boarding":"0","tts_stop_name":"","feed_id":"Colorado__RoadrunnerTransit__mdb_mdb-805","agency_name":"Road Runner Transit","route_count":1,"route_ids":"15638","route_short_names":"","route_types":"3","route_type_names":"Bus","routes_json":"[{\"route_id\":\"15638\",\"route_short_name\":\"\",\"route_long_name\":\"Ignacio/Bayfield to Durango\",\"route_type\":\"3\",\"route_type_name\":\"Bus\",\"route_color\":\"64748B\",\"route_text_color\":\"000000\"}]"},"geometry":{"type":"Point","coordinates":[-107.825840570516,37.2357783449339]}},{"type":"Feature","properties":{"stop_id":"2583109","stop_code":"","platform_code":"","stop_name":"Wal-Mart","stop_desc":"","zone_id":"","stop_url":"","location_type":"0","parent_station":"","stop_timezone":"America/Denver","position":"","direction":"","wheelchair_boarding":"0","tts_stop_name":"","feed_id":"Colorado__RoadrunnerTransit__mdb_mdb-805","agency_name":"Road Runner Transit","route_count":1,"route_ids":"15638","route_short_names":"","route_types":"3","route_type_names":"Bus","routes_json":"[{\"route_id\":\"15638\",\"route_short_name\":\"\",\"route_long_name\":\"Ignacio/Bayfield to Durango\",\"route_type\":\"3\",\"route_type_name\":\"Bus\",\"route_color\":\"64748B\",\"route_text_color\":\"000000\"}]"},"geometry":{"type":"Point","coordinates":[-107.86510863137062,37.23023855219877]}},{"type":"Feature","properties":{"stop_id":"2583110","stop_code":"","platform_code":"","stop_name":"Centennial Center","stop_desc":"","zone_id":"","stop_url":"","location_type":"0","parent_station":"","stop_timezone":"America/Denver","position":"","direction":"","wheelchair_boarding":"0","tts_stop_name":"","feed_id":"Colorado__RoadrunnerTransit__mdb_mdb-805","agency_name":"Road Runner Transit","route_count":1,"route_ids":"15638","route_short_names":"","route_types":"3","route_type_names":"Bus","routes_json":"[{\"route_id\":\"15638\",\"route_short_name\":\"\",\"route_long_name\":\"Ignacio/Bayfield to Durango\",\"route_type\":\"3\",\"route_type_name\":\"Bus\",\"route_color\":\"64748B\",\"route_text_color\":\"000000\"}]"},"geometry":{"type":"Point","coordinates":[-107.883097315895,37.270324566263]}},{"type":"Feature","properties":{"stop_id":"2583111","stop_code":"","platform_code":"","stop_name":"Transit","stop_desc":"","zone_id":"","stop_url":"","location_type":"0","parent_station":"","stop_timezone":"America/Denver","position":"","direction":"","wheelchair_boarding":"0","tts_stop_name":"","feed_id":"Colorado__RoadrunnerTransit__mdb_mdb-805","agency_name":"Road Runner Transit","route_count":1,"route_ids":"15638","route_short_names":"","route_types":"3","route_type_names":"Bus","routes_json":"[{\"route_id\":\"15638\",\"route_short_name\":\"\",\"route_long_name\":\"Ignacio/Bayfield to Durango\",\"route_type\":\"3\",\"route_type_name\":\"Bus\",\"route_color\":\"64748B\",\"route_text_color\":\"000000\"}]"},"geometry":{"type":"Point","coordinates":[-107.882954121724,37.272614173906]}},{"type":"Feature","properties":{"stop_id":"2583112","stop_code":"","platform_code":"","stop_name":"Gem Village","stop_desc":"","zone_id":"","stop_url":"","location_type":"0","parent_station":"","stop_timezone":"America/Denver","position":"","direction":"","wheelchair_boarding":"0","tts_stop_name":"","feed_id":"Colorado__RoadrunnerTransit__mdb_mdb-805","agency_name":"Road Runner Transit","route_count":1,"route_ids":"15638","route_short_names":"","route_types":"3","route_type_names":"Bus","routes_json":"[{\"route_id\":\"15638\",\"route_short_name\":\"\",\"route_long_name\":\"Ignacio/Bayfield to Durango\",\"route_type\":\"3\",\"route_type_name\":\"Bus\",\"route_color\":\"64748B\",\"route_text_color\":\"000000\"}]"},"geometry":{"type":"Point","coordinates":[-107.63710805516207,37.2188257614807]}},{"type":"Feature","properties":{"stop_id":"2613537","stop_code":"","platform_code":"","stop_name":"Gem Village","stop_desc":"","zone_id":"","stop_url":"","location_type":"0","parent_station":"","stop_timezone":"America/Denver","position":"","direction":"","wheelchair_boarding":"0","tts_stop_name":"","feed_id":"Colorado__RoadrunnerTransit__mdb_mdb-805","agency_name":"Road Runner Transit","route_count":1,"route_ids":"15638","route_short_names":"","route_types":"3","route_type_names":"Bus","routes_json":"[{\"route_id\":\"15638\",\"route_short_name\":\"\",\"route_long_name\":\"Ignacio/Bayfield to Durango\",\"route_type\":\"3\",\"route_type_name\":\"Bus\",\"route_color\":\"64748B\",\"route_text_color\":\"000000\"}]"},"geometry":{"type":"Point","coordinates":[-107.63728,37.21917]}},{"type":"Feature","properties":{"stop_id":"3878802","stop_code":"","platform_code":"","stop_name":"Durango-La Plata County Airport","stop_desc":"","zone_id":"","stop_url":"","location_type":"0","parent_station":"","stop_timezone":"America/Denver","position":"","direction":"","wheelchair_boarding":"0","tts_stop_name":"","feed_id":"Colorado__RoadrunnerTransit__mdb_mdb-805","agency_name":"Road Runner Transit","route_count":0,"route_ids":"","route_short_names":"","route_types":"","route_type_names":"","routes_json":"[]"},"geometry":{"type":"Point","coordinates":[-107.75088858012852,37.15983187994056]}},{"type":"Feature","properties":{"stop_id":"4249312","stop_code":"","platform_code":"","stop_name":"Southern Ute Museum","stop_desc":"","zone_id":"","stop_url":"","location_type":"0","parent_station":"","stop_timezone":"America/Denver","position":"","direction":"","wheelchair_boarding":"0","tts_stop_name":"","feed_id":"Colorado__RoadrunnerTransit__mdb_mdb-805","agency_name":"Road Runner Transit","route_count":1,"route_ids":"15638","route_short_names":"","route_types":"3","route_type_names":"Bus","routes_json":"[{\"route_id\":\"15638\",\"route_short_name\":\"\",\"route_long_name\":\"Ignacio/Bayfield to Durango\",\"route_type\":\"3\",\"route_type_name\":\"Bus\",\"route_color\":\"64748B\",\"route_text_color\":\"000000\"}]"},"geometry":{"type":"Point","coordinates":[-107.63468633699642,37.133920965886325]}},{"type":"Feature","properties":{"stop_id":"4249313","stop_code":"","platform_code":"","stop_name":"Mercury Drive","stop_desc":"","zone_id":"","stop_url":"","location_type":"0","parent_station":"","stop_timezone":"America/Denver","position":"","direction":"","wheelchair_boarding":"0","tts_stop_name":"","feed_id":"Colorado__RoadrunnerTransit__mdb_mdb-805","agency_name":"Road Runner Transit","route_count":1,"route_ids":"15638","route_short_names":"","route_types":"3","route_type_names":"Bus","routes_json":"[{\"route_id\":\"15638\",\"route_short_name\":\"\",\"route_long_name\":\"Ignacio/Bayfield to Durango\",\"route_type\":\"3\",\"route_type_name\":\"Bus\",\"route_color\":\"64748B\",\"route_text_color\":\"000000\"}]"},"geometry":{"type":"Point","coordinates":[-107.86866744653244,37.23979480914967]}}]}