{"type":"FeatureCollection","features":[{"type":"Feature","properties":{"stop_id":"2381341","stop_code":"","stop_name":"Portland International Airport (PDX)","stop_desc":"","zone_id":"4","stop_url":"","location_type":"0","parent_station":"","stop_timezone":"America/Los_Angeles","wheelchair_boarding":"0","platform_code":"","tts_stop_name":"","feed_id":"Oregon__Oregon_Express_Shuttle__mdb_mdb-132","agency_name":"Groome Transportation","route_count":1,"route_ids":"6613","route_short_names":"PDX","route_types":"3","route_type_names":"Bus","routes_json":"[{\"route_id\":\"6613\",\"route_short_name\":\"PDX\",\"route_long_name\":\"Portland International Airport\",\"route_type\":\"3\",\"route_type_name\":\"Bus\",\"route_color\":\"6DB33F\",\"route_text_color\":\"000000\"}]"},"geometry":{"type":"Point","coordinates":[-122.59229,45.58905]}},{"type":"Feature","properties":{"stop_id":"2381339","stop_code":"","stop_name":"Salem: Holiday Inn (3301 Market St NE)","stop_desc":"","zone_id":"2","stop_url":"","location_type":"0","parent_station":"","stop_timezone":"America/Los_Angeles","wheelchair_boarding":"0","platform_code":"","tts_stop_name":"","feed_id":"Oregon__Oregon_Express_Shuttle__mdb_mdb-132","agency_name":"Groome Transportation","route_count":1,"route_ids":"6613","route_short_names":"PDX","route_types":"3","route_type_names":"Bus","routes_json":"[{\"route_id\":\"6613\",\"route_short_name\":\"PDX\",\"route_long_name\":\"Portland International Airport\",\"route_type\":\"3\",\"route_type_name\":\"Bus\",\"route_color\":\"6DB33F\",\"route_text_color\":\"000000\"}]"},"geometry":{"type":"Point","coordinates":[-122.99432,44.95084]}},{"type":"Feature","properties":{"stop_id":"2381336","stop_code":"","stop_name":"Corvallis: Comfort Suites (1730 NW 9th St)","stop_desc":"","zone_id":"3","stop_url":"","location_type":"0","parent_station":"","stop_timezone":"America/Los_Angeles","wheelchair_boarding":"0","platform_code":"","tts_stop_name":"","feed_id":"Oregon__Oregon_Express_Shuttle__mdb_mdb-132","agency_name":"Groome Transportation","route_count":1,"route_ids":"6613","route_short_names":"PDX","route_types":"3","route_type_names":"Bus","routes_json":"[{\"route_id\":\"6613\",\"route_short_name\":\"PDX\",\"route_long_name\":\"Portland International Airport\",\"route_type\":\"3\",\"route_type_name\":\"Bus\",\"route_color\":\"6DB33F\",\"route_text_color\":\"000000\"}]"},"geometry":{"type":"Point","coordinates":[-123.25902409154,44.584242936299]}},{"type":"Feature","properties":{"stop_id":"2394947","stop_code":"","stop_name":"Corvallis: Courtyard by Marriott (400 SW 1st St)","stop_desc":"","zone_id":"3","stop_url":"","location_type":"0","parent_station":"","stop_timezone":"America/Los_Angeles","wheelchair_boarding":"0","platform_code":"","tts_stop_name":"","feed_id":"Oregon__Oregon_Express_Shuttle__mdb_mdb-132","agency_name":"Groome Transportation","route_count":1,"route_ids":"6613","route_short_names":"PDX","route_types":"3","route_type_names":"Bus","routes_json":"[{\"route_id\":\"6613\",\"route_short_name\":\"PDX\",\"route_long_name\":\"Portland International Airport\",\"route_type\":\"3\",\"route_type_name\":\"Bus\",\"route_color\":\"6DB33F\",\"route_text_color\":\"000000\"}]"},"geometry":{"type":"Point","coordinates":[-123.260667140493,44.5603833650604]}},{"type":"Feature","properties":{"stop_id":"2535930","stop_code":"","stop_name":"Corvallis: Hilton Garden Inn","stop_desc":"","zone_id":"3","stop_url":"","location_type":"0","parent_station":"","stop_timezone":"America/Los_Angeles","wheelchair_boarding":"0","platform_code":"","tts_stop_name":"","feed_id":"Oregon__Oregon_Express_Shuttle__mdb_mdb-132","agency_name":"Groome Transportation","route_count":1,"route_ids":"6613","route_short_names":"PDX","route_types":"3","route_type_names":"Bus","routes_json":"[{\"route_id\":\"6613\",\"route_short_name\":\"PDX\",\"route_long_name\":\"Portland International Airport\",\"route_type\":\"3\",\"route_type_name\":\"Bus\",\"route_color\":\"6DB33F\",\"route_text_color\":\"000000\"}]"},"geometry":{"type":"Point","coordinates":[-123.278805613518,44.5576688810995]}},{"type":"Feature","properties":{"stop_id":"2740149","stop_code":"","stop_name":"Albany: Groome Transportation Main Office (34030 Excor Rd SW)","stop_desc":"","zone_id":"3","stop_url":"","location_type":"0","parent_station":"","stop_timezone":"America/Los_Angeles","wheelchair_boarding":"0","platform_code":"","tts_stop_name":"","feed_id":"Oregon__Oregon_Express_Shuttle__mdb_mdb-132","agency_name":"Groome Transportation","route_count":1,"route_ids":"6613","route_short_names":"PDX","route_types":"3","route_type_names":"Bus","routes_json":"[{\"route_id\":\"6613\",\"route_short_name\":\"PDX\",\"route_long_name\":\"Portland International Airport\",\"route_type\":\"3\",\"route_type_name\":\"Bus\",\"route_color\":\"6DB33F\",\"route_text_color\":\"000000\"}]"},"geometry":{"type":"Point","coordinates":[-123.17460043515398,44.56798499717425]}},{"type":"Feature","properties":{"stop_id":"2740150","stop_code":"","stop_name":"Albany: Comfort Suites (100 Opal Ct NE)","stop_desc":"","zone_id":"3","stop_url":"","location_type":"0","parent_station":"","stop_timezone":"America/Los_Angeles","wheelchair_boarding":"0","platform_code":"","tts_stop_name":"","feed_id":"Oregon__Oregon_Express_Shuttle__mdb_mdb-132","agency_name":"Groome Transportation","route_count":1,"route_ids":"6613","route_short_names":"PDX","route_types":"3","route_type_names":"Bus","routes_json":"[{\"route_id\":\"6613\",\"route_short_name\":\"PDX\",\"route_long_name\":\"Portland International Airport\",\"route_type\":\"3\",\"route_type_name\":\"Bus\",\"route_color\":\"6DB33F\",\"route_text_color\":\"000000\"}]"},"geometry":{"type":"Point","coordinates":[-123.057634347239,44.6436944357344]}},{"type":"Feature","properties":{"stop_id":"2535928","stop_code":"","stop_name":"Woodburn: Best Western (2980 Tom Tennant Dr)","stop_desc":"","zone_id":"1","stop_url":"","location_type":"0","parent_station":"","stop_timezone":"America/Los_Angeles","wheelchair_boarding":"0","platform_code":"","tts_stop_name":"","feed_id":"Oregon__Oregon_Express_Shuttle__mdb_mdb-132","agency_name":"Groome Transportation","route_count":1,"route_ids":"6613","route_short_names":"PDX","route_types":"3","route_type_names":"Bus","routes_json":"[{\"route_id\":\"6613\",\"route_short_name\":\"PDX\",\"route_long_name\":\"Portland International Airport\",\"route_type\":\"3\",\"route_type_name\":\"Bus\",\"route_color\":\"6DB33F\",\"route_text_color\":\"000000\"}]"},"geometry":{"type":"Point","coordinates":[-122.877241373062,45.1523849374081]}}]}