{"type":"FeatureCollection","features":[{"type":"Feature","properties":{"stop_id":"exp_22","stop_code":"","platform_code":"","stop_name":"2nd St. & Ave of the Flags (Houston's)","tts_stop_name":"","stop_desc":"","zone_id":"","stop_url":"","location_type":"0","parent_station":"","wheelchair_boarding":"1","city_name":"","area_name":"","direction_id":"","ext_id":"","ext_userfield1":"","feed_id":"California__Santa_Ynez_Valley_Transit__mdb_mdb-813","agency_name":"Santa Ynez Valley Transit","route_count":1,"route_ids":"ROUTEA","route_short_names":"","route_types":"3","route_type_names":"Bus","routes_json":"[{\"route_id\":\"ROUTEA\",\"route_short_name\":\"\",\"route_long_name\":\"Express\",\"route_type\":\"3\",\"route_type_name\":\"Bus\",\"route_color\":\"AE589B\",\"route_text_color\":\"FFFFFF\"}]"},"geometry":{"type":"Point","coordinates":[-120.19247741,34.61602177]}},{"type":"Feature","properties":{"stop_id":"exp_24","stop_code":"","platform_code":"","stop_name":"2nd St. & Sycamore Dr. (Oak Park)","tts_stop_name":"","stop_desc":"","zone_id":"","stop_url":"","location_type":"0","parent_station":"","wheelchair_boarding":"1","city_name":"","area_name":"","direction_id":"","ext_id":"","ext_userfield1":"","feed_id":"California__Santa_Ynez_Valley_Transit__mdb_mdb-813","agency_name":"Santa Ynez Valley Transit","route_count":1,"route_ids":"ROUTEA","route_short_names":"","route_types":"3","route_type_names":"Bus","routes_json":"[{\"route_id\":\"ROUTEA\",\"route_short_name\":\"\",\"route_long_name\":\"Express\",\"route_type\":\"3\",\"route_type_name\":\"Bus\",\"route_color\":\"AE589B\",\"route_text_color\":\"FFFFFF\"}]"},"geometry":{"type":"Point","coordinates":[-120.20450894,34.61989]}},{"type":"Feature","properties":{"stop_id":"LO_08","stop_code":"","platform_code":"","stop_name":"Alamo Pintado Ave. & Grand Ave.","tts_stop_name":"","stop_desc":"","zone_id":"","stop_url":"","location_type":"0","parent_station":"","wheelchair_boarding":"1","city_name":"","area_name":"","direction_id":"","ext_id":"","ext_userfield1":"","feed_id":"California__Santa_Ynez_Valley_Transit__mdb_mdb-813","agency_name":"Santa Ynez Valley Transit","route_count":1,"route_ids":"ROUTEB","route_short_names":"","route_types":"3","route_type_names":"Bus","routes_json":"[{\"route_id\":\"ROUTEB\",\"route_short_name\":\"\",\"route_long_name\":\"Los Olivos Loop\",\"route_type\":\"3\",\"route_type_name\":\"Bus\",\"route_color\":\"008B9A\",\"route_text_color\":\"FFFFFF\"}]"},"geometry":{"type":"Point","coordinates":[-120.115191,34.665449]}},{"type":"Feature","properties":{"stop_id":"LO_06","stop_code":"","platform_code":"","stop_name":"Alamo Pintado Rd. & Baseline Ave.","tts_stop_name":"","stop_desc":"","zone_id":"","stop_url":"","location_type":"0","parent_station":"","wheelchair_boarding":"1","city_name":"","area_name":"","direction_id":"","ext_id":"","ext_userfield1":"","feed_id":"California__Santa_Ynez_Valley_Transit__mdb_mdb-813","agency_name":"Santa Ynez Valley Transit","route_count":1,"route_ids":"ROUTEB","route_short_names":"","route_types":"3","route_type_names":"Bus","routes_json":"[{\"route_id\":\"ROUTEB\",\"route_short_name\":\"\",\"route_long_name\":\"Los Olivos Loop\",\"route_type\":\"3\",\"route_type_name\":\"Bus\",\"route_color\":\"008B9A\",\"route_text_color\":\"FFFFFF\"}]"},"geometry":{"type":"Point","coordinates":[-120.116119,34.636044]}},{"type":"Feature","properties":{"stop_id":"exp_08","stop_code":"","platform_code":"","stop_name":"Alamo Pintado Rd. & Mission Dr.","tts_stop_name":"","stop_desc":"","zone_id":"","stop_url":"","location_type":"0","parent_station":"","wheelchair_boarding":"1","city_name":"","area_name":"","direction_id":"","ext_id":"","ext_userfield1":"","feed_id":"California__Santa_Ynez_Valley_Transit__mdb_mdb-813","agency_name":"Santa Ynez Valley Transit","route_count":1,"route_ids":"ROUTEA","route_short_names":"","route_types":"3","route_type_names":"Bus","routes_json":"[{\"route_id\":\"ROUTEA\",\"route_short_name\":\"\",\"route_long_name\":\"Express\",\"route_type\":\"3\",\"route_type_name\":\"Bus\",\"route_color\":\"AE589B\",\"route_text_color\":\"FFFFFF\"}]"},"geometry":{"type":"Point","coordinates":[-120.12798594,34.59874572]}},{"type":"Feature","properties":{"stop_id":"LO_03","stop_code":"","platform_code":"","stop_name":"Alamo Pintado Rd. & Old Mission Dr.","tts_stop_name":"","stop_desc":"","zone_id":"","stop_url":"","location_type":"0","parent_station":"","wheelchair_boarding":"1","city_name":"","area_name":"","direction_id":"","ext_id":"","ext_userfield1":"","feed_id":"California__Santa_Ynez_Valley_Transit__mdb_mdb-813","agency_name":"Santa Ynez Valley Transit","route_count":1,"route_ids":"ROUTEB","route_short_names":"","route_types":"3","route_type_names":"Bus","routes_json":"[{\"route_id\":\"ROUTEB\",\"route_short_name\":\"\",\"route_long_name\":\"Los Olivos Loop\",\"route_type\":\"3\",\"route_type_name\":\"Bus\",\"route_color\":\"008B9A\",\"route_text_color\":\"FFFFFF\"}]"},"geometry":{"type":"Point","coordinates":[-120.12847815,34.59985852]}},{"type":"Feature","properties":{"stop_id":"bl","stop_code":"","platform_code":"","stop_name":"Buellton Library (Dairyland)","tts_stop_name":"","stop_desc":"","zone_id":"","stop_url":"","location_type":"0","parent_station":"","wheelchair_boarding":"1","city_name":"","area_name":"","direction_id":"","ext_id":"","ext_userfield1":"","feed_id":"California__Santa_Ynez_Valley_Transit__mdb_mdb-813","agency_name":"Santa Ynez Valley Transit","route_count":1,"route_ids":"ROUTEA","route_short_names":"","route_types":"3","route_type_names":"Bus","routes_json":"[{\"route_id\":\"ROUTEA\",\"route_short_name\":\"\",\"route_long_name\":\"Express\",\"route_type\":\"3\",\"route_type_name\":\"Bus\",\"route_color\":\"AE589B\",\"route_text_color\":\"FFFFFF\"}]"},"geometry":{"type":"Point","coordinates":[-120.20517659,34.61536487]}},{"type":"Feature","properties":{"stop_id":"exp_14","stop_code":"","platform_code":"","stop_name":"Chumash Casino (on-call)","tts_stop_name":"","stop_desc":"","zone_id":"","stop_url":"","location_type":"0","parent_station":"","wheelchair_boarding":"1","city_name":"","area_name":"","direction_id":"","ext_id":"","ext_userfield1":"","feed_id":"California__Santa_Ynez_Valley_Transit__mdb_mdb-813","agency_name":"Santa Ynez Valley Transit","route_count":1,"route_ids":"ROUTEA","route_short_names":"","route_types":"3","route_type_names":"Bus","routes_json":"[{\"route_id\":\"ROUTEA\",\"route_short_name\":\"\",\"route_long_name\":\"Express\",\"route_type\":\"3\",\"route_type_name\":\"Bus\",\"route_color\":\"AE589B\",\"route_text_color\":\"FFFFFF\"}]"},"geometry":{"type":"Point","coordinates":[-120.08611497,34.60856846]}},{"type":"Feature","properties":{"stop_id":"LO_04","stop_code":"","platform_code":"","stop_name":"Cottage Hospital (on-call)","tts_stop_name":"","stop_desc":"","zone_id":"","stop_url":"","location_type":"0","parent_station":"","wheelchair_boarding":"1","city_name":"","area_name":"","direction_id":"","ext_id":"","ext_userfield1":"","feed_id":"California__Santa_Ynez_Valley_Transit__mdb_mdb-813","agency_name":"Santa Ynez Valley Transit","route_count":1,"route_ids":"ROUTEB","route_short_names":"","route_types":"3","route_type_names":"Bus","routes_json":"[{\"route_id\":\"ROUTEB\",\"route_short_name\":\"\",\"route_long_name\":\"Los Olivos Loop\",\"route_type\":\"3\",\"route_type_name\":\"Bus\",\"route_color\":\"008B9A\",\"route_text_color\":\"FFFFFF\"}]"},"geometry":{"type":"Point","coordinates":[-120.127923,34.60249]}},{"type":"Feature","properties":{"stop_id":"LO_13","stop_code":"","platform_code":"","stop_name":"Cuesta St. & Pine St.","tts_stop_name":"","stop_desc":"","zone_id":"","stop_url":"","location_type":"0","parent_station":"","wheelchair_boarding":"1","city_name":"","area_name":"","direction_id":"","ext_id":"","ext_userfield1":"","feed_id":"California__Santa_Ynez_Valley_Transit__mdb_mdb-813","agency_name":"Santa Ynez Valley Transit","route_count":2,"route_ids":"ROUTEA|ROUTEB","route_short_names":"","route_types":"3","route_type_names":"Bus","routes_json":"[{\"route_id\":\"ROUTEA\",\"route_short_name\":\"\",\"route_long_name\":\"Express\",\"route_type\":\"3\",\"route_type_name\":\"Bus\",\"route_color\":\"AE589B\",\"route_text_color\":\"FFFFFF\"},{\"route_id\":\"ROUTEB\",\"route_short_name\":\"\",\"route_long_name\":\"Los Olivos Loop\",\"route_type\":\"3\",\"route_type_name\":\"Bus\",\"route_color\":\"008B9A\",\"route_text_color\":\"FFFFFF\"}]"},"geometry":{"type":"Point","coordinates":[-120.085142,34.615711]}},{"type":"Feature","properties":{"stop_id":"LO_14","stop_code":"","platform_code":"","stop_name":"Edison St. & Sagunto St.","tts_stop_name":"","stop_desc":"","zone_id":"","stop_url":"","location_type":"0","parent_station":"","wheelchair_boarding":"1","city_name":"","area_name":"","direction_id":"","ext_id":"","ext_userfield1":"","feed_id":"California__Santa_Ynez_Valley_Transit__mdb_mdb-813","agency_name":"Santa Ynez Valley Transit","route_count":2,"route_ids":"ROUTEA|ROUTEB","route_short_names":"","route_types":"3","route_type_names":"Bus","routes_json":"[{\"route_id\":\"ROUTEA\",\"route_short_name\":\"\",\"route_long_name\":\"Express\",\"route_type\":\"3\",\"route_type_name\":\"Bus\",\"route_color\":\"AE589B\",\"route_text_color\":\"FFFFFF\"},{\"route_id\":\"ROUTEB\",\"route_short_name\":\"\",\"route_long_name\":\"Los Olivos Loop\",\"route_type\":\"3\",\"route_type_name\":\"Bus\",\"route_color\":\"008B9A\",\"route_text_color\":\"FFFFFF\"}]"},"geometry":{"type":"Point","coordinates":[-120.08189455,34.61305064]}},{"type":"Feature","properties":{"stop_id":"exp_03","stop_code":"","platform_code":"","stop_name":"Flying Flags RV Park (Avenue of the Flags)","tts_stop_name":"","stop_desc":"","zone_id":"","stop_url":"","location_type":"0","parent_station":"","wheelchair_boarding":"1","city_name":"","area_name":"","direction_id":"","ext_id":"","ext_userfield1":"","feed_id":"California__Santa_Ynez_Valley_Transit__mdb_mdb-813","agency_name":"Santa Ynez Valley Transit","route_count":1,"route_ids":"ROUTEA","route_short_names":"","route_types":"3","route_type_names":"Bus","routes_json":"[{\"route_id\":\"ROUTEA\",\"route_short_name\":\"\",\"route_long_name\":\"Express\",\"route_type\":\"3\",\"route_type_name\":\"Bus\",\"route_color\":\"AE589B\",\"route_text_color\":\"FFFFFF\"}]"},"geometry":{"type":"Point","coordinates":[-120.19416854,34.6112283]}},{"type":"Feature","properties":{"stop_id":"LO_09","stop_code":"","platform_code":"","stop_name":"Grand Ave. & Alamo Pintado Rd.","tts_stop_name":"","stop_desc":"","zone_id":"","stop_url":"","location_type":"0","parent_station":"","wheelchair_boarding":"1","city_name":"","area_name":"","direction_id":"","ext_id":"","ext_userfield1":"","feed_id":"California__Santa_Ynez_Valley_Transit__mdb_mdb-813","agency_name":"Santa Ynez Valley Transit","route_count":1,"route_ids":"ROUTEB","route_short_names":"","route_types":"3","route_type_names":"Bus","routes_json":"[{\"route_id\":\"ROUTEB\",\"route_short_name\":\"\",\"route_long_name\":\"Los Olivos Loop\",\"route_type\":\"3\",\"route_type_name\":\"Bus\",\"route_color\":\"008B9A\",\"route_text_color\":\"FFFFFF\"}]"},"geometry":{"type":"Point","coordinates":[-120.114917,34.654339]}},{"type":"Feature","properties":{"stop_id":"exp_04","stop_code":"","platform_code":"","stop_name":"Hwy 246 & Freear Dr. (Albertsons)","tts_stop_name":"","stop_desc":"","zone_id":"","stop_url":"","location_type":"0","parent_station":"","wheelchair_boarding":"1","city_name":"","area_name":"","direction_id":"","ext_id":"","ext_userfield1":"","feed_id":"California__Santa_Ynez_Valley_Transit__mdb_mdb-813","agency_name":"Santa Ynez Valley Transit","route_count":1,"route_ids":"ROUTEA","route_short_names":"","route_types":"3","route_type_names":"Bus","routes_json":"[{\"route_id\":\"ROUTEA\",\"route_short_name\":\"\",\"route_long_name\":\"Express\",\"route_type\":\"3\",\"route_type_name\":\"Bus\",\"route_color\":\"AE589B\",\"route_text_color\":\"FFFFFF\"}]"},"geometry":{"type":"Point","coordinates":[-120.1878828,34.60979162]}},{"type":"Feature","properties":{"stop_id":"exp_20","stop_code":"","platform_code":"","stop_name":"Hwy 246 & Freear Dr. (North)","tts_stop_name":"","stop_desc":"","zone_id":"","stop_url":"","location_type":"0","parent_station":"","wheelchair_boarding":"1","city_name":"","area_name":"","direction_id":"","ext_id":"","ext_userfield1":"","feed_id":"California__Santa_Ynez_Valley_Transit__mdb_mdb-813","agency_name":"Santa Ynez Valley Transit","route_count":1,"route_ids":"ROUTEA","route_short_names":"","route_types":"3","route_type_names":"Bus","routes_json":"[{\"route_id\":\"ROUTEA\",\"route_short_name\":\"\",\"route_long_name\":\"Express\",\"route_type\":\"3\",\"route_type_name\":\"Bus\",\"route_color\":\"AE589B\",\"route_text_color\":\"FFFFFF\"}]"},"geometry":{"type":"Point","coordinates":[-120.18659009,34.61091191]}},{"type":"Feature","properties":{"stop_id":"exp_01","stop_code":"","platform_code":"","stop_name":"Hwy 246 & Park Circle (crosswalk)","tts_stop_name":"","stop_desc":"","zone_id":"","stop_url":"","location_type":"0","parent_station":"","wheelchair_boarding":"1","city_name":"","area_name":"","direction_id":"","ext_id":"","ext_userfield1":"","feed_id":"California__Santa_Ynez_Valley_Transit__mdb_mdb-813","agency_name":"Santa Ynez Valley Transit","route_count":1,"route_ids":"ROUTEA","route_short_names":"","route_types":"3","route_type_names":"Bus","routes_json":"[{\"route_id\":\"ROUTEA\",\"route_short_name\":\"\",\"route_long_name\":\"Express\",\"route_type\":\"3\",\"route_type_name\":\"Bus\",\"route_color\":\"AE589B\",\"route_text_color\":\"FFFFFF\"}]"},"geometry":{"type":"Point","coordinates":[-120.200442,34.61591982]}},{"type":"Feature","properties":{"stop_id":"exp_02","stop_code":"","platform_code":"","stop_name":"Hwy 246 & Valley Station Dr. (west of post office)","tts_stop_name":"","stop_desc":"","zone_id":"","stop_url":"","location_type":"0","parent_station":"","wheelchair_boarding":"1","city_name":"","area_name":"","direction_id":"","ext_id":"","ext_userfield1":"","feed_id":"California__Santa_Ynez_Valley_Transit__mdb_mdb-813","agency_name":"Santa Ynez Valley Transit","route_count":1,"route_ids":"ROUTEA","route_short_names":"","route_types":"3","route_type_names":"Bus","routes_json":"[{\"route_id\":\"ROUTEA\",\"route_short_name\":\"\",\"route_long_name\":\"Express\",\"route_type\":\"3\",\"route_type_name\":\"Bus\",\"route_color\":\"AE589B\",\"route_text_color\":\"FFFFFF\"}]"},"geometry":{"type":"Point","coordinates":[-120.19697663,34.61453046]}},{"type":"Feature","properties":{"stop_id":"exp_23","stop_code":"","platform_code":"","stop_name":"Jonata School (via 2nd St.)","tts_stop_name":"","stop_desc":"","zone_id":"","stop_url":"","location_type":"0","parent_station":"","wheelchair_boarding":"1","city_name":"","area_name":"","direction_id":"","ext_id":"","ext_userfield1":"","feed_id":"California__Santa_Ynez_Valley_Transit__mdb_mdb-813","agency_name":"Santa Ynez Valley Transit","route_count":1,"route_ids":"ROUTEA","route_short_names":"","route_types":"3","route_type_names":"Bus","routes_json":"[{\"route_id\":\"ROUTEA\",\"route_short_name\":\"\",\"route_long_name\":\"Express\",\"route_type\":\"3\",\"route_type_name\":\"Bus\",\"route_color\":\"AE589B\",\"route_text_color\":\"FFFFFF\"}]"},"geometry":{"type":"Point","coordinates":[-120.2003865,34.61834494]}},{"type":"Feature","properties":{"stop_id":"exp_21","stop_code":"","platform_code":"","stop_name":"McMurray Rd. (McDonald's/Theater)","tts_stop_name":"","stop_desc":"","zone_id":"","stop_url":"","location_type":"0","parent_station":"","wheelchair_boarding":"1","city_name":"","area_name":"","direction_id":"","ext_id":"","ext_userfield1":"","feed_id":"California__Santa_Ynez_Valley_Transit__mdb_mdb-813","agency_name":"Santa Ynez Valley Transit","route_count":1,"route_ids":"ROUTEA","route_short_names":"","route_types":"3","route_type_names":"Bus","routes_json":"[{\"route_id\":\"ROUTEA\",\"route_short_name\":\"\",\"route_long_name\":\"Express\",\"route_type\":\"3\",\"route_type_name\":\"Bus\",\"route_color\":\"AE589B\",\"route_text_color\":\"FFFFFF\"}]"},"geometry":{"type":"Point","coordinates":[-120.18800208,34.61411401]}},{"type":"Feature","properties":{"stop_id":"exp_19","stop_code":"","platform_code":"","stop_name":"Mission Dr. & 5th St. (North)","tts_stop_name":"","stop_desc":"","zone_id":"","stop_url":"","location_type":"0","parent_station":"","wheelchair_boarding":"1","city_name":"","area_name":"","direction_id":"","ext_id":"","ext_userfield1":"","feed_id":"California__Santa_Ynez_Valley_Transit__mdb_mdb-813","agency_name":"Santa Ynez Valley Transit","route_count":1,"route_ids":"ROUTEA","route_short_names":"","route_types":"3","route_type_names":"Bus","routes_json":"[{\"route_id\":\"ROUTEA\",\"route_short_name\":\"\",\"route_long_name\":\"Express\",\"route_type\":\"3\",\"route_type_name\":\"Bus\",\"route_color\":\"AE589B\",\"route_text_color\":\"FFFFFF\"}]"},"geometry":{"type":"Point","coordinates":[-120.14544036,34.59612783]}},{"type":"Feature","properties":{"stop_id":"exp_05","stop_code":"","platform_code":"","stop_name":"Mission Dr. & 5th St. (South)","tts_stop_name":"","stop_desc":"","zone_id":"","stop_url":"","location_type":"0","parent_station":"","wheelchair_boarding":"1","city_name":"","area_name":"","direction_id":"","ext_id":"","ext_userfield1":"","feed_id":"California__Santa_Ynez_Valley_Transit__mdb_mdb-813","agency_name":"Santa Ynez Valley Transit","route_count":1,"route_ids":"ROUTEA","route_short_names":"","route_types":"3","route_type_names":"Bus","routes_json":"[{\"route_id\":\"ROUTEA\",\"route_short_name\":\"\",\"route_long_name\":\"Express\",\"route_type\":\"3\",\"route_type_name\":\"Bus\",\"route_color\":\"AE589B\",\"route_text_color\":\"FFFFFF\"}]"},"geometry":{"type":"Point","coordinates":[-120.14488571,34.59592204]}},{"type":"Feature","properties":{"stop_id":"LO_17","stop_code":"","platform_code":"","stop_name":"Mission Dr. & Alamo Pintado Rd.","tts_stop_name":"","stop_desc":"","zone_id":"","stop_url":"","location_type":"0","parent_station":"","wheelchair_boarding":"1","city_name":"","area_name":"","direction_id":"","ext_id":"","ext_userfield1":"","feed_id":"California__Santa_Ynez_Valley_Transit__mdb_mdb-813","agency_name":"Santa Ynez Valley Transit","route_count":2,"route_ids":"ROUTEA|ROUTEB","route_short_names":"","route_types":"3","route_type_names":"Bus","routes_json":"[{\"route_id\":\"ROUTEA\",\"route_short_name\":\"\",\"route_long_name\":\"Express\",\"route_type\":\"3\",\"route_type_name\":\"Bus\",\"route_color\":\"AE589B\",\"route_text_color\":\"FFFFFF\"},{\"route_id\":\"ROUTEB\",\"route_short_name\":\"\",\"route_long_name\":\"Los Olivos Loop\",\"route_type\":\"3\",\"route_type_name\":\"Bus\",\"route_color\":\"008B9A\",\"route_text_color\":\"FFFFFF\"}]"},"geometry":{"type":"Point","coordinates":[-120.12919836,34.59839884]}},{"type":"Feature","properties":{"stop_id":"LO_18","stop_code":"","platform_code":"","stop_name":"Mission Dr. & Alisal Rd. (Veteran's Hall/Library)","tts_stop_name":"","stop_desc":"","zone_id":"","stop_url":"","location_type":"0","parent_station":"","wheelchair_boarding":"1","city_name":"","area_name":"","direction_id":"","ext_id":"","ext_userfield1":"","feed_id":"California__Santa_Ynez_Valley_Transit__mdb_mdb-813","agency_name":"Santa Ynez Valley Transit","route_count":2,"route_ids":"ROUTEA|ROUTEB","route_short_names":"","route_types":"3","route_type_names":"Bus","routes_json":"[{\"route_id\":\"ROUTEA\",\"route_short_name\":\"\",\"route_long_name\":\"Express\",\"route_type\":\"3\",\"route_type_name\":\"Bus\",\"route_color\":\"AE589B\",\"route_text_color\":\"FFFFFF\"},{\"route_id\":\"ROUTEB\",\"route_short_name\":\"\",\"route_long_name\":\"Los Olivos Loop\",\"route_type\":\"3\",\"route_type_name\":\"Bus\",\"route_color\":\"008B9A\",\"route_text_color\":\"FFFFFF\"}]"},"geometry":{"type":"Point","coordinates":[-120.13624507,34.59605725]}},{"type":"Feature","properties":{"stop_id":"LO_11","stop_code":"","platform_code":"","stop_name":"Refugio Rd. & Baseline Ave.","tts_stop_name":"","stop_desc":"","zone_id":"","stop_url":"","location_type":"0","parent_station":"","wheelchair_boarding":"1","city_name":"","area_name":"","direction_id":"","ext_id":"","ext_userfield1":"","feed_id":"California__Santa_Ynez_Valley_Transit__mdb_mdb-813","agency_name":"Santa Ynez Valley Transit","route_count":1,"route_ids":"ROUTEB","route_short_names":"","route_types":"3","route_type_names":"Bus","routes_json":"[{\"route_id\":\"ROUTEB\",\"route_short_name\":\"\",\"route_long_name\":\"Los Olivos Loop\",\"route_type\":\"3\",\"route_type_name\":\"Bus\",\"route_color\":\"008B9A\",\"route_text_color\":\"FFFFFF\"}]"},"geometry":{"type":"Point","coordinates":[-120.098032,34.635106]}},{"type":"Feature","properties":{"stop_id":"LO_10","stop_code":"","platform_code":"","stop_name":"Refugio Rd. & Roblar Ave.","tts_stop_name":"","stop_desc":"","zone_id":"","stop_url":"","location_type":"0","parent_station":"","wheelchair_boarding":"1","city_name":"","area_name":"","direction_id":"","ext_id":"","ext_userfield1":"","feed_id":"California__Santa_Ynez_Valley_Transit__mdb_mdb-813","agency_name":"Santa Ynez Valley Transit","route_count":1,"route_ids":"ROUTEB","route_short_names":"","route_types":"3","route_type_names":"Bus","routes_json":"[{\"route_id\":\"ROUTEB\",\"route_short_name\":\"\",\"route_long_name\":\"Los Olivos Loop\",\"route_type\":\"3\",\"route_type_name\":\"Bus\",\"route_color\":\"008B9A\",\"route_text_color\":\"FFFFFF\"}]"},"geometry":{"type":"Point","coordinates":[-120.0980417,34.65015066]}},{"type":"Feature","properties":{"stop_id":"LO_15","stop_code":"","platform_code":"","stop_name":"Sagunto St. & Meadowvale Rd. (The Maverick)","tts_stop_name":"","stop_desc":"","zone_id":"","stop_url":"","location_type":"0","parent_station":"","wheelchair_boarding":"1","city_name":"","area_name":"","direction_id":"","ext_id":"","ext_userfield1":"","feed_id":"California__Santa_Ynez_Valley_Transit__mdb_mdb-813","agency_name":"Santa Ynez Valley Transit","route_count":2,"route_ids":"ROUTEA|ROUTEB","route_short_names":"","route_types":"3","route_type_names":"Bus","routes_json":"[{\"route_id\":\"ROUTEA\",\"route_short_name\":\"\",\"route_long_name\":\"Express\",\"route_type\":\"3\",\"route_type_name\":\"Bus\",\"route_color\":\"AE589B\",\"route_text_color\":\"FFFFFF\"},{\"route_id\":\"ROUTEB\",\"route_short_name\":\"\",\"route_long_name\":\"Los Olivos Loop\",\"route_type\":\"3\",\"route_type_name\":\"Bus\",\"route_color\":\"008B9A\",\"route_text_color\":\"FFFFFF\"}]"},"geometry":{"type":"Point","coordinates":[-120.077077,34.612793]}},{"type":"Feature","properties":{"stop_id":"LO_12","stop_code":"","platform_code":"","stop_name":"Samantha Dr. & Refugio Rd.","tts_stop_name":"","stop_desc":"","zone_id":"","stop_url":"","location_type":"0","parent_station":"","wheelchair_boarding":"1","city_name":"","area_name":"","direction_id":"","ext_id":"","ext_userfield1":"","feed_id":"California__Santa_Ynez_Valley_Transit__mdb_mdb-813","agency_name":"Santa Ynez Valley Transit","route_count":1,"route_ids":"ROUTEB","route_short_names":"","route_types":"3","route_type_names":"Bus","routes_json":"[{\"route_id\":\"ROUTEB\",\"route_short_name\":\"\",\"route_long_name\":\"Los Olivos Loop\",\"route_type\":\"3\",\"route_type_name\":\"Bus\",\"route_color\":\"008B9A\",\"route_text_color\":\"FFFFFF\"}]"},"geometry":{"type":"Point","coordinates":[-120.097818,34.620413]}},{"type":"Feature","properties":{"stop_id":"LO_07","stop_code":"","platform_code":"","stop_name":"Santa Barbara Ave. & Alamo Pintado Ave.","tts_stop_name":"","stop_desc":"","zone_id":"","stop_url":"","location_type":"0","parent_station":"","wheelchair_boarding":"1","city_name":"","area_name":"","direction_id":"","ext_id":"","ext_userfield1":"","feed_id":"California__Santa_Ynez_Valley_Transit__mdb_mdb-813","agency_name":"Santa Ynez Valley Transit","route_count":1,"route_ids":"ROUTEB","route_short_names":"","route_types":"3","route_type_names":"Bus","routes_json":"[{\"route_id\":\"ROUTEB\",\"route_short_name\":\"\",\"route_long_name\":\"Los Olivos Loop\",\"route_type\":\"3\",\"route_type_name\":\"Bus\",\"route_color\":\"008B9A\",\"route_text_color\":\"FFFFFF\"}]"},"geometry":{"type":"Point","coordinates":[-120.11820408,34.6650777]}},{"type":"Feature","properties":{"stop_id":"LO_02","stop_code":"","platform_code":"","stop_name":"Santa Ines Mission (Mission Dr. & Alisal Rd.)","tts_stop_name":"","stop_desc":"","zone_id":"","stop_url":"","location_type":"0","parent_station":"","wheelchair_boarding":"1","city_name":"","area_name":"","direction_id":"","ext_id":"","ext_userfield1":"","feed_id":"California__Santa_Ynez_Valley_Transit__mdb_mdb-813","agency_name":"Santa Ynez Valley Transit","route_count":2,"route_ids":"ROUTEA|ROUTEB","route_short_names":"","route_types":"3","route_type_names":"Bus","routes_json":"[{\"route_id\":\"ROUTEA\",\"route_short_name\":\"\",\"route_long_name\":\"Express\",\"route_type\":\"3\",\"route_type_name\":\"Bus\",\"route_color\":\"AE589B\",\"route_text_color\":\"FFFFFF\"},{\"route_id\":\"ROUTEB\",\"route_short_name\":\"\",\"route_long_name\":\"Los Olivos Loop\",\"route_type\":\"3\",\"route_type_name\":\"Bus\",\"route_color\":\"008B9A\",\"route_text_color\":\"FFFFFF\"}]"},"geometry":{"type":"Point","coordinates":[-120.13667522,34.59586896]}},{"type":"Feature","properties":{"stop_id":"exp_09","stop_code":"","platform_code":"","stop_name":"Santa Ynez Valley Union High School (El Rancho Market)","tts_stop_name":"","stop_desc":"","zone_id":"","stop_url":"","location_type":"0","parent_station":"","wheelchair_boarding":"1","city_name":"","area_name":"","direction_id":"","ext_id":"","ext_userfield1":"","feed_id":"California__Santa_Ynez_Valley_Transit__mdb_mdb-813","agency_name":"Santa Ynez Valley Transit","route_count":1,"route_ids":"ROUTEA","route_short_names":"","route_types":"3","route_type_names":"Bus","routes_json":"[{\"route_id\":\"ROUTEA\",\"route_short_name\":\"\",\"route_long_name\":\"Express\",\"route_type\":\"3\",\"route_type_name\":\"Bus\",\"route_color\":\"AE589B\",\"route_text_color\":\"FFFFFF\"}]"},"geometry":{"type":"Point","coordinates":[-120.09869784,34.60636703]}},{"type":"Feature","properties":{"stop_id":"LO_16","stop_code":"","platform_code":"","stop_name":"Santa Ynez Valley Union High School","tts_stop_name":"","stop_desc":"","zone_id":"","stop_url":"","location_type":"0","parent_station":"","wheelchair_boarding":"1","city_name":"","area_name":"","direction_id":"","ext_id":"","ext_userfield1":"","feed_id":"California__Santa_Ynez_Valley_Transit__mdb_mdb-813","agency_name":"Santa Ynez Valley Transit","route_count":2,"route_ids":"ROUTEA|ROUTEB","route_short_names":"","route_types":"3","route_type_names":"Bus","routes_json":"[{\"route_id\":\"ROUTEA\",\"route_short_name\":\"\",\"route_long_name\":\"Express\",\"route_type\":\"3\",\"route_type_name\":\"Bus\",\"route_color\":\"AE589B\",\"route_text_color\":\"FFFFFF\"},{\"route_id\":\"ROUTEB\",\"route_short_name\":\"\",\"route_long_name\":\"Los Olivos Loop\",\"route_type\":\"3\",\"route_type_name\":\"Bus\",\"route_color\":\"008B9A\",\"route_text_color\":\"FFFFFF\"}]"},"geometry":{"type":"Point","coordinates":[-120.10041078,34.60674804]}},{"type":"Feature","properties":{"stop_id":"LO_1","stop_code":"","platform_code":"","stop_name":"Solvang Park (eastbound)","tts_stop_name":"","stop_desc":"","zone_id":"","stop_url":"","location_type":"0","parent_station":"","wheelchair_boarding":"1","city_name":"","area_name":"","direction_id":"","ext_id":"6","ext_userfield1":"","feed_id":"California__Santa_Ynez_Valley_Transit__mdb_mdb-813","agency_name":"Santa Ynez Valley Transit","route_count":2,"route_ids":"ROUTEA|ROUTEB","route_short_names":"","route_types":"3","route_type_names":"Bus","routes_json":"[{\"route_id\":\"ROUTEA\",\"route_short_name\":\"\",\"route_long_name\":\"Express\",\"route_type\":\"3\",\"route_type_name\":\"Bus\",\"route_color\":\"AE589B\",\"route_text_color\":\"FFFFFF\"},{\"route_id\":\"ROUTEB\",\"route_short_name\":\"\",\"route_long_name\":\"Los Olivos Loop\",\"route_type\":\"3\",\"route_type_name\":\"Bus\",\"route_color\":\"008B9A\",\"route_text_color\":\"FFFFFF\"}]"},"geometry":{"type":"Point","coordinates":[-120.14054927,34.59589992]}},{"type":"Feature","properties":{"stop_id":"LO_19","stop_code":"","platform_code":"","stop_name":"Solvang Park (westbound)","tts_stop_name":"","stop_desc":"","zone_id":"","stop_url":"","location_type":"0","parent_station":"","wheelchair_boarding":"1","city_name":"","area_name":"","direction_id":"","ext_id":"18","ext_userfield1":"","feed_id":"California__Santa_Ynez_Valley_Transit__mdb_mdb-813","agency_name":"Santa Ynez Valley Transit","route_count":2,"route_ids":"ROUTEA|ROUTEB","route_short_names":"","route_types":"3","route_type_names":"Bus","routes_json":"[{\"route_id\":\"ROUTEA\",\"route_short_name\":\"\",\"route_long_name\":\"Express\",\"route_type\":\"3\",\"route_type_name\":\"Bus\",\"route_color\":\"AE589B\",\"route_text_color\":\"FFFFFF\"},{\"route_id\":\"ROUTEB\",\"route_short_name\":\"\",\"route_long_name\":\"Los Olivos Loop\",\"route_type\":\"3\",\"route_type_name\":\"Bus\",\"route_color\":\"008B9A\",\"route_text_color\":\"FFFFFF\"}]"},"geometry":{"type":"Point","coordinates":[-120.14051894,34.59609231]}},{"type":"Feature","properties":{"stop_id":"LO_05","stop_code":"","platform_code":"","stop_name":"Sunny Fields Park (north end of parking lot)","tts_stop_name":"","stop_desc":"","zone_id":"","stop_url":"","location_type":"0","parent_station":"","wheelchair_boarding":"1","city_name":"Solvang","area_name":"","direction_id":"","ext_id":"","ext_userfield1":"","feed_id":"California__Santa_Ynez_Valley_Transit__mdb_mdb-813","agency_name":"Santa Ynez Valley Transit","route_count":1,"route_ids":"ROUTEB","route_short_names":"","route_types":"3","route_type_names":"Bus","routes_json":"[{\"route_id\":\"ROUTEB\",\"route_short_name\":\"\",\"route_long_name\":\"Los Olivos Loop\",\"route_type\":\"3\",\"route_type_name\":\"Bus\",\"route_color\":\"008B9A\",\"route_text_color\":\"FFFFFF\"}]"},"geometry":{"type":"Point","coordinates":[-120.12301285,34.60805399]}},{"type":"Feature","properties":{"stop_id":"exp_10","stop_code":"","platform_code":"","stop_name":"Tribal Health Clinic (on-call)","tts_stop_name":"","stop_desc":"","zone_id":"","stop_url":"","location_type":"0","parent_station":"","wheelchair_boarding":"1","city_name":"","area_name":"","direction_id":"","ext_id":"","ext_userfield1":"","feed_id":"California__Santa_Ynez_Valley_Transit__mdb_mdb-813","agency_name":"Santa Ynez Valley Transit","route_count":1,"route_ids":"ROUTEA","route_short_names":"","route_types":"3","route_type_names":"Bus","routes_json":"[{\"route_id\":\"ROUTEA\",\"route_short_name\":\"\",\"route_long_name\":\"Express\",\"route_type\":\"3\",\"route_type_name\":\"Bus\",\"route_color\":\"AE589B\",\"route_text_color\":\"FFFFFF\"}]"},"geometry":{"type":"Point","coordinates":[-120.0932424,34.60476479]}}]}