{"type":"FeatureCollection","features":[{"type":"Feature","properties":{"stop_id":"4","stop_code":"2319806","stop_name":"Hunters Point South","wheelchair_boarding":"1","feed_id":"New_York__NYC_Ferry__mdb_mdb-515","agency_name":"NYC Ferry","route_count":1,"route_ids":"ER","route_short_names":"ER","route_types":"4","route_type_names":"Ferry","routes_json":"[{\"route_id\":\"ER\",\"route_short_name\":\"ER\",\"route_long_name\":\"East River\",\"route_type\":\"4\",\"route_type_name\":\"Ferry\",\"route_color\":\"00839C\",\"route_text_color\":\"FFFFFF\"}]"},"geometry":{"type":"Point","coordinates":[-73.961322,40.741838]}},{"type":"Feature","properties":{"stop_id":"8","stop_code":"2319809","stop_name":"South Williamsburg","wheelchair_boarding":"1","feed_id":"New_York__NYC_Ferry__mdb_mdb-515","agency_name":"NYC Ferry","route_count":1,"route_ids":"ER","route_short_names":"ER","route_types":"4","route_type_names":"Ferry","routes_json":"[{\"route_id\":\"ER\",\"route_short_name\":\"ER\",\"route_long_name\":\"East River\",\"route_type\":\"4\",\"route_type_name\":\"Ferry\",\"route_color\":\"00839C\",\"route_text_color\":\"FFFFFF\"}]"},"geometry":{"type":"Point","coordinates":[-73.970224,40.708743]}},{"type":"Feature","properties":{"stop_id":"11","stop_code":"2319817","stop_name":"Atlantic Ave/BBP Pier 6","wheelchair_boarding":"1","feed_id":"New_York__NYC_Ferry__mdb_mdb-515","agency_name":"NYC Ferry","route_count":2,"route_ids":"SB|SG","route_short_names":"SB|SG","route_types":"4","route_type_names":"Ferry","routes_json":"[{\"route_id\":\"SB\",\"route_short_name\":\"SB\",\"route_long_name\":\"South Brooklyn\",\"route_type\":\"4\",\"route_type_name\":\"Ferry\",\"route_color\":\"FFD100\",\"route_text_color\":\"FFFFFF\"},{\"route_id\":\"SG\",\"route_short_name\":\"SG\",\"route_long_name\":\"St. George\",\"route_type\":\"4\",\"route_type_name\":\"Ferry\",\"route_color\":\"D0006F\",\"route_text_color\":\"FFFFFF\"}]"},"geometry":{"type":"Point","coordinates":[-74.002073,40.692315]}},{"type":"Feature","properties":{"stop_id":"16","stop_code":"2319821","stop_name":"Beach Channel Dr/Beach 108th Street","wheelchair_boarding":"1","feed_id":"New_York__NYC_Ferry__mdb_mdb-515","agency_name":"NYC Ferry","route_count":2,"route_ids":"RES|RWS","route_short_names":"RES|RWS","route_types":"3","route_type_names":"Bus","routes_json":"[{\"route_id\":\"RES\",\"route_short_name\":\"RES\",\"route_long_name\":\"Rockaway East\",\"route_type\":\"3\",\"route_type_name\":\"Bus\",\"route_color\":\"00A1E1\",\"route_text_color\":\"FFFFFF\"},{\"route_id\":\"RWS\",\"route_short_name\":\"RWS\",\"route_long_name\":\"Rockaway West\",\"route_type\":\"3\",\"route_type_name\":\"Bus\",\"route_color\":\"00A1E1\",\"route_text_color\":\"FFFFFF\"}]"},"geometry":{"type":"Point","coordinates":[-73.831658,40.583846]}},{"type":"Feature","properties":{"stop_id":"17","stop_code":"2319805","stop_name":"East 34th Street","wheelchair_boarding":"1","feed_id":"New_York__NYC_Ferry__mdb_mdb-515","agency_name":"NYC Ferry","route_count":4,"route_ids":"AS|ER|RS|SB","route_short_names":"AS|ER|RS|SB","route_types":"4","route_type_names":"Ferry","routes_json":"[{\"route_id\":\"AS\",\"route_short_name\":\"AS\",\"route_long_name\":\"Astoria\",\"route_type\":\"4\",\"route_type_name\":\"Ferry\",\"route_color\":\"FF6B00\",\"route_text_color\":\"FFFFFF\"},{\"route_id\":\"ER\",\"route_short_name\":\"ER\",\"route_long_name\":\"East River\",\"route_type\":\"4\",\"route_type_name\":\"Ferry\",\"route_color\":\"00839C\",\"route_text_color\":\"FFFFFF\"},{\"route_id\":\"RS\",\"route_short_name\":\"RS\",\"route_long_name\":\"Rockaway-Soundview\",\"route_type\":\"4\",\"route_type_name\":\"Ferry\",\"route_color\":\"4E008E\",\"route_text_color\":\"FFFFFF\"},{\"route_id\":\"SB\",\"route_short_name\":\"SB\",\"route_long_name\":\"South Brooklyn\",\"route_type\":\"4\",\"route_type_name\":\"Ferry\",\"route_color\":\"FFD100\",\"route_text_color\":\"FFFFFF\"}]"},"geometry":{"type":"Point","coordinates":[-73.970731,40.743912]}},{"type":"Feature","properties":{"stop_id":"18","stop_code":"2319807","stop_name":"Greenpoint","wheelchair_boarding":"1","feed_id":"New_York__NYC_Ferry__mdb_mdb-515","agency_name":"NYC Ferry","route_count":1,"route_ids":"ER","route_short_names":"ER","route_types":"4","route_type_names":"Ferry","routes_json":"[{\"route_id\":\"ER\",\"route_short_name\":\"ER\",\"route_long_name\":\"East River\",\"route_type\":\"4\",\"route_type_name\":\"Ferry\",\"route_color\":\"00839C\",\"route_text_color\":\"FFFFFF\"}]"},"geometry":{"type":"Point","coordinates":[-73.963617,40.731365]}},{"type":"Feature","properties":{"stop_id":"19","stop_code":"2319808","stop_name":"North Williamsburg","wheelchair_boarding":"1","feed_id":"New_York__NYC_Ferry__mdb_mdb-515","agency_name":"NYC Ferry","route_count":1,"route_ids":"ER","route_short_names":"ER","route_types":"4","route_type_names":"Ferry","routes_json":"[{\"route_id\":\"ER\",\"route_short_name\":\"ER\",\"route_long_name\":\"East River\",\"route_type\":\"4\",\"route_type_name\":\"Ferry\",\"route_color\":\"00839C\",\"route_text_color\":\"FFFFFF\"}]"},"geometry":{"type":"Point","coordinates":[-73.964902,40.720838]}},{"type":"Feature","properties":{"stop_id":"20","stop_code":"2319810","stop_name":"Dumbo/Fulton Ferry","wheelchair_boarding":"1","feed_id":"New_York__NYC_Ferry__mdb_mdb-515","agency_name":"NYC Ferry","route_count":1,"route_ids":"ER","route_short_names":"ER","route_types":"4","route_type_names":"Ferry","routes_json":"[{\"route_id\":\"ER\",\"route_short_name\":\"ER\",\"route_long_name\":\"East River\",\"route_type\":\"4\",\"route_type_name\":\"Ferry\",\"route_color\":\"00839C\",\"route_text_color\":\"FFFFFF\"}]"},"geometry":{"type":"Point","coordinates":[-73.995671,40.703652]}},{"type":"Feature","properties":{"stop_id":"23","stop_code":"2319815","stop_name":"Bay Ridge","wheelchair_boarding":"1","feed_id":"New_York__NYC_Ferry__mdb_mdb-515","agency_name":"NYC Ferry","route_count":2,"route_ids":"SB|SG","route_short_names":"SB|SG","route_types":"4","route_type_names":"Ferry","routes_json":"[{\"route_id\":\"SB\",\"route_short_name\":\"SB\",\"route_long_name\":\"South Brooklyn\",\"route_type\":\"4\",\"route_type_name\":\"Ferry\",\"route_color\":\"FFD100\",\"route_text_color\":\"FFFFFF\"},{\"route_id\":\"SG\",\"route_short_name\":\"SG\",\"route_long_name\":\"St. George\",\"route_type\":\"4\",\"route_type_name\":\"Ferry\",\"route_color\":\"D0006F\",\"route_text_color\":\"FFFFFF\"}]"},"geometry":{"type":"Point","coordinates":[-74.03813,40.639858]}},{"type":"Feature","properties":{"stop_id":"24","stop_code":"2319816","stop_name":"Red Hook/Atlantic Basin","wheelchair_boarding":"1","feed_id":"New_York__NYC_Ferry__mdb_mdb-515","agency_name":"NYC Ferry","route_count":1,"route_ids":"SB","route_short_names":"SB","route_types":"4","route_type_names":"Ferry","routes_json":"[{\"route_id\":\"SB\",\"route_short_name\":\"SB\",\"route_long_name\":\"South Brooklyn\",\"route_type\":\"4\",\"route_type_name\":\"Ferry\",\"route_color\":\"FFD100\",\"route_text_color\":\"FFFFFF\"}]"},"geometry":{"type":"Point","coordinates":[-74.013358,40.680957]}},{"type":"Feature","properties":{"stop_id":"25","stop_code":"2319819","stop_name":"Roosevelt Island","wheelchair_boarding":"1","feed_id":"New_York__NYC_Ferry__mdb_mdb-515","agency_name":"NYC Ferry","route_count":1,"route_ids":"AS","route_short_names":"AS","route_types":"4","route_type_names":"Ferry","routes_json":"[{\"route_id\":\"AS\",\"route_short_name\":\"AS\",\"route_long_name\":\"Astoria\",\"route_type\":\"4\",\"route_type_name\":\"Ferry\",\"route_color\":\"FF6B00\",\"route_text_color\":\"FFFFFF\"}]"},"geometry":{"type":"Point","coordinates":[-73.952482,40.756811]}},{"type":"Feature","properties":{"stop_id":"37","stop_code":"2319822","stop_name":"Beach Channel Dr/Beach 54th Street","wheelchair_boarding":"1","feed_id":"New_York__NYC_Ferry__mdb_mdb-515","agency_name":"NYC Ferry","route_count":1,"route_ids":"RES","route_short_names":"RES","route_types":"3","route_type_names":"Bus","routes_json":"[{\"route_id\":\"RES\",\"route_short_name\":\"RES\",\"route_long_name\":\"Rockaway East\",\"route_type\":\"3\",\"route_type_name\":\"Bus\",\"route_color\":\"00A1E1\",\"route_text_color\":\"FFFFFF\"}]"},"geometry":{"type":"Point","coordinates":[-73.78496,40.59513]}},{"type":"Feature","properties":{"stop_id":"39","stop_code":"2319823","stop_name":"Rockaway Beach Boulevard & Beach 86th Street","wheelchair_boarding":"1","feed_id":"New_York__NYC_Ferry__mdb_mdb-515","agency_name":"NYC Ferry","route_count":1,"route_ids":"RES","route_short_names":"RES","route_types":"3","route_type_names":"Bus","routes_json":"[{\"route_id\":\"RES\",\"route_short_name\":\"RES\",\"route_long_name\":\"Rockaway East\",\"route_type\":\"3\",\"route_type_name\":\"Bus\",\"route_color\":\"00A1E1\",\"route_text_color\":\"FFFFFF\"}]"},"geometry":{"type":"Point","coordinates":[-73.81118,40.58763]}},{"type":"Feature","properties":{"stop_id":"43","stop_code":"2319824","stop_name":"Rockaway Beach Boulevard & Beach 86th Street","wheelchair_boarding":"1","feed_id":"New_York__NYC_Ferry__mdb_mdb-515","agency_name":"NYC Ferry","route_count":1,"route_ids":"RES","route_short_names":"RES","route_types":"3","route_type_names":"Bus","routes_json":"[{\"route_id\":\"RES\",\"route_short_name\":\"RES\",\"route_long_name\":\"Rockaway East\",\"route_type\":\"3\",\"route_type_name\":\"Bus\",\"route_color\":\"00A1E1\",\"route_text_color\":\"FFFFFF\"}]"},"geometry":{"type":"Point","coordinates":[-73.811179,40.587523]}},{"type":"Feature","properties":{"stop_id":"45","stop_code":"2319826","stop_name":"Beach Channel Dr/Beach 54th Street","wheelchair_boarding":"1","feed_id":"New_York__NYC_Ferry__mdb_mdb-515","agency_name":"NYC Ferry","route_count":1,"route_ids":"RES","route_short_names":"RES","route_types":"3","route_type_names":"Bus","routes_json":"[{\"route_id\":\"RES\",\"route_short_name\":\"RES\",\"route_long_name\":\"Rockaway East\",\"route_type\":\"3\",\"route_type_name\":\"Bus\",\"route_color\":\"00A1E1\",\"route_text_color\":\"FFFFFF\"}]"},"geometry":{"type":"Point","coordinates":[-73.784696,40.595027]}},{"type":"Feature","properties":{"stop_id":"46","stop_code":"2319827","stop_name":"Beach Channel Dr/Beach 41st Street","wheelchair_boarding":"1","feed_id":"New_York__NYC_Ferry__mdb_mdb-515","agency_name":"NYC Ferry","route_count":1,"route_ids":"RES","route_short_names":"RES","route_types":"3","route_type_names":"Bus","routes_json":"[{\"route_id\":\"RES\",\"route_short_name\":\"RES\",\"route_long_name\":\"Rockaway East\",\"route_type\":\"3\",\"route_type_name\":\"Bus\",\"route_color\":\"00A1E1\",\"route_text_color\":\"FFFFFF\"}]"},"geometry":{"type":"Point","coordinates":[-73.772531,40.595763]}},{"type":"Feature","properties":{"stop_id":"48","stop_code":"2319829","stop_name":"Rockaway Point Boulevard & Beach 169th Street","wheelchair_boarding":"1","feed_id":"New_York__NYC_Ferry__mdb_mdb-515","agency_name":"NYC Ferry","route_count":1,"route_ids":"RWS","route_short_names":"RWS","route_types":"3","route_type_names":"Bus","routes_json":"[{\"route_id\":\"RWS\",\"route_short_name\":\"RWS\",\"route_long_name\":\"Rockaway West\",\"route_type\":\"3\",\"route_type_name\":\"Bus\",\"route_color\":\"00A1E1\",\"route_text_color\":\"FFFFFF\"}]"},"geometry":{"type":"Point","coordinates":[-73.882577,40.567088]}},{"type":"Feature","properties":{"stop_id":"49","stop_code":"2319830","stop_name":"Jacob Riis Park Road/Bath House","wheelchair_boarding":"1","feed_id":"New_York__NYC_Ferry__mdb_mdb-515","agency_name":"NYC Ferry","route_count":1,"route_ids":"RWS","route_short_names":"RWS","route_types":"3","route_type_names":"Bus","routes_json":"[{\"route_id\":\"RWS\",\"route_short_name\":\"RWS\",\"route_long_name\":\"Rockaway West\",\"route_type\":\"3\",\"route_type_name\":\"Bus\",\"route_color\":\"00A1E1\",\"route_text_color\":\"FFFFFF\"}]"},"geometry":{"type":"Point","coordinates":[-73.872477,40.566157]}},{"type":"Feature","properties":{"stop_id":"50","stop_code":"2319831","stop_name":"Rockaway Beach Boulevard & Beach 149th Street","wheelchair_boarding":"1","feed_id":"New_York__NYC_Ferry__mdb_mdb-515","agency_name":"NYC Ferry","route_count":1,"route_ids":"RWS","route_short_names":"RWS","route_types":"3","route_type_names":"Bus","routes_json":"[{\"route_id\":\"RWS\",\"route_short_name\":\"RWS\",\"route_long_name\":\"Rockaway West\",\"route_type\":\"3\",\"route_type_name\":\"Bus\",\"route_color\":\"00A1E1\",\"route_text_color\":\"FFFFFF\"}]"},"geometry":{"type":"Point","coordinates":[-73.863687,40.569455]}},{"type":"Feature","properties":{"stop_id":"51","stop_code":"2319832","stop_name":"Rockaway Beach Boulevard & Beach 135th Street","wheelchair_boarding":"1","feed_id":"New_York__NYC_Ferry__mdb_mdb-515","agency_name":"NYC Ferry","route_count":1,"route_ids":"RWS","route_short_names":"RWS","route_types":"3","route_type_names":"Bus","routes_json":"[{\"route_id\":\"RWS\",\"route_short_name\":\"RWS\",\"route_long_name\":\"Rockaway West\",\"route_type\":\"3\",\"route_type_name\":\"Bus\",\"route_color\":\"00A1E1\",\"route_text_color\":\"FFFFFF\"}]"},"geometry":{"type":"Point","coordinates":[-73.852874,40.573903]}},{"type":"Feature","properties":{"stop_id":"52","stop_code":"2319833","stop_name":"Rockaway Beach Boulevard & Beach 127th Street","wheelchair_boarding":"1","feed_id":"New_York__NYC_Ferry__mdb_mdb-515","agency_name":"NYC Ferry","route_count":1,"route_ids":"RWS","route_short_names":"RWS","route_types":"3","route_type_names":"Bus","routes_json":"[{\"route_id\":\"RWS\",\"route_short_name\":\"RWS\",\"route_long_name\":\"Rockaway West\",\"route_type\":\"3\",\"route_type_name\":\"Bus\",\"route_color\":\"00A1E1\",\"route_text_color\":\"FFFFFF\"}]"},"geometry":{"type":"Point","coordinates":[-73.8459,40.576762]}},{"type":"Feature","properties":{"stop_id":"55","stop_code":"2319835","stop_name":"Rockaway Beach Boulevard & Beach 118th Street","wheelchair_boarding":"1","feed_id":"New_York__NYC_Ferry__mdb_mdb-515","agency_name":"NYC Ferry","route_count":1,"route_ids":"RWS","route_short_names":"RWS","route_types":"3","route_type_names":"Bus","routes_json":"[{\"route_id\":\"RWS\",\"route_short_name\":\"RWS\",\"route_long_name\":\"Rockaway West\",\"route_type\":\"3\",\"route_type_name\":\"Bus\",\"route_color\":\"00A1E1\",\"route_text_color\":\"FFFFFF\"}]"},"geometry":{"type":"Point","coordinates":[-73.839208,40.579197]}},{"type":"Feature","properties":{"stop_id":"56","stop_code":"2319836","stop_name":"Rockaway Beach Boulevard & Beach 127th Street","wheelchair_boarding":"1","feed_id":"New_York__NYC_Ferry__mdb_mdb-515","agency_name":"NYC Ferry","route_count":1,"route_ids":"RWS","route_short_names":"RWS","route_types":"3","route_type_names":"Bus","routes_json":"[{\"route_id\":\"RWS\",\"route_short_name\":\"RWS\",\"route_long_name\":\"Rockaway West\",\"route_type\":\"3\",\"route_type_name\":\"Bus\",\"route_color\":\"00A1E1\",\"route_text_color\":\"FFFFFF\"}]"},"geometry":{"type":"Point","coordinates":[-73.845939,40.576892]}},{"type":"Feature","properties":{"stop_id":"57","stop_code":"2319837","stop_name":"Rockaway Beach Boulevard & Beach 135th Street","wheelchair_boarding":"1","feed_id":"New_York__NYC_Ferry__mdb_mdb-515","agency_name":"NYC Ferry","route_count":1,"route_ids":"RWS","route_short_names":"RWS","route_types":"3","route_type_names":"Bus","routes_json":"[{\"route_id\":\"RWS\",\"route_short_name\":\"RWS\",\"route_long_name\":\"Rockaway West\",\"route_type\":\"3\",\"route_type_name\":\"Bus\",\"route_color\":\"00A1E1\",\"route_text_color\":\"FFFFFF\"}]"},"geometry":{"type":"Point","coordinates":[-73.85272,40.574118]}},{"type":"Feature","properties":{"stop_id":"58","stop_code":"2319838","stop_name":"Rockaway Beach Boulevard & Beach 149th Street","wheelchair_boarding":"1","feed_id":"New_York__NYC_Ferry__mdb_mdb-515","agency_name":"NYC Ferry","route_count":1,"route_ids":"RWS","route_short_names":"RWS","route_types":"3","route_type_names":"Bus","routes_json":"[{\"route_id\":\"RWS\",\"route_short_name\":\"RWS\",\"route_long_name\":\"Rockaway West\",\"route_type\":\"3\",\"route_type_name\":\"Bus\",\"route_color\":\"00A1E1\",\"route_text_color\":\"FFFFFF\"}]"},"geometry":{"type":"Point","coordinates":[-73.864512,40.569306]}},{"type":"Feature","properties":{"stop_id":"61","stop_code":"2319839","stop_name":"Beach Channel Dr/Beach 41st Street","wheelchair_boarding":"1","feed_id":"New_York__NYC_Ferry__mdb_mdb-515","agency_name":"NYC Ferry","route_count":1,"route_ids":"RES","route_short_names":"RES","route_types":"3","route_type_names":"Bus","routes_json":"[{\"route_id\":\"RES\",\"route_short_name\":\"RES\",\"route_long_name\":\"Rockaway East\",\"route_type\":\"3\",\"route_type_name\":\"Bus\",\"route_color\":\"00A1E1\",\"route_text_color\":\"FFFFFF\"}]"},"geometry":{"type":"Point","coordinates":[-73.772849,40.595872]}},{"type":"Feature","properties":{"stop_id":"62","stop_code":"2319840","stop_name":"Beach Channel Dr/Beach 36th Street","wheelchair_boarding":"1","feed_id":"New_York__NYC_Ferry__mdb_mdb-515","agency_name":"NYC Ferry","route_count":1,"route_ids":"RES","route_short_names":"RES","route_types":"3","route_type_names":"Bus","routes_json":"[{\"route_id\":\"RES\",\"route_short_name\":\"RES\",\"route_long_name\":\"Rockaway East\",\"route_type\":\"3\",\"route_type_name\":\"Bus\",\"route_color\":\"00A1E1\",\"route_text_color\":\"FFFFFF\"}]"},"geometry":{"type":"Point","coordinates":[-73.76914,40.596245]}},{"type":"Feature","properties":{"stop_id":"87","stop_code":"2319811","stop_name":"Wall St/Pier 11","wheelchair_boarding":"1","feed_id":"New_York__NYC_Ferry__mdb_mdb-515","agency_name":"NYC Ferry","route_count":6,"route_ids":"AS|ER|GI|RS|SB|SG","route_short_names":"AS|ER|GI|RS|SB|SG","route_types":"4","route_type_names":"Ferry","routes_json":"[{\"route_id\":\"AS\",\"route_short_name\":\"AS\",\"route_long_name\":\"Astoria\",\"route_type\":\"4\",\"route_type_name\":\"Ferry\",\"route_color\":\"FF6B00\",\"route_text_color\":\"FFFFFF\"},{\"route_id\":\"ER\",\"route_short_name\":\"ER\",\"route_long_name\":\"East River\",\"route_type\":\"4\",\"route_type_name\":\"Ferry\",\"route_color\":\"00839C\",\"route_text_color\":\"FFFFFF\"},{\"route_id\":\"GI\",\"route_short_name\":\"GI\",\"route_long_name\":\"Governors Island Shuttle\",\"route_type\":\"4\",\"route_type_name\":\"Ferry\",\"route_color\":\"9795A0\",\"route_text_color\":\"FFFFFF\"},{\"route_id\":\"RS\",\"route_short_name\":\"RS\",\"route_long_name\":\"Rockaway-Soundview\",\"route_type\":\"4\",\"route_type_name\":\"Ferry\",\"route_color\":\"4E008E\",\"route_text_color\":\"FFFFFF\"},{\"route_id\":\"SB\",\"route_short_name\":\"SB\",\"route_long_name\":\"South Brooklyn\",\"route_type\":\"4\",\"route_type_name\":\"Ferry\",\"route_color\":\"FFD100\",\"route_text_color\":\"FFFFFF\"},{\"route_id\":\"SG\",\"route_short_name\":\"SG\",\"route_long_name\":\"St. George\",\"route_type\":\"4\",\"route_type_name\":\"Ferry\",\"route_color\":\"D0006F\",\"route_text_color\":\"FFFFFF\"}]"},"geometry":{"type":"Point","coordinates":[-74.006144,40.703161]}},{"type":"Feature","properties":{"stop_id":"88","stop_code":"2319813","stop_name":"Rockaway","wheelchair_boarding":"1","feed_id":"New_York__NYC_Ferry__mdb_mdb-515","agency_name":"NYC Ferry","route_count":1,"route_ids":"RS","route_short_names":"RS","route_types":"4","route_type_names":"Ferry","routes_json":"[{\"route_id\":\"RS\",\"route_short_name\":\"RS\",\"route_long_name\":\"Rockaway-Soundview\",\"route_type\":\"4\",\"route_type_name\":\"Ferry\",\"route_color\":\"4E008E\",\"route_text_color\":\"FFFFFF\"}]"},"geometry":{"type":"Point","coordinates":[-73.831596,40.584228]}},{"type":"Feature","properties":{"stop_id":"89","stop_code":"2319818","stop_name":"Astoria","wheelchair_boarding":"1","feed_id":"New_York__NYC_Ferry__mdb_mdb-515","agency_name":"NYC Ferry","route_count":1,"route_ids":"AS","route_short_names":"AS","route_types":"4","route_type_names":"Ferry","routes_json":"[{\"route_id\":\"AS\",\"route_short_name\":\"AS\",\"route_long_name\":\"Astoria\",\"route_type\":\"4\",\"route_type_name\":\"Ferry\",\"route_color\":\"FF6B00\",\"route_text_color\":\"FFFFFF\"}]"},"geometry":{"type":"Point","coordinates":[-73.935714,40.77172]}},{"type":"Feature","properties":{"stop_id":"90","stop_code":"2319820","stop_name":"Long Island City","wheelchair_boarding":"1","feed_id":"New_York__NYC_Ferry__mdb_mdb-515","agency_name":"NYC Ferry","route_count":1,"route_ids":"AS","route_short_names":"AS","route_types":"4","route_type_names":"Ferry","routes_json":"[{\"route_id\":\"AS\",\"route_short_name\":\"AS\",\"route_long_name\":\"Astoria\",\"route_type\":\"4\",\"route_type_name\":\"Ferry\",\"route_color\":\"FF6B00\",\"route_text_color\":\"FFFFFF\"}]"},"geometry":{"type":"Point","coordinates":[-73.957725,40.74842]}},{"type":"Feature","properties":{"stop_id":"103","stop_code":"2319863","stop_name":"Rockaway Beach Boulevard & Beach 67th Street","wheelchair_boarding":"1","feed_id":"New_York__NYC_Ferry__mdb_mdb-515","agency_name":"NYC Ferry","route_count":1,"route_ids":"RES","route_short_names":"RES","route_types":"3","route_type_names":"Bus","routes_json":"[{\"route_id\":\"RES\",\"route_short_name\":\"RES\",\"route_long_name\":\"Rockaway East\",\"route_type\":\"3\",\"route_type_name\":\"Bus\",\"route_color\":\"00A1E1\",\"route_text_color\":\"FFFFFF\"}]"},"geometry":{"type":"Point","coordinates":[-73.79631,40.590691]}},{"type":"Feature","properties":{"stop_id":"104","stop_code":"2319864","stop_name":"Rockaway Beach Boulevard & Beach 96th Street","wheelchair_boarding":"1","feed_id":"New_York__NYC_Ferry__mdb_mdb-515","agency_name":"NYC Ferry","route_count":1,"route_ids":"RES","route_short_names":"RES","route_types":"3","route_type_names":"Bus","routes_json":"[{\"route_id\":\"RES\",\"route_short_name\":\"RES\",\"route_long_name\":\"Rockaway East\",\"route_type\":\"3\",\"route_type_name\":\"Bus\",\"route_color\":\"00A1E1\",\"route_text_color\":\"FFFFFF\"}]"},"geometry":{"type":"Point","coordinates":[-73.817963,40.585406]}},{"type":"Feature","properties":{"stop_id":"105","stop_code":"2319865","stop_name":"Rockaway Beach Boulevard & Beach 77th Street","wheelchair_boarding":"1","feed_id":"New_York__NYC_Ferry__mdb_mdb-515","agency_name":"NYC Ferry","route_count":1,"route_ids":"RES","route_short_names":"RES","route_types":"3","route_type_names":"Bus","routes_json":"[{\"route_id\":\"RES\",\"route_short_name\":\"RES\",\"route_long_name\":\"Rockaway East\",\"route_type\":\"3\",\"route_type_name\":\"Bus\",\"route_color\":\"00A1E1\",\"route_text_color\":\"FFFFFF\"}]"},"geometry":{"type":"Point","coordinates":[-73.804725,40.588359]}},{"type":"Feature","properties":{"stop_id":"111","stop_code":"2319870","stop_name":"Gov. Island/Yankee Pier","wheelchair_boarding":"1","feed_id":"New_York__NYC_Ferry__mdb_mdb-515","agency_name":"NYC Ferry","route_count":2,"route_ids":"GI|SB","route_short_names":"GI|SB","route_types":"4","route_type_names":"Ferry","routes_json":"[{\"route_id\":\"GI\",\"route_short_name\":\"GI\",\"route_long_name\":\"Governors Island Shuttle\",\"route_type\":\"4\",\"route_type_name\":\"Ferry\",\"route_color\":\"9795A0\",\"route_text_color\":\"FFFFFF\"},{\"route_id\":\"SB\",\"route_short_name\":\"SB\",\"route_long_name\":\"South Brooklyn\",\"route_type\":\"4\",\"route_type_name\":\"Ferry\",\"route_color\":\"FFD100\",\"route_text_color\":\"FFFFFF\"}]"},"geometry":{"type":"Point","coordinates":[-74.016482,40.68664]}},{"type":"Feature","properties":{"stop_id":"112","stop_code":"2319871","stop_name":"Soundview","wheelchair_boarding":"1","feed_id":"New_York__NYC_Ferry__mdb_mdb-515","agency_name":"NYC Ferry","route_count":1,"route_ids":"RS","route_short_names":"RS","route_types":"4","route_type_names":"Ferry","routes_json":"[{\"route_id\":\"RS\",\"route_short_name\":\"RS\",\"route_long_name\":\"Rockaway-Soundview\",\"route_type\":\"4\",\"route_type_name\":\"Ferry\",\"route_color\":\"4E008E\",\"route_text_color\":\"FFFFFF\"}]"},"geometry":{"type":"Point","coordinates":[-73.848703,40.804202]}},{"type":"Feature","properties":{"stop_id":"113","stop_code":"2319872","stop_name":"East 90th St","wheelchair_boarding":"1","feed_id":"New_York__NYC_Ferry__mdb_mdb-515","agency_name":"NYC Ferry","route_count":2,"route_ids":"AS|RS","route_short_names":"AS|RS","route_types":"4","route_type_names":"Ferry","routes_json":"[{\"route_id\":\"AS\",\"route_short_name\":\"AS\",\"route_long_name\":\"Astoria\",\"route_type\":\"4\",\"route_type_name\":\"Ferry\",\"route_color\":\"FF6B00\",\"route_text_color\":\"FFFFFF\"},{\"route_id\":\"RS\",\"route_short_name\":\"RS\",\"route_long_name\":\"Rockaway-Soundview\",\"route_type\":\"4\",\"route_type_name\":\"Ferry\",\"route_color\":\"4E008E\",\"route_text_color\":\"FFFFFF\"}]"},"geometry":{"type":"Point","coordinates":[-73.942172,40.777475]}},{"type":"Feature","properties":{"stop_id":"114","stop_code":"2319873","stop_name":"Stuyvesant Cove","wheelchair_boarding":"1","feed_id":"New_York__NYC_Ferry__mdb_mdb-515","agency_name":"NYC Ferry","route_count":1,"route_ids":"RS","route_short_names":"RS","route_types":"4","route_type_names":"Ferry","routes_json":"[{\"route_id\":\"RS\",\"route_short_name\":\"RS\",\"route_long_name\":\"Rockaway-Soundview\",\"route_type\":\"4\",\"route_type_name\":\"Ferry\",\"route_color\":\"4E008E\",\"route_text_color\":\"FFFFFF\"}]"},"geometry":{"type":"Point","coordinates":[-73.972922,40.731979]}},{"type":"Feature","properties":{"stop_id":"115","stop_code":"2319874","stop_name":"Corlears Hook","wheelchair_boarding":"1","feed_id":"New_York__NYC_Ferry__mdb_mdb-515","agency_name":"NYC Ferry","route_count":1,"route_ids":"SB","route_short_names":"SB","route_types":"4","route_type_names":"Ferry","routes_json":"[{\"route_id\":\"SB\",\"route_short_name\":\"SB\",\"route_long_name\":\"South Brooklyn\",\"route_type\":\"4\",\"route_type_name\":\"Ferry\",\"route_color\":\"FFD100\",\"route_text_color\":\"FFFFFF\"}]"},"geometry":{"type":"Point","coordinates":[-73.979244,40.710159]}},{"type":"Feature","properties":{"stop_id":"118","stop_code":"2319814","stop_name":"Sunset Park/BAT","wheelchair_boarding":"1","feed_id":"New_York__NYC_Ferry__mdb_mdb-515","agency_name":"NYC Ferry","route_count":2,"route_ids":"RS|SB","route_short_names":"RS|SB","route_types":"4","route_type_names":"Ferry","routes_json":"[{\"route_id\":\"RS\",\"route_short_name\":\"RS\",\"route_long_name\":\"Rockaway-Soundview\",\"route_type\":\"4\",\"route_type_name\":\"Ferry\",\"route_color\":\"4E008E\",\"route_text_color\":\"FFFFFF\"},{\"route_id\":\"SB\",\"route_short_name\":\"SB\",\"route_long_name\":\"South Brooklyn\",\"route_type\":\"4\",\"route_type_name\":\"Ferry\",\"route_color\":\"FFD100\",\"route_text_color\":\"FFFFFF\"}]"},"geometry":{"type":"Point","coordinates":[-74.026436,40.646276]}},{"type":"Feature","properties":{"stop_id":"120","stop_code":"2319875","stop_name":"Brooklyn Navy Yard","wheelchair_boarding":"1","feed_id":"New_York__NYC_Ferry__mdb_mdb-515","agency_name":"NYC Ferry","route_count":1,"route_ids":"AS","route_short_names":"AS","route_types":"4","route_type_names":"Ferry","routes_json":"[{\"route_id\":\"AS\",\"route_short_name\":\"AS\",\"route_long_name\":\"Astoria\",\"route_type\":\"4\",\"route_type_name\":\"Ferry\",\"route_color\":\"FF6B00\",\"route_text_color\":\"FFFFFF\"}]"},"geometry":{"type":"Point","coordinates":[-73.973576,40.701792]}},{"type":"Feature","properties":{"stop_id":"136","stop_code":"2319890","stop_name":"Battery Park City/Vesey St.","wheelchair_boarding":"1","feed_id":"New_York__NYC_Ferry__mdb_mdb-515","agency_name":"NYC Ferry","route_count":1,"route_ids":"SG","route_short_names":"SG","route_types":"4","route_type_names":"Ferry","routes_json":"[{\"route_id\":\"SG\",\"route_short_name\":\"SG\",\"route_long_name\":\"St. George\",\"route_type\":\"4\",\"route_type_name\":\"Ferry\",\"route_color\":\"D0006F\",\"route_text_color\":\"FFFFFF\"}]"},"geometry":{"type":"Point","coordinates":[-74.017775,40.715029]}},{"type":"Feature","properties":{"stop_id":"137","stop_code":"2319891","stop_name":"St. George","wheelchair_boarding":"1","feed_id":"New_York__NYC_Ferry__mdb_mdb-515","agency_name":"NYC Ferry","route_count":1,"route_ids":"SG","route_short_names":"SG","route_types":"4","route_type_names":"Ferry","routes_json":"[{\"route_id\":\"SG\",\"route_short_name\":\"SG\",\"route_long_name\":\"St. George\",\"route_type\":\"4\",\"route_type_name\":\"Ferry\",\"route_color\":\"D0006F\",\"route_text_color\":\"FFFFFF\"}]"},"geometry":{"type":"Point","coordinates":[-74.074231,40.646072]}},{"type":"Feature","properties":{"stop_id":"138","stop_code":"2319892","stop_name":"Midtown West 39th St-Pier 79","wheelchair_boarding":"1","feed_id":"New_York__NYC_Ferry__mdb_mdb-515","agency_name":"NYC Ferry","route_count":1,"route_ids":"SG","route_short_names":"SG","route_types":"4","route_type_names":"Ferry","routes_json":"[{\"route_id\":\"SG\",\"route_short_name\":\"SG\",\"route_long_name\":\"St. George\",\"route_type\":\"4\",\"route_type_name\":\"Ferry\",\"route_color\":\"D0006F\",\"route_text_color\":\"FFFFFF\"}]"},"geometry":{"type":"Point","coordinates":[-74.004075,40.760323]}},{"type":"Feature","properties":{"stop_id":"141","stop_code":"2319894","stop_name":"Ferry Point Park","wheelchair_boarding":"1","feed_id":"New_York__NYC_Ferry__mdb_mdb-515","agency_name":"NYC Ferry","route_count":1,"route_ids":"RS","route_short_names":"RS","route_types":"4","route_type_names":"Ferry","routes_json":"[{\"route_id\":\"RS\",\"route_short_name\":\"RS\",\"route_long_name\":\"Rockaway-Soundview\",\"route_type\":\"4\",\"route_type_name\":\"Ferry\",\"route_color\":\"4E008E\",\"route_text_color\":\"FFFFFF\"}]"},"geometry":{"type":"Point","coordinates":[-73.837305,40.805455]}},{"type":"Feature","properties":{"stop_id":"142","stop_code":"2319895","stop_name":"Rockaway Beach Boulevard & Beach 102nd Street","wheelchair_boarding":"1","feed_id":"New_York__NYC_Ferry__mdb_mdb-515","agency_name":"NYC Ferry","route_count":1,"route_ids":"RES","route_short_names":"RES","route_types":"3","route_type_names":"Bus","routes_json":"[{\"route_id\":\"RES\",\"route_short_name\":\"RES\",\"route_long_name\":\"Rockaway East\",\"route_type\":\"3\",\"route_type_name\":\"Bus\",\"route_color\":\"00A1E1\",\"route_text_color\":\"FFFFFF\"}]"},"geometry":{"type":"Point","coordinates":[-73.82362,40.58383]}},{"type":"Feature","properties":{"stop_id":"145","stop_code":"2319897","stop_name":"Rockaway Beach Boulevard & Beach 118th Street","wheelchair_boarding":"1","feed_id":"New_York__NYC_Ferry__mdb_mdb-515","agency_name":"NYC Ferry","route_count":1,"route_ids":"RWS","route_short_names":"RWS","route_types":"3","route_type_names":"Bus","routes_json":"[{\"route_id\":\"RWS\",\"route_short_name\":\"RWS\",\"route_long_name\":\"Rockaway West\",\"route_type\":\"3\",\"route_type_name\":\"Bus\",\"route_color\":\"00A1E1\",\"route_text_color\":\"FFFFFF\"}]"},"geometry":{"type":"Point","coordinates":[-73.839088,40.579155]}},{"type":"Feature","properties":{"stop_id":"149","stop_code":"","stop_name":"Rockaway Beach Boulevard & Beach 96th Street","wheelchair_boarding":"","feed_id":"New_York__NYC_Ferry__mdb_mdb-515","agency_name":"NYC Ferry","route_count":1,"route_ids":"RES","route_short_names":"RES","route_types":"3","route_type_names":"Bus","routes_json":"[{\"route_id\":\"RES\",\"route_short_name\":\"RES\",\"route_long_name\":\"Rockaway East\",\"route_type\":\"3\",\"route_type_name\":\"Bus\",\"route_color\":\"00A1E1\",\"route_text_color\":\"FFFFFF\"}]"},"geometry":{"type":"Point","coordinates":[-73.81766,40.585465]}},{"type":"Feature","properties":{"stop_id":"150","stop_code":"","stop_name":"Rockaway Beach Boulevard & Beach 79th Street","wheelchair_boarding":"1","feed_id":"New_York__NYC_Ferry__mdb_mdb-515","agency_name":"NYC Ferry","route_count":1,"route_ids":"RES","route_short_names":"RES","route_types":"3","route_type_names":"Bus","routes_json":"[{\"route_id\":\"RES\",\"route_short_name\":\"RES\",\"route_long_name\":\"Rockaway East\",\"route_type\":\"3\",\"route_type_name\":\"Bus\",\"route_color\":\"00A1E1\",\"route_text_color\":\"FFFFFF\"}]"},"geometry":{"type":"Point","coordinates":[-73.805308,40.588152]}},{"type":"Feature","properties":{"stop_id":"151","stop_code":"","stop_name":"Rockaway Beach Boulevard & Beach 67th Street","wheelchair_boarding":"1","feed_id":"New_York__NYC_Ferry__mdb_mdb-515","agency_name":"NYC Ferry","route_count":1,"route_ids":"RES","route_short_names":"RES","route_types":"3","route_type_names":"Bus","routes_json":"[{\"route_id\":\"RES\",\"route_short_name\":\"RES\",\"route_long_name\":\"Rockaway East\",\"route_type\":\"3\",\"route_type_name\":\"Bus\",\"route_color\":\"00A1E1\",\"route_text_color\":\"FFFFFF\"}]"},"geometry":{"type":"Point","coordinates":[-73.795489,40.590786]}}]}