{"type":"FeatureCollection","features":[{"type":"Feature","properties":{"stop_id":"363861","stop_code":"363861","stop_name":"Crystal Lanes","stop_desc":"","zone_id":"","stop_url":"","location_type":"0","parent_station":"","stop_timezone":"","wheelchair_boarding":"0","platform_code":"","feed_id":"New_York__Corning_Erwin_Area_Transit_System_(CEATS)__mdb_mdb-302","agency_name":"CEATS","route_count":0,"route_ids":"","route_short_names":"","route_types":"","route_type_names":"","routes_json":"[]"},"geometry":{"type":"Point","coordinates":[-77.000763,42.122009]}},{"type":"Feature","properties":{"stop_id":"363862","stop_code":"363862","stop_name":"Gibson Fire Department","stop_desc":"","zone_id":"","stop_url":"","location_type":"0","parent_station":"","stop_timezone":"","wheelchair_boarding":"0","platform_code":"","feed_id":"New_York__Corning_Erwin_Area_Transit_System_(CEATS)__mdb_mdb-302","agency_name":"CEATS","route_count":0,"route_ids":"","route_short_names":"","route_types":"","route_type_names":"","routes_json":"[]"},"geometry":{"type":"Point","coordinates":[-77.03067,42.140186]}},{"type":"Feature","properties":{"stop_id":"363864","stop_code":"363864","stop_name":"Jubilee Family Dollar South Cornin","stop_desc":"","zone_id":"","stop_url":"","location_type":"0","parent_station":"","stop_timezone":"","wheelchair_boarding":"0","platform_code":"","feed_id":"New_York__Corning_Erwin_Area_Transit_System_(CEATS)__mdb_mdb-302","agency_name":"CEATS","route_count":0,"route_ids":"","route_short_names":"","route_types":"","route_type_names":"","routes_json":"[]"},"geometry":{"type":"Point","coordinates":[-77.03672,42.121731]}},{"type":"Feature","properties":{"stop_id":"363865","stop_code":"363865","stop_name":"Tioga Street and Conhocton Street","stop_desc":"","zone_id":"","stop_url":"","location_type":"0","parent_station":"","stop_timezone":"","wheelchair_boarding":"0","platform_code":"","feed_id":"New_York__Corning_Erwin_Area_Transit_System_(CEATS)__mdb_mdb-302","agency_name":"CEATS","route_count":0,"route_ids":"","route_short_names":"","route_types":"","route_type_names":"","routes_json":"[]"},"geometry":{"type":"Point","coordinates":[-77.040123,42.141426]}},{"type":"Feature","properties":{"stop_id":"363870","stop_code":"363870","stop_name":"Pulteney and Baker St","stop_desc":"","zone_id":"","stop_url":"","location_type":"0","parent_station":"","stop_timezone":"","wheelchair_boarding":"0","platform_code":"","feed_id":"New_York__Corning_Erwin_Area_Transit_System_(CEATS)__mdb_mdb-302","agency_name":"CEATS","route_count":0,"route_ids":"","route_short_names":"","route_types":"","route_type_names":"","routes_json":"[]"},"geometry":{"type":"Point","coordinates":[-77.056503,42.151371]}},{"type":"Feature","properties":{"stop_id":"363873","stop_code":"363873","stop_name":"Pulteney and Bridge","stop_desc":"","zone_id":"","stop_url":"","location_type":"0","parent_station":"","stop_timezone":"","wheelchair_boarding":"0","platform_code":"","feed_id":"New_York__Corning_Erwin_Area_Transit_System_(CEATS)__mdb_mdb-302","agency_name":"CEATS","route_count":1,"route_ids":"tgk2","route_short_names":"3","route_types":"3","route_type_names":"Bus","routes_json":"[{\"route_id\":\"tgk2\",\"route_short_name\":\"3\",\"route_long_name\":\"Painted Post/Gang Mills\",\"route_type\":\"3\",\"route_type_name\":\"Bus\",\"route_color\":\"7B3B0B\",\"route_text_color\":\"000000\"}]"},"geometry":{"type":"Point","coordinates":[-77.060837,42.151089]}},{"type":"Feature","properties":{"stop_id":"363874","stop_code":"363874","stop_name":"State and 1st Street","stop_desc":"","zone_id":"","stop_url":"","location_type":"0","parent_station":"","stop_timezone":"","wheelchair_boarding":"0","platform_code":"","feed_id":"New_York__Corning_Erwin_Area_Transit_System_(CEATS)__mdb_mdb-302","agency_name":"CEATS","route_count":1,"route_ids":"10790","route_short_names":"2","route_types":"3","route_type_names":"Bus","routes_json":"[{\"route_id\":\"10790\",\"route_short_name\":\"2\",\"route_long_name\":\"Combined Northside and Southside\",\"route_type\":\"3\",\"route_type_name\":\"Bus\",\"route_color\":\"D0021B\",\"route_text_color\":\"FFFFFF\"}]"},"geometry":{"type":"Point","coordinates":[-77.061195,42.142658]}},{"type":"Feature","properties":{"stop_id":"363875","stop_code":"363875","stop_name":"Senior Citizen Apts William Street","stop_desc":"","zone_id":"","stop_url":"","location_type":"0","parent_station":"","stop_timezone":"","wheelchair_boarding":"0","platform_code":"","feed_id":"New_York__Corning_Erwin_Area_Transit_System_(CEATS)__mdb_mdb-302","agency_name":"CEATS","route_count":1,"route_ids":"10790","route_short_names":"2","route_types":"3","route_type_names":"Bus","routes_json":"[{\"route_id\":\"10790\",\"route_short_name\":\"2\",\"route_long_name\":\"Combined Northside and Southside\",\"route_type\":\"3\",\"route_type_name\":\"Bus\",\"route_color\":\"D0021B\",\"route_text_color\":\"FFFFFF\"}]"},"geometry":{"type":"Point","coordinates":[-77.062492,42.14962]}},{"type":"Feature","properties":{"stop_id":"363876","stop_code":"363876","stop_name":"Northside Blodget School Onondaga","stop_desc":"","zone_id":"","stop_url":"","location_type":"0","parent_station":"","stop_timezone":"","wheelchair_boarding":"0","platform_code":"","feed_id":"New_York__Corning_Erwin_Area_Transit_System_(CEATS)__mdb_mdb-302","agency_name":"CEATS","route_count":0,"route_ids":"","route_short_names":"","route_types":"","route_type_names":"","routes_json":"[]"},"geometry":{"type":"Point","coordinates":[-77.066879,42.153893]}},{"type":"Feature","properties":{"stop_id":"363878","stop_code":"363878","stop_name":"Corning Comm College","stop_desc":"","zone_id":"","stop_url":"","location_type":"0","parent_station":"","stop_timezone":"","wheelchair_boarding":"0","platform_code":"","feed_id":"New_York__Corning_Erwin_Area_Transit_System_(CEATS)__mdb_mdb-302","agency_name":"CEATS","route_count":1,"route_ids":"10788","route_short_names":"1","route_types":"3","route_type_names":"Bus","routes_json":"[{\"route_id\":\"10788\",\"route_short_name\":\"1\",\"route_long_name\":\"Corning Community College\",\"route_type\":\"3\",\"route_type_name\":\"Bus\",\"route_color\":\"9013FE\",\"route_text_color\":\"FFFFFF\"}]"},"geometry":{"type":"Point","coordinates":[-77.070557,42.11544]}},{"type":"Feature","properties":{"stop_id":"363881","stop_code":"363881","stop_name":"Corning-Painted Post High School","stop_desc":"","zone_id":"","stop_url":"","location_type":"0","parent_station":"","stop_timezone":"","wheelchair_boarding":"0","platform_code":"","feed_id":"New_York__Corning_Erwin_Area_Transit_System_(CEATS)__mdb_mdb-302","agency_name":"CEATS","route_count":1,"route_ids":"tgk2","route_short_names":"3","route_types":"3","route_type_names":"Bus","routes_json":"[{\"route_id\":\"tgk2\",\"route_short_name\":\"3\",\"route_long_name\":\"Painted Post/Gang Mills\",\"route_type\":\"3\",\"route_type_name\":\"Bus\",\"route_color\":\"7B3B0B\",\"route_text_color\":\"000000\"}]"},"geometry":{"type":"Point","coordinates":[-77.098862,42.167297]}},{"type":"Feature","properties":{"stop_id":"363882","stop_code":"363882","stop_name":"Burger King","stop_desc":"","zone_id":"","stop_url":"","location_type":"0","parent_station":"","stop_timezone":"","wheelchair_boarding":"0","platform_code":"","feed_id":"New_York__Corning_Erwin_Area_Transit_System_(CEATS)__mdb_mdb-302","agency_name":"CEATS","route_count":0,"route_ids":"","route_short_names":"","route_types":"","route_type_names":"","routes_json":"[]"},"geometry":{"type":"Point","coordinates":[-77.101234,42.169739]}},{"type":"Feature","properties":{"stop_id":"363883","stop_code":"363883","stop_name":"Wal-Mart","stop_desc":"","zone_id":"","stop_url":"","location_type":"0","parent_station":"","stop_timezone":"","wheelchair_boarding":"0","platform_code":"","feed_id":"New_York__Corning_Erwin_Area_Transit_System_(CEATS)__mdb_mdb-302","agency_name":"CEATS","route_count":1,"route_ids":"tgk2","route_short_names":"3","route_types":"3","route_type_names":"Bus","routes_json":"[{\"route_id\":\"tgk2\",\"route_short_name\":\"3\",\"route_long_name\":\"Painted Post/Gang Mills\",\"route_type\":\"3\",\"route_type_name\":\"Bus\",\"route_color\":\"7B3B0B\",\"route_text_color\":\"000000\"}]"},"geometry":{"type":"Point","coordinates":[-77.106712,42.155266]}},{"type":"Feature","properties":{"stop_id":"363885","stop_code":"363885","stop_name":"Victory Village","stop_desc":"","zone_id":"","stop_url":"","location_type":"0","parent_station":"","stop_timezone":"","wheelchair_boarding":"0","platform_code":"","feed_id":"New_York__Corning_Erwin_Area_Transit_System_(CEATS)__mdb_mdb-302","agency_name":"CEATS","route_count":0,"route_ids":"","route_short_names":"","route_types":"","route_type_names":"","routes_json":"[]"},"geometry":{"type":"Point","coordinates":[-77.116486,42.175892]}},{"type":"Feature","properties":{"stop_id":"363886","stop_code":"363886","stop_name":"Morningside Drive","stop_desc":"","zone_id":"","stop_url":"","location_type":"0","parent_station":"","stop_timezone":"","wheelchair_boarding":"0","platform_code":"","feed_id":"New_York__Corning_Erwin_Area_Transit_System_(CEATS)__mdb_mdb-302","agency_name":"CEATS","route_count":1,"route_ids":"tgk2","route_short_names":"3","route_types":"3","route_type_names":"Bus","routes_json":"[{\"route_id\":\"tgk2\",\"route_short_name\":\"3\",\"route_long_name\":\"Painted Post/Gang Mills\",\"route_type\":\"3\",\"route_type_name\":\"Bus\",\"route_color\":\"7B3B0B\",\"route_text_color\":\"000000\"}]"},"geometry":{"type":"Point","coordinates":[-77.118507,42.150867]}},{"type":"Feature","properties":{"stop_id":"363887","stop_code":"363887","stop_name":"Coopers Plains","stop_desc":"","zone_id":"","stop_url":"","location_type":"0","parent_station":"","stop_timezone":"","wheelchair_boarding":"0","platform_code":"","feed_id":"New_York__Corning_Erwin_Area_Transit_System_(CEATS)__mdb_mdb-302","agency_name":"CEATS","route_count":0,"route_ids":"","route_short_names":"","route_types":"","route_type_names":"","routes_json":"[]"},"geometry":{"type":"Point","coordinates":[-77.14164,42.182297]}},{"type":"Feature","properties":{"stop_id":"363884","stop_code":"363884","stop_name":"Hampton Inn","stop_desc":"","zone_id":"","stop_url":"","location_type":"0","parent_station":"","stop_timezone":"","wheelchair_boarding":"0","platform_code":"","feed_id":"New_York__Corning_Erwin_Area_Transit_System_(CEATS)__mdb_mdb-302","agency_name":"CEATS","route_count":1,"route_ids":"tgk2","route_short_names":"3","route_types":"3","route_type_names":"Bus","routes_json":"[{\"route_id\":\"tgk2\",\"route_short_name\":\"3\",\"route_long_name\":\"Painted Post/Gang Mills\",\"route_type\":\"3\",\"route_type_name\":\"Bus\",\"route_color\":\"7B3B0B\",\"route_text_color\":\"000000\"}]"},"geometry":{"type":"Point","coordinates":[-77.10763,42.148849]}},{"type":"Feature","properties":{"stop_id":"ptnb","stop_code":"","stop_name":"Guthrie Hospital","stop_desc":"","zone_id":"","stop_url":"","location_type":"0","parent_station":"","stop_timezone":"","wheelchair_boarding":"","platform_code":"","feed_id":"New_York__Corning_Erwin_Area_Transit_System_(CEATS)__mdb_mdb-302","agency_name":"CEATS","route_count":0,"route_ids":"","route_short_names":"","route_types":"","route_type_names":"","routes_json":"[]"},"geometry":{"type":"Point","coordinates":[-76.97059,42.135281]}},{"type":"Feature","properties":{"stop_id":"l8h7","stop_code":"","stop_name":"Onondaga Street & Dodge Avenue","stop_desc":"","zone_id":"","stop_url":"","location_type":"","parent_station":"","stop_timezone":"","wheelchair_boarding":"","platform_code":"","feed_id":"New_York__Corning_Erwin_Area_Transit_System_(CEATS)__mdb_mdb-302","agency_name":"CEATS","route_count":0,"route_ids":"","route_short_names":"","route_types":"","route_type_names":"","routes_json":"[]"},"geometry":{"type":"Point","coordinates":[-77.065308,42.15487]}},{"type":"Feature","properties":{"stop_id":"363863","stop_code":"363863","stop_name":"Corning Town Hall Elm Street (on requ","stop_desc":"","zone_id":"","stop_url":"","location_type":"0","parent_station":"","stop_timezone":"","wheelchair_boarding":"0","platform_code":"","feed_id":"New_York__Corning_Erwin_Area_Transit_System_(CEATS)__mdb_mdb-302","agency_name":"CEATS","route_count":0,"route_ids":"","route_short_names":"","route_types":"","route_type_names":"","routes_json":"[]"},"geometry":{"type":"Point","coordinates":[-77.035606,42.132915]}},{"type":"Feature","properties":{"stop_id":"363866","stop_code":"363866","stop_name":"Day Springs I and Day Springs II","stop_desc":"","zone_id":"","stop_url":"","location_type":"0","parent_station":"","stop_timezone":"","wheelchair_boarding":"0","platform_code":"","feed_id":"New_York__Corning_Erwin_Area_Transit_System_(CEATS)__mdb_mdb-302","agency_name":"CEATS","route_count":1,"route_ids":"10790","route_short_names":"2","route_types":"3","route_type_names":"Bus","routes_json":"[{\"route_id\":\"10790\",\"route_short_name\":\"2\",\"route_long_name\":\"Combined Northside and Southside\",\"route_type\":\"3\",\"route_type_name\":\"Bus\",\"route_color\":\"D0021B\",\"route_text_color\":\"FFFFFF\"}]"},"geometry":{"type":"Point","coordinates":[-77.045013,42.14196]}},{"type":"Feature","properties":{"stop_id":"ay0o","stop_code":"","stop_name":"Town Hall","stop_desc":"20 S Maple St","zone_id":"","stop_url":"","location_type":"","parent_station":"","stop_timezone":"","wheelchair_boarding":"","platform_code":"","feed_id":"New_York__Corning_Erwin_Area_Transit_System_(CEATS)__mdb_mdb-302","agency_name":"CEATS","route_count":0,"route_ids":"","route_short_names":"","route_types":"","route_type_names":"","routes_json":"[]"},"geometry":{"type":"Point","coordinates":[-77.035013,42.122192]}},{"type":"Feature","properties":{"stop_id":"363863a","stop_code":"363863a","stop_name":"Salvation Army","stop_desc":"","zone_id":"","stop_url":"","location_type":"0","parent_station":"","stop_timezone":"","wheelchair_boarding":"0","platform_code":"","feed_id":"New_York__Corning_Erwin_Area_Transit_System_(CEATS)__mdb_mdb-302","agency_name":"CEATS","route_count":0,"route_ids":"","route_short_names":"","route_types":"","route_type_names":"","routes_json":"[]"},"geometry":{"type":"Point","coordinates":[-77.03638,42.132606]}},{"type":"Feature","properties":{"stop_id":"8","stop_code":"8","stop_name":"Salvation Army","stop_desc":"32 Denison Pkwy E","zone_id":"","stop_url":"","location_type":"","parent_station":"","stop_timezone":"","wheelchair_boarding":"","platform_code":"","feed_id":"New_York__Corning_Erwin_Area_Transit_System_(CEATS)__mdb_mdb-302","agency_name":"CEATS","route_count":0,"route_ids":"","route_short_names":"","route_types":"","route_type_names":"","routes_json":"[]"},"geometry":{"type":"Point","coordinates":[-77.05351,42.142265]}},{"type":"Feature","properties":{"stop_id":"363872","stop_code":"363872","stop_name":"Wegman's OLD","stop_desc":"","zone_id":"","stop_url":"","location_type":"0","parent_station":"","stop_timezone":"","wheelchair_boarding":"0","platform_code":"","feed_id":"New_York__Corning_Erwin_Area_Transit_System_(CEATS)__mdb_mdb-302","agency_name":"CEATS","route_count":0,"route_ids":"","route_short_names":"","route_types":"","route_type_names":"","routes_json":"[]"},"geometry":{"type":"Point","coordinates":[-77.060837,42.148785]}},{"type":"Feature","properties":{"stop_id":"363868","stop_code":"363868","stop_name":"Transportation Center","stop_desc":"","zone_id":"","stop_url":"","location_type":"0","parent_station":"","stop_timezone":"","wheelchair_boarding":"0","platform_code":"","feed_id":"New_York__Corning_Erwin_Area_Transit_System_(CEATS)__mdb_mdb-302","agency_name":"CEATS","route_count":3,"route_ids":"10788|10790|tgk2","route_short_names":"1|2|3","route_types":"3","route_type_names":"Bus","routes_json":"[{\"route_id\":\"10788\",\"route_short_name\":\"1\",\"route_long_name\":\"Corning Community College\",\"route_type\":\"3\",\"route_type_name\":\"Bus\",\"route_color\":\"9013FE\",\"route_text_color\":\"FFFFFF\"},{\"route_id\":\"10790\",\"route_short_name\":\"2\",\"route_long_name\":\"Combined Northside and Southside\",\"route_type\":\"3\",\"route_type_name\":\"Bus\",\"route_color\":\"D0021B\",\"route_text_color\":\"FFFFFF\"},{\"route_id\":\"tgk2\",\"route_short_name\":\"3\",\"route_long_name\":\"Painted Post/Gang Mills\",\"route_type\":\"3\",\"route_type_name\":\"Bus\",\"route_color\":\"7B3B0B\",\"route_text_color\":\"000000\"}]"},"geometry":{"type":"Point","coordinates":[-77.051786,42.142274]}},{"type":"Feature","properties":{"stop_id":"363860","stop_code":"363860","stop_name":"Criminal Justice Center","stop_desc":"","zone_id":"","stop_url":"","location_type":"0","parent_station":"","stop_timezone":"","wheelchair_boarding":"0","platform_code":"","feed_id":"New_York__Corning_Erwin_Area_Transit_System_(CEATS)__mdb_mdb-302","agency_name":"CEATS","route_count":0,"route_ids":"","route_short_names":"","route_types":"","route_type_names":"","routes_json":"[]"},"geometry":{"type":"Point","coordinates":[-76.9856,42.12913]}},{"type":"Feature","properties":{"stop_id":"363877","stop_code":"363877","stop_name":"Winfield Elementary Kingsbury Ave","stop_desc":"","zone_id":"","stop_url":"","location_type":"0","parent_station":"","stop_timezone":"","wheelchair_boarding":"0","platform_code":"","feed_id":"New_York__Corning_Erwin_Area_Transit_System_(CEATS)__mdb_mdb-302","agency_name":"CEATS","route_count":0,"route_ids":"","route_short_names":"","route_types":"","route_type_names":"","routes_json":"[]"},"geometry":{"type":"Point","coordinates":[-77.068185,42.16165]}},{"type":"Feature","properties":{"stop_id":"363867","stop_code":"363867","stop_name":"East 1st St and Chemung St","stop_desc":"","zone_id":"","stop_url":"","location_type":"0","parent_station":"","stop_timezone":"","wheelchair_boarding":"0","platform_code":"","feed_id":"New_York__Corning_Erwin_Area_Transit_System_(CEATS)__mdb_mdb-302","agency_name":"CEATS","route_count":1,"route_ids":"10788","route_short_names":"1","route_types":"3","route_type_names":"Bus","routes_json":"[{\"route_id\":\"10788\",\"route_short_name\":\"1\",\"route_long_name\":\"Corning Community College\",\"route_type\":\"3\",\"route_type_name\":\"Bus\",\"route_color\":\"9013FE\",\"route_text_color\":\"FFFFFF\"}]"},"geometry":{"type":"Point","coordinates":[-77.048981,42.140453]}},{"type":"Feature","properties":{"stop_id":"lapi","stop_code":"","stop_name":"1st St & Conhocton","stop_desc":"","zone_id":"","stop_url":"","location_type":"","parent_station":"","stop_timezone":"","wheelchair_boarding":"","platform_code":"","feed_id":"New_York__Corning_Erwin_Area_Transit_System_(CEATS)__mdb_mdb-302","agency_name":"CEATS","route_count":1,"route_ids":"10790","route_short_names":"2","route_types":"3","route_type_names":"Bus","routes_json":"[{\"route_id\":\"10790\",\"route_short_name\":\"2\",\"route_long_name\":\"Combined Northside and Southside\",\"route_type\":\"3\",\"route_type_name\":\"Bus\",\"route_color\":\"D0021B\",\"route_text_color\":\"FFFFFF\"}]"},"geometry":{"type":"Point","coordinates":[-77.040988,42.139]}},{"type":"Feature","properties":{"stop_id":"xhgp","stop_code":"","stop_name":"Lamphear Court","stop_desc":"","zone_id":"","stop_url":"","location_type":"","parent_station":"","stop_timezone":"","wheelchair_boarding":"","platform_code":"","feed_id":"New_York__Corning_Erwin_Area_Transit_System_(CEATS)__mdb_mdb-302","agency_name":"CEATS","route_count":1,"route_ids":"10790","route_short_names":"2","route_types":"3","route_type_names":"Bus","routes_json":"[{\"route_id\":\"10790\",\"route_short_name\":\"2\",\"route_long_name\":\"Combined Northside and Southside\",\"route_type\":\"3\",\"route_type_name\":\"Bus\",\"route_color\":\"D0021B\",\"route_text_color\":\"FFFFFF\"}]"},"geometry":{"type":"Point","coordinates":[-77.072246,42.159785]}},{"type":"Feature","properties":{"stop_id":"363879","stop_code":"363879","stop_name":"Mountianbrow Village Field Street","stop_desc":"","zone_id":"","stop_url":"","location_type":"0","parent_station":"","stop_timezone":"","wheelchair_boarding":"0","platform_code":"","feed_id":"New_York__Corning_Erwin_Area_Transit_System_(CEATS)__mdb_mdb-302","agency_name":"CEATS","route_count":1,"route_ids":"10790","route_short_names":"2","route_types":"3","route_type_names":"Bus","routes_json":"[{\"route_id\":\"10790\",\"route_short_name\":\"2\",\"route_long_name\":\"Combined Northside and Southside\",\"route_type\":\"3\",\"route_type_name\":\"Bus\",\"route_color\":\"D0021B\",\"route_text_color\":\"FFFFFF\"}]"},"geometry":{"type":"Point","coordinates":[-77.071436,42.144573]}},{"type":"Feature","properties":{"stop_id":"363869","stop_code":"363869","stop_name":"Guthrie Clinic Centerway","stop_desc":"","zone_id":"","stop_url":"","location_type":"0","parent_station":"","stop_timezone":"","wheelchair_boarding":"0","platform_code":"","feed_id":"New_York__Corning_Erwin_Area_Transit_System_(CEATS)__mdb_mdb-302","agency_name":"CEATS","route_count":1,"route_ids":"10790","route_short_names":"2","route_types":"3","route_type_names":"Bus","routes_json":"[{\"route_id\":\"10790\",\"route_short_name\":\"2\",\"route_long_name\":\"Combined Northside and Southside\",\"route_type\":\"3\",\"route_type_name\":\"Bus\",\"route_color\":\"D0021B\",\"route_text_color\":\"FFFFFF\"}]"},"geometry":{"type":"Point","coordinates":[-77.052521,42.148904]}},{"type":"Feature","properties":{"stop_id":"363871","stop_code":"363871","stop_name":"Stewart Park Apts","stop_desc":"","zone_id":"","stop_url":"","location_type":"0","parent_station":"","stop_timezone":"","wheelchair_boarding":"0","platform_code":"","feed_id":"New_York__Corning_Erwin_Area_Transit_System_(CEATS)__mdb_mdb-302","agency_name":"CEATS","route_count":1,"route_ids":"10790","route_short_names":"2","route_types":"3","route_type_names":"Bus","routes_json":"[{\"route_id\":\"10790\",\"route_short_name\":\"2\",\"route_long_name\":\"Combined Northside and Southside\",\"route_type\":\"3\",\"route_type_name\":\"Bus\",\"route_color\":\"D0021B\",\"route_text_color\":\"FFFFFF\"}]"},"geometry":{"type":"Point","coordinates":[-77.060037,42.159745]}},{"type":"Feature","properties":{"stop_id":"363880","stop_code":"363880","stop_name":"Pulteney Plaza - Tops","stop_desc":"","zone_id":"","stop_url":"","location_type":"0","parent_station":"","stop_timezone":"","wheelchair_boarding":"0","platform_code":"","feed_id":"New_York__Corning_Erwin_Area_Transit_System_(CEATS)__mdb_mdb-302","agency_name":"CEATS","route_count":2,"route_ids":"10790|tgk2","route_short_names":"2|3","route_types":"3","route_type_names":"Bus","routes_json":"[{\"route_id\":\"10790\",\"route_short_name\":\"2\",\"route_long_name\":\"Combined Northside and Southside\",\"route_type\":\"3\",\"route_type_name\":\"Bus\",\"route_color\":\"D0021B\",\"route_text_color\":\"FFFFFF\"},{\"route_id\":\"tgk2\",\"route_short_name\":\"3\",\"route_long_name\":\"Painted Post/Gang Mills\",\"route_type\":\"3\",\"route_type_name\":\"Bus\",\"route_color\":\"7B3B0B\",\"route_text_color\":\"000000\"}]"},"geometry":{"type":"Point","coordinates":[-77.077873,42.152782]}},{"type":"Feature","properties":{"stop_id":"363872a","stop_code":"363872a","stop_name":"Wegman's","stop_desc":"24 Bridge St","zone_id":"","stop_url":"","location_type":"0","parent_station":"","stop_timezone":"","wheelchair_boarding":"0","platform_code":"","feed_id":"New_York__Corning_Erwin_Area_Transit_System_(CEATS)__mdb_mdb-302","agency_name":"CEATS","route_count":2,"route_ids":"10790|tgk2","route_short_names":"2|3","route_types":"3","route_type_names":"Bus","routes_json":"[{\"route_id\":\"10790\",\"route_short_name\":\"2\",\"route_long_name\":\"Combined Northside and Southside\",\"route_type\":\"3\",\"route_type_name\":\"Bus\",\"route_color\":\"D0021B\",\"route_text_color\":\"FFFFFF\"},{\"route_id\":\"tgk2\",\"route_short_name\":\"3\",\"route_long_name\":\"Painted Post/Gang Mills\",\"route_type\":\"3\",\"route_type_name\":\"Bus\",\"route_color\":\"7B3B0B\",\"route_text_color\":\"000000\"}]"},"geometry":{"type":"Point","coordinates":[-77.060922,42.146546]}},{"type":"Feature","properties":{"stop_id":"xxnz","stop_code":"","stop_name":"Victory Highway and Robert Dann Dr","stop_desc":"","zone_id":"","stop_url":"","location_type":"","parent_station":"","stop_timezone":"","wheelchair_boarding":"","platform_code":"","feed_id":"New_York__Corning_Erwin_Area_Transit_System_(CEATS)__mdb_mdb-302","agency_name":"CEATS","route_count":1,"route_ids":"tgk2","route_short_names":"3","route_types":"3","route_type_names":"Bus","routes_json":"[{\"route_id\":\"tgk2\",\"route_short_name\":\"3\",\"route_long_name\":\"Painted Post/Gang Mills\",\"route_type\":\"3\",\"route_type_name\":\"Bus\",\"route_color\":\"7B3B0B\",\"route_text_color\":\"000000\"}]"},"geometry":{"type":"Point","coordinates":[-77.10954,42.171845]}},{"type":"Feature","properties":{"stop_id":"0cw9","stop_code":"","stop_name":"Hamilton St & High St - McDonald's","stop_desc":"","zone_id":"","stop_url":"","location_type":"","parent_station":"","stop_timezone":"","wheelchair_boarding":"","platform_code":"","feed_id":"New_York__Corning_Erwin_Area_Transit_System_(CEATS)__mdb_mdb-302","agency_name":"CEATS","route_count":1,"route_ids":"tgk2","route_short_names":"3","route_types":"3","route_type_names":"Bus","routes_json":"[{\"route_id\":\"tgk2\",\"route_short_name\":\"3\",\"route_long_name\":\"Painted Post/Gang Mills\",\"route_type\":\"3\",\"route_type_name\":\"Bus\",\"route_color\":\"7B3B0B\",\"route_text_color\":\"000000\"}]"},"geometry":{"type":"Point","coordinates":[-77.089546,42.1593]}}]}