{"type":"FeatureCollection","features":[{"type":"Feature","properties":{"stop_id":"2662959","stop_code":"hc1","stop_name":"Hwy 45 / Hwy 32","stop_desc":"","wheelchair_boarding":"0","platform_code":"","location_type":"0","parent_station":"","stop_timezone":"America/Los_Angeles","stop_url":"","tts_stop_name":"","zone_id":"In County","feed_id":"California__Glenn_Transit_Service__mdb_mdb-3094","agency_name":"Glenn Transit Service","route_count":1,"route_ids":"17909","route_short_names":"Glenn","route_types":"3","route_type_names":"Bus","routes_json":"[{\"route_id\":\"17909\",\"route_short_name\":\"Glenn\",\"route_long_name\":\"Ride\",\"route_type\":\"3\",\"route_type_name\":\"Bus\",\"route_color\":\"006600\",\"route_text_color\":\"FFFFFF\"}]"},"geometry":{"type":"Point","coordinates":[-122.0191093,39.7443585]}},{"type":"Feature","properties":{"stop_id":"2662915","stop_code":"o17","stop_name":"Walker St / 4th St (Bank)","stop_desc":"","wheelchair_boarding":"0","platform_code":"","location_type":"0","parent_station":"","stop_timezone":"America/Los_Angeles","stop_url":"","tts_stop_name":"","zone_id":"In County","feed_id":"California__Glenn_Transit_Service__mdb_mdb-3094","agency_name":"Glenn Transit Service","route_count":1,"route_ids":"17909","route_short_names":"Glenn","route_types":"3","route_type_names":"Bus","routes_json":"[{\"route_id\":\"17909\",\"route_short_name\":\"Glenn\",\"route_long_name\":\"Ride\",\"route_type\":\"3\",\"route_type_name\":\"Bus\",\"route_color\":\"006600\",\"route_text_color\":\"FFFFFF\"}]"},"geometry":{"type":"Point","coordinates":[-122.1935303,39.7474515]}},{"type":"Feature","properties":{"stop_id":"2662953","stop_code":"w3","stop_name":"N Colusa St / E Wood St","stop_desc":"","wheelchair_boarding":"0","platform_code":"","location_type":"0","parent_station":"","stop_timezone":"America/Los_Angeles","stop_url":"","tts_stop_name":"","zone_id":"In County","feed_id":"California__Glenn_Transit_Service__mdb_mdb-3094","agency_name":"Glenn Transit Service","route_count":1,"route_ids":"17909","route_short_names":"Glenn","route_types":"3","route_type_names":"Bus","routes_json":"[{\"route_id\":\"17909\",\"route_short_name\":\"Glenn\",\"route_long_name\":\"Ride\",\"route_type\":\"3\",\"route_type_name\":\"Bus\",\"route_color\":\"006600\",\"route_text_color\":\"FFFFFF\"}]"},"geometry":{"type":"Point","coordinates":[-122.1923492,39.5246126]}},{"type":"Feature","properties":{"stop_id":"2662914","stop_code":"w21","stop_name":"Public Health Services (Villa Ave)","stop_desc":"","wheelchair_boarding":"0","platform_code":"","location_type":"0","parent_station":"","stop_timezone":"America/Los_Angeles","stop_url":"","tts_stop_name":"","zone_id":"In County","feed_id":"California__Glenn_Transit_Service__mdb_mdb-3094","agency_name":"Glenn Transit Service","route_count":1,"route_ids":"17909","route_short_names":"Glenn","route_types":"3","route_type_names":"Bus","routes_json":"[{\"route_id\":\"17909\",\"route_short_name\":\"Glenn\",\"route_long_name\":\"Ride\",\"route_type\":\"3\",\"route_type_name\":\"Bus\",\"route_color\":\"006600\",\"route_text_color\":\"FFFFFF\"}]"},"geometry":{"type":"Point","coordinates":[-122.2090115,39.5226942]}},{"type":"Feature","properties":{"stop_id":"2662897","stop_code":"w12","stop_name":"Willows Walmart Park & Ride","stop_desc":"","wheelchair_boarding":"0","platform_code":"","location_type":"0","parent_station":"","stop_timezone":"America/Los_Angeles","stop_url":"","tts_stop_name":"","zone_id":"In County","feed_id":"California__Glenn_Transit_Service__mdb_mdb-3094","agency_name":"Glenn Transit Service","route_count":1,"route_ids":"17909","route_short_names":"Glenn","route_types":"3","route_type_names":"Bus","routes_json":"[{\"route_id\":\"17909\",\"route_short_name\":\"Glenn\",\"route_long_name\":\"Ride\",\"route_type\":\"3\",\"route_type_name\":\"Bus\",\"route_color\":\"006600\",\"route_text_color\":\"FFFFFF\"}]"},"geometry":{"type":"Point","coordinates":[-122.2184688,39.5253935]}},{"type":"Feature","properties":{"stop_id":"2662916","stop_code":"o15","stop_name":"Yolo St / East St","stop_desc":"","wheelchair_boarding":"0","platform_code":"","location_type":"0","parent_station":"","stop_timezone":"America/Los_Angeles","stop_url":"","tts_stop_name":"","zone_id":"In County","feed_id":"California__Glenn_Transit_Service__mdb_mdb-3094","agency_name":"Glenn Transit Service","route_count":1,"route_ids":"17909","route_short_names":"Glenn","route_types":"3","route_type_names":"Bus","routes_json":"[{\"route_id\":\"17909\",\"route_short_name\":\"Glenn\",\"route_long_name\":\"Ride\",\"route_type\":\"3\",\"route_type_name\":\"Bus\",\"route_color\":\"006600\",\"route_text_color\":\"FFFFFF\"}]"},"geometry":{"type":"Point","coordinates":[-122.1869063,39.7438023]}},{"type":"Feature","properties":{"stop_id":"2662945","stop_code":"hc4","stop_name":"3rd St / Walsh Ave","stop_desc":"","wheelchair_boarding":"0","platform_code":"","location_type":"0","parent_station":"","stop_timezone":"America/Los_Angeles","stop_url":"","tts_stop_name":"","zone_id":"In County","feed_id":"California__Glenn_Transit_Service__mdb_mdb-3094","agency_name":"Glenn Transit Service","route_count":1,"route_ids":"17909","route_short_names":"Glenn","route_types":"3","route_type_names":"Bus","routes_json":"[{\"route_id\":\"17909\",\"route_short_name\":\"Glenn\",\"route_long_name\":\"Ride\",\"route_type\":\"3\",\"route_type_name\":\"Bus\",\"route_color\":\"006600\",\"route_text_color\":\"FFFFFF\"}]"},"geometry":{"type":"Point","coordinates":[-122.0112017,39.741868]}},{"type":"Feature","properties":{"stop_id":"2662928","stop_code":"w5","stop_name":"E Laurel St  / S Yolo St (Human Resource Agency)","stop_desc":"","wheelchair_boarding":"0","platform_code":"","location_type":"0","parent_station":"","stop_timezone":"America/Los_Angeles","stop_url":"","tts_stop_name":"","zone_id":"In County","feed_id":"California__Glenn_Transit_Service__mdb_mdb-3094","agency_name":"Glenn Transit Service","route_count":1,"route_ids":"17909","route_short_names":"Glenn","route_types":"3","route_type_names":"Bus","routes_json":"[{\"route_id\":\"17909\",\"route_short_name\":\"Glenn\",\"route_long_name\":\"Ride\",\"route_type\":\"3\",\"route_type_name\":\"Bus\",\"route_color\":\"006600\",\"route_text_color\":\"FFFFFF\"}]"},"geometry":{"type":"Point","coordinates":[-122.1910122,39.5179755]}},{"type":"Feature","properties":{"stop_id":"2662954","stop_code":"hc","stop_name":"3rd St / Los Robles Ave (Hamilton City Park)","stop_desc":"","wheelchair_boarding":"0","platform_code":"","location_type":"0","parent_station":"","stop_timezone":"America/Los_Angeles","stop_url":"","tts_stop_name":"","zone_id":"In County","feed_id":"California__Glenn_Transit_Service__mdb_mdb-3094","agency_name":"Glenn Transit Service","route_count":1,"route_ids":"17909","route_short_names":"Glenn","route_types":"3","route_type_names":"Bus","routes_json":"[{\"route_id\":\"17909\",\"route_short_name\":\"Glenn\",\"route_long_name\":\"Ride\",\"route_type\":\"3\",\"route_type_name\":\"Bus\",\"route_color\":\"006600\",\"route_text_color\":\"FFFFFF\"}]"},"geometry":{"type":"Point","coordinates":[-122.0132944,39.7410557]}},{"type":"Feature","properties":{"stop_id":"2662925","stop_code":"o1","stop_name":"Stony Creek Mall (East Building)","stop_desc":"","wheelchair_boarding":"0","platform_code":"","location_type":"0","parent_station":"","stop_timezone":"America/Los_Angeles","stop_url":"","tts_stop_name":"","zone_id":"In County","feed_id":"California__Glenn_Transit_Service__mdb_mdb-3094","agency_name":"Glenn Transit Service","route_count":1,"route_ids":"17909","route_short_names":"Glenn","route_types":"3","route_type_names":"Bus","routes_json":"[{\"route_id\":\"17909\",\"route_short_name\":\"Glenn\",\"route_long_name\":\"Ride\",\"route_type\":\"3\",\"route_type_name\":\"Bus\",\"route_color\":\"006600\",\"route_text_color\":\"FFFFFF\"}]"},"geometry":{"type":"Point","coordinates":[-122.202766,39.7413979]}},{"type":"Feature","properties":{"stop_id":"2662948","stop_code":"c7","stop_name":"Cohasset Rd / Paramac Rd (Veterans Medical)","stop_desc":"","wheelchair_boarding":"0","platform_code":"","location_type":"0","parent_station":"","stop_timezone":"America/Los_Angeles","stop_url":"","tts_stop_name":"","zone_id":"Out of County","feed_id":"California__Glenn_Transit_Service__mdb_mdb-3094","agency_name":"Glenn Transit Service","route_count":1,"route_ids":"17909","route_short_names":"Glenn","route_types":"3","route_type_names":"Bus","routes_json":"[{\"route_id\":\"17909\",\"route_short_name\":\"Glenn\",\"route_long_name\":\"Ride\",\"route_type\":\"3\",\"route_type_name\":\"Bus\",\"route_color\":\"006600\",\"route_text_color\":\"FFFFFF\"}]"},"geometry":{"type":"Point","coordinates":[-121.8514675,39.7517545]}},{"type":"Feature","properties":{"stop_id":"2662960","stop_code":"w11","stop_name":"Green St / Humboldt Ave (Eskaton Manor)","stop_desc":"","wheelchair_boarding":"0","platform_code":"","location_type":"0","parent_station":"","stop_timezone":"America/Los_Angeles","stop_url":"","tts_stop_name":"","zone_id":"In County","feed_id":"California__Glenn_Transit_Service__mdb_mdb-3094","agency_name":"Glenn Transit Service","route_count":1,"route_ids":"17909","route_short_names":"Glenn","route_types":"3","route_type_names":"Bus","routes_json":"[{\"route_id\":\"17909\",\"route_short_name\":\"Glenn\",\"route_long_name\":\"Ride\",\"route_type\":\"3\",\"route_type_name\":\"Bus\",\"route_color\":\"006600\",\"route_text_color\":\"FFFFFF\"}]"},"geometry":{"type":"Point","coordinates":[-122.2112068,39.5287709]}},{"type":"Feature","properties":{"stop_id":"2662901","stop_code":"o14","stop_name":"Fairgrounds (E Yolo St)","stop_desc":"","wheelchair_boarding":"0","platform_code":"","location_type":"0","parent_station":"","stop_timezone":"America/Los_Angeles","stop_url":"","tts_stop_name":"","zone_id":"In County","feed_id":"California__Glenn_Transit_Service__mdb_mdb-3094","agency_name":"Glenn Transit Service","route_count":1,"route_ids":"17909","route_short_names":"Glenn","route_types":"3","route_type_names":"Bus","routes_json":"[{\"route_id\":\"17909\",\"route_short_name\":\"Glenn\",\"route_long_name\":\"Ride\",\"route_type\":\"3\",\"route_type_name\":\"Bus\",\"route_color\":\"006600\",\"route_text_color\":\"FFFFFF\"}]"},"geometry":{"type":"Point","coordinates":[-122.1811457,39.7437359]}},{"type":"Feature","properties":{"stop_id":"2662922","stop_code":"c1","stop_name":"East Ave / Hwy 32 (Power Mart)","stop_desc":"","wheelchair_boarding":"0","platform_code":"","location_type":"0","parent_station":"","stop_timezone":"America/Los_Angeles","stop_url":"","tts_stop_name":"","zone_id":"Out of County","feed_id":"California__Glenn_Transit_Service__mdb_mdb-3094","agency_name":"Glenn Transit Service","route_count":1,"route_ids":"17909","route_short_names":"Glenn","route_types":"3","route_type_names":"Bus","routes_json":"[{\"route_id\":\"17909\",\"route_short_name\":\"Glenn\",\"route_long_name\":\"Ride\",\"route_type\":\"3\",\"route_type_name\":\"Bus\",\"route_color\":\"006600\",\"route_text_color\":\"FFFFFF\"}]"},"geometry":{"type":"Point","coordinates":[-121.8826391,39.7423454]}},{"type":"Feature","properties":{"stop_id":"2662924","stop_code":"o2","stop_name":"Newport Ave (Orland Arbor Apartments)","stop_desc":"","wheelchair_boarding":"0","platform_code":"","location_type":"0","parent_station":"","stop_timezone":"America/Los_Angeles","stop_url":"","tts_stop_name":"","zone_id":"In County","feed_id":"California__Glenn_Transit_Service__mdb_mdb-3094","agency_name":"Glenn Transit Service","route_count":1,"route_ids":"17909","route_short_names":"Glenn","route_types":"3","route_type_names":"Bus","routes_json":"[{\"route_id\":\"17909\",\"route_short_name\":\"Glenn\",\"route_long_name\":\"Ride\",\"route_type\":\"3\",\"route_type_name\":\"Bus\",\"route_color\":\"006600\",\"route_text_color\":\"FFFFFF\"}]"},"geometry":{"type":"Point","coordinates":[-122.2012934,39.7437611]}},{"type":"Feature","properties":{"stop_id":"2662933","stop_code":"hc3","stop_name":"3rd St / Walsh Ave (Ampla)","stop_desc":"","wheelchair_boarding":"0","platform_code":"","location_type":"0","parent_station":"","stop_timezone":"America/Los_Angeles","stop_url":"","tts_stop_name":"","zone_id":"In County","feed_id":"California__Glenn_Transit_Service__mdb_mdb-3094","agency_name":"Glenn Transit Service","route_count":1,"route_ids":"17909","route_short_names":"Glenn","route_types":"3","route_type_names":"Bus","routes_json":"[{\"route_id\":\"17909\",\"route_short_name\":\"Glenn\",\"route_long_name\":\"Ride\",\"route_type\":\"3\",\"route_type_name\":\"Bus\",\"route_color\":\"006600\",\"route_text_color\":\"FFFFFF\"}]"},"geometry":{"type":"Point","coordinates":[-122.0110852,39.7419854]}},{"type":"Feature","properties":{"stop_id":"2662946","stop_code":"hc1","stop_name":"5th Ave/ Los Robles Ave","stop_desc":"","wheelchair_boarding":"0","platform_code":"","location_type":"0","parent_station":"","stop_timezone":"America/Los_Angeles","stop_url":"","tts_stop_name":"","zone_id":"In County","feed_id":"California__Glenn_Transit_Service__mdb_mdb-3094","agency_name":"Glenn Transit Service","route_count":1,"route_ids":"17909","route_short_names":"Glenn","route_types":"3","route_type_names":"Bus","routes_json":"[{\"route_id\":\"17909\",\"route_short_name\":\"Glenn\",\"route_long_name\":\"Ride\",\"route_type\":\"3\",\"route_type_name\":\"Bus\",\"route_color\":\"006600\",\"route_text_color\":\"FFFFFF\"}]"},"geometry":{"type":"Point","coordinates":[-122.0160832,39.7435874]}},{"type":"Feature","properties":{"stop_id":"2662930","stop_code":"c5","stop_name":"Pillsbury Rd / North Valley","stop_desc":"","wheelchair_boarding":"0","platform_code":"","location_type":"0","parent_station":"","stop_timezone":"America/Los_Angeles","stop_url":"","tts_stop_name":"","zone_id":"Out of County","feed_id":"California__Glenn_Transit_Service__mdb_mdb-3094","agency_name":"Glenn Transit Service","route_count":1,"route_ids":"17909","route_short_names":"Glenn","route_types":"3","route_type_names":"Bus","routes_json":"[{\"route_id\":\"17909\",\"route_short_name\":\"Glenn\",\"route_long_name\":\"Ride\",\"route_type\":\"3\",\"route_type_name\":\"Bus\",\"route_color\":\"006600\",\"route_text_color\":\"FFFFFF\"}]"},"geometry":{"type":"Point","coordinates":[-121.8464308,39.7579321]}},{"type":"Feature","properties":{"stop_id":"2752252","stop_code":"","stop_name":"Enloe Hospital (5th/Magnolia)","stop_desc":"","wheelchair_boarding":"0","platform_code":"","location_type":"0","parent_station":"","stop_timezone":"America/Los_Angeles","stop_url":"","tts_stop_name":"","zone_id":"Out of County","feed_id":"California__Glenn_Transit_Service__mdb_mdb-3094","agency_name":"Glenn Transit Service","route_count":1,"route_ids":"17909","route_short_names":"Glenn","route_types":"3","route_type_names":"Bus","routes_json":"[{\"route_id\":\"17909\",\"route_short_name\":\"Glenn\",\"route_long_name\":\"Ride\",\"route_type\":\"3\",\"route_type_name\":\"Bus\",\"route_color\":\"006600\",\"route_text_color\":\"FFFFFF\"}]"},"geometry":{"type":"Point","coordinates":[-121.8501077,39.7413654]}},{"type":"Feature","properties":{"stop_id":"2662932","stop_code":"c13","stop_name":"Nord Ave / W Sacramento Ave","stop_desc":"","wheelchair_boarding":"0","platform_code":"","location_type":"0","parent_station":"","stop_timezone":"America/Los_Angeles","stop_url":"","tts_stop_name":"","zone_id":"Out of County","feed_id":"California__Glenn_Transit_Service__mdb_mdb-3094","agency_name":"Glenn Transit Service","route_count":1,"route_ids":"17909","route_short_names":"Glenn","route_types":"3","route_type_names":"Bus","routes_json":"[{\"route_id\":\"17909\",\"route_short_name\":\"Glenn\",\"route_long_name\":\"Ride\",\"route_type\":\"3\",\"route_type_name\":\"Bus\",\"route_color\":\"006600\",\"route_text_color\":\"FFFFFF\"}]"},"geometry":{"type":"Point","coordinates":[-121.860675,39.7319053]}},{"type":"Feature","properties":{"stop_id":"2662957","stop_code":"hc8","stop_name":"Sacramento Ave / Highway 32","stop_desc":"","wheelchair_boarding":"0","platform_code":"","location_type":"0","parent_station":"","stop_timezone":"America/Los_Angeles","stop_url":"","tts_stop_name":"","zone_id":"In County","feed_id":"California__Glenn_Transit_Service__mdb_mdb-3094","agency_name":"Glenn Transit Service","route_count":1,"route_ids":"17909","route_short_names":"Glenn","route_types":"3","route_type_names":"Bus","routes_json":"[{\"route_id\":\"17909\",\"route_short_name\":\"Glenn\",\"route_long_name\":\"Ride\",\"route_type\":\"3\",\"route_type_name\":\"Bus\",\"route_color\":\"006600\",\"route_text_color\":\"FFFFFF\"}]"},"geometry":{"type":"Point","coordinates":[-122.0088782,39.7463272]}},{"type":"Feature","properties":{"stop_id":"2662917","stop_code":"c3","stop_name":"East Ave / Esplanade St","stop_desc":"","wheelchair_boarding":"0","platform_code":"","location_type":"0","parent_station":"","stop_timezone":"America/Los_Angeles","stop_url":"","tts_stop_name":"","zone_id":"Out of County","feed_id":"California__Glenn_Transit_Service__mdb_mdb-3094","agency_name":"Glenn Transit Service","route_count":1,"route_ids":"17909","route_short_names":"Glenn","route_types":"3","route_type_names":"Bus","routes_json":"[{\"route_id\":\"17909\",\"route_short_name\":\"Glenn\",\"route_long_name\":\"Ride\",\"route_type\":\"3\",\"route_type_name\":\"Bus\",\"route_color\":\"006600\",\"route_text_color\":\"FFFFFF\"}]"},"geometry":{"type":"Point","coordinates":[-121.8630002,39.7556207]}},{"type":"Feature","properties":{"stop_id":"2662935","stop_code":"c6","stop_name":"Cohasset Rd / Rio Lindo Ave (Enloe Medical)","stop_desc":"","wheelchair_boarding":"0","platform_code":"","location_type":"0","parent_station":"","stop_timezone":"America/Los_Angeles","stop_url":"","tts_stop_name":"","zone_id":"Out of County","feed_id":"California__Glenn_Transit_Service__mdb_mdb-3094","agency_name":"Glenn Transit Service","route_count":1,"route_ids":"17909","route_short_names":"Glenn","route_types":"3","route_type_names":"Bus","routes_json":"[{\"route_id\":\"17909\",\"route_short_name\":\"Glenn\",\"route_long_name\":\"Ride\",\"route_type\":\"3\",\"route_type_name\":\"Bus\",\"route_color\":\"006600\",\"route_text_color\":\"FFFFFF\"}]"},"geometry":{"type":"Point","coordinates":[-121.8474624,39.7521648]}},{"type":"Feature","properties":{"stop_id":"2662895","stop_code":"o5","stop_name":"Walker St / 4th St","stop_desc":"","wheelchair_boarding":"0","platform_code":"","location_type":"0","parent_station":"","stop_timezone":"America/Los_Angeles","stop_url":"","tts_stop_name":"","zone_id":"In County","feed_id":"California__Glenn_Transit_Service__mdb_mdb-3094","agency_name":"Glenn Transit Service","route_count":1,"route_ids":"17909","route_short_names":"Glenn","route_types":"3","route_type_names":"Bus","routes_json":"[{\"route_id\":\"17909\",\"route_short_name\":\"Glenn\",\"route_long_name\":\"Ride\",\"route_type\":\"3\",\"route_type_name\":\"Bus\",\"route_color\":\"006600\",\"route_text_color\":\"FFFFFF\"}]"},"geometry":{"type":"Point","coordinates":[-122.1935724,39.747291]}},{"type":"Feature","properties":{"stop_id":"2662893","stop_code":"c2","stop_name":"East Ave / Cussick Ave","stop_desc":"","wheelchair_boarding":"0","platform_code":"","location_type":"0","parent_station":"","stop_timezone":"America/Los_Angeles","stop_url":"","tts_stop_name":"","zone_id":"Out of County","feed_id":"California__Glenn_Transit_Service__mdb_mdb-3094","agency_name":"Glenn Transit Service","route_count":1,"route_ids":"17909","route_short_names":"Glenn","route_types":"3","route_type_names":"Bus","routes_json":"[{\"route_id\":\"17909\",\"route_short_name\":\"Glenn\",\"route_long_name\":\"Ride\",\"route_type\":\"3\",\"route_type_name\":\"Bus\",\"route_color\":\"006600\",\"route_text_color\":\"FFFFFF\"}]"},"geometry":{"type":"Point","coordinates":[-121.8705619,39.7511509]}},{"type":"Feature","properties":{"stop_id":"2662894","stop_code":"c14","stop_name":"Nord Ave / 8th Ave","stop_desc":"","wheelchair_boarding":"0","platform_code":"","location_type":"0","parent_station":"","stop_timezone":"America/Los_Angeles","stop_url":"","tts_stop_name":"","zone_id":"Out of County","feed_id":"California__Glenn_Transit_Service__mdb_mdb-3094","agency_name":"Glenn Transit Service","route_count":1,"route_ids":"17909","route_short_names":"Glenn","route_types":"3","route_type_names":"Bus","routes_json":"[{\"route_id\":\"17909\",\"route_short_name\":\"Glenn\",\"route_long_name\":\"Ride\",\"route_type\":\"3\",\"route_type_name\":\"Bus\",\"route_color\":\"006600\",\"route_text_color\":\"FFFFFF\"}]"},"geometry":{"type":"Point","coordinates":[-121.8699956,39.7364633]}},{"type":"Feature","properties":{"stop_id":"2662896","stop_code":"hc7","stop_name":"Sacramento Ave / 5th St","stop_desc":"","wheelchair_boarding":"0","platform_code":"","location_type":"0","parent_station":"","stop_timezone":"America/Los_Angeles","stop_url":"","tts_stop_name":"","zone_id":"In County","feed_id":"California__Glenn_Transit_Service__mdb_mdb-3094","agency_name":"Glenn Transit Service","route_count":1,"route_ids":"17909","route_short_names":"Glenn","route_types":"3","route_type_names":"Bus","routes_json":"[{\"route_id\":\"17909\",\"route_short_name\":\"Glenn\",\"route_long_name\":\"Ride\",\"route_type\":\"3\",\"route_type_name\":\"Bus\",\"route_color\":\"006600\",\"route_text_color\":\"FFFFFF\"}]"},"geometry":{"type":"Point","coordinates":[-122.0086742,39.7462823]}},{"type":"Feature","properties":{"stop_id":"2662907","stop_code":"o4","stop_name":"9th St / Walker (CVS)","stop_desc":"","wheelchair_boarding":"0","platform_code":"","location_type":"0","parent_station":"","stop_timezone":"America/Los_Angeles","stop_url":"","tts_stop_name":"","zone_id":"In County","feed_id":"California__Glenn_Transit_Service__mdb_mdb-3094","agency_name":"Glenn Transit Service","route_count":1,"route_ids":"17909","route_short_names":"Glenn","route_types":"3","route_type_names":"Bus","routes_json":"[{\"route_id\":\"17909\",\"route_short_name\":\"Glenn\",\"route_long_name\":\"Ride\",\"route_type\":\"3\",\"route_type_name\":\"Bus\",\"route_color\":\"006600\",\"route_text_color\":\"FFFFFF\"}]"},"geometry":{"type":"Point","coordinates":[-122.2023888,39.7487636]}},{"type":"Feature","properties":{"stop_id":"2662951","stop_code":"w7","stop_name":"Memorial Park (W Sycamore St / Murdock  Ave)","stop_desc":"","wheelchair_boarding":"0","platform_code":"","location_type":"0","parent_station":"","stop_timezone":"America/Los_Angeles","stop_url":"","tts_stop_name":"","zone_id":"In County","feed_id":"California__Glenn_Transit_Service__mdb_mdb-3094","agency_name":"Glenn Transit Service","route_count":1,"route_ids":"17909","route_short_names":"Glenn","route_types":"3","route_type_names":"Bus","routes_json":"[{\"route_id\":\"17909\",\"route_short_name\":\"Glenn\",\"route_long_name\":\"Ride\",\"route_type\":\"3\",\"route_type_name\":\"Bus\",\"route_color\":\"006600\",\"route_text_color\":\"FFFFFF\"}]"},"geometry":{"type":"Point","coordinates":[-122.2012858,39.5205819]}},{"type":"Feature","properties":{"stop_id":"2662904","stop_code":"w4","stop_name":"S Sacramento St / E Sycamore St","stop_desc":"","wheelchair_boarding":"0","platform_code":"","location_type":"0","parent_station":"","stop_timezone":"America/Los_Angeles","stop_url":"","tts_stop_name":"","zone_id":"In County","feed_id":"California__Glenn_Transit_Service__mdb_mdb-3094","agency_name":"Glenn Transit Service","route_count":1,"route_ids":"17909","route_short_names":"Glenn","route_types":"3","route_type_names":"Bus","routes_json":"[{\"route_id\":\"17909\",\"route_short_name\":\"Glenn\",\"route_long_name\":\"Ride\",\"route_type\":\"3\",\"route_type_name\":\"Bus\",\"route_color\":\"006600\",\"route_text_color\":\"FFFFFF\"}]"},"geometry":{"type":"Point","coordinates":[-122.1894615,39.52057]}},{"type":"Feature","properties":{"stop_id":"2662938","stop_code":"o11","stop_name":"Hwy 32 / Co Rd M 1/2 (Butte College)","stop_desc":"","wheelchair_boarding":"0","platform_code":"","location_type":"0","parent_station":"","stop_timezone":"America/Los_Angeles","stop_url":"","tts_stop_name":"","zone_id":"In County","feed_id":"California__Glenn_Transit_Service__mdb_mdb-3094","agency_name":"Glenn Transit Service","route_count":1,"route_ids":"17909","route_short_names":"Glenn","route_types":"3","route_type_names":"Bus","routes_json":"[{\"route_id\":\"17909\",\"route_short_name\":\"Glenn\",\"route_long_name\":\"Ride\",\"route_type\":\"3\",\"route_type_name\":\"Bus\",\"route_color\":\"006600\",\"route_text_color\":\"FFFFFF\"}]"},"geometry":{"type":"Point","coordinates":[-122.175158,39.7473168]}},{"type":"Feature","properties":{"stop_id":"2662921","stop_code":"w14","stop_name":"N Colusa St / E Wood St","stop_desc":"","wheelchair_boarding":"0","platform_code":"","location_type":"0","parent_station":"","stop_timezone":"America/Los_Angeles","stop_url":"","tts_stop_name":"","zone_id":"In County","feed_id":"California__Glenn_Transit_Service__mdb_mdb-3094","agency_name":"Glenn Transit Service","route_count":1,"route_ids":"17909","route_short_names":"Glenn","route_types":"3","route_type_names":"Bus","routes_json":"[{\"route_id\":\"17909\",\"route_short_name\":\"Glenn\",\"route_long_name\":\"Ride\",\"route_type\":\"3\",\"route_type_name\":\"Bus\",\"route_color\":\"006600\",\"route_text_color\":\"FFFFFF\"}]"},"geometry":{"type":"Point","coordinates":[-122.1921975,39.5245994]}},{"type":"Feature","properties":{"stop_id":"2662902","stop_code":"w15","stop_name":"E Wood St / Sacramento St","stop_desc":"","wheelchair_boarding":"0","platform_code":"","location_type":"0","parent_station":"","stop_timezone":"America/Los_Angeles","stop_url":"","tts_stop_name":"","zone_id":"In County","feed_id":"California__Glenn_Transit_Service__mdb_mdb-3094","agency_name":"Glenn Transit Service","route_count":1,"route_ids":"17909","route_short_names":"Glenn","route_types":"3","route_type_names":"Bus","routes_json":"[{\"route_id\":\"17909\",\"route_short_name\":\"Glenn\",\"route_long_name\":\"Ride\",\"route_type\":\"3\",\"route_type_name\":\"Bus\",\"route_color\":\"006600\",\"route_text_color\":\"FFFFFF\"}]"},"geometry":{"type":"Point","coordinates":[-122.189377,39.5238983]}},{"type":"Feature","properties":{"stop_id":"2662955","stop_code":"a2","stop_name":"Co Rd 99 W (Artois Market)","stop_desc":"","wheelchair_boarding":"0","platform_code":"","location_type":"0","parent_station":"","stop_timezone":"America/Los_Angeles","stop_url":"","tts_stop_name":"","zone_id":"In County","feed_id":"California__Glenn_Transit_Service__mdb_mdb-3094","agency_name":"Glenn Transit Service","route_count":1,"route_ids":"17909","route_short_names":"Glenn","route_types":"3","route_type_names":"Bus","routes_json":"[{\"route_id\":\"17909\",\"route_short_name\":\"Glenn\",\"route_long_name\":\"Ride\",\"route_type\":\"3\",\"route_type_name\":\"Bus\",\"route_color\":\"006600\",\"route_text_color\":\"FFFFFF\"}]"},"geometry":{"type":"Point","coordinates":[-122.1943516,39.6207224]}},{"type":"Feature","properties":{"stop_id":"2662956","stop_code":"w18","stop_name":"W. Sycamore St / N. Tehama St","stop_desc":"","wheelchair_boarding":"0","platform_code":"","location_type":"0","parent_station":"","stop_timezone":"America/Los_Angeles","stop_url":"","tts_stop_name":"","zone_id":"In County","feed_id":"California__Glenn_Transit_Service__mdb_mdb-3094","agency_name":"Glenn Transit Service","route_count":1,"route_ids":"17909","route_short_names":"Glenn","route_types":"3","route_type_names":"Bus","routes_json":"[{\"route_id\":\"17909\",\"route_short_name\":\"Glenn\",\"route_long_name\":\"Ride\",\"route_type\":\"3\",\"route_type_name\":\"Bus\",\"route_color\":\"006600\",\"route_text_color\":\"FFFFFF\"}]"},"geometry":{"type":"Point","coordinates":[-122.1952044,39.5205903]}},{"type":"Feature","properties":{"stop_id":"2662936","stop_code":"w23","stop_name":"Green St / Humboldt Ave","stop_desc":"","wheelchair_boarding":"0","platform_code":"","location_type":"0","parent_station":"","stop_timezone":"America/Los_Angeles","stop_url":"","tts_stop_name":"","zone_id":"In County","feed_id":"California__Glenn_Transit_Service__mdb_mdb-3094","agency_name":"Glenn Transit Service","route_count":1,"route_ids":"17909","route_short_names":"Glenn","route_types":"3","route_type_names":"Bus","routes_json":"[{\"route_id\":\"17909\",\"route_short_name\":\"Glenn\",\"route_long_name\":\"Ride\",\"route_type\":\"3\",\"route_type_name\":\"Bus\",\"route_color\":\"006600\",\"route_text_color\":\"FFFFFF\"}]"},"geometry":{"type":"Point","coordinates":[-122.2112811,39.5286388]}},{"type":"Feature","properties":{"stop_id":"2662931","stop_code":"o6","stop_name":"Walker St / A St (Senior Center)","stop_desc":"","wheelchair_boarding":"0","platform_code":"","location_type":"0","parent_station":"","stop_timezone":"America/Los_Angeles","stop_url":"","tts_stop_name":"","zone_id":"In County","feed_id":"California__Glenn_Transit_Service__mdb_mdb-3094","agency_name":"Glenn Transit Service","route_count":1,"route_ids":"17909","route_short_names":"Glenn","route_types":"3","route_type_names":"Bus","routes_json":"[{\"route_id\":\"17909\",\"route_short_name\":\"Glenn\",\"route_long_name\":\"Ride\",\"route_type\":\"3\",\"route_type_name\":\"Bus\",\"route_color\":\"006600\",\"route_text_color\":\"FFFFFF\"}]"},"geometry":{"type":"Point","coordinates":[-122.1886306,39.7472444]}},{"type":"Feature","properties":{"stop_id":"2662919","stop_code":"w8","stop_name":"Glenn Medical Center (W Sycamore St)","stop_desc":"","wheelchair_boarding":"0","platform_code":"","location_type":"0","parent_station":"","stop_timezone":"America/Los_Angeles","stop_url":"","tts_stop_name":"","zone_id":"In County","feed_id":"California__Glenn_Transit_Service__mdb_mdb-3094","agency_name":"Glenn Transit Service","route_count":1,"route_ids":"17909","route_short_names":"Glenn","route_types":"3","route_type_names":"Bus","routes_json":"[{\"route_id\":\"17909\",\"route_short_name\":\"Glenn\",\"route_long_name\":\"Ride\",\"route_type\":\"3\",\"route_type_name\":\"Bus\",\"route_color\":\"006600\",\"route_text_color\":\"FFFFFF\"}]"},"geometry":{"type":"Point","coordinates":[-122.2081881,39.520664]}},{"type":"Feature","properties":{"stop_id":"2662908","stop_code":"o17","stop_name":"Walker St / A St","stop_desc":"","wheelchair_boarding":"0","platform_code":"","location_type":"0","parent_station":"","stop_timezone":"America/Los_Angeles","stop_url":"","tts_stop_name":"","zone_id":"In County","feed_id":"California__Glenn_Transit_Service__mdb_mdb-3094","agency_name":"Glenn Transit Service","route_count":1,"route_ids":"17909","route_short_names":"Glenn","route_types":"3","route_type_names":"Bus","routes_json":"[{\"route_id\":\"17909\",\"route_short_name\":\"Glenn\",\"route_long_name\":\"Ride\",\"route_type\":\"3\",\"route_type_name\":\"Bus\",\"route_color\":\"006600\",\"route_text_color\":\"FFFFFF\"}]"},"geometry":{"type":"Point","coordinates":[-122.188691,39.7474576]}},{"type":"Feature","properties":{"stop_id":"2662903","stop_code":"w2","stop_name":"E Wood St / N Sacramento St","stop_desc":"","wheelchair_boarding":"0","platform_code":"","location_type":"0","parent_station":"","stop_timezone":"America/Los_Angeles","stop_url":"","tts_stop_name":"","zone_id":"In County","feed_id":"California__Glenn_Transit_Service__mdb_mdb-3094","agency_name":"Glenn Transit Service","route_count":1,"route_ids":"17909","route_short_names":"Glenn","route_types":"3","route_type_names":"Bus","routes_json":"[{\"route_id\":\"17909\",\"route_short_name\":\"Glenn\",\"route_long_name\":\"Ride\",\"route_type\":\"3\",\"route_type_name\":\"Bus\",\"route_color\":\"006600\",\"route_text_color\":\"FFFFFF\"}]"},"geometry":{"type":"Point","coordinates":[-122.1895743,39.523992]}},{"type":"Feature","properties":{"stop_id":"2662952","stop_code":"o10","stop_name":"Papst Ave / Colusa St","stop_desc":"","wheelchair_boarding":"0","platform_code":"","location_type":"0","parent_station":"","stop_timezone":"America/Los_Angeles","stop_url":"","tts_stop_name":"","zone_id":"In County","feed_id":"California__Glenn_Transit_Service__mdb_mdb-3094","agency_name":"Glenn Transit Service","route_count":1,"route_ids":"17909","route_short_names":"Glenn","route_types":"3","route_type_names":"Bus","routes_json":"[{\"route_id\":\"17909\",\"route_short_name\":\"Glenn\",\"route_long_name\":\"Ride\",\"route_type\":\"3\",\"route_type_name\":\"Bus\",\"route_color\":\"006600\",\"route_text_color\":\"FFFFFF\"}]"},"geometry":{"type":"Point","coordinates":[-122.1780777,39.7461882]}},{"type":"Feature","properties":{"stop_id":"2662940","stop_code":"o13","stop_name":"Papst Ave / Colusa St","stop_desc":"","wheelchair_boarding":"0","platform_code":"","location_type":"0","parent_station":"","stop_timezone":"America/Los_Angeles","stop_url":"","tts_stop_name":"","zone_id":"In County","feed_id":"California__Glenn_Transit_Service__mdb_mdb-3094","agency_name":"Glenn Transit Service","route_count":1,"route_ids":"17909","route_short_names":"Glenn","route_types":"3","route_type_names":"Bus","routes_json":"[{\"route_id\":\"17909\",\"route_short_name\":\"Glenn\",\"route_long_name\":\"Ride\",\"route_type\":\"3\",\"route_type_name\":\"Bus\",\"route_color\":\"006600\",\"route_text_color\":\"FFFFFF\"}]"},"geometry":{"type":"Point","coordinates":[-122.1782023,39.7470005]}},{"type":"Feature","properties":{"stop_id":"2662912","stop_code":"a1","stop_name":"Co Rd 99 W (Grove Motel)","stop_desc":"","wheelchair_boarding":"0","platform_code":"","location_type":"0","parent_station":"","stop_timezone":"America/Los_Angeles","stop_url":"","tts_stop_name":"","zone_id":"In County","feed_id":"California__Glenn_Transit_Service__mdb_mdb-3094","agency_name":"Glenn Transit Service","route_count":1,"route_ids":"17909","route_short_names":"Glenn","route_types":"3","route_type_names":"Bus","routes_json":"[{\"route_id\":\"17909\",\"route_short_name\":\"Glenn\",\"route_long_name\":\"Ride\",\"route_type\":\"3\",\"route_type_name\":\"Bus\",\"route_color\":\"006600\",\"route_text_color\":\"FFFFFF\"}]"},"geometry":{"type":"Point","coordinates":[-122.1949788,39.590559]}},{"type":"Feature","properties":{"stop_id":"2662906","stop_code":"19","stop_name":"8th St / Mill St","stop_desc":"","wheelchair_boarding":"0","platform_code":"","location_type":"0","parent_station":"","stop_timezone":"America/Los_Angeles","stop_url":"","tts_stop_name":"","zone_id":"In County","feed_id":"California__Glenn_Transit_Service__mdb_mdb-3094","agency_name":"Glenn Transit Service","route_count":1,"route_ids":"17909","route_short_names":"Glenn","route_types":"3","route_type_names":"Bus","routes_json":"[{\"route_id\":\"17909\",\"route_short_name\":\"Glenn\",\"route_long_name\":\"Ride\",\"route_type\":\"3\",\"route_type_name\":\"Bus\",\"route_color\":\"006600\",\"route_text_color\":\"FFFFFF\"}]"},"geometry":{"type":"Point","coordinates":[-122.199552,39.7453933]}},{"type":"Feature","properties":{"stop_id":"2662944","stop_code":"w22","stop_name":"Pacific St / Green St","stop_desc":"","wheelchair_boarding":"0","platform_code":"","location_type":"0","parent_station":"","stop_timezone":"America/Los_Angeles","stop_url":"","tts_stop_name":"","zone_id":"In County","feed_id":"California__Glenn_Transit_Service__mdb_mdb-3094","agency_name":"Glenn Transit Service","route_count":1,"route_ids":"17909","route_short_names":"Glenn","route_types":"3","route_type_names":"Bus","routes_json":"[{\"route_id\":\"17909\",\"route_short_name\":\"Glenn\",\"route_long_name\":\"Ride\",\"route_type\":\"3\",\"route_type_name\":\"Bus\",\"route_color\":\"006600\",\"route_text_color\":\"FFFFFF\"}]"},"geometry":{"type":"Point","coordinates":[-122.2074535,39.528605]}},{"type":"Feature","properties":{"stop_id":"2662941","stop_code":"w10","stop_name":"Pacific Ave / Green St","stop_desc":"","wheelchair_boarding":"0","platform_code":"","location_type":"0","parent_station":"","stop_timezone":"America/Los_Angeles","stop_url":"","tts_stop_name":"","zone_id":"In County","feed_id":"California__Glenn_Transit_Service__mdb_mdb-3094","agency_name":"Glenn Transit Service","route_count":1,"route_ids":"17909","route_short_names":"Glenn","route_types":"3","route_type_names":"Bus","routes_json":"[{\"route_id\":\"17909\",\"route_short_name\":\"Glenn\",\"route_long_name\":\"Ride\",\"route_type\":\"3\",\"route_type_name\":\"Bus\",\"route_color\":\"006600\",\"route_text_color\":\"FFFFFF\"}]"},"geometry":{"type":"Point","coordinates":[-122.2072498,39.5286797]}},{"type":"Feature","properties":{"stop_id":"2662958","stop_code":"o16","stop_name":"East Street / Walker","stop_desc":"","wheelchair_boarding":"0","platform_code":"","location_type":"0","parent_station":"","stop_timezone":"America/Los_Angeles","stop_url":"","tts_stop_name":"","zone_id":"In County","feed_id":"California__Glenn_Transit_Service__mdb_mdb-3094","agency_name":"Glenn Transit Service","route_count":1,"route_ids":"17909","route_short_names":"Glenn","route_types":"3","route_type_names":"Bus","routes_json":"[{\"route_id\":\"17909\",\"route_short_name\":\"Glenn\",\"route_long_name\":\"Ride\",\"route_type\":\"3\",\"route_type_name\":\"Bus\",\"route_color\":\"006600\",\"route_text_color\":\"FFFFFF\"}]"},"geometry":{"type":"Point","coordinates":[-122.1873182,39.7466343]}},{"type":"Feature","properties":{"stop_id":"2662913","stop_code":"c12","stop_name":"5th St / Orange St (Amtrak)","stop_desc":"","wheelchair_boarding":"0","platform_code":"","location_type":"0","parent_station":"","stop_timezone":"America/Los_Angeles","stop_url":"","tts_stop_name":"","zone_id":"Out of County","feed_id":"California__Glenn_Transit_Service__mdb_mdb-3094","agency_name":"Glenn Transit Service","route_count":1,"route_ids":"17909","route_short_names":"Glenn","route_types":"3","route_type_names":"Bus","routes_json":"[{\"route_id\":\"17909\",\"route_short_name\":\"Glenn\",\"route_long_name\":\"Ride\",\"route_type\":\"3\",\"route_type_name\":\"Bus\",\"route_color\":\"006600\",\"route_text_color\":\"FFFFFF\"}]"},"geometry":{"type":"Point","coordinates":[-121.8458828,39.7234534]}},{"type":"Feature","properties":{"stop_id":"2662900","stop_code":"w17","stop_name":"Human Resource Agency (E Laurel St / Yolo St)","stop_desc":"","wheelchair_boarding":"0","platform_code":"","location_type":"0","parent_station":"","stop_timezone":"America/Los_Angeles","stop_url":"","tts_stop_name":"","zone_id":"In County","feed_id":"California__Glenn_Transit_Service__mdb_mdb-3094","agency_name":"Glenn Transit Service","route_count":1,"route_ids":"17909","route_short_names":"Glenn","route_types":"3","route_type_names":"Bus","routes_json":"[{\"route_id\":\"17909\",\"route_short_name\":\"Glenn\",\"route_long_name\":\"Ride\",\"route_type\":\"3\",\"route_type_name\":\"Bus\",\"route_color\":\"006600\",\"route_text_color\":\"FFFFFF\"}]"},"geometry":{"type":"Point","coordinates":[-122.1909211,39.5178278]}},{"type":"Feature","properties":{"stop_id":"2662918","stop_code":"o20","stop_name":"Newport Ave","stop_desc":"","wheelchair_boarding":"0","platform_code":"","location_type":"0","parent_station":"","stop_timezone":"America/Los_Angeles","stop_url":"","tts_stop_name":"","zone_id":"In County","feed_id":"California__Glenn_Transit_Service__mdb_mdb-3094","agency_name":"Glenn Transit Service","route_count":1,"route_ids":"17909","route_short_names":"Glenn","route_types":"3","route_type_names":"Bus","routes_json":"[{\"route_id\":\"17909\",\"route_short_name\":\"Glenn\",\"route_long_name\":\"Ride\",\"route_type\":\"3\",\"route_type_name\":\"Bus\",\"route_color\":\"006600\",\"route_text_color\":\"FFFFFF\"}]"},"geometry":{"type":"Point","coordinates":[-122.2007579,39.7439017]}},{"type":"Feature","properties":{"stop_id":"2662923","stop_code":"o8","stop_name":"Yolo St / East St","stop_desc":"","wheelchair_boarding":"0","platform_code":"","location_type":"0","parent_station":"","stop_timezone":"America/Los_Angeles","stop_url":"","tts_stop_name":"","zone_id":"In County","feed_id":"California__Glenn_Transit_Service__mdb_mdb-3094","agency_name":"Glenn Transit Service","route_count":1,"route_ids":"17909","route_short_names":"Glenn","route_types":"3","route_type_names":"Bus","routes_json":"[{\"route_id\":\"17909\",\"route_short_name\":\"Glenn\",\"route_long_name\":\"Ride\",\"route_type\":\"3\",\"route_type_name\":\"Bus\",\"route_color\":\"006600\",\"route_text_color\":\"FFFFFF\"}]"},"geometry":{"type":"Point","coordinates":[-122.1867574,39.7436492]}},{"type":"Feature","properties":{"stop_id":"2662899","stop_code":"o9","stop_name":"E Yolo St (Fairgrounds)","stop_desc":"","wheelchair_boarding":"0","platform_code":"","location_type":"0","parent_station":"","stop_timezone":"America/Los_Angeles","stop_url":"","tts_stop_name":"","zone_id":"In County","feed_id":"California__Glenn_Transit_Service__mdb_mdb-3094","agency_name":"Glenn Transit Service","route_count":1,"route_ids":"17909","route_short_names":"Glenn","route_types":"3","route_type_names":"Bus","routes_json":"[{\"route_id\":\"17909\",\"route_short_name\":\"Glenn\",\"route_long_name\":\"Ride\",\"route_type\":\"3\",\"route_type_name\":\"Bus\",\"route_color\":\"006600\",\"route_text_color\":\"FFFFFF\"}]"},"geometry":{"type":"Point","coordinates":[-122.1815741,39.7435848]}},{"type":"Feature","properties":{"stop_id":"2662943","stop_code":"c15","stop_name":"Hwy 32 / East Ave","stop_desc":"","wheelchair_boarding":"0","platform_code":"","location_type":"0","parent_station":"","stop_timezone":"America/Los_Angeles","stop_url":"","tts_stop_name":"","zone_id":"Out of County","feed_id":"California__Glenn_Transit_Service__mdb_mdb-3094","agency_name":"Glenn Transit Service","route_count":1,"route_ids":"17909","route_short_names":"Glenn","route_types":"3","route_type_names":"Bus","routes_json":"[{\"route_id\":\"17909\",\"route_short_name\":\"Glenn\",\"route_long_name\":\"Ride\",\"route_type\":\"3\",\"route_type_name\":\"Bus\",\"route_color\":\"006600\",\"route_text_color\":\"FFFFFF\"}]"},"geometry":{"type":"Point","coordinates":[-121.883602,39.7423288]}},{"type":"Feature","properties":{"stop_id":"2662929","stop_code":"o12","stop_name":"HWY 32 (Across from M 1/2 & Butte College)","stop_desc":"","wheelchair_boarding":"0","platform_code":"","location_type":"0","parent_station":"","stop_timezone":"America/Los_Angeles","stop_url":"","tts_stop_name":"","zone_id":"In County","feed_id":"California__Glenn_Transit_Service__mdb_mdb-3094","agency_name":"Glenn Transit Service","route_count":1,"route_ids":"17909","route_short_names":"Glenn","route_types":"3","route_type_names":"Bus","routes_json":"[{\"route_id\":\"17909\",\"route_short_name\":\"Glenn\",\"route_long_name\":\"Ride\",\"route_type\":\"3\",\"route_type_name\":\"Bus\",\"route_color\":\"006600\",\"route_text_color\":\"FFFFFF\"}]"},"geometry":{"type":"Point","coordinates":[-122.1727955,39.7470798]}},{"type":"Feature","properties":{"stop_id":"2662926","stop_code":"hc","stop_name":"3rd St / Los Robles Ave (Hamilton City Park)","stop_desc":"","wheelchair_boarding":"0","platform_code":"","location_type":"0","parent_station":"","stop_timezone":"America/Los_Angeles","stop_url":"","tts_stop_name":"","zone_id":"In County","feed_id":"California__Glenn_Transit_Service__mdb_mdb-3094","agency_name":"Glenn Transit Service","route_count":1,"route_ids":"17909","route_short_names":"Glenn","route_types":"3","route_type_names":"Bus","routes_json":"[{\"route_id\":\"17909\",\"route_short_name\":\"Glenn\",\"route_long_name\":\"Ride\",\"route_type\":\"3\",\"route_type_name\":\"Bus\",\"route_color\":\"006600\",\"route_text_color\":\"FFFFFF\"}]"},"geometry":{"type":"Point","coordinates":[-122.013711,39.7412041]}},{"type":"Feature","properties":{"stop_id":"2662939","stop_code":"w16","stop_name":"S Sacramento St / E Sycamore St","stop_desc":"","wheelchair_boarding":"0","platform_code":"","location_type":"0","parent_station":"","stop_timezone":"America/Los_Angeles","stop_url":"","tts_stop_name":"","zone_id":"In County","feed_id":"California__Glenn_Transit_Service__mdb_mdb-3094","agency_name":"Glenn Transit Service","route_count":1,"route_ids":"17909","route_short_names":"Glenn","route_types":"3","route_type_names":"Bus","routes_json":"[{\"route_id\":\"17909\",\"route_short_name\":\"Glenn\",\"route_long_name\":\"Ride\",\"route_type\":\"3\",\"route_type_name\":\"Bus\",\"route_color\":\"006600\",\"route_text_color\":\"FFFFFF\"}]"},"geometry":{"type":"Point","coordinates":[-122.1893321,39.5205511]}},{"type":"Feature","properties":{"stop_id":"2662910","stop_code":"o18","stop_name":"Hwy 32 / 9th St (Burger King)","stop_desc":"","wheelchair_boarding":"0","platform_code":"","location_type":"0","parent_station":"","stop_timezone":"America/Los_Angeles","stop_url":"","tts_stop_name":"","zone_id":"In County","feed_id":"California__Glenn_Transit_Service__mdb_mdb-3094","agency_name":"Glenn Transit Service","route_count":1,"route_ids":"17909","route_short_names":"Glenn","route_types":"3","route_type_names":"Bus","routes_json":"[{\"route_id\":\"17909\",\"route_short_name\":\"Glenn\",\"route_long_name\":\"Ride\",\"route_type\":\"3\",\"route_type_name\":\"Bus\",\"route_color\":\"006600\",\"route_text_color\":\"FFFFFF\"}]"},"geometry":{"type":"Point","coordinates":[-122.2026488,39.7487789]}},{"type":"Feature","properties":{"stop_id":"2662942","stop_code":"w9","stop_name":"Villa Ave (Public Health Services)","stop_desc":"","wheelchair_boarding":"0","platform_code":"","location_type":"0","parent_station":"","stop_timezone":"America/Los_Angeles","stop_url":"","tts_stop_name":"","zone_id":"In County","feed_id":"California__Glenn_Transit_Service__mdb_mdb-3094","agency_name":"Glenn Transit Service","route_count":1,"route_ids":"17909","route_short_names":"Glenn","route_types":"3","route_type_names":"Bus","routes_json":"[{\"route_id\":\"17909\",\"route_short_name\":\"Glenn\",\"route_long_name\":\"Ride\",\"route_type\":\"3\",\"route_type_name\":\"Bus\",\"route_color\":\"006600\",\"route_text_color\":\"FFFFFF\"}]"},"geometry":{"type":"Point","coordinates":[-122.2087551,39.5225532]}},{"type":"Feature","properties":{"stop_id":"2662905","stop_code":"c11","stop_name":"Salem St / W 2nd St (Transit)","stop_desc":"","wheelchair_boarding":"0","platform_code":"","location_type":"0","parent_station":"","stop_timezone":"America/Los_Angeles","stop_url":"","tts_stop_name":"","zone_id":"Out of County","feed_id":"California__Glenn_Transit_Service__mdb_mdb-3094","agency_name":"Glenn Transit Service","route_count":1,"route_ids":"17909","route_short_names":"Glenn","route_types":"3","route_type_names":"Bus","routes_json":"[{\"route_id\":\"17909\",\"route_short_name\":\"Glenn\",\"route_long_name\":\"Ride\",\"route_type\":\"3\",\"route_type_name\":\"Bus\",\"route_color\":\"006600\",\"route_text_color\":\"FFFFFF\"}]"},"geometry":{"type":"Point","coordinates":[-121.8418629,39.7286085]}},{"type":"Feature","properties":{"stop_id":"2662937","stop_code":"o3","stop_name":"8th St / Mill St","stop_desc":"","wheelchair_boarding":"0","platform_code":"","location_type":"0","parent_station":"","stop_timezone":"America/Los_Angeles","stop_url":"","tts_stop_name":"","zone_id":"In County","feed_id":"California__Glenn_Transit_Service__mdb_mdb-3094","agency_name":"Glenn Transit Service","route_count":1,"route_ids":"17909","route_short_names":"Glenn","route_types":"3","route_type_names":"Bus","routes_json":"[{\"route_id\":\"17909\",\"route_short_name\":\"Glenn\",\"route_long_name\":\"Ride\",\"route_type\":\"3\",\"route_type_name\":\"Bus\",\"route_color\":\"006600\",\"route_text_color\":\"FFFFFF\"}]"},"geometry":{"type":"Point","coordinates":[-122.1993173,39.7454263]}},{"type":"Feature","properties":{"stop_id":"2662898","stop_code":"w1","stop_name":"Glenn County Public Works","stop_desc":"","wheelchair_boarding":"0","platform_code":"","location_type":"0","parent_station":"","stop_timezone":"America/Los_Angeles","stop_url":"","tts_stop_name":"","zone_id":"In County","feed_id":"California__Glenn_Transit_Service__mdb_mdb-3094","agency_name":"Glenn Transit Service","route_count":1,"route_ids":"17909","route_short_names":"Glenn","route_types":"3","route_type_names":"Bus","routes_json":"[{\"route_id\":\"17909\",\"route_short_name\":\"Glenn\",\"route_long_name\":\"Ride\",\"route_type\":\"3\",\"route_type_name\":\"Bus\",\"route_color\":\"006600\",\"route_text_color\":\"FFFFFF\"}]"},"geometry":{"type":"Point","coordinates":[-122.1924684,39.5321803]}},{"type":"Feature","properties":{"stop_id":"2662927","stop_code":"w19","stop_name":"W Sycamore St / Murdock Ave","stop_desc":"","wheelchair_boarding":"0","platform_code":"","location_type":"0","parent_station":"","stop_timezone":"America/Los_Angeles","stop_url":"","tts_stop_name":"","zone_id":"In County","feed_id":"California__Glenn_Transit_Service__mdb_mdb-3094","agency_name":"Glenn Transit Service","route_count":1,"route_ids":"17909","route_short_names":"Glenn","route_types":"3","route_type_names":"Bus","routes_json":"[{\"route_id\":\"17909\",\"route_short_name\":\"Glenn\",\"route_long_name\":\"Ride\",\"route_type\":\"3\",\"route_type_name\":\"Bus\",\"route_color\":\"006600\",\"route_text_color\":\"FFFFFF\"}]"},"geometry":{"type":"Point","coordinates":[-122.2013425,39.5204091]}}]}