{"type":"FeatureCollection","features":[{"type":"Feature","properties":{"stop_id":"2435799","stop_code":"","stop_name":"Hyannis Transportation Center","stop_desc":"215 Iyannough Rd.","zone_id":"","stop_url":"","location_type":"0","parent_station":"","stop_timezone":"America/New_York","wheelchair_boarding":"1","platform_code":"","tts_stop_name":"","feed_id":"Massachusetts__Plymouth_&_Brockton_Street_Railway_Co__mdb_mdb-556","agency_name":"Plymouth & Brockton Street Railway Co.","route_count":1,"route_ids":"19136","route_short_names":"","route_types":"3","route_type_names":"Bus","routes_json":"[{\"route_id\":\"19136\",\"route_short_name\":\"\",\"route_long_name\":\"Hyannis - South Shore to Logan Airport\",\"route_type\":\"3\",\"route_type_name\":\"Bus\",\"route_color\":\"6EB7E5\",\"route_text_color\":\"000000\"}]"},"geometry":{"type":"Point","coordinates":[-70.279847,41.656625]}},{"type":"Feature","properties":{"stop_id":"2435798","stop_code":"","stop_name":"Park & Ride Lot, Rte 6 & 132","stop_desc":"Route 6 & Route 132","zone_id":"","stop_url":"","location_type":"0","parent_station":"","stop_timezone":"America/New_York","wheelchair_boarding":"1","platform_code":"","tts_stop_name":"","feed_id":"Massachusetts__Plymouth_&_Brockton_Street_Railway_Co__mdb_mdb-556","agency_name":"Plymouth & Brockton Street Railway Co.","route_count":1,"route_ids":"19136","route_short_names":"","route_types":"3","route_type_names":"Bus","routes_json":"[{\"route_id\":\"19136\",\"route_short_name\":\"\",\"route_long_name\":\"Hyannis - South Shore to Logan Airport\",\"route_type\":\"3\",\"route_type_name\":\"Bus\",\"route_color\":\"6EB7E5\",\"route_text_color\":\"000000\"}]"},"geometry":{"type":"Point","coordinates":[-70.338916185551,41.688258575431]}},{"type":"Feature","properties":{"stop_id":"2435797","stop_code":"","stop_name":"Park & Ride, Exit 1A/B - Jct. US 6","stop_desc":"1 Canal Rd.","zone_id":"","stop_url":"","location_type":"0","parent_station":"","stop_timezone":"America/New_York","wheelchair_boarding":"1","platform_code":"","tts_stop_name":"","feed_id":"Massachusetts__Plymouth_&_Brockton_Street_Railway_Co__mdb_mdb-556","agency_name":"Plymouth & Brockton Street Railway Co.","route_count":2,"route_ids":"19136|19595","route_short_names":"","route_types":"3","route_type_names":"Bus","routes_json":"[{\"route_id\":\"19136\",\"route_short_name\":\"\",\"route_long_name\":\"Hyannis - South Shore to Logan Airport\",\"route_type\":\"3\",\"route_type_name\":\"Bus\",\"route_color\":\"6EB7E5\",\"route_text_color\":\"000000\"},{\"route_id\":\"19595\",\"route_short_name\":\"\",\"route_long_name\":\"Woods Hole to Boston/Logan Airport\",\"route_type\":\"3\",\"route_type_name\":\"Bus\",\"route_color\":\"00BEFD\",\"route_text_color\":\"000000\"}]"},"geometry":{"type":"Point","coordinates":[-70.542476138274,41.780984203395]}},{"type":"Feature","properties":{"stop_id":"2435796","stop_code":"","stop_name":"Park & Ride Lot, Ex 13 Info. Ctr.","stop_desc":"Route 3, Exit 5","zone_id":"","stop_url":"","location_type":"0","parent_station":"","stop_timezone":"America/New_York","wheelchair_boarding":"1","platform_code":"","tts_stop_name":"","feed_id":"Massachusetts__Plymouth_&_Brockton_Street_Railway_Co__mdb_mdb-556","agency_name":"Plymouth & Brockton Street Railway Co.","route_count":1,"route_ids":"19136","route_short_names":"","route_types":"3","route_type_names":"Bus","routes_json":"[{\"route_id\":\"19136\",\"route_short_name\":\"\",\"route_long_name\":\"Hyannis - South Shore to Logan Airport\",\"route_type\":\"3\",\"route_type_name\":\"Bus\",\"route_color\":\"6EB7E5\",\"route_text_color\":\"000000\"}]"},"geometry":{"type":"Point","coordinates":[-70.66250444731,41.935927373234]}},{"type":"Feature","properties":{"stop_id":"2435795","stop_code":"","stop_name":"Park & Ride Lot, Rte 3 & 228","stop_desc":"Route 3 & Route 228","zone_id":"","stop_url":"","location_type":"0","parent_station":"","stop_timezone":"America/New_York","wheelchair_boarding":"1","platform_code":"","tts_stop_name":"","feed_id":"Massachusetts__Plymouth_&_Brockton_Street_Railway_Co__mdb_mdb-556","agency_name":"Plymouth & Brockton Street Railway Co.","route_count":1,"route_ids":"19136","route_short_names":"","route_types":"3","route_type_names":"Bus","routes_json":"[{\"route_id\":\"19136\",\"route_short_name\":\"\",\"route_long_name\":\"Hyannis - South Shore to Logan Airport\",\"route_type\":\"3\",\"route_type_name\":\"Bus\",\"route_color\":\"6EB7E5\",\"route_text_color\":\"000000\"}]"},"geometry":{"type":"Point","coordinates":[-70.895220919622,42.165826048878]}},{"type":"Feature","properties":{"stop_id":"2435792","stop_code":"","stop_name":"Logan International Airport","stop_desc":"1 Harborside Dr.","zone_id":"","stop_url":"","location_type":"0","parent_station":"","stop_timezone":"America/New_York","wheelchair_boarding":"1","platform_code":"","tts_stop_name":"","feed_id":"Massachusetts__Plymouth_&_Brockton_Street_Railway_Co__mdb_mdb-556","agency_name":"Plymouth & Brockton Street Railway Co.","route_count":2,"route_ids":"19136|19595","route_short_names":"","route_types":"3","route_type_names":"Bus","routes_json":"[{\"route_id\":\"19136\",\"route_short_name\":\"\",\"route_long_name\":\"Hyannis - South Shore to Logan Airport\",\"route_type\":\"3\",\"route_type_name\":\"Bus\",\"route_color\":\"6EB7E5\",\"route_text_color\":\"000000\"},{\"route_id\":\"19595\",\"route_short_name\":\"\",\"route_long_name\":\"Woods Hole to Boston/Logan Airport\",\"route_type\":\"3\",\"route_type_name\":\"Bus\",\"route_color\":\"00BEFD\",\"route_text_color\":\"000000\"}]"},"geometry":{"type":"Point","coordinates":[-71.018136,42.365821]}},{"type":"Feature","properties":{"stop_id":"2435794","stop_code":"","stop_name":"South Station Transp. Ctr","stop_desc":"700 Atlantic Ave.","zone_id":"","stop_url":"","location_type":"0","parent_station":"","stop_timezone":"America/New_York","wheelchair_boarding":"1","platform_code":"","tts_stop_name":"","feed_id":"Massachusetts__Plymouth_&_Brockton_Street_Railway_Co__mdb_mdb-556","agency_name":"Plymouth & Brockton Street Railway Co.","route_count":2,"route_ids":"19136|19595","route_short_names":"","route_types":"3","route_type_names":"Bus","routes_json":"[{\"route_id\":\"19136\",\"route_short_name\":\"\",\"route_long_name\":\"Hyannis - South Shore to Logan Airport\",\"route_type\":\"3\",\"route_type_name\":\"Bus\",\"route_color\":\"6EB7E5\",\"route_text_color\":\"000000\"},{\"route_id\":\"19595\",\"route_short_name\":\"\",\"route_long_name\":\"Woods Hole to Boston/Logan Airport\",\"route_type\":\"3\",\"route_type_name\":\"Bus\",\"route_color\":\"00BEFD\",\"route_text_color\":\"000000\"}]"},"geometry":{"type":"Point","coordinates":[-71.05593552506,42.349754990426]}},{"type":"Feature","properties":{"stop_id":"2752241","stop_code":"","stop_name":"Woods Hole Terminal","stop_desc":"","zone_id":"","stop_url":"","location_type":"0","parent_station":"","stop_timezone":"America/New_York","wheelchair_boarding":"0","platform_code":"","tts_stop_name":"","feed_id":"Massachusetts__Plymouth_&_Brockton_Street_Railway_Co__mdb_mdb-556","agency_name":"Plymouth & Brockton Street Railway Co.","route_count":1,"route_ids":"19595","route_short_names":"","route_types":"3","route_type_names":"Bus","routes_json":"[{\"route_id\":\"19595\",\"route_short_name\":\"\",\"route_long_name\":\"Woods Hole to Boston/Logan Airport\",\"route_type\":\"3\",\"route_type_name\":\"Bus\",\"route_color\":\"00BEFD\",\"route_text_color\":\"000000\"}]"},"geometry":{"type":"Point","coordinates":[-70.66982741095619,41.52248663397503]}},{"type":"Feature","properties":{"stop_id":"2752242","stop_code":"","stop_name":"Falmouth Station","stop_desc":"","zone_id":"","stop_url":"","location_type":"0","parent_station":"","stop_timezone":"America/New_York","wheelchair_boarding":"0","platform_code":"","tts_stop_name":"","feed_id":"Massachusetts__Plymouth_&_Brockton_Street_Railway_Co__mdb_mdb-556","agency_name":"Plymouth & Brockton Street Railway Co.","route_count":1,"route_ids":"19595","route_short_names":"","route_types":"3","route_type_names":"Bus","routes_json":"[{\"route_id\":\"19595\",\"route_short_name\":\"\",\"route_long_name\":\"Woods Hole to Boston/Logan Airport\",\"route_type\":\"3\",\"route_type_name\":\"Bus\",\"route_color\":\"00BEFD\",\"route_text_color\":\"000000\"}]"},"geometry":{"type":"Point","coordinates":[-70.62323664262244,41.55685620627487]}}]}