{"type":"FeatureCollection","features":[{"type":"Feature","properties":{"stop_id":"UM_TWP","stop_name":"Upper Merion Twp Building (Library)","location_type":"0","feed_id":"Pennsylvania__Upper_Merion_Rambler__mdb_mdb-3036","agency_name":"Greater Valley Forge TMA","route_count":2,"route_ids":"BLUE|GREEN","route_short_names":"Blue|Green","route_types":"3","route_type_names":"Bus","routes_json":"[{\"route_id\":\"BLUE\",\"route_short_name\":\"Blue\",\"route_long_name\":\"Rambler Blue\",\"route_type\":\"3\",\"route_type_name\":\"Bus\",\"route_color\":\"90A8D6\",\"route_text_color\":\"000000\"},{\"route_id\":\"GREEN\",\"route_short_name\":\"Green\",\"route_long_name\":\"Rambler Green\",\"route_type\":\"3\",\"route_type_name\":\"Bus\",\"route_color\":\"91CE4D\",\"route_text_color\":\"FFFFFF\"}]"},"geometry":{"type":"Point","coordinates":[-75.371983,40.102151]}},{"type":"Feature","properties":{"stop_id":"BROWNLIE_HEND_EB","stop_name":"Brownlie and Henderson (Eastbound)","location_type":"0","feed_id":"Pennsylvania__Upper_Merion_Rambler__mdb_mdb-3036","agency_name":"Greater Valley Forge TMA","route_count":2,"route_ids":"BLUE|GREEN","route_short_names":"Blue|Green","route_types":"3","route_type_names":"Bus","routes_json":"[{\"route_id\":\"BLUE\",\"route_short_name\":\"Blue\",\"route_long_name\":\"Rambler Blue\",\"route_type\":\"3\",\"route_type_name\":\"Bus\",\"route_color\":\"90A8D6\",\"route_text_color\":\"000000\"},{\"route_id\":\"GREEN\",\"route_short_name\":\"Green\",\"route_long_name\":\"Rambler Green\",\"route_type\":\"3\",\"route_type_name\":\"Bus\",\"route_color\":\"91CE4D\",\"route_text_color\":\"FFFFFF\"}]"},"geometry":{"type":"Point","coordinates":[-75.375422,40.110763]}},{"type":"Feature","properties":{"stop_id":"BROWNLIE_HEND_WB","stop_name":"Brownlie and Henderson (Westbound)","location_type":"0","feed_id":"Pennsylvania__Upper_Merion_Rambler__mdb_mdb-3036","agency_name":"Greater Valley Forge TMA","route_count":2,"route_ids":"BLUE|GREEN","route_short_names":"Blue|Green","route_types":"3","route_type_names":"Bus","routes_json":"[{\"route_id\":\"BLUE\",\"route_short_name\":\"Blue\",\"route_long_name\":\"Rambler Blue\",\"route_type\":\"3\",\"route_type_name\":\"Bus\",\"route_color\":\"90A8D6\",\"route_text_color\":\"000000\"},{\"route_id\":\"GREEN\",\"route_short_name\":\"Green\",\"route_long_name\":\"Rambler Green\",\"route_type\":\"3\",\"route_type_name\":\"Bus\",\"route_color\":\"91CE4D\",\"route_text_color\":\"FFFFFF\"}]"},"geometry":{"type":"Point","coordinates":[-75.379766,40.111087]}},{"type":"Feature","properties":{"stop_id":"JASPER_BERN_EB","stop_name":"Jasper and Bernard (Eastbound)","location_type":"0","feed_id":"Pennsylvania__Upper_Merion_Rambler__mdb_mdb-3036","agency_name":"Greater Valley Forge TMA","route_count":2,"route_ids":"BLUE|GREEN","route_short_names":"Blue|Green","route_types":"3","route_type_names":"Bus","routes_json":"[{\"route_id\":\"BLUE\",\"route_short_name\":\"Blue\",\"route_long_name\":\"Rambler Blue\",\"route_type\":\"3\",\"route_type_name\":\"Bus\",\"route_color\":\"90A8D6\",\"route_text_color\":\"000000\"},{\"route_id\":\"GREEN\",\"route_short_name\":\"Green\",\"route_long_name\":\"Rambler Green\",\"route_type\":\"3\",\"route_type_name\":\"Bus\",\"route_color\":\"91CE4D\",\"route_text_color\":\"FFFFFF\"}]"},"geometry":{"type":"Point","coordinates":[-75.379953,40.111063]}},{"type":"Feature","properties":{"stop_id":"JASPER_BERN_WB","stop_name":"Jasper and Bernard (Westbound)","location_type":"0","feed_id":"Pennsylvania__Upper_Merion_Rambler__mdb_mdb-3036","agency_name":"Greater Valley Forge TMA","route_count":2,"route_ids":"BLUE|GREEN","route_short_names":"Blue|Green","route_types":"3","route_type_names":"Bus","routes_json":"[{\"route_id\":\"BLUE\",\"route_short_name\":\"Blue\",\"route_long_name\":\"Rambler Blue\",\"route_type\":\"3\",\"route_type_name\":\"Bus\",\"route_color\":\"90A8D6\",\"route_text_color\":\"000000\"},{\"route_id\":\"GREEN\",\"route_short_name\":\"Green\",\"route_long_name\":\"Rambler Green\",\"route_type\":\"3\",\"route_type_name\":\"Bus\",\"route_color\":\"91CE4D\",\"route_text_color\":\"FFFFFF\"}]"},"geometry":{"type":"Point","coordinates":[-75.385109,40.105638]}},{"type":"Feature","properties":{"stop_id":"UM_CC","stop_name":"Upper Merion Community Center","location_type":"0","feed_id":"Pennsylvania__Upper_Merion_Rambler__mdb_mdb-3036","agency_name":"Greater Valley Forge TMA","route_count":2,"route_ids":"BLUE|GREEN","route_short_names":"Blue|Green","route_types":"3","route_type_names":"Bus","routes_json":"[{\"route_id\":\"BLUE\",\"route_short_name\":\"Blue\",\"route_long_name\":\"Rambler Blue\",\"route_type\":\"3\",\"route_type_name\":\"Bus\",\"route_color\":\"90A8D6\",\"route_text_color\":\"000000\"},{\"route_id\":\"GREEN\",\"route_short_name\":\"Green\",\"route_long_name\":\"Rambler Green\",\"route_type\":\"3\",\"route_type_name\":\"Bus\",\"route_color\":\"91CE4D\",\"route_text_color\":\"FFFFFF\"}]"},"geometry":{"type":"Point","coordinates":[-75.381894,40.103434]}},{"type":"Feature","properties":{"stop_id":"REG_CALEY_EB","stop_name":"Regimental and Caley (Eastbound)","location_type":"0","feed_id":"Pennsylvania__Upper_Merion_Rambler__mdb_mdb-3036","agency_name":"Greater Valley Forge TMA","route_count":2,"route_ids":"BLUE|GREEN","route_short_names":"Blue|Green","route_types":"3","route_type_names":"Bus","routes_json":"[{\"route_id\":\"BLUE\",\"route_short_name\":\"Blue\",\"route_long_name\":\"Rambler Blue\",\"route_type\":\"3\",\"route_type_name\":\"Bus\",\"route_color\":\"90A8D6\",\"route_text_color\":\"000000\"},{\"route_id\":\"GREEN\",\"route_short_name\":\"Green\",\"route_long_name\":\"Rambler Green\",\"route_type\":\"3\",\"route_type_name\":\"Bus\",\"route_color\":\"91CE4D\",\"route_text_color\":\"FFFFFF\"}]"},"geometry":{"type":"Point","coordinates":[-75.385641,40.105588]}},{"type":"Feature","properties":{"stop_id":"REG_CALEY_WB","stop_name":"Regimental and Caley (Westbound)","location_type":"0","feed_id":"Pennsylvania__Upper_Merion_Rambler__mdb_mdb-3036","agency_name":"Greater Valley Forge TMA","route_count":2,"route_ids":"BLUE|GREEN","route_short_names":"Blue|Green","route_types":"3","route_type_names":"Bus","routes_json":"[{\"route_id\":\"BLUE\",\"route_short_name\":\"Blue\",\"route_long_name\":\"Rambler Blue\",\"route_type\":\"3\",\"route_type_name\":\"Bus\",\"route_color\":\"90A8D6\",\"route_text_color\":\"000000\"},{\"route_id\":\"GREEN\",\"route_short_name\":\"Green\",\"route_long_name\":\"Rambler Green\",\"route_type\":\"3\",\"route_type_name\":\"Bus\",\"route_color\":\"91CE4D\",\"route_text_color\":\"FFFFFF\"}]"},"geometry":{"type":"Point","coordinates":[-75.385453,40.105488]}},{"type":"Feature","properties":{"stop_id":"GEN_STEUBEN_EB","stop_name":"General Steuben and Valley Forge (Eastbound)","location_type":"0","feed_id":"Pennsylvania__Upper_Merion_Rambler__mdb_mdb-3036","agency_name":"Greater Valley Forge TMA","route_count":2,"route_ids":"BLUE|GREEN","route_short_names":"Blue|Green","route_types":"3","route_type_names":"Bus","routes_json":"[{\"route_id\":\"BLUE\",\"route_short_name\":\"Blue\",\"route_long_name\":\"Rambler Blue\",\"route_type\":\"3\",\"route_type_name\":\"Bus\",\"route_color\":\"90A8D6\",\"route_text_color\":\"000000\"},{\"route_id\":\"GREEN\",\"route_short_name\":\"Green\",\"route_long_name\":\"Rambler Green\",\"route_type\":\"3\",\"route_type_name\":\"Bus\",\"route_color\":\"91CE4D\",\"route_text_color\":\"FFFFFF\"}]"},"geometry":{"type":"Point","coordinates":[-75.391453,40.102338]}},{"type":"Feature","properties":{"stop_id":"GEN_STEUBEN_WB","stop_name":"General Steuben and Valley Forge (Westbound)","location_type":"0","feed_id":"Pennsylvania__Upper_Merion_Rambler__mdb_mdb-3036","agency_name":"Greater Valley Forge TMA","route_count":2,"route_ids":"BLUE|GREEN","route_short_names":"Blue|Green","route_types":"3","route_type_names":"Bus","routes_json":"[{\"route_id\":\"BLUE\",\"route_short_name\":\"Blue\",\"route_long_name\":\"Rambler Blue\",\"route_type\":\"3\",\"route_type_name\":\"Bus\",\"route_color\":\"90A8D6\",\"route_text_color\":\"000000\"},{\"route_id\":\"GREEN\",\"route_short_name\":\"Green\",\"route_long_name\":\"Rambler Green\",\"route_type\":\"3\",\"route_type_name\":\"Bus\",\"route_color\":\"91CE4D\",\"route_text_color\":\"FFFFFF\"}]"},"geometry":{"type":"Point","coordinates":[-75.391266,40.102213]}},{"type":"Feature","properties":{"stop_id":"VF_TOWERS","stop_name":"Valley Forge Towers (2000 Building)","location_type":"0","feed_id":"Pennsylvania__Upper_Merion_Rambler__mdb_mdb-3036","agency_name":"Greater Valley Forge TMA","route_count":2,"route_ids":"BLUE|GREEN","route_short_names":"Blue|Green","route_types":"3","route_type_names":"Bus","routes_json":"[{\"route_id\":\"BLUE\",\"route_short_name\":\"Blue\",\"route_long_name\":\"Rambler Blue\",\"route_type\":\"3\",\"route_type_name\":\"Bus\",\"route_color\":\"90A8D6\",\"route_text_color\":\"000000\"},{\"route_id\":\"GREEN\",\"route_short_name\":\"Green\",\"route_long_name\":\"Rambler Green\",\"route_type\":\"3\",\"route_type_name\":\"Bus\",\"route_color\":\"91CE4D\",\"route_text_color\":\"FFFFFF\"}]"},"geometry":{"type":"Point","coordinates":[-75.414484,40.105163]}},{"type":"Feature","properties":{"stop_id":"LAFAYETTE","stop_name":"Lafayette Valley Forge Apts","location_type":"0","feed_id":"Pennsylvania__Upper_Merion_Rambler__mdb_mdb-3036","agency_name":"Greater Valley Forge TMA","route_count":2,"route_ids":"BLUE|GREEN","route_short_names":"Blue|Green","route_types":"3","route_type_names":"Bus","routes_json":"[{\"route_id\":\"BLUE\",\"route_short_name\":\"Blue\",\"route_long_name\":\"Rambler Blue\",\"route_type\":\"3\",\"route_type_name\":\"Bus\",\"route_color\":\"90A8D6\",\"route_text_color\":\"000000\"},{\"route_id\":\"GREEN\",\"route_short_name\":\"Green\",\"route_long_name\":\"Rambler Green\",\"route_type\":\"3\",\"route_type_name\":\"Bus\",\"route_color\":\"91CE4D\",\"route_text_color\":\"FFFFFF\"}]"},"geometry":{"type":"Point","coordinates":[-75.417427,40.106118]}},{"type":"Feature","properties":{"stop_id":"VILLAGE_VF_WB","stop_name":"The Village at Valley Forge (Westbound)","location_type":"0","feed_id":"Pennsylvania__Upper_Merion_Rambler__mdb_mdb-3036","agency_name":"Greater Valley Forge TMA","route_count":2,"route_ids":"BLUE|GREEN","route_short_names":"Blue|Green","route_types":"3","route_type_names":"Bus","routes_json":"[{\"route_id\":\"BLUE\",\"route_short_name\":\"Blue\",\"route_long_name\":\"Rambler Blue\",\"route_type\":\"3\",\"route_type_name\":\"Bus\",\"route_color\":\"90A8D6\",\"route_text_color\":\"000000\"},{\"route_id\":\"GREEN\",\"route_short_name\":\"Green\",\"route_long_name\":\"Rambler Green\",\"route_type\":\"3\",\"route_type_name\":\"Bus\",\"route_color\":\"91CE4D\",\"route_text_color\":\"FFFFFF\"}]"},"geometry":{"type":"Point","coordinates":[-75.405953,40.083563]}},{"type":"Feature","properties":{"stop_id":"VILLAGE_VF_EB","stop_name":"The Village at Valley Forge (Eastbound)","location_type":"0","feed_id":"Pennsylvania__Upper_Merion_Rambler__mdb_mdb-3036","agency_name":"Greater Valley Forge TMA","route_count":2,"route_ids":"BLUE|GREEN","route_short_names":"Blue|Green","route_types":"3","route_type_names":"Bus","routes_json":"[{\"route_id\":\"BLUE\",\"route_short_name\":\"Blue\",\"route_long_name\":\"Rambler Blue\",\"route_type\":\"3\",\"route_type_name\":\"Bus\",\"route_color\":\"90A8D6\",\"route_text_color\":\"000000\"},{\"route_id\":\"GREEN\",\"route_short_name\":\"Green\",\"route_long_name\":\"Rambler Green\",\"route_type\":\"3\",\"route_type_name\":\"Bus\",\"route_color\":\"91CE4D\",\"route_text_color\":\"FFFFFF\"}]"},"geometry":{"type":"Point","coordinates":[-75.406203,40.083563]}},{"type":"Feature","properties":{"stop_id":"WEGMANS","stop_name":"Wegmans (King of Prussia)","location_type":"0","feed_id":"Pennsylvania__Upper_Merion_Rambler__mdb_mdb-3036","agency_name":"Greater Valley Forge TMA","route_count":2,"route_ids":"BLUE|GREEN","route_short_names":"Blue|Green","route_types":"3","route_type_names":"Bus","routes_json":"[{\"route_id\":\"BLUE\",\"route_short_name\":\"Blue\",\"route_long_name\":\"Rambler Blue\",\"route_type\":\"3\",\"route_type_name\":\"Bus\",\"route_color\":\"90A8D6\",\"route_text_color\":\"000000\"},{\"route_id\":\"GREEN\",\"route_short_name\":\"Green\",\"route_long_name\":\"Rambler Green\",\"route_type\":\"3\",\"route_type_name\":\"Bus\",\"route_color\":\"91CE4D\",\"route_text_color\":\"FFFFFF\"}]"},"geometry":{"type":"Point","coordinates":[-75.402245,40.083965]}},{"type":"Feature","properties":{"stop_id":"WALMART","stop_name":"Walmart (King of Prussia)","location_type":"0","feed_id":"Pennsylvania__Upper_Merion_Rambler__mdb_mdb-3036","agency_name":"Greater Valley Forge TMA","route_count":2,"route_ids":"BLUE|GREEN","route_short_names":"Blue|Green","route_types":"3","route_type_names":"Bus","routes_json":"[{\"route_id\":\"BLUE\",\"route_short_name\":\"Blue\",\"route_long_name\":\"Rambler Blue\",\"route_type\":\"3\",\"route_type_name\":\"Bus\",\"route_color\":\"90A8D6\",\"route_text_color\":\"000000\"},{\"route_id\":\"GREEN\",\"route_short_name\":\"Green\",\"route_long_name\":\"Rambler Green\",\"route_type\":\"3\",\"route_type_name\":\"Bus\",\"route_color\":\"91CE4D\",\"route_text_color\":\"FFFFFF\"}]"},"geometry":{"type":"Point","coordinates":[-75.398303,40.083954]}},{"type":"Feature","properties":{"stop_id":"KOP_TC","stop_name":"King of Prussia Mall (Transit Center)","location_type":"0","feed_id":"Pennsylvania__Upper_Merion_Rambler__mdb_mdb-3036","agency_name":"Greater Valley Forge TMA","route_count":2,"route_ids":"BLUE|GREEN","route_short_names":"Blue|Green","route_types":"3","route_type_names":"Bus","routes_json":"[{\"route_id\":\"BLUE\",\"route_short_name\":\"Blue\",\"route_long_name\":\"Rambler Blue\",\"route_type\":\"3\",\"route_type_name\":\"Bus\",\"route_color\":\"90A8D6\",\"route_text_color\":\"000000\"},{\"route_id\":\"GREEN\",\"route_short_name\":\"Green\",\"route_long_name\":\"Rambler Green\",\"route_type\":\"3\",\"route_type_name\":\"Bus\",\"route_color\":\"91CE4D\",\"route_text_color\":\"FFFFFF\"}]"},"geometry":{"type":"Point","coordinates":[-75.390062,40.090063]}},{"type":"Feature","properties":{"stop_id":"KOP_CCF","stop_name":"King of Prussia Mall (Cheesecake Factory)","location_type":"0","feed_id":"Pennsylvania__Upper_Merion_Rambler__mdb_mdb-3036","agency_name":"Greater Valley Forge TMA","route_count":2,"route_ids":"BLUE|GREEN","route_short_names":"Blue|Green","route_types":"3","route_type_names":"Bus","routes_json":"[{\"route_id\":\"BLUE\",\"route_short_name\":\"Blue\",\"route_long_name\":\"Rambler Blue\",\"route_type\":\"3\",\"route_type_name\":\"Bus\",\"route_color\":\"90A8D6\",\"route_text_color\":\"000000\"},{\"route_id\":\"GREEN\",\"route_short_name\":\"Green\",\"route_long_name\":\"Rambler Green\",\"route_type\":\"3\",\"route_type_name\":\"Bus\",\"route_color\":\"91CE4D\",\"route_text_color\":\"FFFFFF\"}]"},"geometry":{"type":"Point","coordinates":[-75.383891,40.089663]}},{"type":"Feature","properties":{"stop_id":"VF_SC","stop_name":"Valley Forge Shopping Center (Trader Joe's)","location_type":"0","feed_id":"Pennsylvania__Upper_Merion_Rambler__mdb_mdb-3036","agency_name":"Greater Valley Forge TMA","route_count":2,"route_ids":"BLUE|GREEN","route_short_names":"Blue|Green","route_types":"3","route_type_names":"Bus","routes_json":"[{\"route_id\":\"BLUE\",\"route_short_name\":\"Blue\",\"route_long_name\":\"Rambler Blue\",\"route_type\":\"3\",\"route_type_name\":\"Bus\",\"route_color\":\"90A8D6\",\"route_text_color\":\"000000\"},{\"route_id\":\"GREEN\",\"route_short_name\":\"Green\",\"route_long_name\":\"Rambler Green\",\"route_type\":\"3\",\"route_type_name\":\"Bus\",\"route_color\":\"91CE4D\",\"route_text_color\":\"FFFFFF\"}]"},"geometry":{"type":"Point","coordinates":[-75.367609,40.094212]}},{"type":"Feature","properties":{"stop_id":"GIANT","stop_name":"Giant (Henderson Square)","location_type":"0","feed_id":"Pennsylvania__Upper_Merion_Rambler__mdb_mdb-3036","agency_name":"Greater Valley Forge TMA","route_count":2,"route_ids":"BLUE|GREEN","route_short_names":"Blue|Green","route_types":"3","route_type_names":"Bus","routes_json":"[{\"route_id\":\"BLUE\",\"route_short_name\":\"Blue\",\"route_long_name\":\"Rambler Blue\",\"route_type\":\"3\",\"route_type_name\":\"Bus\",\"route_color\":\"90A8D6\",\"route_text_color\":\"000000\"},{\"route_id\":\"GREEN\",\"route_short_name\":\"Green\",\"route_long_name\":\"Rambler Green\",\"route_type\":\"3\",\"route_type_name\":\"Bus\",\"route_color\":\"91CE4D\",\"route_text_color\":\"FFFFFF\"}]"},"geometry":{"type":"Point","coordinates":[-75.358047,40.091738]}},{"type":"Feature","properties":{"stop_id":"ALDI","stop_name":"Aldi (King of Prussia)","location_type":"0","feed_id":"Pennsylvania__Upper_Merion_Rambler__mdb_mdb-3036","agency_name":"Greater Valley Forge TMA","route_count":2,"route_ids":"BLUE|GREEN","route_short_names":"Blue|Green","route_types":"3","route_type_names":"Bus","routes_json":"[{\"route_id\":\"BLUE\",\"route_short_name\":\"Blue\",\"route_long_name\":\"Rambler Blue\",\"route_type\":\"3\",\"route_type_name\":\"Bus\",\"route_color\":\"90A8D6\",\"route_text_color\":\"000000\"},{\"route_id\":\"GREEN\",\"route_short_name\":\"Green\",\"route_long_name\":\"Rambler Green\",\"route_type\":\"3\",\"route_type_name\":\"Bus\",\"route_color\":\"91CE4D\",\"route_text_color\":\"FFFFFF\"}]"},"geometry":{"type":"Point","coordinates":[-75.359063,40.095188]}}]}