{"type":"FeatureCollection","features":[{"type":"Feature","properties":{"stop_id":"4249472","stop_code":"","stop_name":"Guggenheim, west side","stop_desc":"","zone_id":"","stop_url":"","location_type":"0","parent_station":"","stop_timezone":"America/Denver","wheelchair_boarding":"0","platform_code":"","tts_stop_name":"","feed_id":"Colorado__Colorado_School_Of_Mines__mdb_mdb-2413","agency_name":"City of Golden","route_count":2,"route_ids":"77233|77234","route_short_names":"","route_types":"3","route_type_names":"Bus","routes_json":"[{\"route_id\":\"77233\",\"route_short_name\":\"\",\"route_long_name\":\"Gold\",\"route_type\":\"3\",\"route_type_name\":\"Bus\",\"route_color\":\"CBAD00\",\"route_text_color\":\"FFFFFF\"},{\"route_id\":\"77234\",\"route_short_name\":\"\",\"route_long_name\":\"Silver\",\"route_type\":\"3\",\"route_type_name\":\"Bus\",\"route_color\":\"E9E9E9\",\"route_text_color\":\"FFFFFF\"}]"},"geometry":{"type":"Point","coordinates":[-105.2233339,39.7509061]}},{"type":"Feature","properties":{"stop_id":"4249478","stop_code":"","stop_name":"11Th  & Maple","stop_desc":"","zone_id":"","stop_url":"","location_type":"0","parent_station":"","stop_timezone":"America/Denver","wheelchair_boarding":"0","platform_code":"","tts_stop_name":"","feed_id":"Colorado__Colorado_School_Of_Mines__mdb_mdb-2413","agency_name":"City of Golden","route_count":1,"route_ids":"77233","route_short_names":"","route_types":"3","route_type_names":"Bus","routes_json":"[{\"route_id\":\"77233\",\"route_short_name\":\"\",\"route_long_name\":\"Gold\",\"route_type\":\"3\",\"route_type_name\":\"Bus\",\"route_color\":\"CBAD00\",\"route_text_color\":\"FFFFFF\"}]"},"geometry":{"type":"Point","coordinates":[-105.2262183,39.7538999]}},{"type":"Feature","properties":{"stop_id":"4249463","stop_code":"","stop_name":"11th & Miners Alley","stop_desc":"","zone_id":"","stop_url":"","location_type":"0","parent_station":"","stop_timezone":"America/Denver","wheelchair_boarding":"0","platform_code":"","tts_stop_name":"","feed_id":"Colorado__Colorado_School_Of_Mines__mdb_mdb-2413","agency_name":"City of Golden","route_count":2,"route_ids":"77233|77232","route_short_names":"","route_types":"3","route_type_names":"Bus","routes_json":"[{\"route_id\":\"77233\",\"route_short_name\":\"\",\"route_long_name\":\"Gold\",\"route_type\":\"3\",\"route_type_name\":\"Bus\",\"route_color\":\"CBAD00\",\"route_text_color\":\"FFFFFF\"},{\"route_id\":\"77232\",\"route_short_name\":\"\",\"route_long_name\":\"Tungsten\",\"route_type\":\"3\",\"route_type_name\":\"Bus\",\"route_color\":\"D06C07\",\"route_text_color\":\"FFFFFF\"}]"},"geometry":{"type":"Point","coordinates":[-105.2225873,39.7559098]}},{"type":"Feature","properties":{"stop_id":"4249479","stop_code":"","stop_name":"Parfet Park / RTD Hub","stop_desc":"","zone_id":"","stop_url":"","location_type":"0","parent_station":"","stop_timezone":"America/Denver","wheelchair_boarding":"0","platform_code":"","tts_stop_name":"","feed_id":"Colorado__Colorado_School_Of_Mines__mdb_mdb-2413","agency_name":"City of Golden","route_count":1,"route_ids":"77233","route_short_names":"","route_types":"3","route_type_names":"Bus","routes_json":"[{\"route_id\":\"77233\",\"route_short_name\":\"\",\"route_long_name\":\"Gold\",\"route_type\":\"3\",\"route_type_name\":\"Bus\",\"route_color\":\"CBAD00\",\"route_text_color\":\"FFFFFF\"}]"},"geometry":{"type":"Point","coordinates":[-105.2229342,39.7572651]}},{"type":"Feature","properties":{"stop_id":"4249480","stop_code":"","stop_name":"10th & Cheyenne","stop_desc":"","zone_id":"","stop_url":"","location_type":"0","parent_station":"","stop_timezone":"America/Denver","wheelchair_boarding":"0","platform_code":"","tts_stop_name":"","feed_id":"Colorado__Colorado_School_Of_Mines__mdb_mdb-2413","agency_name":"City of Golden","route_count":1,"route_ids":"77233","route_short_names":"","route_types":"3","route_type_names":"Bus","routes_json":"[{\"route_id\":\"77233\",\"route_short_name\":\"\",\"route_long_name\":\"Gold\",\"route_type\":\"3\",\"route_type_name\":\"Bus\",\"route_color\":\"CBAD00\",\"route_text_color\":\"FFFFFF\"}]"},"geometry":{"type":"Point","coordinates":[-105.225521,39.756491]}},{"type":"Feature","properties":{"stop_id":"4249481","stop_code":"","stop_name":"Community Center (rear)","stop_desc":"","zone_id":"","stop_url":"","location_type":"0","parent_station":"","stop_timezone":"America/Denver","wheelchair_boarding":"0","platform_code":"","tts_stop_name":"","feed_id":"Colorado__Colorado_School_Of_Mines__mdb_mdb-2413","agency_name":"City of Golden","route_count":1,"route_ids":"77233","route_short_names":"","route_types":"3","route_type_names":"Bus","routes_json":"[{\"route_id\":\"77233\",\"route_short_name\":\"\",\"route_long_name\":\"Gold\",\"route_type\":\"3\",\"route_type_name\":\"Bus\",\"route_color\":\"CBAD00\",\"route_text_color\":\"FFFFFF\"}]"},"geometry":{"type":"Point","coordinates":[-105.2303656,39.7559741]}},{"type":"Feature","properties":{"stop_id":"4249482","stop_code":"","stop_name":"Canyon Gates Apts.","stop_desc":"","zone_id":"","stop_url":"","location_type":"0","parent_station":"","stop_timezone":"America/Denver","wheelchair_boarding":"0","platform_code":"","tts_stop_name":"","feed_id":"Colorado__Colorado_School_Of_Mines__mdb_mdb-2413","agency_name":"City of Golden","route_count":1,"route_ids":"77233","route_short_names":"","route_types":"3","route_type_names":"Bus","routes_json":"[{\"route_id\":\"77233\",\"route_short_name\":\"\",\"route_long_name\":\"Gold\",\"route_type\":\"3\",\"route_type_name\":\"Bus\",\"route_color\":\"CBAD00\",\"route_text_color\":\"FFFFFF\"}]"},"geometry":{"type":"Point","coordinates":[-105.2317093,39.7554613]}},{"type":"Feature","properties":{"stop_id":"4249483","stop_code":"","stop_name":"8th & Highway 58","stop_desc":"","zone_id":"","stop_url":"","location_type":"0","parent_station":"","stop_timezone":"America/Denver","wheelchair_boarding":"0","platform_code":"","tts_stop_name":"","feed_id":"Colorado__Colorado_School_Of_Mines__mdb_mdb-2413","agency_name":"City of Golden","route_count":1,"route_ids":"77233","route_short_names":"","route_types":"3","route_type_names":"Bus","routes_json":"[{\"route_id\":\"77233\",\"route_short_name\":\"\",\"route_long_name\":\"Gold\",\"route_type\":\"3\",\"route_type_name\":\"Bus\",\"route_color\":\"CBAD00\",\"route_text_color\":\"FFFFFF\"}]"},"geometry":{"type":"Point","coordinates":[-105.2339618,39.7550151]}},{"type":"Feature","properties":{"stop_id":"4249484","stop_code":"","stop_name":"Ford & 5th","stop_desc":"","zone_id":"","stop_url":"","location_type":"0","parent_station":"","stop_timezone":"America/Denver","wheelchair_boarding":"0","platform_code":"","tts_stop_name":"","feed_id":"Colorado__Colorado_School_Of_Mines__mdb_mdb-2413","agency_name":"City of Golden","route_count":1,"route_ids":"77233","route_short_names":"","route_types":"3","route_type_names":"Bus","routes_json":"[{\"route_id\":\"77233\",\"route_short_name\":\"\",\"route_long_name\":\"Gold\",\"route_type\":\"3\",\"route_type_name\":\"Bus\",\"route_color\":\"CBAD00\",\"route_text_color\":\"FFFFFF\"}]"},"geometry":{"type":"Point","coordinates":[-105.2251,39.76271]}},{"type":"Feature","properties":{"stop_id":"4249485","stop_code":"","stop_name":"Ford & 1st","stop_desc":"","zone_id":"","stop_url":"","location_type":"0","parent_station":"","stop_timezone":"America/Denver","wheelchair_boarding":"0","platform_code":"","tts_stop_name":"","feed_id":"Colorado__Colorado_School_Of_Mines__mdb_mdb-2413","agency_name":"City of Golden","route_count":1,"route_ids":"77233","route_short_names":"","route_types":"3","route_type_names":"Bus","routes_json":"[{\"route_id\":\"77233\",\"route_short_name\":\"\",\"route_long_name\":\"Gold\",\"route_type\":\"3\",\"route_type_name\":\"Bus\",\"route_color\":\"CBAD00\",\"route_text_color\":\"FFFFFF\"}]"},"geometry":{"type":"Point","coordinates":[-105.2281146,39.766174]}},{"type":"Feature","properties":{"stop_id":"4249487","stop_code":"","stop_name":"Rubey Dr. Commercial","stop_desc":"","zone_id":"","stop_url":"","location_type":"0","parent_station":"","stop_timezone":"America/Denver","wheelchair_boarding":"0","platform_code":"","tts_stop_name":"","feed_id":"Colorado__Colorado_School_Of_Mines__mdb_mdb-2413","agency_name":"City of Golden","route_count":1,"route_ids":"77233","route_short_names":"","route_types":"3","route_type_names":"Bus","routes_json":"[{\"route_id\":\"77233\",\"route_short_name\":\"\",\"route_long_name\":\"Gold\",\"route_type\":\"3\",\"route_type_name\":\"Bus\",\"route_color\":\"CBAD00\",\"route_text_color\":\"FFFFFF\"}]"},"geometry":{"type":"Point","coordinates":[-105.2332503,39.7663005]}},{"type":"Feature","properties":{"stop_id":"4249488","stop_code":"","stop_name":"Iowa & Washington","stop_desc":"","zone_id":"","stop_url":"","location_type":"0","parent_station":"","stop_timezone":"America/Denver","wheelchair_boarding":"0","platform_code":"","tts_stop_name":"","feed_id":"Colorado__Colorado_School_Of_Mines__mdb_mdb-2413","agency_name":"City of Golden","route_count":1,"route_ids":"77233","route_short_names":"","route_types":"3","route_type_names":"Bus","routes_json":"[{\"route_id\":\"77233\",\"route_short_name\":\"\",\"route_long_name\":\"Gold\",\"route_type\":\"3\",\"route_type_name\":\"Bus\",\"route_color\":\"CBAD00\",\"route_text_color\":\"FFFFFF\"}]"},"geometry":{"type":"Point","coordinates":[-105.2316899,39.7658091]}},{"type":"Feature","properties":{"stop_id":"4249489","stop_code":"","stop_name":"Washington & 3rd","stop_desc":"","zone_id":"","stop_url":"","location_type":"0","parent_station":"","stop_timezone":"America/Denver","wheelchair_boarding":"0","platform_code":"","tts_stop_name":"","feed_id":"Colorado__Colorado_School_Of_Mines__mdb_mdb-2413","agency_name":"City of Golden","route_count":1,"route_ids":"77233","route_short_names":"","route_types":"3","route_type_names":"Bus","routes_json":"[{\"route_id\":\"77233\",\"route_short_name\":\"\",\"route_long_name\":\"Gold\",\"route_type\":\"3\",\"route_type_name\":\"Bus\",\"route_color\":\"CBAD00\",\"route_text_color\":\"FFFFFF\"}]"},"geometry":{"type":"Point","coordinates":[-105.2287722,39.7632887]}},{"type":"Feature","properties":{"stop_id":"4249490","stop_code":"","stop_name":"Golden Visitor Center","stop_desc":"","zone_id":"","stop_url":"","location_type":"0","parent_station":"","stop_timezone":"America/Denver","wheelchair_boarding":"0","platform_code":"","tts_stop_name":"","feed_id":"Colorado__Colorado_School_Of_Mines__mdb_mdb-2413","agency_name":"City of Golden","route_count":1,"route_ids":"77233","route_short_names":"","route_types":"3","route_type_names":"Bus","routes_json":"[{\"route_id\":\"77233\",\"route_short_name\":\"\",\"route_long_name\":\"Gold\",\"route_type\":\"3\",\"route_type_name\":\"Bus\",\"route_color\":\"CBAD00\",\"route_text_color\":\"FFFFFF\"}]"},"geometry":{"type":"Point","coordinates":[-105.2230866,39.7570867]}},{"type":"Feature","properties":{"stop_id":"4249491","stop_code":"","stop_name":"13th & Miners Alley","stop_desc":"","zone_id":"","stop_url":"","location_type":"0","parent_station":"","stop_timezone":"America/Denver","wheelchair_boarding":"0","platform_code":"","tts_stop_name":"","feed_id":"Colorado__Colorado_School_Of_Mines__mdb_mdb-2413","agency_name":"City of Golden","route_count":1,"route_ids":"77233","route_short_names":"","route_types":"3","route_type_names":"Bus","routes_json":"[{\"route_id\":\"77233\",\"route_short_name\":\"\",\"route_long_name\":\"Gold\",\"route_type\":\"3\",\"route_type_name\":\"Bus\",\"route_color\":\"CBAD00\",\"route_text_color\":\"FFFFFF\"}]"},"geometry":{"type":"Point","coordinates":[-105.22136,39.754251]}},{"type":"Feature","properties":{"stop_id":"4249476","stop_code":"","stop_name":"Survey Field","stop_desc":"","zone_id":"","stop_url":"","location_type":"0","parent_station":"","stop_timezone":"America/Denver","wheelchair_boarding":"0","platform_code":"","tts_stop_name":"","feed_id":"Colorado__Colorado_School_Of_Mines__mdb_mdb-2413","agency_name":"City of Golden","route_count":1,"route_ids":"77234","route_short_names":"","route_types":"3","route_type_names":"Bus","routes_json":"[{\"route_id\":\"77234\",\"route_short_name\":\"\",\"route_long_name\":\"Silver\",\"route_type\":\"3\",\"route_type_name\":\"Bus\",\"route_color\":\"E9E9E9\",\"route_text_color\":\"FFFFFF\"}]"},"geometry":{"type":"Point","coordinates":[-105.222326,39.7408257]}},{"type":"Feature","properties":{"stop_id":"4249475","stop_code":"","stop_name":"Mines Park Community Center","stop_desc":"","zone_id":"","stop_url":"","location_type":"0","parent_station":"","stop_timezone":"America/Denver","wheelchair_boarding":"0","platform_code":"","tts_stop_name":"","feed_id":"Colorado__Colorado_School_Of_Mines__mdb_mdb-2413","agency_name":"City of Golden","route_count":1,"route_ids":"77234","route_short_names":"","route_types":"3","route_type_names":"Bus","routes_json":"[{\"route_id\":\"77234\",\"route_short_name\":\"\",\"route_long_name\":\"Silver\",\"route_type\":\"3\",\"route_type_name\":\"Bus\",\"route_color\":\"E9E9E9\",\"route_text_color\":\"FFFFFF\"}]"},"geometry":{"type":"Point","coordinates":[-105.2239346,39.741488]}},{"type":"Feature","properties":{"stop_id":"4255695","stop_code":"","stop_name":"The Quarry","stop_desc":"","zone_id":"","stop_url":"","location_type":"0","parent_station":"","stop_timezone":"America/Denver","wheelchair_boarding":"0","platform_code":"","tts_stop_name":"","feed_id":"Colorado__Colorado_School_Of_Mines__mdb_mdb-2413","agency_name":"City of Golden","route_count":1,"route_ids":"77234","route_short_names":"","route_types":"3","route_type_names":"Bus","routes_json":"[{\"route_id\":\"77234\",\"route_short_name\":\"\",\"route_long_name\":\"Silver\",\"route_type\":\"3\",\"route_type_name\":\"Bus\",\"route_color\":\"E9E9E9\",\"route_text_color\":\"FFFFFF\"}]"},"geometry":{"type":"Point","coordinates":[-105.22495,39.74282]}},{"type":"Feature","properties":{"stop_id":"1","stop_code":"","stop_name":"Lookout Apts","stop_desc":"","zone_id":"","stop_url":"","location_type":"0","parent_station":"","stop_timezone":"","wheelchair_boarding":"","platform_code":"","tts_stop_name":"","feed_id":"Colorado__Colorado_School_Of_Mines__mdb_mdb-2413","agency_name":"City of Golden","route_count":1,"route_ids":"77234","route_short_names":"","route_types":"3","route_type_names":"Bus","routes_json":"[{\"route_id\":\"77234\",\"route_short_name\":\"\",\"route_long_name\":\"Silver\",\"route_type\":\"3\",\"route_type_name\":\"Bus\",\"route_color\":\"E9E9E9\",\"route_text_color\":\"FFFFFF\"}]"},"geometry":{"type":"Point","coordinates":[-105.22081703729832,39.746883215171486]}},{"type":"Feature","properties":{"stop_id":"4249461","stop_code":"","stop_name":"Kafadar","stop_desc":"","zone_id":"","stop_url":"","location_type":"0","parent_station":"","stop_timezone":"America/Denver","wheelchair_boarding":"0","platform_code":"","tts_stop_name":"","feed_id":"Colorado__Colorado_School_Of_Mines__mdb_mdb-2413","agency_name":"City of Golden","route_count":2,"route_ids":"77234|77232","route_short_names":"","route_types":"3","route_type_names":"Bus","routes_json":"[{\"route_id\":\"77234\",\"route_short_name\":\"\",\"route_long_name\":\"Silver\",\"route_type\":\"3\",\"route_type_name\":\"Bus\",\"route_color\":\"E9E9E9\",\"route_text_color\":\"FFFFFF\"},{\"route_id\":\"77232\",\"route_short_name\":\"\",\"route_long_name\":\"Tungsten\",\"route_type\":\"3\",\"route_type_name\":\"Bus\",\"route_color\":\"D06C07\",\"route_text_color\":\"FFFFFF\"}]"},"geometry":{"type":"Point","coordinates":[-105.2222061,39.7512354]}},{"type":"Feature","properties":{"stop_id":"4249471","stop_code":"","stop_name":"K Lot","stop_desc":"","zone_id":"","stop_url":"","location_type":"0","parent_station":"","stop_timezone":"America/Denver","wheelchair_boarding":"0","platform_code":"","tts_stop_name":"","feed_id":"Colorado__Colorado_School_Of_Mines__mdb_mdb-2413","agency_name":"City of Golden","route_count":1,"route_ids":"77234","route_short_names":"","route_types":"3","route_type_names":"Bus","routes_json":"[{\"route_id\":\"77234\",\"route_short_name\":\"\",\"route_long_name\":\"Silver\",\"route_type\":\"3\",\"route_type_name\":\"Bus\",\"route_color\":\"E9E9E9\",\"route_text_color\":\"FFFFFF\"}]"},"geometry":{"type":"Point","coordinates":[-105.2293803,39.7532596]}},{"type":"Feature","properties":{"stop_id":"4249473","stop_code":"","stop_name":"Student Rec. Center","stop_desc":"","zone_id":"","stop_url":"","location_type":"0","parent_station":"","stop_timezone":"America/Denver","wheelchair_boarding":"0","platform_code":"","tts_stop_name":"","feed_id":"Colorado__Colorado_School_Of_Mines__mdb_mdb-2413","agency_name":"City of Golden","route_count":1,"route_ids":"77234","route_short_names":"","route_types":"3","route_type_names":"Bus","routes_json":"[{\"route_id\":\"77234\",\"route_short_name\":\"\",\"route_long_name\":\"Silver\",\"route_type\":\"3\",\"route_type_name\":\"Bus\",\"route_color\":\"E9E9E9\",\"route_text_color\":\"FFFFFF\"}]"},"geometry":{"type":"Point","coordinates":[-105.2229783,39.7483503]}},{"type":"Feature","properties":{"stop_id":"4249464","stop_code":"","stop_name":"1600 Jackson","stop_desc":"","zone_id":"","stop_url":"","location_type":"0","parent_station":"","stop_timezone":"America/Denver","wheelchair_boarding":"0","platform_code":"","tts_stop_name":"","feed_id":"Colorado__Colorado_School_Of_Mines__mdb_mdb-2413","agency_name":"City of Golden","route_count":1,"route_ids":"77232","route_short_names":"","route_types":"3","route_type_names":"Bus","routes_json":"[{\"route_id\":\"77232\",\"route_short_name\":\"\",\"route_long_name\":\"Tungsten\",\"route_type\":\"3\",\"route_type_name\":\"Bus\",\"route_color\":\"D06C07\",\"route_text_color\":\"FFFFFF\"}]"},"geometry":{"type":"Point","coordinates":[-105.2166675,39.7520474]}},{"type":"Feature","properties":{"stop_id":"4249465","stop_code":"","stop_name":"CTLM Lot","stop_desc":"","zone_id":"","stop_url":"","location_type":"0","parent_station":"","stop_timezone":"America/Denver","wheelchair_boarding":"0","platform_code":"","tts_stop_name":"","feed_id":"Colorado__Colorado_School_Of_Mines__mdb_mdb-2413","agency_name":"City of Golden","route_count":1,"route_ids":"77232","route_short_names":"","route_types":"3","route_type_names":"Bus","routes_json":"[{\"route_id\":\"77232\",\"route_short_name\":\"\",\"route_long_name\":\"Tungsten\",\"route_type\":\"3\",\"route_type_name\":\"Bus\",\"route_color\":\"D06C07\",\"route_text_color\":\"FFFFFF\"}]"},"geometry":{"type":"Point","coordinates":[-105.219448,39.750187]}},{"type":"Feature","properties":{"stop_id":"4249466","stop_code":"","stop_name":"Lewis Court","stop_desc":"","zone_id":"","stop_url":"","location_type":"0","parent_station":"","stop_timezone":"America/Denver","wheelchair_boarding":"0","platform_code":"","tts_stop_name":"","feed_id":"Colorado__Colorado_School_Of_Mines__mdb_mdb-2413","agency_name":"City of Golden","route_count":1,"route_ids":"77232","route_short_names":"","route_types":"3","route_type_names":"Bus","routes_json":"[{\"route_id\":\"77232\",\"route_short_name\":\"\",\"route_long_name\":\"Tungsten\",\"route_type\":\"3\",\"route_type_name\":\"Bus\",\"route_color\":\"D06C07\",\"route_text_color\":\"FFFFFF\"}]"},"geometry":{"type":"Point","coordinates":[-105.2125217,39.7475906]}},{"type":"Feature","properties":{"stop_id":"4249467","stop_code":"","stop_name":"Summit View","stop_desc":"","zone_id":"","stop_url":"","location_type":"0","parent_station":"","stop_timezone":"America/Denver","wheelchair_boarding":"0","platform_code":"","tts_stop_name":"","feed_id":"Colorado__Colorado_School_Of_Mines__mdb_mdb-2413","agency_name":"City of Golden","route_count":1,"route_ids":"77232","route_short_names":"","route_types":"3","route_type_names":"Bus","routes_json":"[{\"route_id\":\"77232\",\"route_short_name\":\"\",\"route_long_name\":\"Tungsten\",\"route_type\":\"3\",\"route_type_name\":\"Bus\",\"route_color\":\"D06C07\",\"route_text_color\":\"FFFFFF\"}]"},"geometry":{"type":"Point","coordinates":[-105.2015608,39.738038]}},{"type":"Feature","properties":{"stop_id":"4249468","stop_code":"","stop_name":"W Line RTD","stop_desc":"","zone_id":"","stop_url":"","location_type":"0","parent_station":"","stop_timezone":"America/Denver","wheelchair_boarding":"0","platform_code":"","tts_stop_name":"","feed_id":"Colorado__Colorado_School_Of_Mines__mdb_mdb-2413","agency_name":"City of Golden","route_count":1,"route_ids":"77232","route_short_names":"","route_types":"3","route_type_names":"Bus","routes_json":"[{\"route_id\":\"77232\",\"route_short_name\":\"\",\"route_long_name\":\"Tungsten\",\"route_type\":\"3\",\"route_type_name\":\"Bus\",\"route_color\":\"D06C07\",\"route_text_color\":\"FFFFFF\"}]"},"geometry":{"type":"Point","coordinates":[-105.20081,39.726618]}},{"type":"Feature","properties":{"stop_id":"4249469","stop_code":"","stop_name":"Splash Mountain","stop_desc":"","zone_id":"","stop_url":"","location_type":"0","parent_station":"","stop_timezone":"America/Denver","wheelchair_boarding":"0","platform_code":"","tts_stop_name":"","feed_id":"Colorado__Colorado_School_Of_Mines__mdb_mdb-2413","agency_name":"City of Golden","route_count":1,"route_ids":"77232","route_short_names":"","route_types":"3","route_type_names":"Bus","routes_json":"[{\"route_id\":\"77232\",\"route_short_name\":\"\",\"route_long_name\":\"Tungsten\",\"route_type\":\"3\",\"route_type_name\":\"Bus\",\"route_color\":\"D06C07\",\"route_text_color\":\"FFFFFF\"}]"},"geometry":{"type":"Point","coordinates":[-105.2094885,39.7352787]}},{"type":"Feature","properties":{"stop_id":"4249470","stop_code":"","stop_name":"Human Services","stop_desc":"","zone_id":"","stop_url":"","location_type":"0","parent_station":"","stop_timezone":"America/Denver","wheelchair_boarding":"0","platform_code":"","tts_stop_name":"","feed_id":"Colorado__Colorado_School_Of_Mines__mdb_mdb-2413","agency_name":"City of Golden","route_count":1,"route_ids":"77232","route_short_names":"","route_types":"3","route_type_names":"Bus","routes_json":"[{\"route_id\":\"77232\",\"route_short_name\":\"\",\"route_long_name\":\"Tungsten\",\"route_type\":\"3\",\"route_type_name\":\"Bus\",\"route_color\":\"D06C07\",\"route_text_color\":\"FFFFFF\"}]"},"geometry":{"type":"Point","coordinates":[-105.2093059,39.7331648]}},{"type":"Feature","properties":{"stop_id":"2","stop_code":"","stop_name":"K lot (w)","stop_desc":"","zone_id":"","stop_url":"","location_type":"0","parent_station":"","stop_timezone":"","wheelchair_boarding":"","platform_code":"","tts_stop_name":"","feed_id":"Colorado__Colorado_School_Of_Mines__mdb_mdb-2413","agency_name":"City of Golden","route_count":1,"route_ids":"77234","route_short_names":"","route_types":"3","route_type_names":"Bus","routes_json":"[{\"route_id\":\"77234\",\"route_short_name\":\"\",\"route_long_name\":\"Silver\",\"route_type\":\"3\",\"route_type_name\":\"Bus\",\"route_color\":\"E9E9E9\",\"route_text_color\":\"FFFFFF\"}]"},"geometry":{"type":"Point","coordinates":[-105.226378,39.753975]}}]}