{"type":"FeatureCollection","features":[{"type":"Feature","properties":{"stop_id":"2617997","stop_code":"","platform_code":"","stop_name":"Sterling Med Center","stop_desc":"","zone_id":"","stop_url":"","location_type":"0","parent_station":"","stop_timezone":"America/Denver","position":"","direction":"","wheelchair_boarding":"0","tts_stop_name":"","feed_id":"Colorado__Prairie_Express_Transit__mdb_mdb-801","agency_name":"Prairie Express Transit","route_count":1,"route_ids":"16676","route_short_names":"","route_types":"3","route_type_names":"Bus","routes_json":"[{\"route_id\":\"16676\",\"route_short_name\":\"\",\"route_long_name\":\"Prairie Express\",\"route_type\":\"3\",\"route_type_name\":\"Bus\",\"route_color\":\"4654FF\",\"route_text_color\":\"FFFFFF\"}]"},"geometry":{"type":"Point","coordinates":[-103.22088,40.612078]}},{"type":"Feature","properties":{"stop_id":"2617998","stop_code":"","platform_code":"","stop_name":"SunMart","stop_desc":"","zone_id":"","stop_url":"","location_type":"0","parent_station":"","stop_timezone":"America/Denver","position":"","direction":"","wheelchair_boarding":"0","tts_stop_name":"","feed_id":"Colorado__Prairie_Express_Transit__mdb_mdb-801","agency_name":"Prairie Express Transit","route_count":1,"route_ids":"16676","route_short_names":"","route_types":"3","route_type_names":"Bus","routes_json":"[{\"route_id\":\"16676\",\"route_short_name\":\"\",\"route_long_name\":\"Prairie Express\",\"route_type\":\"3\",\"route_type_name\":\"Bus\",\"route_color\":\"4654FF\",\"route_text_color\":\"FFFFFF\"}]"},"geometry":{"type":"Point","coordinates":[-103.213918,40.623387]}},{"type":"Feature","properties":{"stop_id":"2617999","stop_code":"","platform_code":"","stop_name":"Courthouse Square","stop_desc":"","zone_id":"","stop_url":"","location_type":"0","parent_station":"","stop_timezone":"America/Denver","position":"","direction":"","wheelchair_boarding":"0","tts_stop_name":"","feed_id":"Colorado__Prairie_Express_Transit__mdb_mdb-801","agency_name":"Prairie Express Transit","route_count":1,"route_ids":"16676","route_short_names":"","route_types":"3","route_type_names":"Bus","routes_json":"[{\"route_id\":\"16676\",\"route_short_name\":\"\",\"route_long_name\":\"Prairie Express\",\"route_type\":\"3\",\"route_type_name\":\"Bus\",\"route_color\":\"4654FF\",\"route_text_color\":\"FFFFFF\"}]"},"geometry":{"type":"Point","coordinates":[-103.210595,40.623142]}},{"type":"Feature","properties":{"stop_id":"2618000","stop_code":"","platform_code":"","stop_name":"HR Tire","stop_desc":"","zone_id":"","stop_url":"","location_type":"0","parent_station":"","stop_timezone":"America/Denver","position":"","direction":"","wheelchair_boarding":"0","tts_stop_name":"","feed_id":"Colorado__Prairie_Express_Transit__mdb_mdb-801","agency_name":"Prairie Express Transit","route_count":1,"route_ids":"16676","route_short_names":"","route_types":"3","route_type_names":"Bus","routes_json":"[{\"route_id\":\"16676\",\"route_short_name\":\"\",\"route_long_name\":\"Prairie Express\",\"route_type\":\"3\",\"route_type_name\":\"Bus\",\"route_color\":\"4654FF\",\"route_text_color\":\"FFFFFF\"}]"},"geometry":{"type":"Point","coordinates":[-103.196613,40.621789]}},{"type":"Feature","properties":{"stop_id":"2618001","stop_code":"","platform_code":"","stop_name":"Advantage Center","stop_desc":"","zone_id":"","stop_url":"","location_type":"0","parent_station":"","stop_timezone":"America/Denver","position":"","direction":"","wheelchair_boarding":"0","tts_stop_name":"","feed_id":"Colorado__Prairie_Express_Transit__mdb_mdb-801","agency_name":"Prairie Express Transit","route_count":1,"route_ids":"16676","route_short_names":"","route_types":"3","route_type_names":"Bus","routes_json":"[{\"route_id\":\"16676\",\"route_short_name\":\"\",\"route_long_name\":\"Prairie Express\",\"route_type\":\"3\",\"route_type_name\":\"Bus\",\"route_color\":\"4654FF\",\"route_text_color\":\"FFFFFF\"}]"},"geometry":{"type":"Point","coordinates":[-103.160681,40.614868]}},{"type":"Feature","properties":{"stop_id":"2618002","stop_code":"","platform_code":"","stop_name":"Grocery Mart","stop_desc":"","zone_id":"","stop_url":"","location_type":"0","parent_station":"","stop_timezone":"America/Denver","position":"","direction":"","wheelchair_boarding":"0","tts_stop_name":"","feed_id":"Colorado__Prairie_Express_Transit__mdb_mdb-801","agency_name":"Prairie Express Transit","route_count":0,"route_ids":"","route_short_names":"","route_types":"","route_type_names":"","routes_json":"[]"},"geometry":{"type":"Point","coordinates":[-103.205406,40.627796]}},{"type":"Feature","properties":{"stop_id":"2618003","stop_code":"","platform_code":"","stop_name":"Broadway Plaza","stop_desc":"","zone_id":"","stop_url":"","location_type":"0","parent_station":"","stop_timezone":"America/Denver","position":"","direction":"","wheelchair_boarding":"0","tts_stop_name":"","feed_id":"Colorado__Prairie_Express_Transit__mdb_mdb-801","agency_name":"Prairie Express Transit","route_count":1,"route_ids":"16676","route_short_names":"","route_types":"3","route_type_names":"Bus","routes_json":"[{\"route_id\":\"16676\",\"route_short_name\":\"\",\"route_long_name\":\"Prairie Express\",\"route_type\":\"3\",\"route_type_name\":\"Bus\",\"route_color\":\"4654FF\",\"route_text_color\":\"FFFFFF\"}]"},"geometry":{"type":"Point","coordinates":[-103.198545,40.634727]}},{"type":"Feature","properties":{"stop_id":"2618004","stop_code":"","platform_code":"","stop_name":"NJC Campus","stop_desc":"","zone_id":"","stop_url":"","location_type":"0","parent_station":"","stop_timezone":"America/Denver","position":"","direction":"","wheelchair_boarding":"0","tts_stop_name":"","feed_id":"Colorado__Prairie_Express_Transit__mdb_mdb-801","agency_name":"Prairie Express Transit","route_count":0,"route_ids":"","route_short_names":"","route_types":"","route_type_names":"","routes_json":"[]"},"geometry":{"type":"Point","coordinates":[-103.19679911228906,40.63602692583408]}},{"type":"Feature","properties":{"stop_id":"2618005","stop_code":"","platform_code":"","stop_name":"Brigadoon Village","stop_desc":"","zone_id":"","stop_url":"","location_type":"0","parent_station":"","stop_timezone":"America/Denver","position":"","direction":"","wheelchair_boarding":"0","tts_stop_name":"","feed_id":"Colorado__Prairie_Express_Transit__mdb_mdb-801","agency_name":"Prairie Express Transit","route_count":1,"route_ids":"16676","route_short_names":"","route_types":"3","route_type_names":"Bus","routes_json":"[{\"route_id\":\"16676\",\"route_short_name\":\"\",\"route_long_name\":\"Prairie Express\",\"route_type\":\"3\",\"route_type_name\":\"Bus\",\"route_color\":\"4654FF\",\"route_text_color\":\"FFFFFF\"}]"},"geometry":{"type":"Point","coordinates":[-103.204441,40.638373]}},{"type":"Feature","properties":{"stop_id":"2618006","stop_code":"","platform_code":"","stop_name":"Sykes","stop_desc":"","zone_id":"","stop_url":"","location_type":"0","parent_station":"","stop_timezone":"America/Denver","position":"","direction":"","wheelchair_boarding":"0","tts_stop_name":"","feed_id":"Colorado__Prairie_Express_Transit__mdb_mdb-801","agency_name":"Prairie Express Transit","route_count":0,"route_ids":"","route_short_names":"","route_types":"","route_type_names":"","routes_json":"[]"},"geometry":{"type":"Point","coordinates":[-103.2044,40.632143]}},{"type":"Feature","properties":{"stop_id":"2618007","stop_code":"","platform_code":"","stop_name":"Courthouse Square","stop_desc":"","zone_id":"","stop_url":"","location_type":"0","parent_station":"","stop_timezone":"America/Denver","position":"","direction":"","wheelchair_boarding":"0","tts_stop_name":"","feed_id":"Colorado__Prairie_Express_Transit__mdb_mdb-801","agency_name":"Prairie Express Transit","route_count":0,"route_ids":"","route_short_names":"","route_types":"","route_type_names":"","routes_json":"[]"},"geometry":{"type":"Point","coordinates":[-103.20887359388006,40.62409807444567]}},{"type":"Feature","properties":{"stop_id":"2618008","stop_code":"","platform_code":"","stop_name":"Walmart","stop_desc":"","zone_id":"","stop_url":"","location_type":"0","parent_station":"","stop_timezone":"America/Denver","position":"","direction":"","wheelchair_boarding":"0","tts_stop_name":"","feed_id":"Colorado__Prairie_Express_Transit__mdb_mdb-801","agency_name":"Prairie Express Transit","route_count":1,"route_ids":"16676","route_short_names":"","route_types":"3","route_type_names":"Bus","routes_json":"[{\"route_id\":\"16676\",\"route_short_name\":\"\",\"route_long_name\":\"Prairie Express\",\"route_type\":\"3\",\"route_type_name\":\"Bus\",\"route_color\":\"4654FF\",\"route_text_color\":\"FFFFFF\"}]"},"geometry":{"type":"Point","coordinates":[-103.235552,40.626544]}},{"type":"Feature","properties":{"stop_id":"2618009","stop_code":"","platform_code":"","stop_name":"High Plains Shopping Center","stop_desc":"","zone_id":"","stop_url":"","location_type":"0","parent_station":"","stop_timezone":"America/Denver","position":"","direction":"","wheelchair_boarding":"0","tts_stop_name":"","feed_id":"Colorado__Prairie_Express_Transit__mdb_mdb-801","agency_name":"Prairie Express Transit","route_count":1,"route_ids":"16676","route_short_names":"","route_types":"3","route_type_names":"Bus","routes_json":"[{\"route_id\":\"16676\",\"route_short_name\":\"\",\"route_long_name\":\"Prairie Express\",\"route_type\":\"3\",\"route_type_name\":\"Bus\",\"route_color\":\"4654FF\",\"route_text_color\":\"FFFFFF\"}]"},"geometry":{"type":"Point","coordinates":[-103.231162,40.623924]}},{"type":"Feature","properties":{"stop_id":"2729758","stop_code":"","platform_code":"","stop_name":"Grandee's Auto","stop_desc":"","zone_id":"","stop_url":"","location_type":"0","parent_station":"","stop_timezone":"America/Denver","position":"","direction":"","wheelchair_boarding":"0","tts_stop_name":"","feed_id":"Colorado__Prairie_Express_Transit__mdb_mdb-801","agency_name":"Prairie Express Transit","route_count":1,"route_ids":"16676","route_short_names":"","route_types":"3","route_type_names":"Bus","routes_json":"[{\"route_id\":\"16676\",\"route_short_name\":\"\",\"route_long_name\":\"Prairie Express\",\"route_type\":\"3\",\"route_type_name\":\"Bus\",\"route_color\":\"4654FF\",\"route_text_color\":\"FFFFFF\"}]"},"geometry":{"type":"Point","coordinates":[-103.21563479217438,40.610581818891575]}},{"type":"Feature","properties":{"stop_id":"2729759","stop_code":"","platform_code":"","stop_name":"Vandenbark Realty","stop_desc":"","zone_id":"","stop_url":"","location_type":"0","parent_station":"","stop_timezone":"America/Denver","position":"","direction":"","wheelchair_boarding":"0","tts_stop_name":"","feed_id":"Colorado__Prairie_Express_Transit__mdb_mdb-801","agency_name":"Prairie Express Transit","route_count":1,"route_ids":"16676","route_short_names":"","route_types":"3","route_type_names":"Bus","routes_json":"[{\"route_id\":\"16676\",\"route_short_name\":\"\",\"route_long_name\":\"Prairie Express\",\"route_type\":\"3\",\"route_type_name\":\"Bus\",\"route_color\":\"4654FF\",\"route_text_color\":\"FFFFFF\"}]"},"geometry":{"type":"Point","coordinates":[-103.20505195961056,40.628324394493774]}},{"type":"Feature","properties":{"stop_id":"2729760","stop_code":"","platform_code":"","stop_name":"Sterling Apartments","stop_desc":"","zone_id":"","stop_url":"","location_type":"0","parent_station":"","stop_timezone":"America/Denver","position":"","direction":"","wheelchair_boarding":"0","tts_stop_name":"","feed_id":"Colorado__Prairie_Express_Transit__mdb_mdb-801","agency_name":"Prairie Express Transit","route_count":1,"route_ids":"16676","route_short_names":"","route_types":"3","route_type_names":"Bus","routes_json":"[{\"route_id\":\"16676\",\"route_short_name\":\"\",\"route_long_name\":\"Prairie Express\",\"route_type\":\"3\",\"route_type_name\":\"Bus\",\"route_color\":\"4654FF\",\"route_text_color\":\"FFFFFF\"}]"},"geometry":{"type":"Point","coordinates":[-103.20789538939998,40.64323953800178]}},{"type":"Feature","properties":{"stop_id":"2729761","stop_code":"","platform_code":"","stop_name":"Sterling Public Library","stop_desc":"","zone_id":"","stop_url":"","location_type":"0","parent_station":"","stop_timezone":"America/Denver","position":"","direction":"","wheelchair_boarding":"0","tts_stop_name":"","feed_id":"Colorado__Prairie_Express_Transit__mdb_mdb-801","agency_name":"Prairie Express Transit","route_count":1,"route_ids":"16676","route_short_names":"","route_types":"3","route_type_names":"Bus","routes_json":"[{\"route_id\":\"16676\",\"route_short_name\":\"\",\"route_long_name\":\"Prairie Express\",\"route_type\":\"3\",\"route_type_name\":\"Bus\",\"route_color\":\"4654FF\",\"route_text_color\":\"FFFFFF\"}]"},"geometry":{"type":"Point","coordinates":[-103.20846602740752,40.62935501429735]}},{"type":"Feature","properties":{"stop_id":"2729762","stop_code":"","platform_code":"","stop_name":"5th & Broadway","stop_desc":"","zone_id":"","stop_url":"","location_type":"0","parent_station":"","stop_timezone":"America/Denver","position":"","direction":"","wheelchair_boarding":"0","tts_stop_name":"","feed_id":"Colorado__Prairie_Express_Transit__mdb_mdb-801","agency_name":"Prairie Express Transit","route_count":1,"route_ids":"16676","route_short_names":"","route_types":"3","route_type_names":"Bus","routes_json":"[{\"route_id\":\"16676\",\"route_short_name\":\"\",\"route_long_name\":\"Prairie Express\",\"route_type\":\"3\",\"route_type_name\":\"Bus\",\"route_color\":\"4654FF\",\"route_text_color\":\"FFFFFF\"}]"},"geometry":{"type":"Point","coordinates":[-103.20594960441242,40.632856410617165]}},{"type":"Feature","properties":{"stop_id":"2729763","stop_code":"","platform_code":"","stop_name":"Barb's Gifts","stop_desc":"","zone_id":"","stop_url":"","location_type":"0","parent_station":"","stop_timezone":"America/Denver","position":"","direction":"","wheelchair_boarding":"0","tts_stop_name":"","feed_id":"Colorado__Prairie_Express_Transit__mdb_mdb-801","agency_name":"Prairie Express Transit","route_count":1,"route_ids":"16676","route_short_names":"","route_types":"3","route_type_names":"Bus","routes_json":"[{\"route_id\":\"16676\",\"route_short_name\":\"\",\"route_long_name\":\"Prairie Express\",\"route_type\":\"3\",\"route_type_name\":\"Bus\",\"route_color\":\"4654FF\",\"route_text_color\":\"FFFFFF\"}]"},"geometry":{"type":"Point","coordinates":[-103.21083910608924,40.62498362041822]}},{"type":"Feature","properties":{"stop_id":"2729764","stop_code":"","platform_code":"","stop_name":"Walker Pharmacy","stop_desc":"","zone_id":"","stop_url":"","location_type":"0","parent_station":"","stop_timezone":"America/Denver","position":"","direction":"","wheelchair_boarding":"0","tts_stop_name":"","feed_id":"Colorado__Prairie_Express_Transit__mdb_mdb-801","agency_name":"Prairie Express Transit","route_count":1,"route_ids":"16676","route_short_names":"","route_types":"3","route_type_names":"Bus","routes_json":"[{\"route_id\":\"16676\",\"route_short_name\":\"\",\"route_long_name\":\"Prairie Express\",\"route_type\":\"3\",\"route_type_name\":\"Bus\",\"route_color\":\"4654FF\",\"route_text_color\":\"FFFFFF\"}]"},"geometry":{"type":"Point","coordinates":[-103.21733588656826,40.62548502035747]}},{"type":"Feature","properties":{"stop_id":"2729767","stop_code":"","platform_code":"","stop_name":"Eagle 1 Gas Stop","stop_desc":"","zone_id":"","stop_url":"","location_type":"0","parent_station":"","stop_timezone":"America/Denver","position":"","direction":"","wheelchair_boarding":"0","tts_stop_name":"","feed_id":"Colorado__Prairie_Express_Transit__mdb_mdb-801","agency_name":"Prairie Express Transit","route_count":1,"route_ids":"16676","route_short_names":"","route_types":"3","route_type_names":"Bus","routes_json":"[{\"route_id\":\"16676\",\"route_short_name\":\"\",\"route_long_name\":\"Prairie Express\",\"route_type\":\"3\",\"route_type_name\":\"Bus\",\"route_color\":\"4654FF\",\"route_text_color\":\"FFFFFF\"}]"},"geometry":{"type":"Point","coordinates":[-103.18295634277624,40.61831932328812]}}]}