{"type":"FeatureCollection","features":[{"type":"Feature","properties":{"stop_id":"2730151","stop_code":"","platform_code":"","stop_name":"Baca County, CO, USA","stop_desc":"","zone_id":"","stop_url":"","location_type":"0","parent_station":"","stop_timezone":"America/Denver","position":"","direction":"","wheelchair_boarding":"0","tts_stop_name":"","feed_id":"Colorado__Baca_Area_Transportation__mdb_mdb-1087","agency_name":"Baca Area Transportation","route_count":0,"route_ids":"","route_short_names":"","route_types":"","route_type_names":"","routes_json":"[]"},"geometry":{"type":"Point","coordinates":[-102.560425,37.319377]}}]}