{"type":"FeatureCollection","features":[{"type":"Feature","properties":{"stop_id":"9","stop_code":"9","stop_name":"FIFA Fan Festival","stop_desc":"Pennsylvania & Fairmount Aves","zone_id":"","stop_url":"https://ridephillyphlash.com/bus_stop/9/","location_type":"0","parent_station":"","stop_timezone":"","wheelchair_boarding":"1","platform_code":"","feed_id":"Pennsylvania__PHLASH__mdb_mdb-2877","agency_name":"SEPTA | PHLASH","route_count":1,"route_ids":"PHLASH","route_short_names":"","route_types":"3","route_type_names":"Bus","routes_json":"[{\"route_id\":\"PHLASH\",\"route_short_name\":\"\",\"route_long_name\":\"PHLASH Downtown Loop\",\"route_type\":\"3\",\"route_type_name\":\"Bus\",\"route_color\":\"4D3E98\",\"route_text_color\":\"FFFFFF\"}]"},"geometry":{"type":"Point","coordinates":[-75.179502,39.967504]}},{"type":"Feature","properties":{"stop_id":"8","stop_code":"8","stop_name":"Eastern State Penitentiary","stop_desc":"22nd St & Fairmount Ave","zone_id":"","stop_url":"https://ridephillyphlash.com/bus_stop/8/","location_type":"0","parent_station":"","stop_timezone":"","wheelchair_boarding":"1","platform_code":"","feed_id":"Pennsylvania__PHLASH__mdb_mdb-2877","agency_name":"SEPTA | PHLASH","route_count":1,"route_ids":"PHLASH","route_short_names":"","route_types":"3","route_type_names":"Bus","routes_json":"[{\"route_id\":\"PHLASH\",\"route_short_name\":\"\",\"route_long_name\":\"PHLASH Downtown Loop\",\"route_type\":\"3\",\"route_type_name\":\"Bus\",\"route_color\":\"4D3E98\",\"route_text_color\":\"FFFFFF\"}]"},"geometry":{"type":"Point","coordinates":[-75.174106,39.967406]}},{"type":"Feature","properties":{"stop_id":"WL1","stop_code":"WL1","stop_name":"Mutter Museum","stop_desc":"22nd & Market Sts","zone_id":"","stop_url":"https://ridephillyphlash.com/bus_stop/WL1/","location_type":"0","parent_station":"","stop_timezone":"","wheelchair_boarding":"1","platform_code":"","feed_id":"Pennsylvania__PHLASH__mdb_mdb-2877","agency_name":"SEPTA | PHLASH","route_count":1,"route_ids":"West","route_short_names":"","route_types":"3","route_type_names":"Bus","routes_json":"[{\"route_id\":\"West\",\"route_short_name\":\"\",\"route_long_name\":\"PHLASH West Park Loop\",\"route_type\":\"3\",\"route_type_name\":\"Bus\",\"route_color\":\"00FFFF\",\"route_text_color\":\"000000\"}]"},"geometry":{"type":"Point","coordinates":[-75.176407,39.954071]}},{"type":"Feature","properties":{"stop_id":"WL4","stop_code":"WL4","stop_name":"Philadelphia Zoo","stop_desc":"34th St & Girard Ave","zone_id":"","stop_url":"https://ridephillyphlash.com/bus_stop/WL4/","location_type":"0","parent_station":"","stop_timezone":"","wheelchair_boarding":"1","platform_code":"","feed_id":"Pennsylvania__PHLASH__mdb_mdb-2877","agency_name":"SEPTA | PHLASH","route_count":1,"route_ids":"West","route_short_names":"","route_types":"3","route_type_names":"Bus","routes_json":"[{\"route_id\":\"West\",\"route_short_name\":\"\",\"route_long_name\":\"PHLASH West Park Loop\",\"route_type\":\"3\",\"route_type_name\":\"Bus\",\"route_color\":\"00FFFF\",\"route_text_color\":\"000000\"}]"},"geometry":{"type":"Point","coordinates":[-75.197554,39.974728]}},{"type":"Feature","properties":{"stop_id":"18","stop_code":"18","stop_name":"Penn's Landing & Independence Seaport Musuem","stop_desc":"2nd & Market Streets","zone_id":"","stop_url":"https://ridephillyphlash.com/bus_stop/18/","location_type":"","parent_station":"","stop_timezone":"","wheelchair_boarding":"1","platform_code":"","feed_id":"Pennsylvania__PHLASH__mdb_mdb-2877","agency_name":"SEPTA | PHLASH","route_count":1,"route_ids":"PHLASH","route_short_names":"","route_types":"3","route_type_names":"Bus","routes_json":"[{\"route_id\":\"PHLASH\",\"route_short_name\":\"\",\"route_long_name\":\"PHLASH Downtown Loop\",\"route_type\":\"3\",\"route_type_name\":\"Bus\",\"route_color\":\"4D3E98\",\"route_text_color\":\"FFFFFF\"}]"},"geometry":{"type":"Point","coordinates":[-75.14394,39.949858]}},{"type":"Feature","properties":{"stop_id":"17","stop_code":"17","stop_name":"Museum of the American Revolution","stop_desc":"3rd St & Chestnut St","zone_id":"","stop_url":"https://ridephillyphlash.com/bus_stop/17/","location_type":"0","parent_station":"","stop_timezone":"","wheelchair_boarding":"1","platform_code":"","feed_id":"Pennsylvania__PHLASH__mdb_mdb-2877","agency_name":"SEPTA | PHLASH","route_count":1,"route_ids":"PHLASH","route_short_names":"","route_types":"3","route_type_names":"Bus","routes_json":"[{\"route_id\":\"PHLASH\",\"route_short_name\":\"\",\"route_long_name\":\"PHLASH Downtown Loop\",\"route_type\":\"3\",\"route_type_name\":\"Bus\",\"route_color\":\"4D3E98\",\"route_text_color\":\"FFFFFF\"}]"},"geometry":{"type":"Point","coordinates":[-75.146629,39.94866]}},{"type":"Feature","properties":{"stop_id":"1","stop_code":"1","stop_name":"Independence Visitor Center & National Constitution Center","stop_desc":"6th & Market Sts","zone_id":"","stop_url":"https://ridephillyphlash.com/bus_stop/1/","location_type":"0","parent_station":"","stop_timezone":"","wheelchair_boarding":"1","platform_code":"","feed_id":"Pennsylvania__PHLASH__mdb_mdb-2877","agency_name":"SEPTA | PHLASH","route_count":1,"route_ids":"PHLASH","route_short_names":"","route_types":"3","route_type_names":"Bus","routes_json":"[{\"route_id\":\"PHLASH\",\"route_short_name\":\"\",\"route_long_name\":\"PHLASH Downtown Loop\",\"route_type\":\"3\",\"route_type_name\":\"Bus\",\"route_color\":\"4D3E98\",\"route_text_color\":\"FFFFFF\"}]"},"geometry":{"type":"Point","coordinates":[-75.149961,39.950777]}},{"type":"Feature","properties":{"stop_id":"15","stop_code":"15","stop_name":"Reading Terminal Market & Pennsylvania Convention Center","stop_desc":"12th & Market Sts Eastbound","zone_id":"","stop_url":"https://ridephillyphlash.com/bus_stop/15/","location_type":"0","parent_station":"","stop_timezone":"","wheelchair_boarding":"1","platform_code":"","feed_id":"Pennsylvania__PHLASH__mdb_mdb-2877","agency_name":"SEPTA | PHLASH","route_count":1,"route_ids":"PHLASH","route_short_names":"","route_types":"3","route_type_names":"Bus","routes_json":"[{\"route_id\":\"PHLASH\",\"route_short_name\":\"\",\"route_long_name\":\"PHLASH Downtown Loop\",\"route_type\":\"3\",\"route_type_name\":\"Bus\",\"route_color\":\"4D3E98\",\"route_text_color\":\"FFFFFF\"}]"},"geometry":{"type":"Point","coordinates":[-75.160223,39.951884]}},{"type":"Feature","properties":{"stop_id":"13","stop_code":"13","stop_name":"The Franklin Institute","stop_desc":"20th & Race Sts","zone_id":"","stop_url":"https://ridephillyphlash.com/bus_stop/13/","location_type":"0","parent_station":"","stop_timezone":"","wheelchair_boarding":"1","platform_code":"","feed_id":"Pennsylvania__PHLASH__mdb_mdb-2877","agency_name":"SEPTA | PHLASH","route_count":1,"route_ids":"PHLASH","route_short_names":"","route_types":"3","route_type_names":"Bus","routes_json":"[{\"route_id\":\"PHLASH\",\"route_short_name\":\"\",\"route_long_name\":\"PHLASH Downtown Loop\",\"route_type\":\"3\",\"route_type_name\":\"Bus\",\"route_color\":\"4D3E98\",\"route_text_color\":\"FFFFFF\"}]"},"geometry":{"type":"Point","coordinates":[-75.172405,39.957752]}},{"type":"Feature","properties":{"stop_id":"3","stop_code":"3","stop_name":"Reading Terminal Market & Pennsylvania Convention Center","stop_desc":"12th & Market Sts Westbound","zone_id":"","stop_url":"https://ridephillyphlash.com/bus_stop/3/","location_type":"0","parent_station":"","stop_timezone":"","wheelchair_boarding":"1","platform_code":"","feed_id":"Pennsylvania__PHLASH__mdb_mdb-2877","agency_name":"SEPTA | PHLASH","route_count":1,"route_ids":"PHLASH","route_short_names":"","route_types":"3","route_type_names":"Bus","routes_json":"[{\"route_id\":\"PHLASH\",\"route_short_name\":\"\",\"route_long_name\":\"PHLASH Downtown Loop\",\"route_type\":\"3\",\"route_type_name\":\"Bus\",\"route_color\":\"4D3E98\",\"route_text_color\":\"FFFFFF\"}]"},"geometry":{"type":"Point","coordinates":[-75.159407,39.951954]}},{"type":"Feature","properties":{"stop_id":"2","stop_code":"2","stop_name":"Fashion District Philadelphia","stop_desc":"9th & Market Sts","zone_id":"","stop_url":"https://ridephillyphlash.com/bus_stop/2/","location_type":"0","parent_station":"","stop_timezone":"","wheelchair_boarding":"1","platform_code":"","feed_id":"Pennsylvania__PHLASH__mdb_mdb-2877","agency_name":"SEPTA | PHLASH","route_count":1,"route_ids":"PHLASH","route_short_names":"","route_types":"3","route_type_names":"Bus","routes_json":"[{\"route_id\":\"PHLASH\",\"route_short_name\":\"\",\"route_long_name\":\"PHLASH Downtown Loop\",\"route_type\":\"3\",\"route_type_name\":\"Bus\",\"route_color\":\"4D3E98\",\"route_text_color\":\"FFFFFF\"}]"},"geometry":{"type":"Point","coordinates":[-75.155464,39.95146]}},{"type":"Feature","properties":{"stop_id":"4","stop_code":"4","stop_name":"LOVE Park, City Hall & Transfer Stop","stop_desc":"16th St & John F Kennedy Blvd","zone_id":"","stop_url":"https://ridephillyphlash.com/bus_stop/4/","location_type":"0","parent_station":"","stop_timezone":"","wheelchair_boarding":"1","platform_code":"","feed_id":"Pennsylvania__PHLASH__mdb_mdb-2877","agency_name":"SEPTA | PHLASH","route_count":2,"route_ids":"PHLASH|West","route_short_names":"","route_types":"3","route_type_names":"Bus","routes_json":"[{\"route_id\":\"PHLASH\",\"route_short_name\":\"\",\"route_long_name\":\"PHLASH Downtown Loop\",\"route_type\":\"3\",\"route_type_name\":\"Bus\",\"route_color\":\"4D3E98\",\"route_text_color\":\"FFFFFF\"},{\"route_id\":\"West\",\"route_short_name\":\"\",\"route_long_name\":\"PHLASH West Park Loop\",\"route_type\":\"3\",\"route_type_name\":\"Bus\",\"route_color\":\"00FFFF\",\"route_text_color\":\"000000\"}]"},"geometry":{"type":"Point","coordinates":[-75.166242,39.953874]}},{"type":"Feature","properties":{"stop_id":"5","stop_code":"5","stop_name":"Comcast Center Campus","stop_desc":"18th St & John F Kennedy Blvd","zone_id":"","stop_url":"https://ridephillyphlash.com/bus_stop/5/","location_type":"0","parent_station":"","stop_timezone":"","wheelchair_boarding":"1","platform_code":"","feed_id":"Pennsylvania__PHLASH__mdb_mdb-2877","agency_name":"SEPTA | PHLASH","route_count":2,"route_ids":"PHLASH|West","route_short_names":"","route_types":"3","route_type_names":"Bus","routes_json":"[{\"route_id\":\"PHLASH\",\"route_short_name\":\"\",\"route_long_name\":\"PHLASH Downtown Loop\",\"route_type\":\"3\",\"route_type_name\":\"Bus\",\"route_color\":\"4D3E98\",\"route_text_color\":\"FFFFFF\"},{\"route_id\":\"West\",\"route_short_name\":\"\",\"route_long_name\":\"PHLASH West Park Loop\",\"route_type\":\"3\",\"route_type_name\":\"Bus\",\"route_color\":\"00FFFF\",\"route_text_color\":\"000000\"}]"},"geometry":{"type":"Point","coordinates":[-75.169503,39.954277]}},{"type":"Feature","properties":{"stop_id":"10","stop_code":"10","stop_name":"Philadelphia Museum of Art","stop_desc":"Anne d'Harnoncourt Dr","zone_id":"","stop_url":"https://ridephillyphlash.com/bus_stop/10/","location_type":"0","parent_station":"","stop_timezone":"","wheelchair_boarding":"1","platform_code":"","feed_id":"Pennsylvania__PHLASH__mdb_mdb-2877","agency_name":"SEPTA | PHLASH","route_count":1,"route_ids":"PHLASH","route_short_names":"","route_types":"3","route_type_names":"Bus","routes_json":"[{\"route_id\":\"PHLASH\",\"route_short_name\":\"\",\"route_long_name\":\"PHLASH Downtown Loop\",\"route_type\":\"3\",\"route_type_name\":\"Bus\",\"route_color\":\"4D3E98\",\"route_text_color\":\"FFFFFF\"}]"},"geometry":{"type":"Point","coordinates":[-75.182126,39.966423]}},{"type":"Feature","properties":{"stop_id":"16","stop_code":"16","stop_name":"Liberty Bell Center","stop_desc":"6th & Market Sts","zone_id":"","stop_url":"https://ridephillyphlash.com/bus_stop/16/","location_type":"0","parent_station":"","stop_timezone":"","wheelchair_boarding":"1","platform_code":"","feed_id":"Pennsylvania__PHLASH__mdb_mdb-2877","agency_name":"SEPTA | PHLASH","route_count":1,"route_ids":"PHLASH","route_short_names":"","route_types":"3","route_type_names":"Bus","routes_json":"[{\"route_id\":\"PHLASH\",\"route_short_name\":\"\",\"route_long_name\":\"PHLASH Downtown Loop\",\"route_type\":\"3\",\"route_type_name\":\"Bus\",\"route_color\":\"4D3E98\",\"route_text_color\":\"FFFFFF\"}]"},"geometry":{"type":"Point","coordinates":[-75.150905,39.95072]}},{"type":"Feature","properties":{"stop_id":"19","stop_code":"19","stop_name":"Betsy Ross House","stop_desc":"3rd and Arch Sts","zone_id":"","stop_url":"https://ridephillyphlash.com/bus_stop/19/","location_type":"","parent_station":"","stop_timezone":"","wheelchair_boarding":"1","platform_code":"","feed_id":"Pennsylvania__PHLASH__mdb_mdb-2877","agency_name":"SEPTA | PHLASH","route_count":1,"route_ids":"PHLASH","route_short_names":"","route_types":"3","route_type_names":"Bus","routes_json":"[{\"route_id\":\"PHLASH\",\"route_short_name\":\"\",\"route_long_name\":\"PHLASH Downtown Loop\",\"route_type\":\"3\",\"route_type_name\":\"Bus\",\"route_color\":\"4D3E98\",\"route_text_color\":\"FFFFFF\"}]"},"geometry":{"type":"Point","coordinates":[-75.144775,39.952204]}},{"type":"Feature","properties":{"stop_id":"WL3","stop_code":"WL3","stop_name":"Please Touch Museum","stop_desc":"4231 Avenue of the Republic","zone_id":"","stop_url":"https://ridephillyphlash.com/bus_stop/WL3/","location_type":"0","parent_station":"","stop_timezone":"","wheelchair_boarding":"1","platform_code":"","feed_id":"Pennsylvania__PHLASH__mdb_mdb-2877","agency_name":"SEPTA | PHLASH","route_count":1,"route_ids":"West","route_short_names":"","route_types":"3","route_type_names":"Bus","routes_json":"[{\"route_id\":\"West\",\"route_short_name\":\"\",\"route_long_name\":\"PHLASH West Park Loop\",\"route_type\":\"3\",\"route_type_name\":\"Bus\",\"route_color\":\"00FFFF\",\"route_text_color\":\"000000\"}]"},"geometry":{"type":"Point","coordinates":[-75.209924,39.97881]}},{"type":"Feature","properties":{"stop_id":"11","stop_code":"11","stop_name":"Rocky Statue & Art Museum Steps","stop_desc":"Benjamin Franklin Pkwy & Kelly Dr","zone_id":"","stop_url":"https://ridephillyphlash.com/bus_stop/11/","location_type":"0","parent_station":"","stop_timezone":"","wheelchair_boarding":"1","platform_code":"","feed_id":"Pennsylvania__PHLASH__mdb_mdb-2877","agency_name":"SEPTA | PHLASH","route_count":1,"route_ids":"PHLASH","route_short_names":"","route_types":"3","route_type_names":"Bus","routes_json":"[{\"route_id\":\"PHLASH\",\"route_short_name\":\"\",\"route_long_name\":\"PHLASH Downtown Loop\",\"route_type\":\"3\",\"route_type_name\":\"Bus\",\"route_color\":\"4D3E98\",\"route_text_color\":\"FFFFFF\"}]"},"geometry":{"type":"Point","coordinates":[-75.178628,39.965009]}},{"type":"Feature","properties":{"stop_id":"14","stop_code":"14","stop_name":"Comcast Center Campus","stop_desc":"18th & Market Sts","zone_id":"","stop_url":"https://ridephillyphlash.com/bus_stop/14/","location_type":"0","parent_station":"","stop_timezone":"","wheelchair_boarding":"1","platform_code":"","feed_id":"Pennsylvania__PHLASH__mdb_mdb-2877","agency_name":"SEPTA | PHLASH","route_count":2,"route_ids":"PHLASH|West","route_short_names":"","route_types":"3","route_type_names":"Bus","routes_json":"[{\"route_id\":\"PHLASH\",\"route_short_name\":\"\",\"route_long_name\":\"PHLASH Downtown Loop\",\"route_type\":\"3\",\"route_type_name\":\"Bus\",\"route_color\":\"4D3E98\",\"route_text_color\":\"FFFFFF\"},{\"route_id\":\"West\",\"route_short_name\":\"\",\"route_long_name\":\"PHLASH West Park Loop\",\"route_type\":\"3\",\"route_type_name\":\"Bus\",\"route_color\":\"00FFFF\",\"route_text_color\":\"000000\"}]"},"geometry":{"type":"Point","coordinates":[-75.170603,39.953163]}},{"type":"Feature","properties":{"stop_id":"WL2","stop_code":"WL2","stop_name":"30th Street Station","stop_desc":"Schuylkill Ave & Market St","zone_id":"","stop_url":"https://ridephillyphlash.com/bus_stop/WL2/","location_type":"0","parent_station":"","stop_timezone":"","wheelchair_boarding":"1","platform_code":"","feed_id":"Pennsylvania__PHLASH__mdb_mdb-2877","agency_name":"SEPTA | PHLASH","route_count":1,"route_ids":"West","route_short_names":"","route_types":"3","route_type_names":"Bus","routes_json":"[{\"route_id\":\"West\",\"route_short_name\":\"\",\"route_long_name\":\"PHLASH West Park Loop\",\"route_type\":\"3\",\"route_type_name\":\"Bus\",\"route_color\":\"00FFFF\",\"route_text_color\":\"000000\"}]"},"geometry":{"type":"Point","coordinates":[-75.180838,39.955108]}},{"type":"Feature","properties":{"stop_id":"6","stop_code":"6","stop_name":"Barnes Foundation","stop_desc":"20th St & Benjamin Franklin Pkwy","zone_id":"","stop_url":"https://ridephillyphlash.com/bus_stop/6/","location_type":"0","parent_station":"","stop_timezone":"","wheelchair_boarding":"1","platform_code":"","feed_id":"Pennsylvania__PHLASH__mdb_mdb-2877","agency_name":"SEPTA | PHLASH","route_count":1,"route_ids":"PHLASH","route_short_names":"","route_types":"3","route_type_names":"Bus","routes_json":"[{\"route_id\":\"PHLASH\",\"route_short_name\":\"\",\"route_long_name\":\"PHLASH Downtown Loop\",\"route_type\":\"3\",\"route_type_name\":\"Bus\",\"route_color\":\"4D3E98\",\"route_text_color\":\"FFFFFF\"}]"},"geometry":{"type":"Point","coordinates":[-75.173146,39.960062]}},{"type":"Feature","properties":{"stop_id":"7","stop_code":"7","stop_name":"Rodin Museum","stop_desc":"22nd St & Benjamin Franklin Pkwy","zone_id":"","stop_url":"https://ridephillyphlash.com/bus_stop/7/","location_type":"0","parent_station":"","stop_timezone":"","wheelchair_boarding":"1","platform_code":"","feed_id":"Pennsylvania__PHLASH__mdb_mdb-2877","agency_name":"SEPTA | PHLASH","route_count":1,"route_ids":"PHLASH","route_short_names":"","route_types":"3","route_type_names":"Bus","routes_json":"[{\"route_id\":\"PHLASH\",\"route_short_name\":\"\",\"route_long_name\":\"PHLASH Downtown Loop\",\"route_type\":\"3\",\"route_type_name\":\"Bus\",\"route_color\":\"4D3E98\",\"route_text_color\":\"FFFFFF\"}]"},"geometry":{"type":"Point","coordinates":[-75.174862,39.961325]}},{"type":"Feature","properties":{"stop_id":"12","stop_code":"12","stop_name":"Calder Gardens","stop_desc":"22nd St & Benjamin Franklin Pkwy","zone_id":"","stop_url":"https://ridephillyphlash.com/bus_stop/12/","location_type":"","parent_station":"","stop_timezone":"","wheelchair_boarding":"1","platform_code":"","feed_id":"Pennsylvania__PHLASH__mdb_mdb-2877","agency_name":"SEPTA | PHLASH","route_count":1,"route_ids":"PHLASH","route_short_names":"","route_types":"3","route_type_names":"Bus","routes_json":"[{\"route_id\":\"PHLASH\",\"route_short_name\":\"\",\"route_long_name\":\"PHLASH Downtown Loop\",\"route_type\":\"3\",\"route_type_name\":\"Bus\",\"route_color\":\"4D3E98\",\"route_text_color\":\"FFFFFF\"}]"},"geometry":{"type":"Point","coordinates":[-75.174149,39.960338]}}]}