{"type":"FeatureCollection","features":[{"type":"Feature","properties":{"stop_id":"4149453","stop_code":"","stop_name":"Lake Chelan Boat Co. (Chelan Dock)","stop_desc":"","zone_id":"","stop_url":"","location_type":"0","parent_station":"","stop_timezone":"America/Los_Angeles","wheelchair_boarding":"0","platform_code":"","tts_stop_name":"","feed_id":"Washington__Lady_of_the_Lake__mdb_mdb-2318","agency_name":"Lady of the Lake","route_count":1,"route_ids":"76383","route_short_names":"","route_types":"4","route_type_names":"Ferry","routes_json":"[{\"route_id\":\"76383\",\"route_short_name\":\"\",\"route_long_name\":\"Lady Express\",\"route_type\":\"4\",\"route_type_name\":\"Ferry\",\"route_color\":\"339933\",\"route_text_color\":\"000000\"}]"},"geometry":{"type":"Point","coordinates":[-120.038486316595,47.8359985825051]}},{"type":"Feature","properties":{"stop_id":"4149454","stop_code":"","stop_name":"Field's Point Landing","stop_desc":"","zone_id":"","stop_url":"","location_type":"0","parent_station":"","stop_timezone":"America/Los_Angeles","wheelchair_boarding":"0","platform_code":"","tts_stop_name":"","feed_id":"Washington__Lady_of_the_Lake__mdb_mdb-2318","agency_name":"Lady of the Lake","route_count":1,"route_ids":"76383","route_short_names":"","route_types":"4","route_type_names":"Ferry","routes_json":"[{\"route_id\":\"76383\",\"route_short_name\":\"\",\"route_long_name\":\"Lady Express\",\"route_type\":\"4\",\"route_type_name\":\"Ferry\",\"route_color\":\"339933\",\"route_text_color\":\"000000\"}]"},"geometry":{"type":"Point","coordinates":[-120.21326637512948,47.9697000140537]}},{"type":"Feature","properties":{"stop_id":"4149462","stop_code":"","stop_name":"Prince Creek","stop_desc":"","zone_id":"","stop_url":"","location_type":"0","parent_station":"","stop_timezone":"America/Los_Angeles","wheelchair_boarding":"0","platform_code":"","tts_stop_name":"","feed_id":"Washington__Lady_of_the_Lake__mdb_mdb-2318","agency_name":"Lady of the Lake","route_count":1,"route_ids":"76383","route_short_names":"","route_types":"4","route_type_names":"Ferry","routes_json":"[{\"route_id\":\"76383\",\"route_short_name\":\"\",\"route_long_name\":\"Lady Express\",\"route_type\":\"4\",\"route_type_name\":\"Ferry\",\"route_color\":\"339933\",\"route_text_color\":\"000000\"}]"},"geometry":{"type":"Point","coordinates":[-120.49492704618982,48.145090340753256]}},{"type":"Feature","properties":{"stop_id":"4149455","stop_code":"","stop_name":"Lucerne (Port of Holden Village)","stop_desc":"","zone_id":"","stop_url":"","location_type":"0","parent_station":"","stop_timezone":"America/Los_Angeles","wheelchair_boarding":"0","platform_code":"","tts_stop_name":"","feed_id":"Washington__Lady_of_the_Lake__mdb_mdb-2318","agency_name":"Lady of the Lake","route_count":1,"route_ids":"76383","route_short_names":"","route_types":"4","route_type_names":"Ferry","routes_json":"[{\"route_id\":\"76383\",\"route_short_name\":\"\",\"route_long_name\":\"Lady Express\",\"route_type\":\"4\",\"route_type_name\":\"Ferry\",\"route_color\":\"339933\",\"route_text_color\":\"000000\"}]"},"geometry":{"type":"Point","coordinates":[-120.5989920284775,48.2016984213563]}},{"type":"Feature","properties":{"stop_id":"4149456","stop_code":"","stop_name":"Stehekin Landing (Main Boat Dock)","stop_desc":"","zone_id":"","stop_url":"","location_type":"0","parent_station":"","stop_timezone":"America/Los_Angeles","wheelchair_boarding":"0","platform_code":"","tts_stop_name":"","feed_id":"Washington__Lady_of_the_Lake__mdb_mdb-2318","agency_name":"Lady of the Lake","route_count":1,"route_ids":"76383","route_short_names":"","route_types":"4","route_type_names":"Ferry","routes_json":"[{\"route_id\":\"76383\",\"route_short_name\":\"\",\"route_long_name\":\"Lady Express\",\"route_type\":\"4\",\"route_type_name\":\"Ferry\",\"route_color\":\"339933\",\"route_text_color\":\"000000\"}]"},"geometry":{"type":"Point","coordinates":[-120.657534853436,48.3089419512771]}}]}