{"type":"FeatureCollection","features":[{"type":"Feature","properties":{"stop_id":"178897","stop_code":"64","stop_name":"Armory","stop_desc":"Armory","stop_url":"","location_type":"","stop_timezone":"","wheelchair_boarding":"1","platform_code":"","parent_station":"","feed_id":"Illinois__JAX_Mass_Transit_District__mdb_mdb-3408","agency_name":"JAX Mass Transit","route_count":1,"route_ids":"6805","route_short_names":"","route_types":"3","route_type_names":"Bus","routes_json":"[{\"route_id\":\"6805\",\"route_short_name\":\"\",\"route_long_name\":\"Pyramid\",\"route_type\":\"3\",\"route_type_name\":\"Bus\",\"route_color\":\"4197CB\",\"route_text_color\":\"FFFFFF\"}]"},"geometry":{"type":"Point","coordinates":[-89.228262,37.730561]}},{"type":"Feature","properties":{"stop_id":"178880","stop_code":"05","stop_name":"Aspen Court","stop_desc":"Aspen Court","stop_url":"","location_type":"","stop_timezone":"","wheelchair_boarding":"1","platform_code":"","parent_station":"","feed_id":"Illinois__JAX_Mass_Transit_District__mdb_mdb-3408","agency_name":"JAX Mass Transit","route_count":3,"route_ids":"6807|6806|9399","route_short_names":"","route_types":"3","route_type_names":"Bus","routes_json":"[{\"route_id\":\"6807\",\"route_short_name\":\"\",\"route_long_name\":\"Sahara\",\"route_type\":\"3\",\"route_type_name\":\"Bus\",\"route_color\":\"F06022\",\"route_text_color\":\"FFFFFF\"},{\"route_id\":\"6806\",\"route_short_name\":\"\",\"route_long_name\":\"Saluki\",\"route_type\":\"3\",\"route_type_name\":\"Bus\",\"route_color\":\"A8A8A8\",\"route_text_color\":\"FFFFFF\"},{\"route_id\":\"9399\",\"route_short_name\":\"\",\"route_long_name\":\"Saluki Night Life\",\"route_type\":\"3\",\"route_type_name\":\"Bus\",\"route_color\":\"9467BD\",\"route_text_color\":\"FFFFFF\"}]"},"geometry":{"type":"Point","coordinates":[-89.196388481,37.717567573]}},{"type":"Feature","properties":{"stop_id":"178881","stop_code":"06","stop_name":"Brookside Apartments","stop_desc":"Brookside Apartments","stop_url":"","location_type":"","stop_timezone":"","wheelchair_boarding":"1","platform_code":"","parent_station":"","feed_id":"Illinois__JAX_Mass_Transit_District__mdb_mdb-3408","agency_name":"JAX Mass Transit","route_count":3,"route_ids":"6807|6806|9399","route_short_names":"","route_types":"3","route_type_names":"Bus","routes_json":"[{\"route_id\":\"6807\",\"route_short_name\":\"\",\"route_long_name\":\"Sahara\",\"route_type\":\"3\",\"route_type_name\":\"Bus\",\"route_color\":\"F06022\",\"route_text_color\":\"FFFFFF\"},{\"route_id\":\"6806\",\"route_short_name\":\"\",\"route_long_name\":\"Saluki\",\"route_type\":\"3\",\"route_type_name\":\"Bus\",\"route_color\":\"A8A8A8\",\"route_text_color\":\"FFFFFF\"},{\"route_id\":\"9399\",\"route_short_name\":\"\",\"route_long_name\":\"Saluki Night Life\",\"route_type\":\"3\",\"route_type_name\":\"Bus\",\"route_color\":\"9467BD\",\"route_text_color\":\"FFFFFF\"}]"},"geometry":{"type":"Point","coordinates":[-89.191775,37.71817]}},{"type":"Feature","properties":{"stop_id":"178885","stop_code":"50","stop_name":"Carbondale Community High School","stop_desc":"Carbondale Community High School","stop_url":"","location_type":"","stop_timezone":"","wheelchair_boarding":"1","platform_code":"","parent_station":"","feed_id":"Illinois__JAX_Mass_Transit_District__mdb_mdb-3408","agency_name":"JAX Mass Transit","route_count":1,"route_ids":"6807","route_short_names":"","route_types":"3","route_type_names":"Bus","routes_json":"[{\"route_id\":\"6807\",\"route_short_name\":\"\",\"route_long_name\":\"Sahara\",\"route_type\":\"3\",\"route_type_name\":\"Bus\",\"route_color\":\"F06022\",\"route_text_color\":\"FFFFFF\"}]"},"geometry":{"type":"Point","coordinates":[-89.187425977,37.726757573]}},{"type":"Feature","properties":{"stop_id":"178907","stop_code":"75","stop_name":"Carbondale Towers (WB)","stop_desc":"Carbondale Towers (WB)","stop_url":"","location_type":"","stop_timezone":"","wheelchair_boarding":"1","platform_code":"","parent_station":"","feed_id":"Illinois__JAX_Mass_Transit_District__mdb_mdb-3408","agency_name":"JAX Mass Transit","route_count":1,"route_ids":"6805","route_short_names":"","route_types":"3","route_type_names":"Bus","routes_json":"[{\"route_id\":\"6805\",\"route_short_name\":\"\",\"route_long_name\":\"Pyramid\",\"route_type\":\"3\",\"route_type_name\":\"Bus\",\"route_color\":\"4197CB\",\"route_text_color\":\"FFFFFF\"}]"},"geometry":{"type":"Point","coordinates":[-89.224145226,37.71942078]}},{"type":"Feature","properties":{"stop_id":"178877","stop_code":"42","stop_name":"Charlotte West Stadium","stop_desc":"Charlotte West Stadium","stop_url":"","location_type":"","stop_timezone":"","wheelchair_boarding":"1","platform_code":"","parent_station":"","feed_id":"Illinois__JAX_Mass_Transit_District__mdb_mdb-3408","agency_name":"JAX Mass Transit","route_count":2,"route_ids":"6805|6807","route_short_names":"","route_types":"3","route_type_names":"Bus","routes_json":"[{\"route_id\":\"6805\",\"route_short_name\":\"\",\"route_long_name\":\"Pyramid\",\"route_type\":\"3\",\"route_type_name\":\"Bus\",\"route_color\":\"4197CB\",\"route_text_color\":\"FFFFFF\"},{\"route_id\":\"6807\",\"route_short_name\":\"\",\"route_long_name\":\"Sahara\",\"route_type\":\"3\",\"route_type_name\":\"Bus\",\"route_color\":\"F06022\",\"route_text_color\":\"FFFFFF\"}]"},"geometry":{"type":"Point","coordinates":[-89.213421,37.717392357]}},{"type":"Feature","properties":{"stop_id":"178853","stop_code":"11","stop_name":"College at Illinois","stop_desc":"College @ Illinois","stop_url":"","location_type":"","stop_timezone":"","wheelchair_boarding":"1","platform_code":"","parent_station":"","feed_id":"Illinois__JAX_Mass_Transit_District__mdb_mdb-3408","agency_name":"JAX Mass Transit","route_count":1,"route_ids":"6806","route_short_names":"","route_types":"3","route_type_names":"Bus","routes_json":"[{\"route_id\":\"6806\",\"route_short_name\":\"\",\"route_long_name\":\"Saluki\",\"route_type\":\"3\",\"route_type_name\":\"Bus\",\"route_color\":\"A8A8A8\",\"route_text_color\":\"FFFFFF\"}]"},"geometry":{"type":"Point","coordinates":[-89.215935706,37.721918885]}},{"type":"Feature","properties":{"stop_id":"178854","stop_code":"12","stop_name":"College Street Apartments (North Side)","stop_desc":"College Street Apartments (North Side)","stop_url":"","location_type":"","stop_timezone":"","wheelchair_boarding":"1","platform_code":"","parent_station":"","feed_id":"Illinois__JAX_Mass_Transit_District__mdb_mdb-3408","agency_name":"JAX Mass Transit","route_count":2,"route_ids":"6806|9399","route_short_names":"","route_types":"3","route_type_names":"Bus","routes_json":"[{\"route_id\":\"6806\",\"route_short_name\":\"\",\"route_long_name\":\"Saluki\",\"route_type\":\"3\",\"route_type_name\":\"Bus\",\"route_color\":\"A8A8A8\",\"route_text_color\":\"FFFFFF\"},{\"route_id\":\"9399\",\"route_short_name\":\"\",\"route_long_name\":\"Saluki Night Life\",\"route_type\":\"3\",\"route_type_name\":\"Bus\",\"route_color\":\"9467BD\",\"route_text_color\":\"FFFFFF\"}]"},"geometry":{"type":"Point","coordinates":[-89.220083603,37.721594812]}},{"type":"Feature","properties":{"stop_id":"178857","stop_code":"15","stop_name":"Communications Building","stop_desc":"Communications Building","stop_url":"","location_type":"","stop_timezone":"","wheelchair_boarding":"1","platform_code":"","parent_station":"","feed_id":"Illinois__JAX_Mass_Transit_District__mdb_mdb-3408","agency_name":"JAX Mass Transit","route_count":2,"route_ids":"6805|6806","route_short_names":"","route_types":"3","route_type_names":"Bus","routes_json":"[{\"route_id\":\"6805\",\"route_short_name\":\"\",\"route_long_name\":\"Pyramid\",\"route_type\":\"3\",\"route_type_name\":\"Bus\",\"route_color\":\"4197CB\",\"route_text_color\":\"FFFFFF\"},{\"route_id\":\"6806\",\"route_short_name\":\"\",\"route_long_name\":\"Saluki\",\"route_type\":\"3\",\"route_type_name\":\"Bus\",\"route_color\":\"A8A8A8\",\"route_text_color\":\"FFFFFF\"}]"},"geometry":{"type":"Point","coordinates":[-89.224381134,37.71546666]}},{"type":"Feature","properties":{"stop_id":"178888","stop_code":"53","stop_name":"Dollar Tree","stop_desc":"Dollar Tree","stop_url":"","location_type":"","stop_timezone":"","wheelchair_boarding":"1","platform_code":"","parent_station":"","feed_id":"Illinois__JAX_Mass_Transit_District__mdb_mdb-3408","agency_name":"JAX Mass Transit","route_count":1,"route_ids":"6807","route_short_names":"","route_types":"3","route_type_names":"Bus","routes_json":"[{\"route_id\":\"6807\",\"route_short_name\":\"\",\"route_long_name\":\"Sahara\",\"route_type\":\"3\",\"route_type_name\":\"Bus\",\"route_color\":\"F06022\",\"route_text_color\":\"FFFFFF\"}]"},"geometry":{"type":"Point","coordinates":[-89.189217,37.73555961]}},{"type":"Feature","properties":{"stop_id":"178866","stop_code":"24","stop_name":"Engineering Crosswalk (North Side)","stop_desc":"Engineering Crosswalk (North Side)","stop_url":"","location_type":"","stop_timezone":"","wheelchair_boarding":"1","platform_code":"","parent_station":"","feed_id":"Illinois__JAX_Mass_Transit_District__mdb_mdb-3408","agency_name":"JAX Mass Transit","route_count":1,"route_ids":"6808","route_short_names":"","route_types":"3","route_type_names":"Bus","routes_json":"[{\"route_id\":\"6808\",\"route_short_name\":\"\",\"route_long_name\":\"Nile\",\"route_type\":\"3\",\"route_type_name\":\"Bus\",\"route_color\":\"FFD980\",\"route_text_color\":\"FFFFFF\"}]"},"geometry":{"type":"Point","coordinates":[-89.219856188,37.710525625]}},{"type":"Feature","properties":{"stop_id":"178859","stop_code":"17","stop_name":"Engineering Crosswalk (South Side)","stop_desc":"Engineering Crosswalk (South Side)","stop_url":"","location_type":"","stop_timezone":"","wheelchair_boarding":"1","platform_code":"","parent_station":"","feed_id":"Illinois__JAX_Mass_Transit_District__mdb_mdb-3408","agency_name":"JAX Mass Transit","route_count":3,"route_ids":"6805|6807|6806","route_short_names":"","route_types":"3","route_type_names":"Bus","routes_json":"[{\"route_id\":\"6805\",\"route_short_name\":\"\",\"route_long_name\":\"Pyramid\",\"route_type\":\"3\",\"route_type_name\":\"Bus\",\"route_color\":\"4197CB\",\"route_text_color\":\"FFFFFF\"},{\"route_id\":\"6807\",\"route_short_name\":\"\",\"route_long_name\":\"Sahara\",\"route_type\":\"3\",\"route_type_name\":\"Bus\",\"route_color\":\"F06022\",\"route_text_color\":\"FFFFFF\"},{\"route_id\":\"6806\",\"route_short_name\":\"\",\"route_long_name\":\"Saluki\",\"route_type\":\"3\",\"route_type_name\":\"Bus\",\"route_color\":\"A8A8A8\",\"route_text_color\":\"FFFFFF\"}]"},"geometry":{"type":"Point","coordinates":[-89.219925395,37.710358552]}},{"type":"Feature","properties":{"stop_id":"201203","stop_code":"95","stop_name":"Eurma Hayes Community Center","stop_desc":"","stop_url":"","location_type":"","stop_timezone":"","wheelchair_boarding":"1","platform_code":"","parent_station":"","feed_id":"Illinois__JAX_Mass_Transit_District__mdb_mdb-3408","agency_name":"JAX Mass Transit","route_count":1,"route_ids":"8178","route_short_names":"","route_types":"3","route_type_names":"Bus","routes_json":"[{\"route_id\":\"8178\",\"route_short_name\":\"\",\"route_long_name\":\"Big Muddy\",\"route_type\":\"3\",\"route_type_name\":\"Bus\",\"route_color\":\"081E3F\",\"route_text_color\":\"FFFFFF\"}]"},"geometry":{"type":"Point","coordinates":[-89.212735643,37.734334024]}},{"type":"Feature","properties":{"stop_id":"178860","stop_code":"18","stop_name":"Evergreen Terrace (Entrance)","stop_desc":"Evergreen Terrace (entrance)","stop_url":"","location_type":"","stop_timezone":"","wheelchair_boarding":"1","platform_code":"","parent_station":"","feed_id":"Illinois__JAX_Mass_Transit_District__mdb_mdb-3408","agency_name":"JAX Mass Transit","route_count":3,"route_ids":"6808|6807|9399","route_short_names":"","route_types":"3","route_type_names":"Bus","routes_json":"[{\"route_id\":\"6808\",\"route_short_name\":\"\",\"route_long_name\":\"Nile\",\"route_type\":\"3\",\"route_type_name\":\"Bus\",\"route_color\":\"FFD980\",\"route_text_color\":\"FFFFFF\"},{\"route_id\":\"6807\",\"route_short_name\":\"\",\"route_long_name\":\"Sahara\",\"route_type\":\"3\",\"route_type_name\":\"Bus\",\"route_color\":\"F06022\",\"route_text_color\":\"FFFFFF\"},{\"route_id\":\"9399\",\"route_short_name\":\"\",\"route_long_name\":\"Saluki Night Life\",\"route_type\":\"3\",\"route_type_name\":\"Bus\",\"route_color\":\"9467BD\",\"route_text_color\":\"FFFFFF\"}]"},"geometry":{"type":"Point","coordinates":[-89.236970196,37.699450721]}},{"type":"Feature","properties":{"stop_id":"178861","stop_code":"19","stop_name":"Evergreen Terrace (Exit)","stop_desc":"Evergreen Terrace (Exit)","stop_url":"","location_type":"","stop_timezone":"","wheelchair_boarding":"1","platform_code":"","parent_station":"","feed_id":"Illinois__JAX_Mass_Transit_District__mdb_mdb-3408","agency_name":"JAX Mass Transit","route_count":2,"route_ids":"6808|6807","route_short_names":"","route_types":"3","route_type_names":"Bus","routes_json":"[{\"route_id\":\"6808\",\"route_short_name\":\"\",\"route_long_name\":\"Nile\",\"route_type\":\"3\",\"route_type_name\":\"Bus\",\"route_color\":\"FFD980\",\"route_text_color\":\"FFFFFF\"},{\"route_id\":\"6807\",\"route_short_name\":\"\",\"route_long_name\":\"Sahara\",\"route_type\":\"3\",\"route_type_name\":\"Bus\",\"route_color\":\"F06022\",\"route_text_color\":\"FFFFFF\"}]"},"geometry":{"type":"Point","coordinates":[-89.235633907,37.700434594]}},{"type":"Feature","properties":{"stop_id":"178849","stop_code":"07","stop_name":"Georgetown Apartments","stop_desc":"Georgetown Apartments","stop_url":"","location_type":"","stop_timezone":"","wheelchair_boarding":"1","platform_code":"","parent_station":"","feed_id":"Illinois__JAX_Mass_Transit_District__mdb_mdb-3408","agency_name":"JAX Mass Transit","route_count":1,"route_ids":"6806","route_short_names":"","route_types":"3","route_type_names":"Bus","routes_json":"[{\"route_id\":\"6806\",\"route_short_name\":\"\",\"route_long_name\":\"Saluki\",\"route_type\":\"3\",\"route_type_name\":\"Bus\",\"route_color\":\"A8A8A8\",\"route_text_color\":\"FFFFFF\"}]"},"geometry":{"type":"Point","coordinates":[-89.201292,37.717658]}},{"type":"Feature","properties":{"stop_id":"178878","stop_code":"43","stop_name":"Grand Avenue Mall","stop_desc":"Grand Avenue Mall","stop_url":"","location_type":"","stop_timezone":"","wheelchair_boarding":"1","platform_code":"","parent_station":"","feed_id":"Illinois__JAX_Mass_Transit_District__mdb_mdb-3408","agency_name":"JAX Mass Transit","route_count":1,"route_ids":"6807","route_short_names":"","route_types":"3","route_type_names":"Bus","routes_json":"[{\"route_id\":\"6807\",\"route_short_name\":\"\",\"route_long_name\":\"Sahara\",\"route_type\":\"3\",\"route_type_name\":\"Bus\",\"route_color\":\"F06022\",\"route_text_color\":\"FFFFFF\"}]"},"geometry":{"type":"Point","coordinates":[-89.20369,37.717517148]}},{"type":"Feature","properties":{"stop_id":"178889","stop_code":"54","stop_name":"Harbor Freight","stop_desc":"Harbor Freight","stop_url":"","location_type":"","stop_timezone":"","wheelchair_boarding":"1","platform_code":"","parent_station":"","feed_id":"Illinois__JAX_Mass_Transit_District__mdb_mdb-3408","agency_name":"JAX Mass Transit","route_count":1,"route_ids":"6807","route_short_names":"","route_types":"3","route_type_names":"Bus","routes_json":"[{\"route_id\":\"6807\",\"route_short_name\":\"\",\"route_long_name\":\"Sahara\",\"route_type\":\"3\",\"route_type_name\":\"Bus\",\"route_color\":\"F06022\",\"route_text_color\":\"FFFFFF\"}]"},"geometry":{"type":"Point","coordinates":[-89.193039479,37.733035885]}},{"type":"Feature","properties":{"stop_id":"178894","stop_code":"61","stop_name":"Illinois at Freeman","stop_desc":"Illinois @ Freeman","stop_url":"","location_type":"","stop_timezone":"","wheelchair_boarding":"1","platform_code":"","parent_station":"","feed_id":"Illinois__JAX_Mass_Transit_District__mdb_mdb-3408","agency_name":"JAX Mass Transit","route_count":1,"route_ids":"6805","route_short_names":"","route_types":"3","route_type_names":"Bus","routes_json":"[{\"route_id\":\"6805\",\"route_short_name\":\"\",\"route_long_name\":\"Pyramid\",\"route_type\":\"3\",\"route_type_name\":\"Bus\",\"route_color\":\"4197CB\",\"route_text_color\":\"FFFFFF\"}]"},"geometry":{"type":"Point","coordinates":[-89.216048015,37.720992487]}},{"type":"Feature","properties":{"stop_id":"178911","stop_code":"83","stop_name":"Jackson County Courthouse","stop_desc":"Jackson County Courthouse","stop_url":"","location_type":"","stop_timezone":"","wheelchair_boarding":"1","platform_code":"","parent_station":"","feed_id":"Illinois__JAX_Mass_Transit_District__mdb_mdb-3408","agency_name":"JAX Mass Transit","route_count":1,"route_ids":"8178","route_short_names":"","route_types":"3","route_type_names":"Bus","routes_json":"[{\"route_id\":\"8178\",\"route_short_name\":\"\",\"route_long_name\":\"Big Muddy\",\"route_type\":\"3\",\"route_type_name\":\"Bus\",\"route_color\":\"081E3F\",\"route_text_color\":\"FFFFFF\"}]"},"geometry":{"type":"Point","coordinates":[-89.335136239,37.763743819]}},{"type":"Feature","properties":{"stop_id":"178910","stop_code":"82","stop_name":"Jackson County Health Department","stop_desc":"Jackson County Health Department","stop_url":"","location_type":"","stop_timezone":"","wheelchair_boarding":"1","platform_code":"","parent_station":"","feed_id":"Illinois__JAX_Mass_Transit_District__mdb_mdb-3408","agency_name":"JAX Mass Transit","route_count":1,"route_ids":"8178","route_short_names":"","route_types":"3","route_type_names":"Bus","routes_json":"[{\"route_id\":\"8178\",\"route_short_name\":\"\",\"route_long_name\":\"Big Muddy\",\"route_type\":\"3\",\"route_type_name\":\"Bus\",\"route_color\":\"081E3F\",\"route_text_color\":\"FFFFFF\"}]"},"geometry":{"type":"Point","coordinates":[-89.278087506,37.761568177]}},{"type":"Feature","properties":{"stop_id":"178886","stop_code":"51","stop_name":"Kroger","stop_desc":"Kroger","stop_url":"","location_type":"","stop_timezone":"","wheelchair_boarding":"1","platform_code":"","parent_station":"","feed_id":"Illinois__JAX_Mass_Transit_District__mdb_mdb-3408","agency_name":"JAX Mass Transit","route_count":1,"route_ids":"6807","route_short_names":"","route_types":"3","route_type_names":"Bus","routes_json":"[{\"route_id\":\"6807\",\"route_short_name\":\"\",\"route_long_name\":\"Sahara\",\"route_type\":\"3\",\"route_type_name\":\"Bus\",\"route_color\":\"F06022\",\"route_text_color\":\"FFFFFF\"}]"},"geometry":{"type":"Point","coordinates":[-89.183341991,37.731334655]}},{"type":"Feature","properties":{"stop_id":"178870","stop_code":"28","stop_name":"Law School","stop_desc":"Law School","stop_url":"","location_type":"","stop_timezone":"","wheelchair_boarding":"1","platform_code":"","parent_station":"","feed_id":"Illinois__JAX_Mass_Transit_District__mdb_mdb-3408","agency_name":"JAX Mass Transit","route_count":1,"route_ids":"6808","route_short_names":"","route_types":"3","route_type_names":"Bus","routes_json":"[{\"route_id\":\"6808\",\"route_short_name\":\"\",\"route_long_name\":\"Nile\",\"route_type\":\"3\",\"route_type_name\":\"Bus\",\"route_color\":\"FFD980\",\"route_text_color\":\"FFFFFF\"}]"},"geometry":{"type":"Point","coordinates":[-89.23038222,37.71311088]}},{"type":"Feature","properties":{"stop_id":"178883","stop_code":"48","stop_name":"Lewis Lane at Walnut","stop_desc":"Lewis Lane @ Walnut","stop_url":"","location_type":"","stop_timezone":"","wheelchair_boarding":"1","platform_code":"","parent_station":"","feed_id":"Illinois__JAX_Mass_Transit_District__mdb_mdb-3408","agency_name":"JAX Mass Transit","route_count":1,"route_ids":"6807","route_short_names":"","route_types":"3","route_type_names":"Bus","routes_json":"[{\"route_id\":\"6807\",\"route_short_name\":\"\",\"route_long_name\":\"Sahara\",\"route_type\":\"3\",\"route_type_name\":\"Bus\",\"route_color\":\"F06022\",\"route_text_color\":\"FFFFFF\"}]"},"geometry":{"type":"Point","coordinates":[-89.199086674,37.726047608]}},{"type":"Feature","properties":{"stop_id":"178868","stop_code":"26","stop_name":"Life Science","stop_desc":"Life Science","stop_url":"","location_type":"","stop_timezone":"","wheelchair_boarding":"1","platform_code":"","parent_station":"","feed_id":"Illinois__JAX_Mass_Transit_District__mdb_mdb-3408","agency_name":"JAX Mass Transit","route_count":1,"route_ids":"6808","route_short_names":"","route_types":"3","route_type_names":"Bus","routes_json":"[{\"route_id\":\"6808\",\"route_short_name\":\"\",\"route_long_name\":\"Nile\",\"route_type\":\"3\",\"route_type_name\":\"Bus\",\"route_color\":\"FFD980\",\"route_text_color\":\"FFFFFF\"}]"},"geometry":{"type":"Point","coordinates":[-89.22400948,37.71486466]}},{"type":"Feature","properties":{"stop_id":"178845","stop_code":"03","stop_name":"Logan at Park (East Side)","stop_desc":"Logan @ Park (East Side)","stop_url":"","location_type":"","stop_timezone":"","wheelchair_boarding":"1","platform_code":"","parent_station":"","feed_id":"Illinois__JAX_Mass_Transit_District__mdb_mdb-3408","agency_name":"JAX Mass Transit","route_count":1,"route_ids":"6806","route_short_names":"","route_types":"3","route_type_names":"Bus","routes_json":"[{\"route_id\":\"6806\",\"route_short_name\":\"\",\"route_long_name\":\"Saluki\",\"route_type\":\"3\",\"route_type_name\":\"Bus\",\"route_color\":\"A8A8A8\",\"route_text_color\":\"FFFFFF\"}]"},"geometry":{"type":"Point","coordinates":[-89.209680356,37.71566756]}},{"type":"Feature","properties":{"stop_id":"178876","stop_code":"38","stop_name":"McLafferty Annex (East Side)","stop_desc":"McLafferty Annex (East Side)","stop_url":"","location_type":"","stop_timezone":"","wheelchair_boarding":"1","platform_code":"","parent_station":"","feed_id":"Illinois__JAX_Mass_Transit_District__mdb_mdb-3408","agency_name":"JAX Mass Transit","route_count":1,"route_ids":"6807","route_short_names":"","route_types":"3","route_type_names":"Bus","routes_json":"[{\"route_id\":\"6807\",\"route_short_name\":\"\",\"route_long_name\":\"Sahara\",\"route_type\":\"3\",\"route_type_name\":\"Bus\",\"route_color\":\"F06022\",\"route_text_color\":\"FFFFFF\"}]"},"geometry":{"type":"Point","coordinates":[-89.23745,37.70942702]}},{"type":"Feature","properties":{"stop_id":"178871","stop_code":"29","stop_name":"McLafferty Annex (West Side)","stop_desc":"McLafferty Annex (West Side)","stop_url":"","location_type":"","stop_timezone":"","wheelchair_boarding":"1","platform_code":"","parent_station":"","feed_id":"Illinois__JAX_Mass_Transit_District__mdb_mdb-3408","agency_name":"JAX Mass Transit","route_count":1,"route_ids":"6808","route_short_names":"","route_types":"3","route_type_names":"Bus","routes_json":"[{\"route_id\":\"6808\",\"route_short_name\":\"\",\"route_long_name\":\"Nile\",\"route_type\":\"3\",\"route_type_name\":\"Bus\",\"route_color\":\"FFD980\",\"route_text_color\":\"FFFFFF\"}]"},"geometry":{"type":"Point","coordinates":[-89.23763434,37.70940305]}},{"type":"Feature","properties":{"stop_id":"178852","stop_code":"10","stop_name":"Mill at Lincoln","stop_desc":"Mill @ Lincoln","stop_url":"","location_type":"","stop_timezone":"","wheelchair_boarding":"1","platform_code":"","parent_station":"","feed_id":"Illinois__JAX_Mass_Transit_District__mdb_mdb-3408","agency_name":"JAX Mass Transit","route_count":2,"route_ids":"6805|6806","route_short_names":"","route_types":"3","route_type_names":"Bus","routes_json":"[{\"route_id\":\"6805\",\"route_short_name\":\"\",\"route_long_name\":\"Pyramid\",\"route_type\":\"3\",\"route_type_name\":\"Bus\",\"route_color\":\"4197CB\",\"route_text_color\":\"FFFFFF\"},{\"route_id\":\"6806\",\"route_short_name\":\"\",\"route_long_name\":\"Saluki\",\"route_type\":\"3\",\"route_type_name\":\"Bus\",\"route_color\":\"A8A8A8\",\"route_text_color\":\"FFFFFF\"}]"},"geometry":{"type":"Point","coordinates":[-89.211995,37.721307]}},{"type":"Feature","properties":{"stop_id":"178903","stop_code":"70","stop_name":"Murdale Shopping Center","stop_desc":"Murdale Shopping Center","stop_url":"","location_type":"","stop_timezone":"","wheelchair_boarding":"1","platform_code":"","parent_station":"","feed_id":"Illinois__JAX_Mass_Transit_District__mdb_mdb-3408","agency_name":"JAX Mass Transit","route_count":1,"route_ids":"6805","route_short_names":"","route_types":"3","route_type_names":"Bus","routes_json":"[{\"route_id\":\"6805\",\"route_short_name\":\"\",\"route_long_name\":\"Pyramid\",\"route_type\":\"3\",\"route_type_name\":\"Bus\",\"route_color\":\"4197CB\",\"route_text_color\":\"FFFFFF\"}]"},"geometry":{"type":"Point","coordinates":[-89.23929172,37.728404501]}},{"type":"Feature","properties":{"stop_id":"178844","stop_code":"02","stop_name":"Neely Hall","stop_desc":"Neely Hall","stop_url":"","location_type":"","stop_timezone":"","wheelchair_boarding":"1","platform_code":"","parent_station":"","feed_id":"Illinois__JAX_Mass_Transit_District__mdb_mdb-3408","agency_name":"JAX Mass Transit","route_count":2,"route_ids":"6806|9399","route_short_names":"","route_types":"3","route_type_names":"Bus","routes_json":"[{\"route_id\":\"6806\",\"route_short_name\":\"\",\"route_long_name\":\"Saluki\",\"route_type\":\"3\",\"route_type_name\":\"Bus\",\"route_color\":\"A8A8A8\",\"route_text_color\":\"FFFFFF\"},{\"route_id\":\"9399\",\"route_short_name\":\"\",\"route_long_name\":\"Saluki Night Life\",\"route_type\":\"3\",\"route_type_name\":\"Bus\",\"route_color\":\"9467BD\",\"route_text_color\":\"FFFFFF\"}]"},"geometry":{"type":"Point","coordinates":[-89.213814,37.713872]}},{"type":"Feature","properties":{"stop_id":"178890","stop_code":"55","stop_name":"North of Walgreens East","stop_desc":"North of Walgreens East","stop_url":"","location_type":"","stop_timezone":"","wheelchair_boarding":"1","platform_code":"","parent_station":"","feed_id":"Illinois__JAX_Mass_Transit_District__mdb_mdb-3408","agency_name":"JAX Mass Transit","route_count":1,"route_ids":"6807","route_short_names":"","route_types":"3","route_type_names":"Bus","routes_json":"[{\"route_id\":\"6807\",\"route_short_name\":\"\",\"route_long_name\":\"Sahara\",\"route_type\":\"3\",\"route_type_name\":\"Bus\",\"route_color\":\"F06022\",\"route_text_color\":\"FFFFFF\"}]"},"geometry":{"type":"Point","coordinates":[-89.208735,37.72711259]}},{"type":"Feature","properties":{"stop_id":"178856","stop_code":"14","stop_name":"Northwest Annex at Wham","stop_desc":"Northwest Annex @ Wham","stop_url":"","location_type":"","stop_timezone":"","wheelchair_boarding":"1","platform_code":"","parent_station":"","feed_id":"Illinois__JAX_Mass_Transit_District__mdb_mdb-3408","agency_name":"JAX Mass Transit","route_count":1,"route_ids":"6806","route_short_names":"","route_types":"3","route_type_names":"Bus","routes_json":"[{\"route_id\":\"6806\",\"route_short_name\":\"\",\"route_long_name\":\"Saluki\",\"route_type\":\"3\",\"route_type_name\":\"Bus\",\"route_color\":\"A8A8A8\",\"route_text_color\":\"FFFFFF\"}]"},"geometry":{"type":"Point","coordinates":[-89.22439,37.71744]}},{"type":"Feature","properties":{"stop_id":"178904","stop_code":"71","stop_name":"Old West Main Apartments","stop_desc":"Old West Main Apartments","stop_url":"","location_type":"","stop_timezone":"","wheelchair_boarding":"2","platform_code":"","parent_station":"","feed_id":"Illinois__JAX_Mass_Transit_District__mdb_mdb-3408","agency_name":"JAX Mass Transit","route_count":1,"route_ids":"6805","route_short_names":"","route_types":"3","route_type_names":"Bus","routes_json":"[{\"route_id\":\"6805\",\"route_short_name\":\"\",\"route_long_name\":\"Pyramid\",\"route_type\":\"3\",\"route_type_name\":\"Bus\",\"route_color\":\"4197CB\",\"route_text_color\":\"FFFFFF\"}]"},"geometry":{"type":"Point","coordinates":[-89.23580907,37.72672933]}},{"type":"Feature","properties":{"stop_id":"178872","stop_code":"30","stop_name":"Physiology and Metabolism Center","stop_desc":"Physiology and Metabolism Center","stop_url":"","location_type":"","stop_timezone":"","wheelchair_boarding":"1","platform_code":"","parent_station":"","feed_id":"Illinois__JAX_Mass_Transit_District__mdb_mdb-3408","agency_name":"JAX Mass Transit","route_count":1,"route_ids":"6808","route_short_names":"","route_types":"3","route_type_names":"Bus","routes_json":"[{\"route_id\":\"6808\",\"route_short_name\":\"\",\"route_long_name\":\"Nile\",\"route_type\":\"3\",\"route_type_name\":\"Bus\",\"route_color\":\"FFD980\",\"route_text_color\":\"FFFFFF\"}]"},"geometry":{"type":"Point","coordinates":[-89.246849,37.695557]}},{"type":"Feature","properties":{"stop_id":"178906","stop_code":"73","stop_name":"Poplar at Cherry","stop_desc":"Poplar @ Cherry","stop_url":"","location_type":"","stop_timezone":"","wheelchair_boarding":"1","platform_code":"","parent_station":"","feed_id":"Illinois__JAX_Mass_Transit_District__mdb_mdb-3408","agency_name":"JAX Mass Transit","route_count":1,"route_ids":"6805","route_short_names":"","route_types":"3","route_type_names":"Bus","routes_json":"[{\"route_id\":\"6805\",\"route_short_name\":\"\",\"route_long_name\":\"Pyramid\",\"route_type\":\"3\",\"route_type_name\":\"Bus\",\"route_color\":\"4197CB\",\"route_text_color\":\"FFFFFF\"}]"},"geometry":{"type":"Point","coordinates":[-89.22169003,37.72277813]}},{"type":"Feature","properties":{"stop_id":"178855","stop_code":"13","stop_name":"Poplar at Mill (West Side)","stop_desc":"Poplar @ Mill (West Side)","stop_url":"","location_type":"","stop_timezone":"","wheelchair_boarding":"2","platform_code":"","parent_station":"","feed_id":"Illinois__JAX_Mass_Transit_District__mdb_mdb-3408","agency_name":"JAX Mass Transit","route_count":2,"route_ids":"6805|6806","route_short_names":"","route_types":"3","route_type_names":"Bus","routes_json":"[{\"route_id\":\"6805\",\"route_short_name\":\"\",\"route_long_name\":\"Pyramid\",\"route_type\":\"3\",\"route_type_name\":\"Bus\",\"route_color\":\"4197CB\",\"route_text_color\":\"FFFFFF\"},{\"route_id\":\"6806\",\"route_short_name\":\"\",\"route_long_name\":\"Saluki\",\"route_type\":\"3\",\"route_type_name\":\"Bus\",\"route_color\":\"A8A8A8\",\"route_text_color\":\"FFFFFF\"}]"},"geometry":{"type":"Point","coordinates":[-89.221327055,37.719611751]}},{"type":"Feature","properties":{"stop_id":"178900","stop_code":"67","stop_name":"S.I. Airport","stop_desc":"S.I. Airport","stop_url":"","location_type":"","stop_timezone":"","wheelchair_boarding":"1","platform_code":"","parent_station":"","feed_id":"Illinois__JAX_Mass_Transit_District__mdb_mdb-3408","agency_name":"JAX Mass Transit","route_count":1,"route_ids":"6805","route_short_names":"","route_types":"3","route_type_names":"Bus","routes_json":"[{\"route_id\":\"6805\",\"route_short_name\":\"\",\"route_long_name\":\"Pyramid\",\"route_type\":\"3\",\"route_type_name\":\"Bus\",\"route_color\":\"4197CB\",\"route_text_color\":\"FFFFFF\"}]"},"geometry":{"type":"Point","coordinates":[-89.252683,37.775676]}},{"type":"Feature","properties":{"stop_id":"178891","stop_code":"56","stop_name":"Saluki Apartments","stop_desc":"Saluki Apartments","stop_url":"","location_type":"","stop_timezone":"","wheelchair_boarding":"1","platform_code":"","parent_station":"","feed_id":"Illinois__JAX_Mass_Transit_District__mdb_mdb-3408","agency_name":"JAX Mass Transit","route_count":1,"route_ids":"6807","route_short_names":"","route_types":"3","route_type_names":"Bus","routes_json":"[{\"route_id\":\"6807\",\"route_short_name\":\"\",\"route_long_name\":\"Sahara\",\"route_type\":\"3\",\"route_type_name\":\"Bus\",\"route_color\":\"F06022\",\"route_text_color\":\"FFFFFF\"}]"},"geometry":{"type":"Point","coordinates":[-89.208845,37.72287941]}},{"type":"Feature","properties":{"stop_id":"178902","stop_code":"69","stop_name":"Saluki Gymnastics","stop_desc":"Saluki Gymnastics","stop_url":"","location_type":"","stop_timezone":"","wheelchair_boarding":"0","platform_code":"","parent_station":"","feed_id":"Illinois__JAX_Mass_Transit_District__mdb_mdb-3408","agency_name":"JAX Mass Transit","route_count":1,"route_ids":"8178","route_short_names":"","route_types":"3","route_type_names":"Bus","routes_json":"[{\"route_id\":\"8178\",\"route_short_name\":\"\",\"route_long_name\":\"Big Muddy\",\"route_type\":\"3\",\"route_type_name\":\"Bus\",\"route_color\":\"081E3F\",\"route_text_color\":\"FFFFFF\"}]"},"geometry":{"type":"Point","coordinates":[-89.249042893,37.731220371]}},{"type":"Feature","properties":{"stop_id":"178905","stop_code":"72","stop_name":"Schnucks","stop_desc":"Schnucks","stop_url":"","location_type":"","stop_timezone":"","wheelchair_boarding":"1","platform_code":"","parent_station":"","feed_id":"Illinois__JAX_Mass_Transit_District__mdb_mdb-3408","agency_name":"JAX Mass Transit","route_count":1,"route_ids":"6805","route_short_names":"","route_types":"3","route_type_names":"Bus","routes_json":"[{\"route_id\":\"6805\",\"route_short_name\":\"\",\"route_long_name\":\"Pyramid\",\"route_type\":\"3\",\"route_type_name\":\"Bus\",\"route_color\":\"4197CB\",\"route_text_color\":\"FFFFFF\"}]"},"geometry":{"type":"Point","coordinates":[-89.22918808,37.72540745]}},{"type":"Feature","properties":{"stop_id":"178899","stop_code":"66","stop_name":"SI Motor Sports","stop_desc":"SI Motor Sports","stop_url":"","location_type":"","stop_timezone":"","wheelchair_boarding":"1","platform_code":"","parent_station":"","feed_id":"Illinois__JAX_Mass_Transit_District__mdb_mdb-3408","agency_name":"JAX Mass Transit","route_count":1,"route_ids":"6805","route_short_names":"","route_types":"3","route_type_names":"Bus","routes_json":"[{\"route_id\":\"6805\",\"route_short_name\":\"\",\"route_long_name\":\"Pyramid\",\"route_type\":\"3\",\"route_type_name\":\"Bus\",\"route_color\":\"4197CB\",\"route_text_color\":\"FFFFFF\"}]"},"geometry":{"type":"Point","coordinates":[-89.246275831,37.733245145]}},{"type":"Feature","properties":{"stop_id":"196132","stop_code":"94","stop_name":"SIMMS","stop_desc":"","stop_url":"","location_type":"","stop_timezone":"","wheelchair_boarding":"1","platform_code":"","parent_station":"","feed_id":"Illinois__JAX_Mass_Transit_District__mdb_mdb-3408","agency_name":"JAX Mass Transit","route_count":3,"route_ids":"8178|6805|9399","route_short_names":"","route_types":"3","route_type_names":"Bus","routes_json":"[{\"route_id\":\"8178\",\"route_short_name\":\"\",\"route_long_name\":\"Big Muddy\",\"route_type\":\"3\",\"route_type_name\":\"Bus\",\"route_color\":\"081E3F\",\"route_text_color\":\"FFFFFF\"},{\"route_id\":\"6805\",\"route_short_name\":\"\",\"route_long_name\":\"Pyramid\",\"route_type\":\"3\",\"route_type_name\":\"Bus\",\"route_color\":\"4197CB\",\"route_text_color\":\"FFFFFF\"},{\"route_id\":\"9399\",\"route_short_name\":\"\",\"route_long_name\":\"Saluki Night Life\",\"route_type\":\"3\",\"route_type_name\":\"Bus\",\"route_color\":\"9467BD\",\"route_text_color\":\"FFFFFF\"}]"},"geometry":{"type":"Point","coordinates":[-89.216373076,37.725067866]}},{"type":"Feature","properties":{"stop_id":"178864","stop_code":"22","stop_name":"Southern Illinois Research Park","stop_desc":"Southern Illinois Research Park","stop_url":"","location_type":"","stop_timezone":"","wheelchair_boarding":"1","platform_code":"","parent_station":"","feed_id":"Illinois__JAX_Mass_Transit_District__mdb_mdb-3408","agency_name":"JAX Mass Transit","route_count":1,"route_ids":"6808","route_short_names":"","route_types":"3","route_type_names":"Bus","routes_json":"[{\"route_id\":\"6808\",\"route_short_name\":\"\",\"route_long_name\":\"Nile\",\"route_type\":\"3\",\"route_type_name\":\"Bus\",\"route_color\":\"FFD980\",\"route_text_color\":\"FFFFFF\"}]"},"geometry":{"type":"Point","coordinates":[-89.215805891,37.702580336]}},{"type":"Feature","properties":{"stop_id":"178843","stop_code":"01","stop_name":"Student Center (East Side)","stop_desc":"Student Center (East Side)","stop_url":"","location_type":"","stop_timezone":"","wheelchair_boarding":"1","platform_code":"","parent_station":"","feed_id":"Illinois__JAX_Mass_Transit_District__mdb_mdb-3408","agency_name":"JAX Mass Transit","route_count":4,"route_ids":"8178|6805|6807|6806","route_short_names":"","route_types":"3","route_type_names":"Bus","routes_json":"[{\"route_id\":\"8178\",\"route_short_name\":\"\",\"route_long_name\":\"Big Muddy\",\"route_type\":\"3\",\"route_type_name\":\"Bus\",\"route_color\":\"081E3F\",\"route_text_color\":\"FFFFFF\"},{\"route_id\":\"6805\",\"route_short_name\":\"\",\"route_long_name\":\"Pyramid\",\"route_type\":\"3\",\"route_type_name\":\"Bus\",\"route_color\":\"4197CB\",\"route_text_color\":\"FFFFFF\"},{\"route_id\":\"6807\",\"route_short_name\":\"\",\"route_long_name\":\"Sahara\",\"route_type\":\"3\",\"route_type_name\":\"Bus\",\"route_color\":\"F06022\",\"route_text_color\":\"FFFFFF\"},{\"route_id\":\"6806\",\"route_short_name\":\"\",\"route_long_name\":\"Saluki\",\"route_type\":\"3\",\"route_type_name\":\"Bus\",\"route_color\":\"A8A8A8\",\"route_text_color\":\"FFFFFF\"}]"},"geometry":{"type":"Point","coordinates":[-89.217728,37.712798]}},{"type":"Feature","properties":{"stop_id":"178865","stop_code":"23","stop_name":"Student Center (West Side)","stop_desc":"Student Center (West Side)","stop_url":"","location_type":"","stop_timezone":"","wheelchair_boarding":"1","platform_code":"","parent_station":"","feed_id":"Illinois__JAX_Mass_Transit_District__mdb_mdb-3408","agency_name":"JAX Mass Transit","route_count":2,"route_ids":"8178|6808","route_short_names":"","route_types":"3","route_type_names":"Bus","routes_json":"[{\"route_id\":\"8178\",\"route_short_name\":\"\",\"route_long_name\":\"Big Muddy\",\"route_type\":\"3\",\"route_type_name\":\"Bus\",\"route_color\":\"081E3F\",\"route_text_color\":\"FFFFFF\"},{\"route_id\":\"6808\",\"route_short_name\":\"\",\"route_long_name\":\"Nile\",\"route_type\":\"3\",\"route_type_name\":\"Bus\",\"route_color\":\"FFD980\",\"route_text_color\":\"FFFFFF\"}]"},"geometry":{"type":"Point","coordinates":[-89.217948,37.712361]}},{"type":"Feature","properties":{"stop_id":"178851","stop_code":"09","stop_name":"Student Health Center","stop_desc":"Student Health Center","stop_url":"","location_type":"","stop_timezone":"","wheelchair_boarding":"1","platform_code":"","parent_station":"","feed_id":"Illinois__JAX_Mass_Transit_District__mdb_mdb-3408","agency_name":"JAX Mass Transit","route_count":3,"route_ids":"6805|6806|9399","route_short_names":"","route_types":"3","route_type_names":"Bus","routes_json":"[{\"route_id\":\"6805\",\"route_short_name\":\"\",\"route_long_name\":\"Pyramid\",\"route_type\":\"3\",\"route_type_name\":\"Bus\",\"route_color\":\"4197CB\",\"route_text_color\":\"FFFFFF\"},{\"route_id\":\"6806\",\"route_short_name\":\"\",\"route_long_name\":\"Saluki\",\"route_type\":\"3\",\"route_type_name\":\"Bus\",\"route_color\":\"A8A8A8\",\"route_text_color\":\"FFFFFF\"},{\"route_id\":\"9399\",\"route_short_name\":\"\",\"route_long_name\":\"Saluki Night Life\",\"route_type\":\"3\",\"route_type_name\":\"Bus\",\"route_color\":\"9467BD\",\"route_text_color\":\"FFFFFF\"}]"},"geometry":{"type":"Point","coordinates":[-89.210402947,37.718630393]}},{"type":"Feature","properties":{"stop_id":"178882","stop_code":"47","stop_name":"Superblock","stop_desc":"Superblock","stop_url":"","location_type":"","stop_timezone":"","wheelchair_boarding":"1","platform_code":"","parent_station":"","feed_id":"Illinois__JAX_Mass_Transit_District__mdb_mdb-3408","agency_name":"JAX Mass Transit","route_count":1,"route_ids":"6807","route_short_names":"","route_types":"3","route_type_names":"Bus","routes_json":"[{\"route_id\":\"6807\",\"route_short_name\":\"\",\"route_long_name\":\"Sahara\",\"route_type\":\"3\",\"route_type_name\":\"Bus\",\"route_color\":\"F06022\",\"route_text_color\":\"FFFFFF\"}]"},"geometry":{"type":"Point","coordinates":[-89.199322201,37.720543]}},{"type":"Feature","properties":{"stop_id":"178898","stop_code":"65","stop_name":"Sycamore at Glenview","stop_desc":"Sycamore @ Glenview","stop_url":"","location_type":"","stop_timezone":"","wheelchair_boarding":"1","platform_code":"","parent_station":"","feed_id":"Illinois__JAX_Mass_Transit_District__mdb_mdb-3408","agency_name":"JAX Mass Transit","route_count":1,"route_ids":"6805","route_short_names":"","route_types":"3","route_type_names":"Bus","routes_json":"[{\"route_id\":\"6805\",\"route_short_name\":\"\",\"route_long_name\":\"Pyramid\",\"route_type\":\"3\",\"route_type_name\":\"Bus\",\"route_color\":\"4197CB\",\"route_text_color\":\"FFFFFF\"}]"},"geometry":{"type":"Point","coordinates":[-89.236798452,37.730585303]}},{"type":"Feature","properties":{"stop_id":"178896","stop_code":"63","stop_name":"Sycamore at Michaels","stop_desc":"Sycamore @ Michaels","stop_url":"","location_type":"","stop_timezone":"","wheelchair_boarding":"1","platform_code":"","parent_station":"","feed_id":"Illinois__JAX_Mass_Transit_District__mdb_mdb-3408","agency_name":"JAX Mass Transit","route_count":1,"route_ids":"6805","route_short_names":"","route_types":"3","route_type_names":"Bus","routes_json":"[{\"route_id\":\"6805\",\"route_short_name\":\"\",\"route_long_name\":\"Pyramid\",\"route_type\":\"3\",\"route_type_name\":\"Bus\",\"route_color\":\"4197CB\",\"route_text_color\":\"FFFFFF\"}]"},"geometry":{"type":"Point","coordinates":[-89.220974,37.730581303]}},{"type":"Feature","properties":{"stop_id":"178846","stop_code":"04","stop_name":"The Pointe","stop_desc":"The Pointe","stop_url":"","location_type":"","stop_timezone":"","wheelchair_boarding":"1","platform_code":"","parent_station":"","feed_id":"Illinois__JAX_Mass_Transit_District__mdb_mdb-3408","agency_name":"JAX Mass Transit","route_count":2,"route_ids":"6806|9399","route_short_names":"","route_types":"3","route_type_names":"Bus","routes_json":"[{\"route_id\":\"6806\",\"route_short_name\":\"\",\"route_long_name\":\"Saluki\",\"route_type\":\"3\",\"route_type_name\":\"Bus\",\"route_color\":\"A8A8A8\",\"route_text_color\":\"FFFFFF\"},{\"route_id\":\"9399\",\"route_short_name\":\"\",\"route_long_name\":\"Saluki Night Life\",\"route_type\":\"3\",\"route_type_name\":\"Bus\",\"route_color\":\"9467BD\",\"route_text_color\":\"FFFFFF\"}]"},"geometry":{"type":"Point","coordinates":[-89.20288239,37.715619335]}},{"type":"Feature","properties":{"stop_id":"178863","stop_code":"21","stop_name":"The Reserve","stop_desc":"The Reserve","stop_url":"","location_type":"","stop_timezone":"","wheelchair_boarding":"1","platform_code":"","parent_station":"","feed_id":"Illinois__JAX_Mass_Transit_District__mdb_mdb-3408","agency_name":"JAX Mass Transit","route_count":3,"route_ids":"6808|6807|9399","route_short_names":"","route_types":"3","route_type_names":"Bus","routes_json":"[{\"route_id\":\"6808\",\"route_short_name\":\"\",\"route_long_name\":\"Nile\",\"route_type\":\"3\",\"route_type_name\":\"Bus\",\"route_color\":\"FFD980\",\"route_text_color\":\"FFFFFF\"},{\"route_id\":\"6807\",\"route_short_name\":\"\",\"route_long_name\":\"Sahara\",\"route_type\":\"3\",\"route_type_name\":\"Bus\",\"route_color\":\"F06022\",\"route_text_color\":\"FFFFFF\"},{\"route_id\":\"9399\",\"route_short_name\":\"\",\"route_long_name\":\"Saluki Night Life\",\"route_type\":\"3\",\"route_type_name\":\"Bus\",\"route_color\":\"9467BD\",\"route_text_color\":\"FFFFFF\"}]"},"geometry":{"type":"Point","coordinates":[-89.221854,37.695448]}},{"type":"Feature","properties":{"stop_id":"178867","stop_code":"25","stop_name":"Thompson Point at Lincoln (North Side)","stop_desc":"Thompson Point @ Lincoln (North Side)","stop_url":"","location_type":"","stop_timezone":"","wheelchair_boarding":"1","platform_code":"","parent_station":"","feed_id":"Illinois__JAX_Mass_Transit_District__mdb_mdb-3408","agency_name":"JAX Mass Transit","route_count":1,"route_ids":"6808","route_short_names":"","route_types":"3","route_type_names":"Bus","routes_json":"[{\"route_id\":\"6808\",\"route_short_name\":\"\",\"route_long_name\":\"Nile\",\"route_type\":\"3\",\"route_type_name\":\"Bus\",\"route_color\":\"FFD980\",\"route_text_color\":\"FFFFFF\"}]"},"geometry":{"type":"Point","coordinates":[-89.223809093,37.712267423]}},{"type":"Feature","properties":{"stop_id":"178858","stop_code":"16","stop_name":"Thompson Point at Lincoln (South Side)","stop_desc":"Thompson Point @ Lincoln (South Side)","stop_url":"","location_type":"","stop_timezone":"","wheelchair_boarding":"1","platform_code":"","parent_station":"","feed_id":"Illinois__JAX_Mass_Transit_District__mdb_mdb-3408","agency_name":"JAX Mass Transit","route_count":4,"route_ids":"6805|6807|6806|9399","route_short_names":"","route_types":"3","route_type_names":"Bus","routes_json":"[{\"route_id\":\"6805\",\"route_short_name\":\"\",\"route_long_name\":\"Pyramid\",\"route_type\":\"3\",\"route_type_name\":\"Bus\",\"route_color\":\"4197CB\",\"route_text_color\":\"FFFFFF\"},{\"route_id\":\"6807\",\"route_short_name\":\"\",\"route_long_name\":\"Sahara\",\"route_type\":\"3\",\"route_type_name\":\"Bus\",\"route_color\":\"F06022\",\"route_text_color\":\"FFFFFF\"},{\"route_id\":\"6806\",\"route_short_name\":\"\",\"route_long_name\":\"Saluki\",\"route_type\":\"3\",\"route_type_name\":\"Bus\",\"route_color\":\"A8A8A8\",\"route_text_color\":\"FFFFFF\"},{\"route_id\":\"9399\",\"route_short_name\":\"\",\"route_long_name\":\"Saluki Night Life\",\"route_type\":\"3\",\"route_type_name\":\"Bus\",\"route_color\":\"9467BD\",\"route_text_color\":\"FFFFFF\"}]"},"geometry":{"type":"Point","coordinates":[-89.223988834,37.712186888]}},{"type":"Feature","properties":{"stop_id":"178850","stop_code":"08","stop_name":"University Village","stop_desc":"University Village","stop_url":"","location_type":"","stop_timezone":"","wheelchair_boarding":"1","platform_code":"","parent_station":"","feed_id":"Illinois__JAX_Mass_Transit_District__mdb_mdb-3408","agency_name":"JAX Mass Transit","route_count":2,"route_ids":"6806|9399","route_short_names":"","route_types":"3","route_type_names":"Bus","routes_json":"[{\"route_id\":\"6806\",\"route_short_name\":\"\",\"route_long_name\":\"Saluki\",\"route_type\":\"3\",\"route_type_name\":\"Bus\",\"route_color\":\"A8A8A8\",\"route_text_color\":\"FFFFFF\"},{\"route_id\":\"9399\",\"route_short_name\":\"\",\"route_long_name\":\"Saluki Night Life\",\"route_type\":\"3\",\"route_type_name\":\"Bus\",\"route_color\":\"9467BD\",\"route_text_color\":\"FFFFFF\"}]"},"geometry":{"type":"Point","coordinates":[-89.205295,37.717599]}},{"type":"Feature","properties":{"stop_id":"178874","stop_code":"32","stop_name":"Wall at East Campus Drive","stop_desc":"Wall @ East Campus Drive","stop_url":"","location_type":"","stop_timezone":"","wheelchair_boarding":"1","platform_code":"","parent_station":"","feed_id":"Illinois__JAX_Mass_Transit_District__mdb_mdb-3408","agency_name":"JAX Mass Transit","route_count":1,"route_ids":"6807","route_short_names":"","route_types":"3","route_type_names":"Bus","routes_json":"[{\"route_id\":\"6807\",\"route_short_name\":\"\",\"route_long_name\":\"Sahara\",\"route_type\":\"3\",\"route_type_name\":\"Bus\",\"route_color\":\"F06022\",\"route_text_color\":\"FFFFFF\"}]"},"geometry":{"type":"Point","coordinates":[-89.209090014,37.712816343]}},{"type":"Feature","properties":{"stop_id":"178873","stop_code":"31","stop_name":"Wall at Park","stop_desc":"Wall @ Park","stop_url":"","location_type":"","stop_timezone":"","wheelchair_boarding":"1","platform_code":"","parent_station":"","feed_id":"Illinois__JAX_Mass_Transit_District__mdb_mdb-3408","agency_name":"JAX Mass Transit","route_count":1,"route_ids":"6807","route_short_names":"","route_types":"3","route_type_names":"Bus","routes_json":"[{\"route_id\":\"6807\",\"route_short_name\":\"\",\"route_long_name\":\"Sahara\",\"route_type\":\"3\",\"route_type_name\":\"Bus\",\"route_color\":\"F06022\",\"route_text_color\":\"FFFFFF\"}]"},"geometry":{"type":"Point","coordinates":[-89.208984178,37.715688787]}},{"type":"Feature","properties":{"stop_id":"178875","stop_code":"33","stop_name":"Wall at Pleasant Hill Road","stop_desc":"Wall @ Pleasant Hill Road","stop_url":"","location_type":"","stop_timezone":"","wheelchair_boarding":"0","platform_code":"","parent_station":"","feed_id":"Illinois__JAX_Mass_Transit_District__mdb_mdb-3408","agency_name":"JAX Mass Transit","route_count":1,"route_ids":"6807","route_short_names":"","route_types":"3","route_type_names":"Bus","routes_json":"[{\"route_id\":\"6807\",\"route_short_name\":\"\",\"route_long_name\":\"Sahara\",\"route_type\":\"3\",\"route_type_name\":\"Bus\",\"route_color\":\"F06022\",\"route_text_color\":\"FFFFFF\"}]"},"geometry":{"type":"Point","coordinates":[-89.210372,37.70022861]}},{"type":"Feature","properties":{"stop_id":"178887","stop_code":"52","stop_name":"Walmart","stop_desc":"Walmart","stop_url":"","location_type":"","stop_timezone":"","wheelchair_boarding":"1","platform_code":"","parent_station":"","feed_id":"Illinois__JAX_Mass_Transit_District__mdb_mdb-3408","agency_name":"JAX Mass Transit","route_count":1,"route_ids":"6807","route_short_names":"","route_types":"3","route_type_names":"Bus","routes_json":"[{\"route_id\":\"6807\",\"route_short_name\":\"\",\"route_long_name\":\"Sahara\",\"route_type\":\"3\",\"route_type_name\":\"Bus\",\"route_color\":\"F06022\",\"route_text_color\":\"FFFFFF\"}]"},"geometry":{"type":"Point","coordinates":[-89.187524,37.73748275]}},{"type":"Feature","properties":{"stop_id":"178884","stop_code":"49","stop_name":"Walnut at Sports Blast","stop_desc":"Walnut @ Sports Blast","stop_url":"","location_type":"","stop_timezone":"","wheelchair_boarding":"1","platform_code":"","parent_station":"","feed_id":"Illinois__JAX_Mass_Transit_District__mdb_mdb-3408","agency_name":"JAX Mass Transit","route_count":1,"route_ids":"6807","route_short_names":"","route_types":"3","route_type_names":"Bus","routes_json":"[{\"route_id\":\"6807\",\"route_short_name\":\"\",\"route_long_name\":\"Sahara\",\"route_type\":\"3\",\"route_type_name\":\"Bus\",\"route_color\":\"F06022\",\"route_text_color\":\"FFFFFF\"}]"},"geometry":{"type":"Point","coordinates":[-89.192741411,37.726810478]}},{"type":"Feature","properties":{"stop_id":"178862","stop_code":"20","stop_name":"Westwood Apartments","stop_desc":"Westwood Apartments","stop_url":"","location_type":"","stop_timezone":"","wheelchair_boarding":"1","platform_code":"","parent_station":"","feed_id":"Illinois__JAX_Mass_Transit_District__mdb_mdb-3408","agency_name":"JAX Mass Transit","route_count":2,"route_ids":"6808|6807","route_short_names":"","route_types":"3","route_type_names":"Bus","routes_json":"[{\"route_id\":\"6808\",\"route_short_name\":\"\",\"route_long_name\":\"Nile\",\"route_type\":\"3\",\"route_type_name\":\"Bus\",\"route_color\":\"FFD980\",\"route_text_color\":\"FFFFFF\"},{\"route_id\":\"6807\",\"route_short_name\":\"\",\"route_long_name\":\"Sahara\",\"route_type\":\"3\",\"route_type_name\":\"Bus\",\"route_color\":\"F06022\",\"route_text_color\":\"FFFFFF\"}]"},"geometry":{"type":"Point","coordinates":[-89.21906,37.69862]}}]}