{"type":"FeatureCollection","features":[{"type":"Feature","properties":{"stop_id":"1","stop_name":"Anacortes","feed_id":"Washington__Washington_State_Ferries__mdb_mdb-1331","agency_name":"Washington State Ferries","route_count":8,"route_ids":"110|113|115|118|101|131|151|181","route_short_names":"","route_types":"4","route_type_names":"Ferry","routes_json":"[{\"route_id\":\"110\",\"route_short_name\":\"\",\"route_long_name\":\"Anacortes - Friday Harbor\",\"route_type\":\"4\",\"route_type_name\":\"Ferry\",\"route_color\":\"64748B\",\"route_text_color\":\"FFFFFF\"},{\"route_id\":\"113\",\"route_short_name\":\"\",\"route_long_name\":\"Anacortes - Lopez Island\",\"route_type\":\"4\",\"route_type_name\":\"Ferry\",\"route_color\":\"64748B\",\"route_text_color\":\"FFFFFF\"},{\"route_id\":\"115\",\"route_short_name\":\"\",\"route_long_name\":\"Anacortes - Orcas Island\",\"route_type\":\"4\",\"route_type_name\":\"Ferry\",\"route_color\":\"64748B\",\"route_text_color\":\"FFFFFF\"},{\"route_id\":\"118\",\"route_short_name\":\"\",\"route_long_name\":\"Anacortes - Shaw Island\",\"route_type\":\"4\",\"route_type_name\":\"Ferry\",\"route_color\":\"64748B\",\"route_text_color\":\"FFFFFF\"},{\"route_id\":\"101\",\"route_short_name\":\"\",\"route_long_name\":\"Friday Harbor - Anacortes\",\"route_type\":\"4\",\"route_type_name\":\"Ferry\",\"route_color\":\"64748B\",\"route_text_color\":\"FFFFFF\"},{\"route_id\":\"131\",\"route_short_name\":\"\",\"route_long_name\":\"Lopez Island - Anacortes\",\"route_type\":\"4\",\"route_type_name\":\"Ferry\",\"route_color\":\"64748B\",\"route_text_color\":\"FFFFFF\"},{\"route_id\":\"151\",\"route_short_name\":\"\",\"route_long_name\":\"Orcas Island - Anacortes\",\"route_type\":\"4\",\"route_type_name\":\"Ferry\",\"route_color\":\"64748B\",\"route_text_color\":\"FFFFFF\"},{\"route_id\":\"181\",\"route_short_name\":\"\",\"route_long_name\":\"Shaw Island - Anacortes\",\"route_type\":\"4\",\"route_type_name\":\"Ferry\",\"route_color\":\"64748B\",\"route_text_color\":\"FFFFFF\"}]"},"geometry":{"type":"Point","coordinates":[-122.678254,48.506483]}},{"type":"Feature","properties":{"stop_id":"10","stop_name":"Friday Harbor","feed_id":"Washington__Washington_State_Ferries__mdb_mdb-1331","agency_name":"Washington State Ferries","route_count":8,"route_ids":"110|101|1013|1015|1018|1310|1510|1810","route_short_names":"","route_types":"4","route_type_names":"Ferry","routes_json":"[{\"route_id\":\"110\",\"route_short_name\":\"\",\"route_long_name\":\"Anacortes - Friday Harbor\",\"route_type\":\"4\",\"route_type_name\":\"Ferry\",\"route_color\":\"64748B\",\"route_text_color\":\"FFFFFF\"},{\"route_id\":\"101\",\"route_short_name\":\"\",\"route_long_name\":\"Friday Harbor - Anacortes\",\"route_type\":\"4\",\"route_type_name\":\"Ferry\",\"route_color\":\"64748B\",\"route_text_color\":\"FFFFFF\"},{\"route_id\":\"1013\",\"route_short_name\":\"\",\"route_long_name\":\"Friday Harbor - Lopez Island\",\"route_type\":\"4\",\"route_type_name\":\"Ferry\",\"route_color\":\"64748B\",\"route_text_color\":\"FFFFFF\"},{\"route_id\":\"1015\",\"route_short_name\":\"\",\"route_long_name\":\"Friday Harbor - Orcas Island\",\"route_type\":\"4\",\"route_type_name\":\"Ferry\",\"route_color\":\"64748B\",\"route_text_color\":\"FFFFFF\"},{\"route_id\":\"1018\",\"route_short_name\":\"\",\"route_long_name\":\"Friday Harbor - Shaw Island\",\"route_type\":\"4\",\"route_type_name\":\"Ferry\",\"route_color\":\"64748B\",\"route_text_color\":\"FFFFFF\"},{\"route_id\":\"1310\",\"route_short_name\":\"\",\"route_long_name\":\"Lopez Island - Friday Harbor\",\"route_type\":\"4\",\"route_type_name\":\"Ferry\",\"route_color\":\"64748B\",\"route_text_color\":\"FFFFFF\"},{\"route_id\":\"1510\",\"route_short_name\":\"\",\"route_long_name\":\"Orcas Island - Friday Harbor\",\"route_type\":\"4\",\"route_type_name\":\"Ferry\",\"route_color\":\"64748B\",\"route_text_color\":\"FFFFFF\"},{\"route_id\":\"1810\",\"route_short_name\":\"\",\"route_long_name\":\"Shaw Island - Friday Harbor\",\"route_type\":\"4\",\"route_type_name\":\"Ferry\",\"route_color\":\"64748B\",\"route_text_color\":\"FFFFFF\"}]"},"geometry":{"type":"Point","coordinates":[-123.01475,48.535066]}},{"type":"Feature","properties":{"stop_id":"11","stop_name":"Coupeville","feed_id":"Washington__Washington_State_Ferries__mdb_mdb-1331","agency_name":"Washington State Ferries","route_count":2,"route_ids":"1117|1711","route_short_names":"","route_types":"4","route_type_names":"Ferry","routes_json":"[{\"route_id\":\"1117\",\"route_short_name\":\"\",\"route_long_name\":\"Coupeville  - Port Townsend\",\"route_type\":\"4\",\"route_type_name\":\"Ferry\",\"route_color\":\"64748B\",\"route_text_color\":\"FFFFFF\"},{\"route_id\":\"1711\",\"route_short_name\":\"\",\"route_long_name\":\"Port Townsend - Coupeville\",\"route_type\":\"4\",\"route_type_name\":\"Ferry\",\"route_color\":\"64748B\",\"route_text_color\":\"FFFFFF\"}]"},"geometry":{"type":"Point","coordinates":[-122.672678,48.159745]}},{"type":"Feature","properties":{"stop_id":"12","stop_name":"Kingston","feed_id":"Washington__Washington_State_Ferries__mdb_mdb-1331","agency_name":"Washington State Ferries","route_count":2,"route_ids":"812|128","route_short_names":"","route_types":"4","route_type_names":"Ferry","routes_json":"[{\"route_id\":\"812\",\"route_short_name\":\"\",\"route_long_name\":\"Edmonds - Kingston\",\"route_type\":\"4\",\"route_type_name\":\"Ferry\",\"route_color\":\"64748B\",\"route_text_color\":\"FFFFFF\"},{\"route_id\":\"128\",\"route_short_name\":\"\",\"route_long_name\":\"Kingston - Edmonds\",\"route_type\":\"4\",\"route_type_name\":\"Ferry\",\"route_color\":\"64748B\",\"route_text_color\":\"FFFFFF\"}]"},"geometry":{"type":"Point","coordinates":[-122.496454,47.796299]}},{"type":"Feature","properties":{"stop_id":"13","stop_name":"Lopez Island","feed_id":"Washington__Washington_State_Ferries__mdb_mdb-1331","agency_name":"Washington State Ferries","route_count":8,"route_ids":"113|1013|131|1310|1315|1318|1513|1813","route_short_names":"","route_types":"4","route_type_names":"Ferry","routes_json":"[{\"route_id\":\"113\",\"route_short_name\":\"\",\"route_long_name\":\"Anacortes - Lopez Island\",\"route_type\":\"4\",\"route_type_name\":\"Ferry\",\"route_color\":\"64748B\",\"route_text_color\":\"FFFFFF\"},{\"route_id\":\"1013\",\"route_short_name\":\"\",\"route_long_name\":\"Friday Harbor - Lopez Island\",\"route_type\":\"4\",\"route_type_name\":\"Ferry\",\"route_color\":\"64748B\",\"route_text_color\":\"FFFFFF\"},{\"route_id\":\"131\",\"route_short_name\":\"\",\"route_long_name\":\"Lopez Island - Anacortes\",\"route_type\":\"4\",\"route_type_name\":\"Ferry\",\"route_color\":\"64748B\",\"route_text_color\":\"FFFFFF\"},{\"route_id\":\"1310\",\"route_short_name\":\"\",\"route_long_name\":\"Lopez Island - Friday Harbor\",\"route_type\":\"4\",\"route_type_name\":\"Ferry\",\"route_color\":\"64748B\",\"route_text_color\":\"FFFFFF\"},{\"route_id\":\"1315\",\"route_short_name\":\"\",\"route_long_name\":\"Lopez Island - Orcas Island\",\"route_type\":\"4\",\"route_type_name\":\"Ferry\",\"route_color\":\"64748B\",\"route_text_color\":\"FFFFFF\"},{\"route_id\":\"1318\",\"route_short_name\":\"\",\"route_long_name\":\"Lopez Island - Shaw Island\",\"route_type\":\"4\",\"route_type_name\":\"Ferry\",\"route_color\":\"64748B\",\"route_text_color\":\"FFFFFF\"},{\"route_id\":\"1513\",\"route_short_name\":\"\",\"route_long_name\":\"Orcas Island - Lopez Island\",\"route_type\":\"4\",\"route_type_name\":\"Ferry\",\"route_color\":\"64748B\",\"route_text_color\":\"FFFFFF\"},{\"route_id\":\"1813\",\"route_short_name\":\"\",\"route_long_name\":\"Shaw Island - Lopez Island\",\"route_type\":\"4\",\"route_type_name\":\"Ferry\",\"route_color\":\"64748B\",\"route_text_color\":\"FFFFFF\"}]"},"geometry":{"type":"Point","coordinates":[-122.883628,48.570421]}},{"type":"Feature","properties":{"stop_id":"14","stop_name":"Mukilteo","feed_id":"Washington__Washington_State_Ferries__mdb_mdb-1331","agency_name":"Washington State Ferries","route_count":2,"route_ids":"514|145","route_short_names":"","route_types":"4","route_type_names":"Ferry","routes_json":"[{\"route_id\":\"514\",\"route_short_name\":\"\",\"route_long_name\":\"Clinton - Mukilteo\",\"route_type\":\"4\",\"route_type_name\":\"Ferry\",\"route_color\":\"64748B\",\"route_text_color\":\"FFFFFF\"},{\"route_id\":\"145\",\"route_short_name\":\"\",\"route_long_name\":\"Mukilteo - Clinton\",\"route_type\":\"4\",\"route_type_name\":\"Ferry\",\"route_color\":\"64748B\",\"route_text_color\":\"FFFFFF\"}]"},"geometry":{"type":"Point","coordinates":[-122.297,47.9506]}},{"type":"Feature","properties":{"stop_id":"15","stop_name":"Orcas Island","feed_id":"Washington__Washington_State_Ferries__mdb_mdb-1331","agency_name":"Washington State Ferries","route_count":8,"route_ids":"115|1015|1315|151|1510|1513|1518|1815","route_short_names":"","route_types":"4","route_type_names":"Ferry","routes_json":"[{\"route_id\":\"115\",\"route_short_name\":\"\",\"route_long_name\":\"Anacortes - Orcas Island\",\"route_type\":\"4\",\"route_type_name\":\"Ferry\",\"route_color\":\"64748B\",\"route_text_color\":\"FFFFFF\"},{\"route_id\":\"1015\",\"route_short_name\":\"\",\"route_long_name\":\"Friday Harbor - Orcas Island\",\"route_type\":\"4\",\"route_type_name\":\"Ferry\",\"route_color\":\"64748B\",\"route_text_color\":\"FFFFFF\"},{\"route_id\":\"1315\",\"route_short_name\":\"\",\"route_long_name\":\"Lopez Island - Orcas Island\",\"route_type\":\"4\",\"route_type_name\":\"Ferry\",\"route_color\":\"64748B\",\"route_text_color\":\"FFFFFF\"},{\"route_id\":\"151\",\"route_short_name\":\"\",\"route_long_name\":\"Orcas Island - Anacortes\",\"route_type\":\"4\",\"route_type_name\":\"Ferry\",\"route_color\":\"64748B\",\"route_text_color\":\"FFFFFF\"},{\"route_id\":\"1510\",\"route_short_name\":\"\",\"route_long_name\":\"Orcas Island - Friday Harbor\",\"route_type\":\"4\",\"route_type_name\":\"Ferry\",\"route_color\":\"64748B\",\"route_text_color\":\"FFFFFF\"},{\"route_id\":\"1513\",\"route_short_name\":\"\",\"route_long_name\":\"Orcas Island - Lopez Island\",\"route_type\":\"4\",\"route_type_name\":\"Ferry\",\"route_color\":\"64748B\",\"route_text_color\":\"FFFFFF\"},{\"route_id\":\"1518\",\"route_short_name\":\"\",\"route_long_name\":\"Orcas Island - Shaw Island\",\"route_type\":\"4\",\"route_type_name\":\"Ferry\",\"route_color\":\"64748B\",\"route_text_color\":\"FFFFFF\"},{\"route_id\":\"1815\",\"route_short_name\":\"\",\"route_long_name\":\"Shaw Island - Orcas Island\",\"route_type\":\"4\",\"route_type_name\":\"Ferry\",\"route_color\":\"64748B\",\"route_text_color\":\"FFFFFF\"}]"},"geometry":{"type":"Point","coordinates":[-122.944101,48.59793]}},{"type":"Feature","properties":{"stop_id":"16","stop_name":"Point Defiance","feed_id":"Washington__Washington_State_Ferries__mdb_mdb-1331","agency_name":"Washington State Ferries","route_count":2,"route_ids":"1621|2116","route_short_names":"","route_types":"4","route_type_names":"Ferry","routes_json":"[{\"route_id\":\"1621\",\"route_short_name\":\"\",\"route_long_name\":\"Point Defiance - Tahlequah\",\"route_type\":\"4\",\"route_type_name\":\"Ferry\",\"route_color\":\"64748B\",\"route_text_color\":\"FFFFFF\"},{\"route_id\":\"2116\",\"route_short_name\":\"\",\"route_long_name\":\"Tahlequah - Point Defiance\",\"route_type\":\"4\",\"route_type_name\":\"Ferry\",\"route_color\":\"64748B\",\"route_text_color\":\"FFFFFF\"}]"},"geometry":{"type":"Point","coordinates":[-122.514242,47.30555]}},{"type":"Feature","properties":{"stop_id":"17","stop_name":"Port Townsend","feed_id":"Washington__Washington_State_Ferries__mdb_mdb-1331","agency_name":"Washington State Ferries","route_count":2,"route_ids":"1117|1711","route_short_names":"","route_types":"4","route_type_names":"Ferry","routes_json":"[{\"route_id\":\"1117\",\"route_short_name\":\"\",\"route_long_name\":\"Coupeville  - Port Townsend\",\"route_type\":\"4\",\"route_type_name\":\"Ferry\",\"route_color\":\"64748B\",\"route_text_color\":\"FFFFFF\"},{\"route_id\":\"1711\",\"route_short_name\":\"\",\"route_long_name\":\"Port Townsend - Coupeville\",\"route_type\":\"4\",\"route_type_name\":\"Ferry\",\"route_color\":\"64748B\",\"route_text_color\":\"FFFFFF\"}]"},"geometry":{"type":"Point","coordinates":[-122.760505,48.112664]}},{"type":"Feature","properties":{"stop_id":"18","stop_name":"Shaw Island","feed_id":"Washington__Washington_State_Ferries__mdb_mdb-1331","agency_name":"Washington State Ferries","route_count":8,"route_ids":"118|1018|1318|1518|181|1810|1813|1815","route_short_names":"","route_types":"4","route_type_names":"Ferry","routes_json":"[{\"route_id\":\"118\",\"route_short_name\":\"\",\"route_long_name\":\"Anacortes - Shaw Island\",\"route_type\":\"4\",\"route_type_name\":\"Ferry\",\"route_color\":\"64748B\",\"route_text_color\":\"FFFFFF\"},{\"route_id\":\"1018\",\"route_short_name\":\"\",\"route_long_name\":\"Friday Harbor - Shaw Island\",\"route_type\":\"4\",\"route_type_name\":\"Ferry\",\"route_color\":\"64748B\",\"route_text_color\":\"FFFFFF\"},{\"route_id\":\"1318\",\"route_short_name\":\"\",\"route_long_name\":\"Lopez Island - Shaw Island\",\"route_type\":\"4\",\"route_type_name\":\"Ferry\",\"route_color\":\"64748B\",\"route_text_color\":\"FFFFFF\"},{\"route_id\":\"1518\",\"route_short_name\":\"\",\"route_long_name\":\"Orcas Island - Shaw Island\",\"route_type\":\"4\",\"route_type_name\":\"Ferry\",\"route_color\":\"64748B\",\"route_text_color\":\"FFFFFF\"},{\"route_id\":\"181\",\"route_short_name\":\"\",\"route_long_name\":\"Shaw Island - Anacortes\",\"route_type\":\"4\",\"route_type_name\":\"Ferry\",\"route_color\":\"64748B\",\"route_text_color\":\"FFFFFF\"},{\"route_id\":\"1810\",\"route_short_name\":\"\",\"route_long_name\":\"Shaw Island - Friday Harbor\",\"route_type\":\"4\",\"route_type_name\":\"Ferry\",\"route_color\":\"64748B\",\"route_text_color\":\"FFFFFF\"},{\"route_id\":\"1813\",\"route_short_name\":\"\",\"route_long_name\":\"Shaw Island - Lopez Island\",\"route_type\":\"4\",\"route_type_name\":\"Ferry\",\"route_color\":\"64748B\",\"route_text_color\":\"FFFFFF\"},{\"route_id\":\"1815\",\"route_short_name\":\"\",\"route_long_name\":\"Shaw Island - Orcas Island\",\"route_type\":\"4\",\"route_type_name\":\"Ferry\",\"route_color\":\"64748B\",\"route_text_color\":\"FFFFFF\"}]"},"geometry":{"type":"Point","coordinates":[-122.929298,48.584021]}},{"type":"Feature","properties":{"stop_id":"20","stop_name":"Southworth","feed_id":"Washington__Washington_State_Ferries__mdb_mdb-1331","agency_name":"Washington State Ferries","route_count":4,"route_ids":"920|209|2022|2220","route_short_names":"","route_types":"4","route_type_names":"Ferry","routes_json":"[{\"route_id\":\"920\",\"route_short_name\":\"\",\"route_long_name\":\"Fauntleroy - Southworth\",\"route_type\":\"4\",\"route_type_name\":\"Ferry\",\"route_color\":\"64748B\",\"route_text_color\":\"FFFFFF\"},{\"route_id\":\"209\",\"route_short_name\":\"\",\"route_long_name\":\"Southworth - Fauntleroy\",\"route_type\":\"4\",\"route_type_name\":\"Ferry\",\"route_color\":\"64748B\",\"route_text_color\":\"FFFFFF\"},{\"route_id\":\"2022\",\"route_short_name\":\"\",\"route_long_name\":\"Southworth - Vashon Island\",\"route_type\":\"4\",\"route_type_name\":\"Ferry\",\"route_color\":\"64748B\",\"route_text_color\":\"FFFFFF\"},{\"route_id\":\"2220\",\"route_short_name\":\"\",\"route_long_name\":\"Vashon Island - Southworth\",\"route_type\":\"4\",\"route_type_name\":\"Ferry\",\"route_color\":\"64748B\",\"route_text_color\":\"FFFFFF\"}]"},"geometry":{"type":"Point","coordinates":[-122.499543,47.511925]}},{"type":"Feature","properties":{"stop_id":"21","stop_name":"Tahlequah","feed_id":"Washington__Washington_State_Ferries__mdb_mdb-1331","agency_name":"Washington State Ferries","route_count":2,"route_ids":"1621|2116","route_short_names":"","route_types":"4","route_type_names":"Ferry","routes_json":"[{\"route_id\":\"1621\",\"route_short_name\":\"\",\"route_long_name\":\"Point Defiance - Tahlequah\",\"route_type\":\"4\",\"route_type_name\":\"Ferry\",\"route_color\":\"64748B\",\"route_text_color\":\"FFFFFF\"},{\"route_id\":\"2116\",\"route_short_name\":\"\",\"route_long_name\":\"Tahlequah - Point Defiance\",\"route_type\":\"4\",\"route_type_name\":\"Ferry\",\"route_color\":\"64748B\",\"route_text_color\":\"FFFFFF\"}]"},"geometry":{"type":"Point","coordinates":[-122.507054,47.333086]}},{"type":"Feature","properties":{"stop_id":"22","stop_name":"Vashon Island","feed_id":"Washington__Washington_State_Ferries__mdb_mdb-1331","agency_name":"Washington State Ferries","route_count":4,"route_ids":"922|2022|229|2220","route_short_names":"","route_types":"4","route_type_names":"Ferry","routes_json":"[{\"route_id\":\"922\",\"route_short_name\":\"\",\"route_long_name\":\"Fauntleroy - Vashon Island\",\"route_type\":\"4\",\"route_type_name\":\"Ferry\",\"route_color\":\"64748B\",\"route_text_color\":\"FFFFFF\"},{\"route_id\":\"2022\",\"route_short_name\":\"\",\"route_long_name\":\"Southworth - Vashon Island\",\"route_type\":\"4\",\"route_type_name\":\"Ferry\",\"route_color\":\"64748B\",\"route_text_color\":\"FFFFFF\"},{\"route_id\":\"229\",\"route_short_name\":\"\",\"route_long_name\":\"Vashon Island - Fauntleroy\",\"route_type\":\"4\",\"route_type_name\":\"Ferry\",\"route_color\":\"64748B\",\"route_text_color\":\"FFFFFF\"},{\"route_id\":\"2220\",\"route_short_name\":\"\",\"route_long_name\":\"Vashon Island - Southworth\",\"route_type\":\"4\",\"route_type_name\":\"Ferry\",\"route_color\":\"64748B\",\"route_text_color\":\"FFFFFF\"}]"},"geometry":{"type":"Point","coordinates":[-122.464058,47.508431]}},{"type":"Feature","properties":{"stop_id":"3","stop_name":"Bainbridge Island","feed_id":"Washington__Washington_State_Ferries__mdb_mdb-1331","agency_name":"Washington State Ferries","route_count":2,"route_ids":"37|73","route_short_names":"","route_types":"4","route_type_names":"Ferry","routes_json":"[{\"route_id\":\"37\",\"route_short_name\":\"\",\"route_long_name\":\"Bainbridge Island - Seattle\",\"route_type\":\"4\",\"route_type_name\":\"Ferry\",\"route_color\":\"64748B\",\"route_text_color\":\"FFFFFF\"},{\"route_id\":\"73\",\"route_short_name\":\"\",\"route_long_name\":\"Seattle - Bainbridge Island\",\"route_type\":\"4\",\"route_type_name\":\"Ferry\",\"route_color\":\"64748B\",\"route_text_color\":\"FFFFFF\"}]"},"geometry":{"type":"Point","coordinates":[-122.510809,47.623094]}},{"type":"Feature","properties":{"stop_id":"4","stop_name":"Bremerton","feed_id":"Washington__Washington_State_Ferries__mdb_mdb-1331","agency_name":"Washington State Ferries","route_count":2,"route_ids":"47|74","route_short_names":"","route_types":"4","route_type_names":"Ferry","routes_json":"[{\"route_id\":\"47\",\"route_short_name\":\"\",\"route_long_name\":\"Bremerton - Seattle\",\"route_type\":\"4\",\"route_type_name\":\"Ferry\",\"route_color\":\"64748B\",\"route_text_color\":\"FFFFFF\"},{\"route_id\":\"74\",\"route_short_name\":\"\",\"route_long_name\":\"Seattle - Bremerton\",\"route_type\":\"4\",\"route_type_name\":\"Ferry\",\"route_color\":\"64748B\",\"route_text_color\":\"FFFFFF\"}]"},"geometry":{"type":"Point","coordinates":[-122.625146,47.562533]}},{"type":"Feature","properties":{"stop_id":"5","stop_name":"Clinton","feed_id":"Washington__Washington_State_Ferries__mdb_mdb-1331","agency_name":"Washington State Ferries","route_count":2,"route_ids":"514|145","route_short_names":"","route_types":"4","route_type_names":"Ferry","routes_json":"[{\"route_id\":\"514\",\"route_short_name\":\"\",\"route_long_name\":\"Clinton - Mukilteo\",\"route_type\":\"4\",\"route_type_name\":\"Ferry\",\"route_color\":\"64748B\",\"route_text_color\":\"FFFFFF\"},{\"route_id\":\"145\",\"route_short_name\":\"\",\"route_long_name\":\"Mukilteo - Clinton\",\"route_type\":\"4\",\"route_type_name\":\"Ferry\",\"route_color\":\"64748B\",\"route_text_color\":\"FFFFFF\"}]"},"geometry":{"type":"Point","coordinates":[-122.352037,47.974564]}},{"type":"Feature","properties":{"stop_id":"7","stop_name":"Seattle","feed_id":"Washington__Washington_State_Ferries__mdb_mdb-1331","agency_name":"Washington State Ferries","route_count":4,"route_ids":"37|47|73|74","route_short_names":"","route_types":"4","route_type_names":"Ferry","routes_json":"[{\"route_id\":\"37\",\"route_short_name\":\"\",\"route_long_name\":\"Bainbridge Island - Seattle\",\"route_type\":\"4\",\"route_type_name\":\"Ferry\",\"route_color\":\"64748B\",\"route_text_color\":\"FFFFFF\"},{\"route_id\":\"47\",\"route_short_name\":\"\",\"route_long_name\":\"Bremerton - Seattle\",\"route_type\":\"4\",\"route_type_name\":\"Ferry\",\"route_color\":\"64748B\",\"route_text_color\":\"FFFFFF\"},{\"route_id\":\"73\",\"route_short_name\":\"\",\"route_long_name\":\"Seattle - Bainbridge Island\",\"route_type\":\"4\",\"route_type_name\":\"Ferry\",\"route_color\":\"64748B\",\"route_text_color\":\"FFFFFF\"},{\"route_id\":\"74\",\"route_short_name\":\"\",\"route_long_name\":\"Seattle - Bremerton\",\"route_type\":\"4\",\"route_type_name\":\"Ferry\",\"route_color\":\"64748B\",\"route_text_color\":\"FFFFFF\"}]"},"geometry":{"type":"Point","coordinates":[-122.337635,47.602597]}},{"type":"Feature","properties":{"stop_id":"8","stop_name":"Edmonds","feed_id":"Washington__Washington_State_Ferries__mdb_mdb-1331","agency_name":"Washington State Ferries","route_count":2,"route_ids":"812|128","route_short_names":"","route_types":"4","route_type_names":"Ferry","routes_json":"[{\"route_id\":\"812\",\"route_short_name\":\"\",\"route_long_name\":\"Edmonds - Kingston\",\"route_type\":\"4\",\"route_type_name\":\"Ferry\",\"route_color\":\"64748B\",\"route_text_color\":\"FFFFFF\"},{\"route_id\":\"128\",\"route_short_name\":\"\",\"route_long_name\":\"Kingston - Edmonds\",\"route_type\":\"4\",\"route_type_name\":\"Ferry\",\"route_color\":\"64748B\",\"route_text_color\":\"FFFFFF\"}]"},"geometry":{"type":"Point","coordinates":[-122.3829,47.812542]}},{"type":"Feature","properties":{"stop_id":"9","stop_name":"Fauntleroy","feed_id":"Washington__Washington_State_Ferries__mdb_mdb-1331","agency_name":"Washington State Ferries","route_count":4,"route_ids":"920|922|209|229","route_short_names":"","route_types":"4","route_type_names":"Ferry","routes_json":"[{\"route_id\":\"920\",\"route_short_name\":\"\",\"route_long_name\":\"Fauntleroy - Southworth\",\"route_type\":\"4\",\"route_type_name\":\"Ferry\",\"route_color\":\"64748B\",\"route_text_color\":\"FFFFFF\"},{\"route_id\":\"922\",\"route_short_name\":\"\",\"route_long_name\":\"Fauntleroy - Vashon Island\",\"route_type\":\"4\",\"route_type_name\":\"Ferry\",\"route_color\":\"64748B\",\"route_text_color\":\"FFFFFF\"},{\"route_id\":\"209\",\"route_short_name\":\"\",\"route_long_name\":\"Southworth - Fauntleroy\",\"route_type\":\"4\",\"route_type_name\":\"Ferry\",\"route_color\":\"64748B\",\"route_text_color\":\"FFFFFF\"},{\"route_id\":\"229\",\"route_short_name\":\"\",\"route_long_name\":\"Vashon Island - Fauntleroy\",\"route_type\":\"4\",\"route_type_name\":\"Ferry\",\"route_color\":\"64748B\",\"route_text_color\":\"FFFFFF\"}]"},"geometry":{"type":"Point","coordinates":[-122.393113,47.523178]}}]}