{"type":"FeatureCollection","features":[{"type":"Feature","properties":{"stop_id":"1000","stop_code":"","stop_name":"Tombstone Canyon  Cantner Rd","stop_desc":"","zone_id":"","stop_url":"","location_type":"","parent_station":"","stop_timezone":"","wheelchair_boarding":"1","feed_id":"Arizona__Bisbee_Bus__mdb_mdb-2857","agency_name":"Bisbee Bus","route_count":1,"route_ids":"1","route_short_names":"","route_types":"3","route_type_names":"Bus","routes_json":"[{\"route_id\":\"1\",\"route_short_name\":\"\",\"route_long_name\":\"Bisbee Bus\",\"route_type\":\"3\",\"route_type_name\":\"Bus\",\"route_color\":\"64748B\",\"route_text_color\":\"FFFFFF\"}]"},"geometry":{"type":"Point","coordinates":[-109.928517,31.447649]}},{"type":"Feature","properties":{"stop_id":"1005","stop_code":"","stop_name":"Circle K","stop_desc":"","zone_id":"","stop_url":"","location_type":"","parent_station":"","stop_timezone":"","wheelchair_boarding":"1","feed_id":"Arizona__Bisbee_Bus__mdb_mdb-2857","agency_name":"Bisbee Bus","route_count":1,"route_ids":"1","route_short_names":"","route_types":"3","route_type_names":"Bus","routes_json":"[{\"route_id\":\"1\",\"route_short_name\":\"\",\"route_long_name\":\"Bisbee Bus\",\"route_type\":\"3\",\"route_type_name\":\"Bus\",\"route_color\":\"64748B\",\"route_text_color\":\"FFFFFF\"}]"},"geometry":{"type":"Point","coordinates":[-109.923648,31.444207]}},{"type":"Feature","properties":{"stop_id":"1010","stop_code":"","stop_name":"County Courthouse","stop_desc":"","zone_id":"","stop_url":"","location_type":"","parent_station":"","stop_timezone":"","wheelchair_boarding":"1","feed_id":"Arizona__Bisbee_Bus__mdb_mdb-2857","agency_name":"Bisbee Bus","route_count":1,"route_ids":"1","route_short_names":"","route_types":"3","route_type_names":"Bus","routes_json":"[{\"route_id\":\"1\",\"route_short_name\":\"\",\"route_long_name\":\"Bisbee Bus\",\"route_type\":\"3\",\"route_type_name\":\"Bus\",\"route_color\":\"64748B\",\"route_text_color\":\"FFFFFF\"}]"},"geometry":{"type":"Point","coordinates":[-109.920661,31.44317]}},{"type":"Feature","properties":{"stop_id":"1015","stop_code":"","stop_name":"Copper Queen Plaza/ Lyric","stop_desc":"","zone_id":"","stop_url":"","location_type":"","parent_station":"","stop_timezone":"","wheelchair_boarding":"1","feed_id":"Arizona__Bisbee_Bus__mdb_mdb-2857","agency_name":"Bisbee Bus","route_count":1,"route_ids":"1","route_short_names":"","route_types":"3","route_type_names":"Bus","routes_json":"[{\"route_id\":\"1\",\"route_short_name\":\"\",\"route_long_name\":\"Bisbee Bus\",\"route_type\":\"3\",\"route_type_name\":\"Bus\",\"route_color\":\"64748B\",\"route_text_color\":\"FFFFFF\"}]"},"geometry":{"type":"Point","coordinates":[-109.913768,31.441928]}},{"type":"Feature","properties":{"stop_id":"1020","stop_code":"","stop_name":"Lowell Plaza","stop_desc":"","zone_id":"","stop_url":"","location_type":"","parent_station":"","stop_timezone":"","wheelchair_boarding":"1","feed_id":"Arizona__Bisbee_Bus__mdb_mdb-2857","agency_name":"Bisbee Bus","route_count":1,"route_ids":"1","route_short_names":"","route_types":"3","route_type_names":"Bus","routes_json":"[{\"route_id\":\"1\",\"route_short_name\":\"\",\"route_long_name\":\"Bisbee Bus\",\"route_type\":\"3\",\"route_type_name\":\"Bus\",\"route_color\":\"64748B\",\"route_text_color\":\"FFFFFF\"}]"},"geometry":{"type":"Point","coordinates":[-109.894679,31.431071]}},{"type":"Feature","properties":{"stop_id":"1025","stop_code":"","stop_name":"Department of Economic Security","stop_desc":"","zone_id":"","stop_url":"","location_type":"","parent_station":"","stop_timezone":"","wheelchair_boarding":"1","feed_id":"Arizona__Bisbee_Bus__mdb_mdb-2857","agency_name":"Bisbee Bus","route_count":1,"route_ids":"1","route_short_names":"","route_types":"3","route_type_names":"Bus","routes_json":"[{\"route_id\":\"1\",\"route_short_name\":\"\",\"route_long_name\":\"Bisbee Bus\",\"route_type\":\"3\",\"route_type_name\":\"Bus\",\"route_color\":\"64748B\",\"route_text_color\":\"FFFFFF\"}]"},"geometry":{"type":"Point","coordinates":[-109.887199,31.422459]}},{"type":"Feature","properties":{"stop_id":"1030","stop_code":"","stop_name":"Washington Federal","stop_desc":"","zone_id":"","stop_url":"","location_type":"","parent_station":"","stop_timezone":"","wheelchair_boarding":"1","feed_id":"Arizona__Bisbee_Bus__mdb_mdb-2857","agency_name":"Bisbee Bus","route_count":1,"route_ids":"1","route_short_names":"","route_types":"3","route_type_names":"Bus","routes_json":"[{\"route_id\":\"1\",\"route_short_name\":\"\",\"route_long_name\":\"Bisbee Bus\",\"route_type\":\"3\",\"route_type_name\":\"Bus\",\"route_color\":\"64748B\",\"route_text_color\":\"FFFFFF\"}]"},"geometry":{"type":"Point","coordinates":[-109.886215,31.420563]}},{"type":"Feature","properties":{"stop_id":"1035","stop_code":"","stop_name":"Copper Queen Hospital","stop_desc":"","zone_id":"","stop_url":"","location_type":"","parent_station":"","stop_timezone":"","wheelchair_boarding":"1","feed_id":"Arizona__Bisbee_Bus__mdb_mdb-2857","agency_name":"Bisbee Bus","route_count":1,"route_ids":"1","route_short_names":"","route_types":"3","route_type_names":"Bus","routes_json":"[{\"route_id\":\"1\",\"route_short_name\":\"\",\"route_long_name\":\"Bisbee Bus\",\"route_type\":\"3\",\"route_type_name\":\"Bus\",\"route_color\":\"64748B\",\"route_text_color\":\"FFFFFF\"}]"},"geometry":{"type":"Point","coordinates":[-109.884102,31.418025]}},{"type":"Feature","properties":{"stop_id":"1040","stop_code":"","stop_name":"Bisbee City Hall","stop_desc":"","zone_id":"","stop_url":"","location_type":"","parent_station":"","stop_timezone":"","wheelchair_boarding":"1","feed_id":"Arizona__Bisbee_Bus__mdb_mdb-2857","agency_name":"Bisbee Bus","route_count":1,"route_ids":"1","route_short_names":"","route_types":"3","route_type_names":"Bus","routes_json":"[{\"route_id\":\"1\",\"route_short_name\":\"\",\"route_long_name\":\"Bisbee Bus\",\"route_type\":\"3\",\"route_type_name\":\"Bus\",\"route_color\":\"64748B\",\"route_text_color\":\"FFFFFF\"}]"},"geometry":{"type":"Point","coordinates":[-109.877853,31.411652]}},{"type":"Feature","properties":{"stop_id":"1045","stop_code":"","stop_name":"Arizona St / Congdon Ave.","stop_desc":"","zone_id":"","stop_url":"","location_type":"","parent_station":"","stop_timezone":"","wheelchair_boarding":"1","feed_id":"Arizona__Bisbee_Bus__mdb_mdb-2857","agency_name":"Bisbee Bus","route_count":1,"route_ids":"1","route_short_names":"","route_types":"3","route_type_names":"Bus","routes_json":"[{\"route_id\":\"1\",\"route_short_name\":\"\",\"route_long_name\":\"Bisbee Bus\",\"route_type\":\"3\",\"route_type_name\":\"Bus\",\"route_color\":\"64748B\",\"route_text_color\":\"FFFFFF\"}]"},"geometry":{"type":"Point","coordinates":[-109.876823,31.413524]}},{"type":"Feature","properties":{"stop_id":"1050","stop_code":"","stop_name":"Vista Park Tennis Court","stop_desc":"","zone_id":"","stop_url":"","location_type":"","parent_station":"","stop_timezone":"","wheelchair_boarding":"1","feed_id":"Arizona__Bisbee_Bus__mdb_mdb-2857","agency_name":"Bisbee Bus","route_count":1,"route_ids":"1","route_short_names":"","route_types":"3","route_type_names":"Bus","routes_json":"[{\"route_id\":\"1\",\"route_short_name\":\"\",\"route_long_name\":\"Bisbee Bus\",\"route_type\":\"3\",\"route_type_name\":\"Bus\",\"route_color\":\"64748B\",\"route_text_color\":\"FFFFFF\"}]"},"geometry":{"type":"Point","coordinates":[-109.878899,31.41422]}},{"type":"Feature","properties":{"stop_id":"1055","stop_code":"","stop_name":"Center Ave. at School Terrace Rd.","stop_desc":"","zone_id":"","stop_url":"","location_type":"","parent_station":"","stop_timezone":"","wheelchair_boarding":"1","feed_id":"Arizona__Bisbee_Bus__mdb_mdb-2857","agency_name":"Bisbee Bus","route_count":1,"route_ids":"1","route_short_names":"","route_types":"3","route_type_names":"Bus","routes_json":"[{\"route_id\":\"1\",\"route_short_name\":\"\",\"route_long_name\":\"Bisbee Bus\",\"route_type\":\"3\",\"route_type_name\":\"Bus\",\"route_color\":\"64748B\",\"route_text_color\":\"FFFFFF\"}]"},"geometry":{"type":"Point","coordinates":[-109.883603,31.413229]}},{"type":"Feature","properties":{"stop_id":"1060","stop_code":"","stop_name":"Hwy. 92 / Fire Station","stop_desc":"","zone_id":"","stop_url":"","location_type":"","parent_station":"","stop_timezone":"","wheelchair_boarding":"1","feed_id":"Arizona__Bisbee_Bus__mdb_mdb-2857","agency_name":"Bisbee Bus","route_count":1,"route_ids":"1","route_short_names":"","route_types":"3","route_type_names":"Bus","routes_json":"[{\"route_id\":\"1\",\"route_short_name\":\"\",\"route_long_name\":\"Bisbee Bus\",\"route_type\":\"3\",\"route_type_name\":\"Bus\",\"route_color\":\"64748B\",\"route_text_color\":\"FFFFFF\"}]"},"geometry":{"type":"Point","coordinates":[-109.898451,31.416631]}},{"type":"Feature","properties":{"stop_id":"1065","stop_code":"","stop_name":"Hwy. 92 / Washington Ave.","stop_desc":"","zone_id":"","stop_url":"","location_type":"","parent_station":"","stop_timezone":"","wheelchair_boarding":"1","feed_id":"Arizona__Bisbee_Bus__mdb_mdb-2857","agency_name":"Bisbee Bus","route_count":1,"route_ids":"1","route_short_names":"","route_types":"3","route_type_names":"Bus","routes_json":"[{\"route_id\":\"1\",\"route_short_name\":\"\",\"route_long_name\":\"Bisbee Bus\",\"route_type\":\"3\",\"route_type_name\":\"Bus\",\"route_color\":\"64748B\",\"route_text_color\":\"FFFFFF\"}]"},"geometry":{"type":"Point","coordinates":[-109.915809,31.403028]}},{"type":"Feature","properties":{"stop_id":"1070","stop_code":"","stop_name":"Safeway","stop_desc":"","zone_id":"","stop_url":"","location_type":"","parent_station":"","stop_timezone":"","wheelchair_boarding":"1","feed_id":"Arizona__Bisbee_Bus__mdb_mdb-2857","agency_name":"Bisbee Bus","route_count":1,"route_ids":"1","route_short_names":"","route_types":"3","route_type_names":"Bus","routes_json":"[{\"route_id\":\"1\",\"route_short_name\":\"\",\"route_long_name\":\"Bisbee Bus\",\"route_type\":\"3\",\"route_type_name\":\"Bus\",\"route_color\":\"64748B\",\"route_text_color\":\"FFFFFF\"}]"},"geometry":{"type":"Point","coordinates":[-109.917604,31.401523]}},{"type":"Feature","properties":{"stop_id":"1075","stop_code":"","stop_name":"Bisbee Senior Center","stop_desc":"","zone_id":"","stop_url":"","location_type":"","parent_station":"","stop_timezone":"","wheelchair_boarding":"1","feed_id":"Arizona__Bisbee_Bus__mdb_mdb-2857","agency_name":"Bisbee Bus","route_count":1,"route_ids":"1","route_short_names":"","route_types":"3","route_type_names":"Bus","routes_json":"[{\"route_id\":\"1\",\"route_short_name\":\"\",\"route_long_name\":\"Bisbee Bus\",\"route_type\":\"3\",\"route_type_name\":\"Bus\",\"route_color\":\"64748B\",\"route_text_color\":\"FFFFFF\"}]"},"geometry":{"type":"Point","coordinates":[-109.915392,31.399562]}},{"type":"Feature","properties":{"stop_id":"1080","stop_code":"","stop_name":"Triangle Apartments","stop_desc":"","zone_id":"","stop_url":"","location_type":"","parent_station":"","stop_timezone":"","wheelchair_boarding":"1","feed_id":"Arizona__Bisbee_Bus__mdb_mdb-2857","agency_name":"Bisbee Bus","route_count":1,"route_ids":"1","route_short_names":"","route_types":"3","route_type_names":"Bus","routes_json":"[{\"route_id\":\"1\",\"route_short_name\":\"\",\"route_long_name\":\"Bisbee Bus\",\"route_type\":\"3\",\"route_type_name\":\"Bus\",\"route_color\":\"64748B\",\"route_text_color\":\"FFFFFF\"}]"},"geometry":{"type":"Point","coordinates":[-109.926124,31.398679]}},{"type":"Feature","properties":{"stop_id":"1085","stop_code":"","stop_name":"San Jose Center","stop_desc":"","zone_id":"","stop_url":"","location_type":"","parent_station":"","stop_timezone":"","wheelchair_boarding":"1","feed_id":"Arizona__Bisbee_Bus__mdb_mdb-2857","agency_name":"Bisbee Bus","route_count":1,"route_ids":"1","route_short_names":"","route_types":"3","route_type_names":"Bus","routes_json":"[{\"route_id\":\"1\",\"route_short_name\":\"\",\"route_long_name\":\"Bisbee Bus\",\"route_type\":\"3\",\"route_type_name\":\"Bus\",\"route_color\":\"64748B\",\"route_text_color\":\"FFFFFF\"}]"},"geometry":{"type":"Point","coordinates":[-109.929829,31.396477]}},{"type":"Feature","properties":{"stop_id":"1090","stop_code":"","stop_name":"Cochise County Health Department","stop_desc":"","zone_id":"","stop_url":"","location_type":"","parent_station":"","stop_timezone":"","wheelchair_boarding":"1","feed_id":"Arizona__Bisbee_Bus__mdb_mdb-2857","agency_name":"Bisbee Bus","route_count":1,"route_ids":"1","route_short_names":"","route_types":"3","route_type_names":"Bus","routes_json":"[{\"route_id\":\"1\",\"route_short_name\":\"\",\"route_long_name\":\"Bisbee Bus\",\"route_type\":\"3\",\"route_type_name\":\"Bus\",\"route_color\":\"64748B\",\"route_text_color\":\"FFFFFF\"}]"},"geometry":{"type":"Point","coordinates":[-109.930512,31.39262]}},{"type":"Feature","properties":{"stop_id":"1095","stop_code":"","stop_name":"Copper City Apartments","stop_desc":"","zone_id":"","stop_url":"","location_type":"","parent_station":"","stop_timezone":"","wheelchair_boarding":"1","feed_id":"Arizona__Bisbee_Bus__mdb_mdb-2857","agency_name":"Bisbee Bus","route_count":1,"route_ids":"1","route_short_names":"","route_types":"3","route_type_names":"Bus","routes_json":"[{\"route_id\":\"1\",\"route_short_name\":\"\",\"route_long_name\":\"Bisbee Bus\",\"route_type\":\"3\",\"route_type_name\":\"Bus\",\"route_color\":\"64748B\",\"route_text_color\":\"FFFFFF\"}]"},"geometry":{"type":"Point","coordinates":[-109.92604,31.394118]}},{"type":"Feature","properties":{"stop_id":"1100","stop_code":"","stop_name":"C.C.A.H.","stop_desc":"","zone_id":"","stop_url":"","location_type":"","parent_station":"","stop_timezone":"","wheelchair_boarding":"1","feed_id":"Arizona__Bisbee_Bus__mdb_mdb-2857","agency_name":"Bisbee Bus","route_count":1,"route_ids":"1","route_short_names":"","route_types":"3","route_type_names":"Bus","routes_json":"[{\"route_id\":\"1\",\"route_short_name\":\"\",\"route_long_name\":\"Bisbee Bus\",\"route_type\":\"3\",\"route_type_name\":\"Bus\",\"route_color\":\"64748B\",\"route_text_color\":\"FFFFFF\"}]"},"geometry":{"type":"Point","coordinates":[-109.920574,31.390916]}},{"type":"Feature","properties":{"stop_id":"1105","stop_code":"","stop_name":"San Jose Lodge","stop_desc":"","zone_id":"","stop_url":"","location_type":"","parent_station":"","stop_timezone":"","wheelchair_boarding":"1","feed_id":"Arizona__Bisbee_Bus__mdb_mdb-2857","agency_name":"Bisbee Bus","route_count":1,"route_ids":"1","route_short_names":"","route_types":"3","route_type_names":"Bus","routes_json":"[{\"route_id\":\"1\",\"route_short_name\":\"\",\"route_long_name\":\"Bisbee Bus\",\"route_type\":\"3\",\"route_type_name\":\"Bus\",\"route_color\":\"64748B\",\"route_text_color\":\"FFFFFF\"}]"},"geometry":{"type":"Point","coordinates":[-109.924854,31.379153]}},{"type":"Feature","properties":{"stop_id":"1110","stop_code":"","stop_name":"Naco Hwy. / Granada Ln.","stop_desc":"","zone_id":"","stop_url":"","location_type":"","parent_station":"","stop_timezone":"","wheelchair_boarding":"1","feed_id":"Arizona__Bisbee_Bus__mdb_mdb-2857","agency_name":"Bisbee Bus","route_count":1,"route_ids":"1","route_short_names":"","route_types":"3","route_type_names":"Bus","routes_json":"[{\"route_id\":\"1\",\"route_short_name\":\"\",\"route_long_name\":\"Bisbee Bus\",\"route_type\":\"3\",\"route_type_name\":\"Bus\",\"route_color\":\"64748B\",\"route_text_color\":\"FFFFFF\"}]"},"geometry":{"type":"Point","coordinates":[-109.9274,31.37315]}},{"type":"Feature","properties":{"stop_id":"1115","stop_code":"","stop_name":"Naco - Turquoise Valley G.C.","stop_desc":"","zone_id":"","stop_url":"","location_type":"","parent_station":"","stop_timezone":"","wheelchair_boarding":"1","feed_id":"Arizona__Bisbee_Bus__mdb_mdb-2857","agency_name":"Bisbee Bus","route_count":1,"route_ids":"1","route_short_names":"","route_types":"3","route_type_names":"Bus","routes_json":"[{\"route_id\":\"1\",\"route_short_name\":\"\",\"route_long_name\":\"Bisbee Bus\",\"route_type\":\"3\",\"route_type_name\":\"Bus\",\"route_color\":\"64748B\",\"route_text_color\":\"FFFFFF\"}]"},"geometry":{"type":"Point","coordinates":[-109.943254,31.340067]}},{"type":"Feature","properties":{"stop_id":"1120","stop_code":"","stop_name":"Naco - Newell St. / Towner Ave.","stop_desc":"","zone_id":"","stop_url":"","location_type":"","parent_station":"","stop_timezone":"","wheelchair_boarding":"1","feed_id":"Arizona__Bisbee_Bus__mdb_mdb-2857","agency_name":"Bisbee Bus","route_count":1,"route_ids":"1","route_short_names":"","route_types":"3","route_type_names":"Bus","routes_json":"[{\"route_id\":\"1\",\"route_short_name\":\"\",\"route_long_name\":\"Bisbee Bus\",\"route_type\":\"3\",\"route_type_name\":\"Bus\",\"route_color\":\"64748B\",\"route_text_color\":\"FFFFFF\"}]"},"geometry":{"type":"Point","coordinates":[-109.948298,31.340133]}},{"type":"Feature","properties":{"stop_id":"1125","stop_code":"","stop_name":"Naco - W Martinez","stop_desc":"","zone_id":"","stop_url":"","location_type":"","parent_station":"","stop_timezone":"","wheelchair_boarding":"1","feed_id":"Arizona__Bisbee_Bus__mdb_mdb-2857","agency_name":"Bisbee Bus","route_count":1,"route_ids":"1","route_short_names":"","route_types":"3","route_type_names":"Bus","routes_json":"[{\"route_id\":\"1\",\"route_short_name\":\"\",\"route_long_name\":\"Bisbee Bus\",\"route_type\":\"3\",\"route_type_name\":\"Bus\",\"route_color\":\"64748B\",\"route_text_color\":\"FFFFFF\"}]"},"geometry":{"type":"Point","coordinates":[-109.948327,31.335643]}},{"type":"Feature","properties":{"stop_id":"1130","stop_code":"","stop_name":"Tintown","stop_desc":"","zone_id":"","stop_url":"","location_type":"","parent_station":"","stop_timezone":"","wheelchair_boarding":"1","feed_id":"Arizona__Bisbee_Bus__mdb_mdb-2857","agency_name":"Bisbee Bus","route_count":1,"route_ids":"1","route_short_names":"","route_types":"3","route_type_names":"Bus","routes_json":"[{\"route_id\":\"1\",\"route_short_name\":\"\",\"route_long_name\":\"Bisbee Bus\",\"route_type\":\"3\",\"route_type_name\":\"Bus\",\"route_color\":\"64748B\",\"route_text_color\":\"FFFFFF\"}]"},"geometry":{"type":"Point","coordinates":[-109.899241,31.414682]}},{"type":"Feature","properties":{"stop_id":"1135","stop_code":"","stop_name":"Bisbee High School","stop_desc":"","zone_id":"","stop_url":"","location_type":"","parent_station":"","stop_timezone":"","wheelchair_boarding":"1","feed_id":"Arizona__Bisbee_Bus__mdb_mdb-2857","agency_name":"Bisbee Bus","route_count":1,"route_ids":"1","route_short_names":"","route_types":"3","route_type_names":"Bus","routes_json":"[{\"route_id\":\"1\",\"route_short_name\":\"\",\"route_long_name\":\"Bisbee Bus\",\"route_type\":\"3\",\"route_type_name\":\"Bus\",\"route_color\":\"64748B\",\"route_text_color\":\"FFFFFF\"}]"},"geometry":{"type":"Point","coordinates":[-109.887191,31.415655]}},{"type":"Feature","properties":{"stop_id":"1140","stop_code":"","stop_name":"Douglas Rd. at B St.","stop_desc":"","zone_id":"","stop_url":"","location_type":"","parent_station":"","stop_timezone":"","wheelchair_boarding":"1","feed_id":"Arizona__Bisbee_Bus__mdb_mdb-2857","agency_name":"Bisbee Bus","route_count":1,"route_ids":"1","route_short_names":"","route_types":"3","route_type_names":"Bus","routes_json":"[{\"route_id\":\"1\",\"route_short_name\":\"\",\"route_long_name\":\"Bisbee Bus\",\"route_type\":\"3\",\"route_type_name\":\"Bus\",\"route_color\":\"64748B\",\"route_text_color\":\"FFFFFF\"}]"},"geometry":{"type":"Point","coordinates":[-109.883952,31.42825]}},{"type":"Feature","properties":{"stop_id":"1145","stop_code":"","stop_name":"Lowell School","stop_desc":"","zone_id":"","stop_url":"","location_type":"","parent_station":"","stop_timezone":"","wheelchair_boarding":"1","feed_id":"Arizona__Bisbee_Bus__mdb_mdb-2857","agency_name":"Bisbee Bus","route_count":1,"route_ids":"1","route_short_names":"","route_types":"3","route_type_names":"Bus","routes_json":"[{\"route_id\":\"1\",\"route_short_name\":\"\",\"route_long_name\":\"Bisbee Bus\",\"route_type\":\"3\",\"route_type_name\":\"Bus\",\"route_color\":\"64748B\",\"route_text_color\":\"FFFFFF\"}]"},"geometry":{"type":"Point","coordinates":[-109.891214,31.429443]}},{"type":"Feature","properties":{"stop_id":"1150","stop_code":"","stop_name":"Gym Club Suites","stop_desc":"","zone_id":"","stop_url":"","location_type":"","parent_station":"","stop_timezone":"","wheelchair_boarding":"1","feed_id":"Arizona__Bisbee_Bus__mdb_mdb-2857","agency_name":"Bisbee Bus","route_count":1,"route_ids":"1","route_short_names":"","route_types":"3","route_type_names":"Bus","routes_json":"[{\"route_id\":\"1\",\"route_short_name\":\"\",\"route_long_name\":\"Bisbee Bus\",\"route_type\":\"3\",\"route_type_name\":\"Bus\",\"route_color\":\"64748B\",\"route_text_color\":\"FFFFFF\"}]"},"geometry":{"type":"Point","coordinates":[-109.915068,31.442376]}},{"type":"Feature","properties":{"stop_id":"1155","stop_code":"","stop_name":"Garfield Park","stop_desc":"","zone_id":"","stop_url":"","location_type":"","parent_station":"","stop_timezone":"","wheelchair_boarding":"1","feed_id":"Arizona__Bisbee_Bus__mdb_mdb-2857","agency_name":"Bisbee Bus","route_count":1,"route_ids":"1","route_short_names":"","route_types":"3","route_type_names":"Bus","routes_json":"[{\"route_id\":\"1\",\"route_short_name\":\"\",\"route_long_name\":\"Bisbee Bus\",\"route_type\":\"3\",\"route_type_name\":\"Bus\",\"route_color\":\"64748B\",\"route_text_color\":\"FFFFFF\"}]"},"geometry":{"type":"Point","coordinates":[-109.93182,31.451135]}},{"type":"Feature","properties":{"stop_id":"1160","stop_code":"","stop_name":"Tombstone Canyon / Wood Canyon","stop_desc":"","zone_id":"","stop_url":"","location_type":"","parent_station":"","stop_timezone":"","wheelchair_boarding":"1","feed_id":"Arizona__Bisbee_Bus__mdb_mdb-2857","agency_name":"Bisbee Bus","route_count":1,"route_ids":"1","route_short_names":"","route_types":"3","route_type_names":"Bus","routes_json":"[{\"route_id\":\"1\",\"route_short_name\":\"\",\"route_long_name\":\"Bisbee Bus\",\"route_type\":\"3\",\"route_type_name\":\"Bus\",\"route_color\":\"64748B\",\"route_text_color\":\"FFFFFF\"}]"},"geometry":{"type":"Point","coordinates":[-109.932535,31.452112]}},{"type":"Feature","properties":{"stop_id":"1021","stop_code":"","stop_name":"Cochise County Sheriff Dept","stop_desc":"","zone_id":"","stop_url":"","location_type":"","parent_station":"","stop_timezone":"","wheelchair_boarding":"1","feed_id":"Arizona__Bisbee_Bus__mdb_mdb-2857","agency_name":"Bisbee Bus","route_count":1,"route_ids":"1","route_short_names":"","route_types":"3","route_type_names":"Bus","routes_json":"[{\"route_id\":\"1\",\"route_short_name\":\"\",\"route_long_name\":\"Bisbee Bus\",\"route_type\":\"3\",\"route_type_name\":\"Bus\",\"route_color\":\"64748B\",\"route_text_color\":\"FFFFFF\"}]"},"geometry":{"type":"Point","coordinates":[-109.870659,31.433099]}},{"type":"Feature","properties":{"stop_id":"1146","stop_code":"","stop_name":"Lowell School","stop_desc":"","zone_id":"","stop_url":"","location_type":"","parent_station":"","stop_timezone":"","wheelchair_boarding":"","feed_id":"Arizona__Bisbee_Bus__mdb_mdb-2857","agency_name":"Bisbee Bus","route_count":1,"route_ids":"1","route_short_names":"","route_types":"3","route_type_names":"Bus","routes_json":"[{\"route_id\":\"1\",\"route_short_name\":\"\",\"route_long_name\":\"Bisbee Bus\",\"route_type\":\"3\",\"route_type_name\":\"Bus\",\"route_color\":\"64748B\",\"route_text_color\":\"FFFFFF\"}]"},"geometry":{"type":"Point","coordinates":[-109.891099,31.42956]}}]}