{"type":"FeatureCollection","features":[{"type":"Feature","properties":{"stop_id":"1","stop_code":"","stop_name":"Harkers Island","stop_desc":"","zone_id":"","stop_url":"","location_type":"","parent_station":"","stop_timezone":"","wheelchair_boarding":"0","feed_id":"North_Carolina__Cape_Lookout_National_Seashore__mdb_mdb-3205","agency_name":"National Park Service","route_count":2,"route_ids":"HICL|HISB","route_short_names":"","route_types":"4","route_type_names":"Ferry","routes_json":"[{\"route_id\":\"HICL\",\"route_short_name\":\"\",\"route_long_name\":\"Harkers Island - Cape Lookout Ferry\",\"route_type\":\"4\",\"route_type_name\":\"Ferry\",\"route_color\":\"FF0000\",\"route_text_color\":\"FFFFFF\"},{\"route_id\":\"HISB\",\"route_short_name\":\"\",\"route_long_name\":\"Harkers Island - Shackleford Banks East End\",\"route_type\":\"4\",\"route_type_name\":\"Ferry\",\"route_color\":\"436E2E\",\"route_text_color\":\"FFFFFF\"}]"},"geometry":{"type":"Point","coordinates":[-76.52715,34.685]}},{"type":"Feature","properties":{"stop_id":"2","stop_code":"","stop_name":"Cape Lookout","stop_desc":"","zone_id":"","stop_url":"","location_type":"","parent_station":"","stop_timezone":"","wheelchair_boarding":"0","feed_id":"North_Carolina__Cape_Lookout_National_Seashore__mdb_mdb-3205","agency_name":"National Park Service","route_count":1,"route_ids":"HICL","route_short_names":"","route_types":"4","route_type_names":"Ferry","routes_json":"[{\"route_id\":\"HICL\",\"route_short_name\":\"\",\"route_long_name\":\"Harkers Island - Cape Lookout Ferry\",\"route_type\":\"4\",\"route_type_name\":\"Ferry\",\"route_color\":\"FF0000\",\"route_text_color\":\"FFFFFF\"}]"},"geometry":{"type":"Point","coordinates":[-76.52342,34.62412]}},{"type":"Feature","properties":{"stop_id":"3","stop_code":"","stop_name":"Beaufort","stop_desc":"","zone_id":"","stop_url":"","location_type":"","parent_station":"","stop_timezone":"","wheelchair_boarding":"0","feed_id":"North_Carolina__Cape_Lookout_National_Seashore__mdb_mdb-3205","agency_name":"National Park Service","route_count":1,"route_ids":"BSB","route_short_names":"","route_types":"4","route_type_names":"Ferry","routes_json":"[{\"route_id\":\"BSB\",\"route_short_name\":\"\",\"route_long_name\":\"Beaufort - Shackleford Banks West End\",\"route_type\":\"4\",\"route_type_name\":\"Ferry\",\"route_color\":\"C56C39\",\"route_text_color\":\"FFFFFF\"}]"},"geometry":{"type":"Point","coordinates":[-76.6631,34.7153]}},{"type":"Feature","properties":{"stop_id":"4","stop_code":"","stop_name":"Shackleford Banks West End","stop_desc":"","zone_id":"","stop_url":"","location_type":"","parent_station":"","stop_timezone":"","wheelchair_boarding":"0","feed_id":"North_Carolina__Cape_Lookout_National_Seashore__mdb_mdb-3205","agency_name":"National Park Service","route_count":1,"route_ids":"BSB","route_short_names":"","route_types":"4","route_type_names":"Ferry","routes_json":"[{\"route_id\":\"BSB\",\"route_short_name\":\"\",\"route_long_name\":\"Beaufort - Shackleford Banks West End\",\"route_type\":\"4\",\"route_type_name\":\"Ferry\",\"route_color\":\"C56C39\",\"route_text_color\":\"FFFFFF\"}]"},"geometry":{"type":"Point","coordinates":[-76.6503,34.68891]}},{"type":"Feature","properties":{"stop_id":"5","stop_code":"","stop_name":"Shackleford Banks East End","stop_desc":"","zone_id":"","stop_url":"","location_type":"","parent_station":"","stop_timezone":"","wheelchair_boarding":"0","feed_id":"North_Carolina__Cape_Lookout_National_Seashore__mdb_mdb-3205","agency_name":"National Park Service","route_count":1,"route_ids":"HISB","route_short_names":"","route_types":"4","route_type_names":"Ferry","routes_json":"[{\"route_id\":\"HISB\",\"route_short_name\":\"\",\"route_long_name\":\"Harkers Island - Shackleford Banks East End\",\"route_type\":\"4\",\"route_type_name\":\"Ferry\",\"route_color\":\"436E2E\",\"route_text_color\":\"FFFFFF\"}]"},"geometry":{"type":"Point","coordinates":[-76.529609,34.630915]}}]}