{"type":"FeatureCollection","features":[{"type":"Feature","properties":{"stop_id":"2618523","stop_code":"","platform_code":"","stop_name":"Camarillo Plaza","stop_desc":"","zone_id":"","stop_url":"","location_type":"0","parent_station":"","stop_timezone":"America/Los_Angeles","position":"","direction":"","wheelchair_boarding":"0","tts_stop_name":"","feed_id":"California__Camarillo_Area_Transit__mdb_mdb-2234","agency_name":"Camarillo Area Transit","route_count":1,"route_ids":"16743","route_short_names":"","route_types":"3","route_type_names":"Bus","routes_json":"[{\"route_id\":\"16743\",\"route_short_name\":\"\",\"route_long_name\":\"Trolley\",\"route_type\":\"3\",\"route_type_name\":\"Bus\",\"route_color\":\"8C3137\",\"route_text_color\":\"FFFFFF\"}]"},"geometry":{"type":"Point","coordinates":[-119.046158122684,34.217814375649]}},{"type":"Feature","properties":{"stop_id":"2618524","stop_code":"","platform_code":"","stop_name":"Dizdar Park & Camarillo Chamber","stop_desc":"","zone_id":"","stop_url":"","location_type":"0","parent_station":"","stop_timezone":"America/Los_Angeles","position":"","direction":"","wheelchair_boarding":"0","tts_stop_name":"","feed_id":"California__Camarillo_Area_Transit__mdb_mdb-2234","agency_name":"Camarillo Area Transit","route_count":1,"route_ids":"16743","route_short_names":"","route_types":"3","route_type_names":"Bus","routes_json":"[{\"route_id\":\"16743\",\"route_short_name\":\"\",\"route_long_name\":\"Trolley\",\"route_type\":\"3\",\"route_type_name\":\"Bus\",\"route_color\":\"8C3137\",\"route_text_color\":\"FFFFFF\"}]"},"geometry":{"type":"Point","coordinates":[-119.037181,34.21623]}},{"type":"Feature","properties":{"stop_id":"2618525","stop_code":"","platform_code":"","stop_name":"Old Town","stop_desc":"","zone_id":"","stop_url":"","location_type":"0","parent_station":"","stop_timezone":"America/Los_Angeles","position":"","direction":"","wheelchair_boarding":"0","tts_stop_name":"","feed_id":"California__Camarillo_Area_Transit__mdb_mdb-2234","agency_name":"Camarillo Area Transit","route_count":1,"route_ids":"16743","route_short_names":"","route_types":"3","route_type_names":"Bus","routes_json":"[{\"route_id\":\"16743\",\"route_short_name\":\"\",\"route_long_name\":\"Trolley\",\"route_type\":\"3\",\"route_type_name\":\"Bus\",\"route_color\":\"8C3137\",\"route_text_color\":\"FFFFFF\"}]"},"geometry":{"type":"Point","coordinates":[-119.042086665012,34.2167248456141]}},{"type":"Feature","properties":{"stop_id":"2618526","stop_code":"","platform_code":"","stop_name":"Premium Outlet Main Court","stop_desc":"","zone_id":"","stop_url":"","location_type":"0","parent_station":"","stop_timezone":"America/Los_Angeles","position":"","direction":"","wheelchair_boarding":"0","tts_stop_name":"","feed_id":"California__Camarillo_Area_Transit__mdb_mdb-2234","agency_name":"Camarillo Area Transit","route_count":1,"route_ids":"16743","route_short_names":"","route_types":"3","route_type_names":"Bus","routes_json":"[{\"route_id\":\"16743\",\"route_short_name\":\"\",\"route_long_name\":\"Trolley\",\"route_type\":\"3\",\"route_type_name\":\"Bus\",\"route_color\":\"8C3137\",\"route_text_color\":\"FFFFFF\"}]"},"geometry":{"type":"Point","coordinates":[-119.058305,34.217771]}},{"type":"Feature","properties":{"stop_id":"2618527","stop_code":"","platform_code":"","stop_name":"Premium Outlets Promenade","stop_desc":"","zone_id":"","stop_url":"","location_type":"0","parent_station":"","stop_timezone":"America/Los_Angeles","position":"","direction":"","wheelchair_boarding":"0","tts_stop_name":"","feed_id":"California__Camarillo_Area_Transit__mdb_mdb-2234","agency_name":"Camarillo Area Transit","route_count":1,"route_ids":"16743","route_short_names":"","route_types":"3","route_type_names":"Bus","routes_json":"[{\"route_id\":\"16743\",\"route_short_name\":\"\",\"route_long_name\":\"Trolley\",\"route_type\":\"3\",\"route_type_name\":\"Bus\",\"route_color\":\"8C3137\",\"route_text_color\":\"FFFFFF\"}]"},"geometry":{"type":"Point","coordinates":[-119.066947,34.216652]}},{"type":"Feature","properties":{"stop_id":"2618528","stop_code":"","platform_code":"","stop_name":"Camarillo Town Center","stop_desc":"","zone_id":"","stop_url":"","location_type":"0","parent_station":"","stop_timezone":"America/Los_Angeles","position":"","direction":"","wheelchair_boarding":"0","tts_stop_name":"","feed_id":"California__Camarillo_Area_Transit__mdb_mdb-2234","agency_name":"Camarillo Area Transit","route_count":1,"route_ids":"16743","route_short_names":"","route_types":"3","route_type_names":"Bus","routes_json":"[{\"route_id\":\"16743\",\"route_short_name\":\"\",\"route_long_name\":\"Trolley\",\"route_type\":\"3\",\"route_type_name\":\"Bus\",\"route_color\":\"8C3137\",\"route_text_color\":\"FFFFFF\"}]"},"geometry":{"type":"Point","coordinates":[-119.074177,34.216992]}},{"type":"Feature","properties":{"stop_id":"2618529","stop_code":"","platform_code":"","stop_name":"Las Posas Plaza","stop_desc":"","zone_id":"","stop_url":"","location_type":"0","parent_station":"","stop_timezone":"America/Los_Angeles","position":"","direction":"","wheelchair_boarding":"0","tts_stop_name":"","feed_id":"California__Camarillo_Area_Transit__mdb_mdb-2234","agency_name":"Camarillo Area Transit","route_count":1,"route_ids":"16743","route_short_names":"","route_types":"3","route_type_names":"Bus","routes_json":"[{\"route_id\":\"16743\",\"route_short_name\":\"\",\"route_long_name\":\"Trolley\",\"route_type\":\"3\",\"route_type_name\":\"Bus\",\"route_color\":\"8C3137\",\"route_text_color\":\"FFFFFF\"}]"},"geometry":{"type":"Point","coordinates":[-119.067425,34.221766]}},{"type":"Feature","properties":{"stop_id":"2618530","stop_code":"","platform_code":"","stop_name":"Carmen Plaza","stop_desc":"","zone_id":"","stop_url":"","location_type":"0","parent_station":"","stop_timezone":"America/Los_Angeles","position":"","direction":"","wheelchair_boarding":"0","tts_stop_name":"","feed_id":"California__Camarillo_Area_Transit__mdb_mdb-2234","agency_name":"Camarillo Area Transit","route_count":1,"route_ids":"16743","route_short_names":"","route_types":"3","route_type_names":"Bus","routes_json":"[{\"route_id\":\"16743\",\"route_short_name\":\"\",\"route_long_name\":\"Trolley\",\"route_type\":\"3\",\"route_type_name\":\"Bus\",\"route_color\":\"8C3137\",\"route_text_color\":\"FFFFFF\"}]"},"geometry":{"type":"Point","coordinates":[-119.053036,34.218192]}},{"type":"Feature","properties":{"stop_id":"2618531","stop_code":"","platform_code":"","stop_name":"Metrolink","stop_desc":"","zone_id":"","stop_url":"","location_type":"0","parent_station":"","stop_timezone":"America/Los_Angeles","position":"","direction":"","wheelchair_boarding":"0","tts_stop_name":"","feed_id":"California__Camarillo_Area_Transit__mdb_mdb-2234","agency_name":"Camarillo Area Transit","route_count":1,"route_ids":"16743","route_short_names":"","route_types":"3","route_type_names":"Bus","routes_json":"[{\"route_id\":\"16743\",\"route_short_name\":\"\",\"route_long_name\":\"Trolley\",\"route_type\":\"3\",\"route_type_name\":\"Bus\",\"route_color\":\"8C3137\",\"route_text_color\":\"FFFFFF\"}]"},"geometry":{"type":"Point","coordinates":[-119.034029819609,34.2160754754535]}},{"type":"Feature","properties":{"stop_id":"2618532","stop_code":"","platform_code":"","stop_name":"Leisure Village Club House inbound B","stop_desc":"","zone_id":"","stop_url":"","location_type":"0","parent_station":"","stop_timezone":"America/Los_Angeles","position":"","direction":"","wheelchair_boarding":"0","tts_stop_name":"","feed_id":"California__Camarillo_Area_Transit__mdb_mdb-2234","agency_name":"Camarillo Area Transit","route_count":1,"route_ids":"16744","route_short_names":"","route_types":"3","route_type_names":"Bus","routes_json":"[{\"route_id\":\"16744\",\"route_short_name\":\"\",\"route_long_name\":\"Fixed Route Service\",\"route_type\":\"3\",\"route_type_name\":\"Bus\",\"route_color\":\"BE0F34\",\"route_text_color\":\"FFFFFF\"}]"},"geometry":{"type":"Point","coordinates":[-118.989037,34.223197]}},{"type":"Feature","properties":{"stop_id":"2618533","stop_code":"","platform_code":"","stop_name":"Mission Oaks Plaza (Inbound)","stop_desc":"","zone_id":"","stop_url":"","location_type":"0","parent_station":"","stop_timezone":"America/Los_Angeles","position":"","direction":"","wheelchair_boarding":"0","tts_stop_name":"","feed_id":"California__Camarillo_Area_Transit__mdb_mdb-2234","agency_name":"Camarillo Area Transit","route_count":1,"route_ids":"16744","route_short_names":"","route_types":"3","route_type_names":"Bus","routes_json":"[{\"route_id\":\"16744\",\"route_short_name\":\"\",\"route_long_name\":\"Fixed Route Service\",\"route_type\":\"3\",\"route_type_name\":\"Bus\",\"route_color\":\"BE0F34\",\"route_text_color\":\"FFFFFF\"}]"},"geometry":{"type":"Point","coordinates":[-118.998019,34.22983]}},{"type":"Feature","properties":{"stop_id":"2618534","stop_code":"","platform_code":"","stop_name":"City Hall Flex","stop_desc":"","zone_id":"","stop_url":"","location_type":"0","parent_station":"","stop_timezone":"America/Los_Angeles","position":"","direction":"","wheelchair_boarding":"0","tts_stop_name":"","feed_id":"California__Camarillo_Area_Transit__mdb_mdb-2234","agency_name":"Camarillo Area Transit","route_count":0,"route_ids":"","route_short_names":"","route_types":"","route_type_names":"","routes_json":"[]"},"geometry":{"type":"Point","coordinates":[-119.050237,34.223513]}},{"type":"Feature","properties":{"stop_id":"2618535","stop_code":"","platform_code":"","stop_name":"Post Office","stop_desc":"","zone_id":"","stop_url":"","location_type":"0","parent_station":"","stop_timezone":"America/Los_Angeles","position":"","direction":"","wheelchair_boarding":"0","tts_stop_name":"","feed_id":"California__Camarillo_Area_Transit__mdb_mdb-2234","agency_name":"Camarillo Area Transit","route_count":1,"route_ids":"16744","route_short_names":"","route_types":"3","route_type_names":"Bus","routes_json":"[{\"route_id\":\"16744\",\"route_short_name\":\"\",\"route_long_name\":\"Fixed Route Service\",\"route_type\":\"3\",\"route_type_name\":\"Bus\",\"route_color\":\"BE0F34\",\"route_text_color\":\"FFFFFF\"}]"},"geometry":{"type":"Point","coordinates":[-119.042891,34.222184]}},{"type":"Feature","properties":{"stop_id":"2618536","stop_code":"","platform_code":"","stop_name":"Ponderosa Center","stop_desc":"","zone_id":"","stop_url":"","location_type":"0","parent_station":"","stop_timezone":"America/Los_Angeles","position":"","direction":"","wheelchair_boarding":"0","tts_stop_name":"","feed_id":"California__Camarillo_Area_Transit__mdb_mdb-2234","agency_name":"Camarillo Area Transit","route_count":2,"route_ids":"16744|16743","route_short_names":"","route_types":"3","route_type_names":"Bus","routes_json":"[{\"route_id\":\"16744\",\"route_short_name\":\"\",\"route_long_name\":\"Fixed Route Service\",\"route_type\":\"3\",\"route_type_name\":\"Bus\",\"route_color\":\"BE0F34\",\"route_text_color\":\"FFFFFF\"},{\"route_id\":\"16743\",\"route_short_name\":\"\",\"route_long_name\":\"Trolley\",\"route_type\":\"3\",\"route_type_name\":\"Bus\",\"route_color\":\"8C3137\",\"route_text_color\":\"FFFFFF\"}]"},"geometry":{"type":"Point","coordinates":[-119.040697,34.219537]}},{"type":"Feature","properties":{"stop_id":"2618537","stop_code":"","platform_code":"","stop_name":"Central Plaza","stop_desc":"","zone_id":"","stop_url":"","location_type":"0","parent_station":"","stop_timezone":"America/Los_Angeles","position":"","direction":"","wheelchair_boarding":"0","tts_stop_name":"","feed_id":"California__Camarillo_Area_Transit__mdb_mdb-2234","agency_name":"Camarillo Area Transit","route_count":1,"route_ids":"16744","route_short_names":"","route_types":"3","route_type_names":"Bus","routes_json":"[{\"route_id\":\"16744\",\"route_short_name\":\"\",\"route_long_name\":\"Fixed Route Service\",\"route_type\":\"3\",\"route_type_name\":\"Bus\",\"route_color\":\"BE0F34\",\"route_text_color\":\"FFFFFF\"}]"},"geometry":{"type":"Point","coordinates":[-119.037989,34.225922]}},{"type":"Feature","properties":{"stop_id":"2618538","stop_code":"","platform_code":"","stop_name":"Village Square","stop_desc":"","zone_id":"","stop_url":"","location_type":"0","parent_station":"","stop_timezone":"America/Los_Angeles","position":"","direction":"","wheelchair_boarding":"0","tts_stop_name":"","feed_id":"California__Camarillo_Area_Transit__mdb_mdb-2234","agency_name":"Camarillo Area Transit","route_count":1,"route_ids":"16744","route_short_names":"","route_types":"3","route_type_names":"Bus","routes_json":"[{\"route_id\":\"16744\",\"route_short_name\":\"\",\"route_long_name\":\"Fixed Route Service\",\"route_type\":\"3\",\"route_type_name\":\"Bus\",\"route_color\":\"BE0F34\",\"route_text_color\":\"FFFFFF\"}]"},"geometry":{"type":"Point","coordinates":[-119.037831,34.235394]}},{"type":"Feature","properties":{"stop_id":"2618539","stop_code":"","platform_code":"","stop_name":"Mission Oaks Plaza (Outbound)","stop_desc":"","zone_id":"","stop_url":"","location_type":"0","parent_station":"","stop_timezone":"America/Los_Angeles","position":"","direction":"","wheelchair_boarding":"0","tts_stop_name":"","feed_id":"California__Camarillo_Area_Transit__mdb_mdb-2234","agency_name":"Camarillo Area Transit","route_count":1,"route_ids":"16744","route_short_names":"","route_types":"3","route_type_names":"Bus","routes_json":"[{\"route_id\":\"16744\",\"route_short_name\":\"\",\"route_long_name\":\"Fixed Route Service\",\"route_type\":\"3\",\"route_type_name\":\"Bus\",\"route_color\":\"BE0F34\",\"route_text_color\":\"FFFFFF\"}]"},"geometry":{"type":"Point","coordinates":[-118.996973,34.228842]}},{"type":"Feature","properties":{"stop_id":"2618540","stop_code":"","platform_code":"","stop_name":"Mtn. View/ Village #4","stop_desc":"","zone_id":"","stop_url":"","location_type":"0","parent_station":"","stop_timezone":"America/Los_Angeles","position":"","direction":"","wheelchair_boarding":"0","tts_stop_name":"","feed_id":"California__Camarillo_Area_Transit__mdb_mdb-2234","agency_name":"Camarillo Area Transit","route_count":1,"route_ids":"16744","route_short_names":"","route_types":"3","route_type_names":"Bus","routes_json":"[{\"route_id\":\"16744\",\"route_short_name\":\"\",\"route_long_name\":\"Fixed Route Service\",\"route_type\":\"3\",\"route_type_name\":\"Bus\",\"route_color\":\"BE0F34\",\"route_text_color\":\"FFFFFF\"}]"},"geometry":{"type":"Point","coordinates":[-118.993716,34.218408]}},{"type":"Feature","properties":{"stop_id":"2618541","stop_code":"","platform_code":"","stop_name":"Mtn. View/ Village #23","stop_desc":"","zone_id":"","stop_url":"","location_type":"0","parent_station":"","stop_timezone":"America/Los_Angeles","position":"","direction":"","wheelchair_boarding":"0","tts_stop_name":"","feed_id":"California__Camarillo_Area_Transit__mdb_mdb-2234","agency_name":"Camarillo Area Transit","route_count":1,"route_ids":"16744","route_short_names":"","route_types":"3","route_type_names":"Bus","routes_json":"[{\"route_id\":\"16744\",\"route_short_name\":\"\",\"route_long_name\":\"Fixed Route Service\",\"route_type\":\"3\",\"route_type_name\":\"Bus\",\"route_color\":\"BE0F34\",\"route_text_color\":\"FFFFFF\"}]"},"geometry":{"type":"Point","coordinates":[-118.98718,34.219517]}},{"type":"Feature","properties":{"stop_id":"2618542","stop_code":"","platform_code":"","stop_name":"Mtn. View /Village #25","stop_desc":"","zone_id":"","stop_url":"","location_type":"0","parent_station":"","stop_timezone":"America/Los_Angeles","position":"","direction":"","wheelchair_boarding":"0","tts_stop_name":"","feed_id":"California__Camarillo_Area_Transit__mdb_mdb-2234","agency_name":"Camarillo Area Transit","route_count":1,"route_ids":"16744","route_short_names":"","route_types":"3","route_type_names":"Bus","routes_json":"[{\"route_id\":\"16744\",\"route_short_name\":\"\",\"route_long_name\":\"Fixed Route Service\",\"route_type\":\"3\",\"route_type_name\":\"Bus\",\"route_color\":\"BE0F34\",\"route_text_color\":\"FFFFFF\"}]"},"geometry":{"type":"Point","coordinates":[-118.985657,34.220741]}},{"type":"Feature","properties":{"stop_id":"2618543","stop_code":"","platform_code":"","stop_name":"East Gate/Village #41","stop_desc":"","zone_id":"","stop_url":"","location_type":"0","parent_station":"","stop_timezone":"America/Los_Angeles","position":"","direction":"","wheelchair_boarding":"0","tts_stop_name":"","feed_id":"California__Camarillo_Area_Transit__mdb_mdb-2234","agency_name":"Camarillo Area Transit","route_count":1,"route_ids":"16744","route_short_names":"","route_types":"3","route_type_names":"Bus","routes_json":"[{\"route_id\":\"16744\",\"route_short_name\":\"\",\"route_long_name\":\"Fixed Route Service\",\"route_type\":\"3\",\"route_type_name\":\"Bus\",\"route_color\":\"BE0F34\",\"route_text_color\":\"FFFFFF\"}]"},"geometry":{"type":"Point","coordinates":[-118.974735,34.230428]}},{"type":"Feature","properties":{"stop_id":"2618544","stop_code":"","platform_code":"","stop_name":"Pleasant Valley Park","stop_desc":"","zone_id":"","stop_url":"","location_type":"0","parent_station":"","stop_timezone":"America/Los_Angeles","position":"","direction":"","wheelchair_boarding":"0","tts_stop_name":"","feed_id":"California__Camarillo_Area_Transit__mdb_mdb-2234","agency_name":"Camarillo Area Transit","route_count":1,"route_ids":"16744","route_short_names":"","route_types":"3","route_type_names":"Bus","routes_json":"[{\"route_id\":\"16744\",\"route_short_name\":\"\",\"route_long_name\":\"Fixed Route Service\",\"route_type\":\"3\",\"route_type_name\":\"Bus\",\"route_color\":\"BE0F34\",\"route_text_color\":\"FFFFFF\"}]"},"geometry":{"type":"Point","coordinates":[-119.028598,34.231088]}},{"type":"Feature","properties":{"stop_id":"2618545","stop_code":"","platform_code":"","stop_name":"Mira Vista Village","stop_desc":"","zone_id":"","stop_url":"","location_type":"0","parent_station":"","stop_timezone":"America/Los_Angeles","position":"","direction":"","wheelchair_boarding":"0","tts_stop_name":"","feed_id":"California__Camarillo_Area_Transit__mdb_mdb-2234","agency_name":"Camarillo Area Transit","route_count":1,"route_ids":"16744","route_short_names":"","route_types":"3","route_type_names":"Bus","routes_json":"[{\"route_id\":\"16744\",\"route_short_name\":\"\",\"route_long_name\":\"Fixed Route Service\",\"route_type\":\"3\",\"route_type_name\":\"Bus\",\"route_color\":\"BE0F34\",\"route_text_color\":\"FFFFFF\"}]"},"geometry":{"type":"Point","coordinates":[-119.033224,34.226935]}},{"type":"Feature","properties":{"stop_id":"2618546","stop_code":"","platform_code":"","stop_name":"Community Center","stop_desc":"","zone_id":"","stop_url":"","location_type":"0","parent_station":"","stop_timezone":"America/Los_Angeles","position":"","direction":"","wheelchair_boarding":"0","tts_stop_name":"","feed_id":"California__Camarillo_Area_Transit__mdb_mdb-2234","agency_name":"Camarillo Area Transit","route_count":1,"route_ids":"16744","route_short_names":"","route_types":"3","route_type_names":"Bus","routes_json":"[{\"route_id\":\"16744\",\"route_short_name\":\"\",\"route_long_name\":\"Fixed Route Service\",\"route_type\":\"3\",\"route_type_name\":\"Bus\",\"route_color\":\"BE0F34\",\"route_text_color\":\"FFFFFF\"}]"},"geometry":{"type":"Point","coordinates":[-119.049256,34.225857]}},{"type":"Feature","properties":{"stop_id":"2618547","stop_code":"","platform_code":"","stop_name":"Pleasant Valley Hospital","stop_desc":"","zone_id":"","stop_url":"","location_type":"0","parent_station":"","stop_timezone":"America/Los_Angeles","position":"","direction":"","wheelchair_boarding":"0","tts_stop_name":"","feed_id":"California__Camarillo_Area_Transit__mdb_mdb-2234","agency_name":"Camarillo Area Transit","route_count":1,"route_ids":"16744","route_short_names":"","route_types":"3","route_type_names":"Bus","routes_json":"[{\"route_id\":\"16744\",\"route_short_name\":\"\",\"route_long_name\":\"Fixed Route Service\",\"route_type\":\"3\",\"route_type_name\":\"Bus\",\"route_color\":\"BE0F34\",\"route_text_color\":\"FFFFFF\"}]"},"geometry":{"type":"Point","coordinates":[-119.020844,34.242791]}},{"type":"Feature","properties":{"stop_id":"2618548","stop_code":"","platform_code":"","stop_name":"Camarillo Library","stop_desc":"","zone_id":"","stop_url":"","location_type":"0","parent_station":"","stop_timezone":"America/Los_Angeles","position":"","direction":"","wheelchair_boarding":"0","tts_stop_name":"","feed_id":"California__Camarillo_Area_Transit__mdb_mdb-2234","agency_name":"Camarillo Area Transit","route_count":1,"route_ids":"16744","route_short_names":"","route_types":"3","route_type_names":"Bus","routes_json":"[{\"route_id\":\"16744\",\"route_short_name\":\"\",\"route_long_name\":\"Fixed Route Service\",\"route_type\":\"3\",\"route_type_name\":\"Bus\",\"route_color\":\"BE0F34\",\"route_text_color\":\"FFFFFF\"}]"},"geometry":{"type":"Point","coordinates":[-119.01539,34.243015]}},{"type":"Feature","properties":{"stop_id":"2618549","stop_code":"","platform_code":"","stop_name":"Santa Rosa Plaza","stop_desc":"","zone_id":"","stop_url":"","location_type":"0","parent_station":"","stop_timezone":"America/Los_Angeles","position":"","direction":"","wheelchair_boarding":"0","tts_stop_name":"","feed_id":"California__Camarillo_Area_Transit__mdb_mdb-2234","agency_name":"Camarillo Area Transit","route_count":1,"route_ids":"16744","route_short_names":"","route_types":"3","route_type_names":"Bus","routes_json":"[{\"route_id\":\"16744\",\"route_short_name\":\"\",\"route_long_name\":\"Fixed Route Service\",\"route_type\":\"3\",\"route_type_name\":\"Bus\",\"route_color\":\"BE0F34\",\"route_text_color\":\"FFFFFF\"}]"},"geometry":{"type":"Point","coordinates":[-118.986978,34.226439]}},{"type":"Feature","properties":{"stop_id":"2618550","stop_code":"","platform_code":"","stop_name":"East Gate/ Village #44","stop_desc":"","zone_id":"","stop_url":"","location_type":"0","parent_station":"","stop_timezone":"America/Los_Angeles","position":"","direction":"","wheelchair_boarding":"0","tts_stop_name":"","feed_id":"California__Camarillo_Area_Transit__mdb_mdb-2234","agency_name":"Camarillo Area Transit","route_count":1,"route_ids":"16744","route_short_names":"","route_types":"3","route_type_names":"Bus","routes_json":"[{\"route_id\":\"16744\",\"route_short_name\":\"\",\"route_long_name\":\"Fixed Route Service\",\"route_type\":\"3\",\"route_type_name\":\"Bus\",\"route_color\":\"BE0F34\",\"route_text_color\":\"FFFFFF\"}]"},"geometry":{"type":"Point","coordinates":[-118.974631,34.23078]}},{"type":"Feature","properties":{"stop_id":"2618551","stop_code":"","platform_code":"","stop_name":"Mtn. View/ #30","stop_desc":"","zone_id":"","stop_url":"","location_type":"0","parent_station":"","stop_timezone":"America/Los_Angeles","position":"","direction":"","wheelchair_boarding":"0","tts_stop_name":"","feed_id":"California__Camarillo_Area_Transit__mdb_mdb-2234","agency_name":"Camarillo Area Transit","route_count":1,"route_ids":"16744","route_short_names":"","route_types":"3","route_type_names":"Bus","routes_json":"[{\"route_id\":\"16744\",\"route_short_name\":\"\",\"route_long_name\":\"Fixed Route Service\",\"route_type\":\"3\",\"route_type_name\":\"Bus\",\"route_color\":\"BE0F34\",\"route_text_color\":\"FFFFFF\"}]"},"geometry":{"type":"Point","coordinates":[-118.983683,34.223464]}},{"type":"Feature","properties":{"stop_id":"2618552","stop_code":"","platform_code":"","stop_name":"Mtn. View/Village #24","stop_desc":"","zone_id":"","stop_url":"","location_type":"0","parent_station":"","stop_timezone":"America/Los_Angeles","position":"","direction":"","wheelchair_boarding":"0","tts_stop_name":"","feed_id":"California__Camarillo_Area_Transit__mdb_mdb-2234","agency_name":"Camarillo Area Transit","route_count":1,"route_ids":"16744","route_short_names":"","route_types":"3","route_type_names":"Bus","routes_json":"[{\"route_id\":\"16744\",\"route_short_name\":\"\",\"route_long_name\":\"Fixed Route Service\",\"route_type\":\"3\",\"route_type_name\":\"Bus\",\"route_color\":\"BE0F34\",\"route_text_color\":\"FFFFFF\"}]"},"geometry":{"type":"Point","coordinates":[-118.986849,34.219639]}},{"type":"Feature","properties":{"stop_id":"2618553","stop_code":"","platform_code":"","stop_name":"Mtn. View/Village #16","stop_desc":"","zone_id":"","stop_url":"","location_type":"0","parent_station":"","stop_timezone":"America/Los_Angeles","position":"","direction":"","wheelchair_boarding":"0","tts_stop_name":"","feed_id":"California__Camarillo_Area_Transit__mdb_mdb-2234","agency_name":"Camarillo Area Transit","route_count":1,"route_ids":"16744","route_short_names":"","route_types":"3","route_type_names":"Bus","routes_json":"[{\"route_id\":\"16744\",\"route_short_name\":\"\",\"route_long_name\":\"Fixed Route Service\",\"route_type\":\"3\",\"route_type_name\":\"Bus\",\"route_color\":\"BE0F34\",\"route_text_color\":\"FFFFFF\"}]"},"geometry":{"type":"Point","coordinates":[-118.994157,34.218427]}},{"type":"Feature","properties":{"stop_id":"2618554","stop_code":"","platform_code":"","stop_name":"Leisure Village Club House","stop_desc":"","zone_id":"","stop_url":"","location_type":"0","parent_station":"","stop_timezone":"America/Los_Angeles","position":"","direction":"","wheelchair_boarding":"0","tts_stop_name":"","feed_id":"California__Camarillo_Area_Transit__mdb_mdb-2234","agency_name":"Camarillo Area Transit","route_count":1,"route_ids":"16744","route_short_names":"","route_types":"3","route_type_names":"Bus","routes_json":"[{\"route_id\":\"16744\",\"route_short_name\":\"\",\"route_long_name\":\"Fixed Route Service\",\"route_type\":\"3\",\"route_type_name\":\"Bus\",\"route_color\":\"BE0F34\",\"route_text_color\":\"FFFFFF\"}]"},"geometry":{"type":"Point","coordinates":[-118.98851,34.223051]}}]}