{"type":"FeatureCollection","features":[{"type":"Feature","properties":{"stop_id":"2734322","stop_code":"","platform_code":"","stop_name":"The Loop","stop_desc":"","zone_id":"","stop_url":"","location_type":"0","parent_station":"","stop_timezone":"America/Los_Angeles","position":"","direction":"","wheelchair_boarding":"0","tts_stop_name":"","feed_id":"Oregon__Morrow_County_Public_Transit__mdb_mdb-2418","agency_name":"Morrow County Public Transit","route_count":0,"route_ids":"","route_short_names":"","route_types":"","route_type_names":"","routes_json":"[]"},"geometry":{"type":"Point","coordinates":[-119.54992759975076,45.3537365058964]}},{"type":"Feature","properties":{"stop_id":"4249051","stop_code":"110","platform_code":"","stop_name":"Pioneer Memorial Hospital","stop_desc":"","zone_id":"","stop_url":"","location_type":"0","parent_station":"","stop_timezone":"America/Los_Angeles","position":"","direction":"","wheelchair_boarding":"0","tts_stop_name":"","feed_id":"Oregon__Morrow_County_Public_Transit__mdb_mdb-2418","agency_name":"Morrow County Public Transit","route_count":0,"route_ids":"","route_short_names":"","route_types":"","route_type_names":"","routes_json":"[]"},"geometry":{"type":"Point","coordinates":[-119.5493394810749,45.35568702722424]}},{"type":"Feature","properties":{"stop_id":"4249052","stop_code":"111","platform_code":"","stop_name":"Morrow County Courthouse","stop_desc":"","zone_id":"","stop_url":"","location_type":"0","parent_station":"","stop_timezone":"America/Los_Angeles","position":"","direction":"","wheelchair_boarding":"0","tts_stop_name":"","feed_id":"Oregon__Morrow_County_Public_Transit__mdb_mdb-2418","agency_name":"Morrow County Public Transit","route_count":1,"route_ids":"77351","route_short_names":"","route_types":"3","route_type_names":"Bus","routes_json":"[{\"route_id\":\"77351\",\"route_short_name\":\"\",\"route_long_name\":\"Morado\",\"route_type\":\"3\",\"route_type_name\":\"Bus\",\"route_color\":\"5E17EB\",\"route_text_color\":\"FFFFFF\"}]"},"geometry":{"type":"Point","coordinates":[-119.54933065044074,45.35351044049932]}},{"type":"Feature","properties":{"stop_id":"4249053","stop_code":"112","platform_code":"","stop_name":"Heppner Market Fresh (E Willow at St Patricks)","stop_desc":"","zone_id":"","stop_url":"","location_type":"0","parent_station":"","stop_timezone":"America/Los_Angeles","position":"","direction":"","wheelchair_boarding":"0","tts_stop_name":"","feed_id":"Oregon__Morrow_County_Public_Transit__mdb_mdb-2418","agency_name":"Morrow County Public Transit","route_count":2,"route_ids":"77351|77214","route_short_names":"","route_types":"3","route_type_names":"Bus","routes_json":"[{\"route_id\":\"77351\",\"route_short_name\":\"\",\"route_long_name\":\"Morado\",\"route_type\":\"3\",\"route_type_name\":\"Bus\",\"route_color\":\"5E17EB\",\"route_text_color\":\"FFFFFF\"},{\"route_id\":\"77214\",\"route_short_name\":\"\",\"route_long_name\":\"Verde\",\"route_type\":\"3\",\"route_type_name\":\"Bus\",\"route_color\":\"0A9250\",\"route_text_color\":\"000000\"}]"},"geometry":{"type":"Point","coordinates":[-119.553075394,45.354571752]}},{"type":"Feature","properties":{"stop_id":"4249054","stop_code":"113","platform_code":"","stop_name":"Ione Horseshoe Park","stop_desc":"","zone_id":"","stop_url":"","location_type":"0","parent_station":"","stop_timezone":"America/Los_Angeles","position":"","direction":"","wheelchair_boarding":"0","tts_stop_name":"","feed_id":"Oregon__Morrow_County_Public_Transit__mdb_mdb-2418","agency_name":"Morrow County Public Transit","route_count":0,"route_ids":"","route_short_names":"","route_types":"","route_type_names":"","routes_json":"[]"},"geometry":{"type":"Point","coordinates":[-119.82713,45.5012]}},{"type":"Feature","properties":{"stop_id":"4249055","stop_code":"114","platform_code":"","stop_name":"Lexington Sinclair Station","stop_desc":"","zone_id":"","stop_url":"","location_type":"0","parent_station":"","stop_timezone":"America/Los_Angeles","position":"","direction":"","wheelchair_boarding":"0","tts_stop_name":"","feed_id":"Oregon__Morrow_County_Public_Transit__mdb_mdb-2418","agency_name":"Morrow County Public Transit","route_count":1,"route_ids":"77351","route_short_names":"","route_types":"3","route_type_names":"Bus","routes_json":"[{\"route_id\":\"77351\",\"route_short_name\":\"\",\"route_long_name\":\"Morado\",\"route_type\":\"3\",\"route_type_name\":\"Bus\",\"route_color\":\"5E17EB\",\"route_text_color\":\"FFFFFF\"}]"},"geometry":{"type":"Point","coordinates":[-119.68772205433709,45.4478305722312]}},{"type":"Feature","properties":{"stop_id":"4249056","stop_code":"115","platform_code":"","stop_name":"C & D Drive-In","stop_desc":"","zone_id":"","stop_url":"","location_type":"0","parent_station":"","stop_timezone":"America/Los_Angeles","position":"","direction":"","wheelchair_boarding":"0","tts_stop_name":"","feed_id":"Oregon__Morrow_County_Public_Transit__mdb_mdb-2418","agency_name":"Morrow County Public Transit","route_count":0,"route_ids":"","route_short_names":"","route_types":"","route_type_names":"","routes_json":"[]"},"geometry":{"type":"Point","coordinates":[-119.70071674902456,45.83998725482439]}},{"type":"Feature","properties":{"stop_id":"4249057","stop_code":"116","platform_code":"","stop_name":"Boardman Trail Apartments","stop_desc":"","zone_id":"","stop_url":"","location_type":"0","parent_station":"","stop_timezone":"America/Los_Angeles","position":"","direction":"","wheelchair_boarding":"0","tts_stop_name":"","feed_id":"Oregon__Morrow_County_Public_Transit__mdb_mdb-2418","agency_name":"Morrow County Public Transit","route_count":1,"route_ids":"77389","route_short_names":"","route_types":"3","route_type_names":"Bus","routes_json":"[{\"route_id\":\"77389\",\"route_short_name\":\"\",\"route_long_name\":\"Amarillo\",\"route_type\":\"3\",\"route_type_name\":\"Bus\",\"route_color\":\"EEEE24\",\"route_text_color\":\"FFFFFF\"}]"},"geometry":{"type":"Point","coordinates":[-119.69508350324324,45.841157317195126]}},{"type":"Feature","properties":{"stop_id":"4249058","stop_code":"117","platform_code":"","stop_name":"Boardman Annex","stop_desc":"","zone_id":"","stop_url":"","location_type":"0","parent_station":"","stop_timezone":"America/Los_Angeles","position":"","direction":"","wheelchair_boarding":"0","tts_stop_name":"","feed_id":"Oregon__Morrow_County_Public_Transit__mdb_mdb-2418","agency_name":"Morrow County Public Transit","route_count":1,"route_ids":"77389","route_short_names":"","route_types":"3","route_type_names":"Bus","routes_json":"[{\"route_id\":\"77389\",\"route_short_name\":\"\",\"route_long_name\":\"Amarillo\",\"route_type\":\"3\",\"route_type_name\":\"Bus\",\"route_color\":\"EEEE24\",\"route_text_color\":\"FFFFFF\"}]"},"geometry":{"type":"Point","coordinates":[-119.69416872494207,45.839642616649485]}},{"type":"Feature","properties":{"stop_id":"4249059","stop_code":"118","platform_code":"","stop_name":"Macario's (302 Olson Rd)","stop_desc":"","zone_id":"","stop_url":"","location_type":"0","parent_station":"","stop_timezone":"America/Los_Angeles","position":"","direction":"","wheelchair_boarding":"0","tts_stop_name":"","feed_id":"Oregon__Morrow_County_Public_Transit__mdb_mdb-2418","agency_name":"Morrow County Public Transit","route_count":0,"route_ids":"","route_short_names":"","route_types":"","route_type_names":"","routes_json":"[]"},"geometry":{"type":"Point","coordinates":[-119.685237220076,45.84381368738295]}},{"type":"Feature","properties":{"stop_id":"4249060","stop_code":"119","platform_code":"","stop_name":"Port View Apartments","stop_desc":"","zone_id":"","stop_url":"","location_type":"0","parent_station":"","stop_timezone":"America/Los_Angeles","position":"","direction":"","wheelchair_boarding":"0","tts_stop_name":"","feed_id":"Oregon__Morrow_County_Public_Transit__mdb_mdb-2418","agency_name":"Morrow County Public Transit","route_count":1,"route_ids":"77389","route_short_names":"","route_types":"3","route_type_names":"Bus","routes_json":"[{\"route_id\":\"77389\",\"route_short_name\":\"\",\"route_long_name\":\"Amarillo\",\"route_type\":\"3\",\"route_type_name\":\"Bus\",\"route_color\":\"EEEE24\",\"route_text_color\":\"FFFFFF\"}]"},"geometry":{"type":"Point","coordinates":[-119.69383232052614,45.84495939310224]}},{"type":"Feature","properties":{"stop_id":"4249061","stop_code":"120","platform_code":"","stop_name":"Boardman City Park","stop_desc":"","zone_id":"","stop_url":"","location_type":"0","parent_station":"","stop_timezone":"America/Los_Angeles","position":"","direction":"","wheelchair_boarding":"0","tts_stop_name":"","feed_id":"Oregon__Morrow_County_Public_Transit__mdb_mdb-2418","agency_name":"Morrow County Public Transit","route_count":1,"route_ids":"77389","route_short_names":"","route_types":"3","route_type_names":"Bus","routes_json":"[{\"route_id\":\"77389\",\"route_short_name\":\"\",\"route_long_name\":\"Amarillo\",\"route_type\":\"3\",\"route_type_name\":\"Bus\",\"route_color\":\"EEEE24\",\"route_text_color\":\"FFFFFF\"}]"},"geometry":{"type":"Point","coordinates":[-119.70406650593132,45.83977085454487]}},{"type":"Feature","properties":{"stop_id":"4249062","stop_code":"121","platform_code":"","stop_name":"Boardman Ave NW & 2nd St NW","stop_desc":"","zone_id":"","stop_url":"","location_type":"0","parent_station":"","stop_timezone":"America/Los_Angeles","position":"","direction":"","wheelchair_boarding":"0","tts_stop_name":"","feed_id":"Oregon__Morrow_County_Public_Transit__mdb_mdb-2418","agency_name":"Morrow County Public Transit","route_count":0,"route_ids":"","route_short_names":"","route_types":"","route_type_names":"","routes_json":"[]"},"geometry":{"type":"Point","coordinates":[-119.70654365999926,45.8395866071196]}},{"type":"Feature","properties":{"stop_id":"4249063","stop_code":"122","platform_code":"","stop_name":"3rd St NW","stop_desc":"","zone_id":"","stop_url":"","location_type":"0","parent_station":"","stop_timezone":"America/Los_Angeles","position":"","direction":"","wheelchair_boarding":"0","tts_stop_name":"","feed_id":"Oregon__Morrow_County_Public_Transit__mdb_mdb-2418","agency_name":"Morrow County Public Transit","route_count":0,"route_ids":"","route_short_names":"","route_types":"","route_type_names":"","routes_json":"[]"},"geometry":{"type":"Point","coordinates":[-119.70890615213838,45.83997557230444]}},{"type":"Feature","properties":{"stop_id":"4249064","stop_code":"123","platform_code":"","stop_name":"Columbia Ave NW & 1st St NW","stop_desc":"","zone_id":"","stop_url":"","location_type":"0","parent_station":"","stop_timezone":"America/Los_Angeles","position":"","direction":"","wheelchair_boarding":"0","tts_stop_name":"","feed_id":"Oregon__Morrow_County_Public_Transit__mdb_mdb-2418","agency_name":"Morrow County Public Transit","route_count":0,"route_ids":"","route_short_names":"","route_types":"","route_type_names":"","routes_json":"[]"},"geometry":{"type":"Point","coordinates":[-119.70434640761016,45.84199866359444]}},{"type":"Feature","properties":{"stop_id":"4249065","stop_code":"124","platform_code":"","stop_name":"Car Wash","stop_desc":"","zone_id":"","stop_url":"","location_type":"0","parent_station":"","stop_timezone":"America/Los_Angeles","position":"","direction":"","wheelchair_boarding":"0","tts_stop_name":"","feed_id":"Oregon__Morrow_County_Public_Transit__mdb_mdb-2418","agency_name":"Morrow County Public Transit","route_count":0,"route_ids":"","route_short_names":"","route_types":"","route_type_names":"","routes_json":"[]"},"geometry":{"type":"Point","coordinates":[-119.70202011605004,45.83680743130921]}},{"type":"Feature","properties":{"stop_id":"4249067","stop_code":"126","platform_code":"","stop_name":"Kunze Ln SW & Mountain View Dr","stop_desc":"","zone_id":"","stop_url":"","location_type":"0","parent_station":"","stop_timezone":"America/Los_Angeles","position":"","direction":"","wheelchair_boarding":"0","tts_stop_name":"","feed_id":"Oregon__Morrow_County_Public_Transit__mdb_mdb-2418","agency_name":"Morrow County Public Transit","route_count":0,"route_ids":"","route_short_names":"","route_types":"","route_type_names":"","routes_json":"[]"},"geometry":{"type":"Point","coordinates":[-119.70979003111763,45.820768847463626]}},{"type":"Feature","properties":{"stop_id":"4249068","stop_code":"127","platform_code":"","stop_name":"Kunze Ln SW & Parkside Dr","stop_desc":"","zone_id":"","stop_url":"","location_type":"0","parent_station":"","stop_timezone":"America/Los_Angeles","position":"","direction":"","wheelchair_boarding":"0","tts_stop_name":"","feed_id":"Oregon__Morrow_County_Public_Transit__mdb_mdb-2418","agency_name":"Morrow County Public Transit","route_count":0,"route_ids":"","route_short_names":"","route_types":"","route_type_names":"","routes_json":"[]"},"geometry":{"type":"Point","coordinates":[-119.7131074218848,45.820782353749365]}},{"type":"Feature","properties":{"stop_id":"4249069","stop_code":"128","platform_code":"","stop_name":"Kunze Ln SW & Hilltop Dr","stop_desc":"","zone_id":"","stop_url":"","location_type":"0","parent_station":"","stop_timezone":"America/Los_Angeles","position":"","direction":"","wheelchair_boarding":"0","tts_stop_name":"","feed_id":"Oregon__Morrow_County_Public_Transit__mdb_mdb-2418","agency_name":"Morrow County Public Transit","route_count":1,"route_ids":"77389","route_short_names":"","route_types":"3","route_type_names":"Bus","routes_json":"[{\"route_id\":\"77389\",\"route_short_name\":\"\",\"route_long_name\":\"Amarillo\",\"route_type\":\"3\",\"route_type_name\":\"Bus\",\"route_color\":\"EEEE24\",\"route_text_color\":\"FFFFFF\"}]"},"geometry":{"type":"Point","coordinates":[-119.7166166040945,45.820783119381645]}},{"type":"Feature","properties":{"stop_id":"4249070","stop_code":"129","platform_code":"","stop_name":"Kunze Ln at Driftwood RV Park","stop_desc":"","zone_id":"","stop_url":"","location_type":"0","parent_station":"","stop_timezone":"America/Los_Angeles","position":"","direction":"","wheelchair_boarding":"0","tts_stop_name":"","feed_id":"Oregon__Morrow_County_Public_Transit__mdb_mdb-2418","agency_name":"Morrow County Public Transit","route_count":1,"route_ids":"77389","route_short_names":"","route_types":"3","route_type_names":"Bus","routes_json":"[{\"route_id\":\"77389\",\"route_short_name\":\"\",\"route_long_name\":\"Amarillo\",\"route_type\":\"3\",\"route_type_name\":\"Bus\",\"route_color\":\"EEEE24\",\"route_text_color\":\"FFFFFF\"}]"},"geometry":{"type":"Point","coordinates":[-119.719485587,45.820789345]}},{"type":"Feature","properties":{"stop_id":"4249071","stop_code":"130","platform_code":"","stop_name":"Smith Rd SW at Bella Vista Estates","stop_desc":"","zone_id":"","stop_url":"","location_type":"0","parent_station":"","stop_timezone":"America/Los_Angeles","position":"","direction":"","wheelchair_boarding":"0","tts_stop_name":"","feed_id":"Oregon__Morrow_County_Public_Transit__mdb_mdb-2418","agency_name":"Morrow County Public Transit","route_count":1,"route_ids":"77389","route_short_names":"","route_types":"3","route_type_names":"Bus","routes_json":"[{\"route_id\":\"77389\",\"route_short_name\":\"\",\"route_long_name\":\"Amarillo\",\"route_type\":\"3\",\"route_type_name\":\"Bus\",\"route_color\":\"EEEE24\",\"route_text_color\":\"FFFFFF\"}]"},"geometry":{"type":"Point","coordinates":[-119.720972925,45.823261898]}},{"type":"Feature","properties":{"stop_id":"4249072","stop_code":"131","platform_code":"","stop_name":"Wilson Ln & Mt Adams Ave SW","stop_desc":"","zone_id":"","stop_url":"","location_type":"0","parent_station":"","stop_timezone":"America/Los_Angeles","position":"","direction":"","wheelchair_boarding":"0","tts_stop_name":"","feed_id":"Oregon__Morrow_County_Public_Transit__mdb_mdb-2418","agency_name":"Morrow County Public Transit","route_count":0,"route_ids":"","route_short_names":"","route_types":"","route_type_names":"","routes_json":"[]"},"geometry":{"type":"Point","coordinates":[-119.71940089296824,45.82799572585273]}},{"type":"Feature","properties":{"stop_id":"4249073","stop_code":"132","platform_code":"","stop_name":"Wilson Ln & Mt Hood Ave SW","stop_desc":"","zone_id":"","stop_url":"","location_type":"0","parent_station":"","stop_timezone":"America/Los_Angeles","position":"","direction":"","wheelchair_boarding":"0","tts_stop_name":"","feed_id":"Oregon__Morrow_County_Public_Transit__mdb_mdb-2418","agency_name":"Morrow County Public Transit","route_count":0,"route_ids":"","route_short_names":"","route_types":"","route_type_names":"","routes_json":"[]"},"geometry":{"type":"Point","coordinates":[-119.7183856004695,45.82799601827358]}},{"type":"Feature","properties":{"stop_id":"4249074","stop_code":"133","platform_code":"","stop_name":"Wilson Ln & Faler Rd SW","stop_desc":"","zone_id":"","stop_url":"","location_type":"0","parent_station":"","stop_timezone":"America/Los_Angeles","position":"","direction":"","wheelchair_boarding":"0","tts_stop_name":"","feed_id":"Oregon__Morrow_County_Public_Transit__mdb_mdb-2418","agency_name":"Morrow County Public Transit","route_count":0,"route_ids":"","route_short_names":"","route_types":"","route_type_names":"","routes_json":"[]"},"geometry":{"type":"Point","coordinates":[-119.71613772747536,45.82795779490476]}},{"type":"Feature","properties":{"stop_id":"4249075","stop_code":"134","platform_code":"","stop_name":"Faller Rd SW @ Maple Crest Apartments","stop_desc":"","zone_id":"","stop_url":"","location_type":"0","parent_station":"","stop_timezone":"America/Los_Angeles","position":"","direction":"","wheelchair_boarding":"0","tts_stop_name":"","feed_id":"Oregon__Morrow_County_Public_Transit__mdb_mdb-2418","agency_name":"Morrow County Public Transit","route_count":1,"route_ids":"77389","route_short_names":"","route_types":"3","route_type_names":"Bus","routes_json":"[{\"route_id\":\"77389\",\"route_short_name\":\"\",\"route_long_name\":\"Amarillo\",\"route_type\":\"3\",\"route_type_name\":\"Bus\",\"route_color\":\"EEEE24\",\"route_text_color\":\"FFFFFF\"}]"},"geometry":{"type":"Point","coordinates":[-119.715782927,45.829298673]}},{"type":"Feature","properties":{"stop_id":"4249076","stop_code":"135","platform_code":"","stop_name":"Kinkade Rd & Willow Fork Dr SW","stop_desc":"","zone_id":"","stop_url":"","location_type":"0","parent_station":"","stop_timezone":"America/Los_Angeles","position":"","direction":"","wheelchair_boarding":"0","tts_stop_name":"","feed_id":"Oregon__Morrow_County_Public_Transit__mdb_mdb-2418","agency_name":"Morrow County Public Transit","route_count":0,"route_ids":"","route_short_names":"","route_types":"","route_type_names":"","routes_json":"[]"},"geometry":{"type":"Point","coordinates":[-119.71148950321653,45.83075089026693]}},{"type":"Feature","properties":{"stop_id":"4249077","stop_code":"136","platform_code":"","stop_name":"Kinkade Rd & Cottonwood Loop","stop_desc":"","zone_id":"","stop_url":"","location_type":"0","parent_station":"","stop_timezone":"America/Los_Angeles","position":"","direction":"","wheelchair_boarding":"0","tts_stop_name":"","feed_id":"Oregon__Morrow_County_Public_Transit__mdb_mdb-2418","agency_name":"Morrow County Public Transit","route_count":0,"route_ids":"","route_short_names":"","route_types":"","route_type_names":"","routes_json":"[]"},"geometry":{"type":"Point","coordinates":[-119.70997840709995,45.83138388346336]}},{"type":"Feature","properties":{"stop_id":"4249078","stop_code":"137","platform_code":"","stop_name":"Kinkade Rd & Blalock Ct","stop_desc":"","zone_id":"","stop_url":"","location_type":"0","parent_station":"","stop_timezone":"America/Los_Angeles","position":"","direction":"","wheelchair_boarding":"0","tts_stop_name":"","feed_id":"Oregon__Morrow_County_Public_Transit__mdb_mdb-2418","agency_name":"Morrow County Public Transit","route_count":0,"route_ids":"","route_short_names":"","route_types":"","route_type_names":"","routes_json":"[]"},"geometry":{"type":"Point","coordinates":[-119.7078241286512,45.8315651018427]}},{"type":"Feature","properties":{"stop_id":"4249079","stop_code":"138","platform_code":"","stop_name":"Kinkade Rd & Locust Rd SW","stop_desc":"","zone_id":"","stop_url":"","location_type":"0","parent_station":"","stop_timezone":"America/Los_Angeles","position":"","direction":"","wheelchair_boarding":"0","tts_stop_name":"","feed_id":"Oregon__Morrow_County_Public_Transit__mdb_mdb-2418","agency_name":"Morrow County Public Transit","route_count":0,"route_ids":"","route_short_names":"","route_types":"","route_type_names":"","routes_json":"[]"},"geometry":{"type":"Point","coordinates":[-119.70676035835312,45.83156541430628]}},{"type":"Feature","properties":{"stop_id":"4249080","stop_code":"139","platform_code":"","stop_name":"Tatone St SW & Kinkade Rd","stop_desc":"","zone_id":"","stop_url":"","location_type":"0","parent_station":"","stop_timezone":"America/Los_Angeles","position":"","direction":"","wheelchair_boarding":"0","tts_stop_name":"","feed_id":"Oregon__Morrow_County_Public_Transit__mdb_mdb-2418","agency_name":"Morrow County Public Transit","route_count":0,"route_ids":"","route_short_names":"","route_types":"","route_type_names":"","routes_json":"[]"},"geometry":{"type":"Point","coordinates":[-119.70280145933174,45.831088628777735]}},{"type":"Feature","properties":{"stop_id":"4249081","stop_code":"140","platform_code":"","stop_name":"Kinkade Rd @ Murray's Drugstore","stop_desc":"","zone_id":"","stop_url":"","location_type":"0","parent_station":"","stop_timezone":"America/Los_Angeles","position":"","direction":"","wheelchair_boarding":"0","tts_stop_name":"","feed_id":"Oregon__Morrow_County_Public_Transit__mdb_mdb-2418","agency_name":"Morrow County Public Transit","route_count":1,"route_ids":"77389","route_short_names":"","route_types":"3","route_type_names":"Bus","routes_json":"[{\"route_id\":\"77389\",\"route_short_name\":\"\",\"route_long_name\":\"Amarillo\",\"route_type\":\"3\",\"route_type_name\":\"Bus\",\"route_color\":\"EEEE24\",\"route_text_color\":\"FFFFFF\"}]"},"geometry":{"type":"Point","coordinates":[-119.70128533,45.831284379]}},{"type":"Feature","properties":{"stop_id":"4249082","stop_code":"141","platform_code":"","stop_name":"Anderson Rd & Alvord St","stop_desc":"","zone_id":"","stop_url":"","location_type":"0","parent_station":"","stop_timezone":"America/Los_Angeles","position":"","direction":"","wheelchair_boarding":"0","tts_stop_name":"","feed_id":"Oregon__Morrow_County_Public_Transit__mdb_mdb-2418","agency_name":"Morrow County Public Transit","route_count":1,"route_ids":"77389","route_short_names":"","route_types":"3","route_type_names":"Bus","routes_json":"[{\"route_id\":\"77389\",\"route_short_name\":\"\",\"route_long_name\":\"Amarillo\",\"route_type\":\"3\",\"route_type_name\":\"Bus\",\"route_color\":\"EEEE24\",\"route_text_color\":\"FFFFFF\"}]"},"geometry":{"type":"Point","coordinates":[-119.69465938929253,45.83215254602604]}},{"type":"Feature","properties":{"stop_id":"4249083","stop_code":"143","platform_code":"","stop_name":"Internet Parkway","stop_desc":"","zone_id":"","stop_url":"","location_type":"0","parent_station":"","stop_timezone":"America/Los_Angeles","position":"","direction":"","wheelchair_boarding":"0","tts_stop_name":"","feed_id":"Oregon__Morrow_County_Public_Transit__mdb_mdb-2418","agency_name":"Morrow County Public Transit","route_count":0,"route_ids":"","route_short_names":"","route_types":"","route_type_names":"","routes_json":"[]"},"geometry":{"type":"Point","coordinates":[-119.61255720173328,45.84989547426758]}},{"type":"Feature","properties":{"stop_id":"4249084","stop_code":"142","platform_code":"","stop_name":"Food Pod","stop_desc":"","zone_id":"","stop_url":"","location_type":"0","parent_station":"","stop_timezone":"America/Los_Angeles","position":"","direction":"","wheelchair_boarding":"0","tts_stop_name":"","feed_id":"Oregon__Morrow_County_Public_Transit__mdb_mdb-2418","agency_name":"Morrow County Public Transit","route_count":1,"route_ids":"77389","route_short_names":"","route_types":"3","route_type_names":"Bus","routes_json":"[{\"route_id\":\"77389\",\"route_short_name\":\"\",\"route_long_name\":\"Amarillo\",\"route_type\":\"3\",\"route_type_name\":\"Bus\",\"route_color\":\"EEEE24\",\"route_text_color\":\"FFFFFF\"}]"},"geometry":{"type":"Point","coordinates":[-119.7002043403756,45.83696734431959]}},{"type":"Feature","properties":{"stop_id":"4249085","stop_code":"144","platform_code":"","stop_name":"Calbee North America (72600 Lewis & Clark Dr)","stop_desc":"","zone_id":"","stop_url":"","location_type":"0","parent_station":"","stop_timezone":"America/Los_Angeles","position":"","direction":"","wheelchair_boarding":"0","tts_stop_name":"","feed_id":"Oregon__Morrow_County_Public_Transit__mdb_mdb-2418","agency_name":"Morrow County Public Transit","route_count":0,"route_ids":"","route_short_names":"","route_types":"","route_type_names":"","routes_json":"[]"},"geometry":{"type":"Point","coordinates":[-119.64524642549952,45.854446012551335]}},{"type":"Feature","properties":{"stop_id":"4249086","stop_code":"145","platform_code":"","stop_name":"Ofi Spices/Alto Columbia","stop_desc":"","zone_id":"","stop_url":"","location_type":"0","parent_station":"","stop_timezone":"America/Los_Angeles","position":"","direction":"","wheelchair_boarding":"0","tts_stop_name":"","feed_id":"Oregon__Morrow_County_Public_Transit__mdb_mdb-2418","agency_name":"Morrow County Public Transit","route_count":0,"route_ids":"","route_short_names":"","route_types":"","route_type_names":"","routes_json":"[]"},"geometry":{"type":"Point","coordinates":[-119.65277182914556,45.85283114022988]}},{"type":"Feature","properties":{"stop_id":"4249087","stop_code":"146","platform_code":"","stop_name":"Tillamook Processing Facility","stop_desc":"","zone_id":"","stop_url":"","location_type":"0","parent_station":"","stop_timezone":"America/Los_Angeles","position":"","direction":"","wheelchair_boarding":"0","tts_stop_name":"","feed_id":"Oregon__Morrow_County_Public_Transit__mdb_mdb-2418","agency_name":"Morrow County Public Transit","route_count":0,"route_ids":"","route_short_names":"","route_types":"","route_type_names":"","routes_json":"[]"},"geometry":{"type":"Point","coordinates":[-119.65977527202853,45.846354893878896]}},{"type":"Feature","properties":{"stop_id":"4249088","stop_code":"147","platform_code":"","stop_name":"Boardman Foods","stop_desc":"","zone_id":"","stop_url":"","location_type":"0","parent_station":"","stop_timezone":"America/Los_Angeles","position":"","direction":"","wheelchair_boarding":"0","tts_stop_name":"","feed_id":"Oregon__Morrow_County_Public_Transit__mdb_mdb-2418","agency_name":"Morrow County Public Transit","route_count":0,"route_ids":"","route_short_names":"","route_types":"","route_type_names":"","routes_json":"[]"},"geometry":{"type":"Point","coordinates":[-119.6628336524348,45.84408079784421]}},{"type":"Feature","properties":{"stop_id":"4249089","stop_code":"148","platform_code":"","stop_name":"Morrow Cold Storage","stop_desc":"","zone_id":"","stop_url":"","location_type":"0","parent_station":"","stop_timezone":"America/Los_Angeles","position":"","direction":"","wheelchair_boarding":"0","tts_stop_name":"","feed_id":"Oregon__Morrow_County_Public_Transit__mdb_mdb-2418","agency_name":"Morrow County Public Transit","route_count":0,"route_ids":"","route_short_names":"","route_types":"","route_type_names":"","routes_json":"[]"},"geometry":{"type":"Point","coordinates":[-119.67298783875758,45.84246737035107]}},{"type":"Feature","properties":{"stop_id":"4249090","stop_code":"149","platform_code":"","stop_name":"Oregon Potato","stop_desc":"","zone_id":"","stop_url":"","location_type":"0","parent_station":"","stop_timezone":"America/Los_Angeles","position":"","direction":"","wheelchair_boarding":"0","tts_stop_name":"","feed_id":"Oregon__Morrow_County_Public_Transit__mdb_mdb-2418","agency_name":"Morrow County Public Transit","route_count":0,"route_ids":"","route_short_names":"","route_types":"","route_type_names":"","routes_json":"[]"},"geometry":{"type":"Point","coordinates":[-119.67967275086924,45.84352236523517]}},{"type":"Feature","properties":{"stop_id":"4249091","stop_code":"150","platform_code":"","stop_name":"Lamb Weston West","stop_desc":"","zone_id":"","stop_url":"","location_type":"0","parent_station":"","stop_timezone":"America/Los_Angeles","position":"","direction":"","wheelchair_boarding":"0","tts_stop_name":"","feed_id":"Oregon__Morrow_County_Public_Transit__mdb_mdb-2418","agency_name":"Morrow County Public Transit","route_count":0,"route_ids":"","route_short_names":"","route_types":"","route_type_names":"","routes_json":"[]"},"geometry":{"type":"Point","coordinates":[-119.6815527165316,45.84386061046882]}},{"type":"Feature","properties":{"stop_id":"4251933","stop_code":"1060","platform_code":"","stop_name":"Ione City Park","stop_desc":"","zone_id":"","stop_url":"","location_type":"0","parent_station":"","stop_timezone":"America/Los_Angeles","position":"","direction":"","wheelchair_boarding":"0","tts_stop_name":"","feed_id":"Oregon__Morrow_County_Public_Transit__mdb_mdb-2418","agency_name":"Morrow County Public Transit","route_count":0,"route_ids":"","route_short_names":"","route_types":"","route_type_names":"","routes_json":"[]"},"geometry":{"type":"Point","coordinates":[-120.024167,45.7429]}},{"type":"Feature","properties":{"stop_id":"4251958","stop_code":"","platform_code":"","stop_name":"MCPT Office","stop_desc":"","zone_id":"","stop_url":"","location_type":"0","parent_station":"","stop_timezone":"America/Los_Angeles","position":"","direction":"","wheelchair_boarding":"0","tts_stop_name":"","feed_id":"Oregon__Morrow_County_Public_Transit__mdb_mdb-2418","agency_name":"Morrow County Public Transit","route_count":4,"route_ids":"77389|77351|77384|77214","route_short_names":"","route_types":"3","route_type_names":"Bus","routes_json":"[{\"route_id\":\"77389\",\"route_short_name\":\"\",\"route_long_name\":\"Amarillo\",\"route_type\":\"3\",\"route_type_name\":\"Bus\",\"route_color\":\"EEEE24\",\"route_text_color\":\"FFFFFF\"},{\"route_id\":\"77351\",\"route_short_name\":\"\",\"route_long_name\":\"Morado\",\"route_type\":\"3\",\"route_type_name\":\"Bus\",\"route_color\":\"5E17EB\",\"route_text_color\":\"FFFFFF\"},{\"route_id\":\"77384\",\"route_short_name\":\"\",\"route_long_name\":\"Rojo\",\"route_type\":\"3\",\"route_type_name\":\"Bus\",\"route_color\":\"E2190F\",\"route_text_color\":\"000000\"},{\"route_id\":\"77214\",\"route_short_name\":\"\",\"route_long_name\":\"Verde\",\"route_type\":\"3\",\"route_type_name\":\"Bus\",\"route_color\":\"0A9250\",\"route_text_color\":\"000000\"}]"},"geometry":{"type":"Point","coordinates":[-119.70251,45.83981]}},{"type":"Feature","properties":{"stop_id":"4253051","stop_code":"","platform_code":"","stop_name":"Riverside Park","stop_desc":"","zone_id":"","stop_url":"","location_type":"0","parent_station":"","stop_timezone":"America/Los_Angeles","position":"","direction":"","wheelchair_boarding":"0","tts_stop_name":"","feed_id":"Oregon__Morrow_County_Public_Transit__mdb_mdb-2418","agency_name":"Morrow County Public Transit","route_count":1,"route_ids":"77351","route_short_names":"","route_types":"3","route_type_names":"Bus","routes_json":"[{\"route_id\":\"77351\",\"route_short_name\":\"\",\"route_long_name\":\"Morado\",\"route_type\":\"3\",\"route_type_name\":\"Bus\",\"route_color\":\"5E17EB\",\"route_text_color\":\"FFFFFF\"}]"},"geometry":{"type":"Point","coordinates":[-119.5581887,45.3615065]}},{"type":"Feature","properties":{"stop_id":"4253052","stop_code":"","platform_code":"","stop_name":"Columbia Ave @ Riverside Track / Softball Field","stop_desc":"","zone_id":"","stop_url":"","location_type":"0","parent_station":"","stop_timezone":"America/Los_Angeles","position":"","direction":"","wheelchair_boarding":"0","tts_stop_name":"","feed_id":"Oregon__Morrow_County_Public_Transit__mdb_mdb-2418","agency_name":"Morrow County Public Transit","route_count":1,"route_ids":"77389","route_short_names":"","route_types":"3","route_type_names":"Bus","routes_json":"[{\"route_id\":\"77389\",\"route_short_name\":\"\",\"route_long_name\":\"Amarillo\",\"route_type\":\"3\",\"route_type_name\":\"Bus\",\"route_color\":\"EEEE24\",\"route_text_color\":\"FFFFFF\"}]"},"geometry":{"type":"Point","coordinates":[-119.6988854,45.8439]}},{"type":"Feature","properties":{"stop_id":"4253053","stop_code":"","platform_code":"","stop_name":"Frank Gilliam Drive @ Willow Creek Terrace","stop_desc":"","zone_id":"","stop_url":"","location_type":"0","parent_station":"","stop_timezone":"America/Los_Angeles","position":"","direction":"","wheelchair_boarding":"0","tts_stop_name":"","feed_id":"Oregon__Morrow_County_Public_Transit__mdb_mdb-2418","agency_name":"Morrow County Public Transit","route_count":0,"route_ids":"","route_short_names":"","route_types":"","route_type_names":"","routes_json":"[]"},"geometry":{"type":"Point","coordinates":[-119.5507899,45.3440604]}},{"type":"Feature","properties":{"stop_id":"4253054","stop_code":"L-110","platform_code":"","stop_name":"Thompson Ave @ Pioneer Memorial Hospital","stop_desc":"","zone_id":"","stop_url":"","location_type":"0","parent_station":"","stop_timezone":"America/Los_Angeles","position":"","direction":"","wheelchair_boarding":"0","tts_stop_name":"","feed_id":"Oregon__Morrow_County_Public_Transit__mdb_mdb-2418","agency_name":"Morrow County Public Transit","route_count":0,"route_ids":"","route_short_names":"","route_types":"","route_type_names":"","routes_json":"[]"},"geometry":{"type":"Point","coordinates":[-119.5483496,45.3560685]}},{"type":"Feature","properties":{"stop_id":"4253055","stop_code":"","platform_code":"","stop_name":"Walmart","stop_desc":"","zone_id":"","stop_url":"","location_type":"0","parent_station":"","stop_timezone":"America/Los_Angeles","position":"","direction":"","wheelchair_boarding":"0","tts_stop_name":"","feed_id":"Oregon__Morrow_County_Public_Transit__mdb_mdb-2418","agency_name":"Morrow County Public Transit","route_count":2,"route_ids":"77351|77384","route_short_names":"","route_types":"3","route_type_names":"Bus","routes_json":"[{\"route_id\":\"77351\",\"route_short_name\":\"\",\"route_long_name\":\"Morado\",\"route_type\":\"3\",\"route_type_name\":\"Bus\",\"route_color\":\"5E17EB\",\"route_text_color\":\"FFFFFF\"},{\"route_id\":\"77384\",\"route_short_name\":\"\",\"route_long_name\":\"Rojo\",\"route_type\":\"3\",\"route_type_name\":\"Bus\",\"route_color\":\"E2190F\",\"route_text_color\":\"000000\"}]"},"geometry":{"type":"Point","coordinates":[-119.2877534,45.8520884]}},{"type":"Feature","properties":{"stop_id":"4253056","stop_code":"","platform_code":"","stop_name":"3rd St @ Idaho","stop_desc":"","zone_id":"","stop_url":"","location_type":"0","parent_station":"","stop_timezone":"America/Los_Angeles","position":"","direction":"","wheelchair_boarding":"0","tts_stop_name":"","feed_id":"Oregon__Morrow_County_Public_Transit__mdb_mdb-2418","agency_name":"Morrow County Public Transit","route_count":0,"route_ids":"","route_short_names":"","route_types":"","route_type_names":"","routes_json":"[]"},"geometry":{"type":"Point","coordinates":[-119.5103551,45.8938267]}},{"type":"Feature","properties":{"stop_id":"4253057","stop_code":"","platform_code":"","stop_name":"Idaho / 10th","stop_desc":"","zone_id":"","stop_url":"","location_type":"0","parent_station":"","stop_timezone":"America/Los_Angeles","position":"","direction":"","wheelchair_boarding":"0","tts_stop_name":"","feed_id":"Oregon__Morrow_County_Public_Transit__mdb_mdb-2418","agency_name":"Morrow County Public Transit","route_count":1,"route_ids":"77384","route_short_names":"","route_types":"3","route_type_names":"Bus","routes_json":"[{\"route_id\":\"77384\",\"route_short_name\":\"\",\"route_long_name\":\"Rojo\",\"route_type\":\"3\",\"route_type_name\":\"Bus\",\"route_color\":\"E2190F\",\"route_text_color\":\"000000\"}]"},"geometry":{"type":"Point","coordinates":[-119.4887333,45.8938427]}},{"type":"Feature","properties":{"stop_id":"4253058","stop_code":"","platform_code":"","stop_name":"Irrigon Senior Center","stop_desc":"","zone_id":"","stop_url":"","location_type":"0","parent_station":"","stop_timezone":"America/Los_Angeles","position":"","direction":"","wheelchair_boarding":"0","tts_stop_name":"","feed_id":"Oregon__Morrow_County_Public_Transit__mdb_mdb-2418","agency_name":"Morrow County Public Transit","route_count":1,"route_ids":"77384","route_short_names":"","route_types":"3","route_type_names":"Bus","routes_json":"[{\"route_id\":\"77384\",\"route_short_name\":\"\",\"route_long_name\":\"Rojo\",\"route_type\":\"3\",\"route_type_name\":\"Bus\",\"route_color\":\"E2190F\",\"route_text_color\":\"000000\"}]"},"geometry":{"type":"Point","coordinates":[-119.5012608,45.8951038]}},{"type":"Feature","properties":{"stop_id":"4253059","stop_code":"","platform_code":"","stop_name":"E Main @ Irrigon Skate Park","stop_desc":"","zone_id":"","stop_url":"","location_type":"0","parent_station":"","stop_timezone":"America/Los_Angeles","position":"","direction":"","wheelchair_boarding":"0","tts_stop_name":"","feed_id":"Oregon__Morrow_County_Public_Transit__mdb_mdb-2418","agency_name":"Morrow County Public Transit","route_count":1,"route_ids":"77384","route_short_names":"","route_types":"3","route_type_names":"Bus","routes_json":"[{\"route_id\":\"77384\",\"route_short_name\":\"\",\"route_long_name\":\"Rojo\",\"route_type\":\"3\",\"route_type_name\":\"Bus\",\"route_color\":\"E2190F\",\"route_text_color\":\"000000\"}]"},"geometry":{"type":"Point","coordinates":[-119.4926916,45.8962543]}},{"type":"Feature","properties":{"stop_id":"4253060","stop_code":"","platform_code":"","stop_name":"E Main @ Irrigon Library","stop_desc":"","zone_id":"","stop_url":"","location_type":"0","parent_station":"","stop_timezone":"America/Los_Angeles","position":"","direction":"","wheelchair_boarding":"0","tts_stop_name":"","feed_id":"Oregon__Morrow_County_Public_Transit__mdb_mdb-2418","agency_name":"Morrow County Public Transit","route_count":1,"route_ids":"77384","route_short_names":"","route_types":"3","route_type_names":"Bus","routes_json":"[{\"route_id\":\"77384\",\"route_short_name\":\"\",\"route_long_name\":\"Rojo\",\"route_type\":\"3\",\"route_type_name\":\"Bus\",\"route_color\":\"E2190F\",\"route_text_color\":\"000000\"}]"},"geometry":{"type":"Point","coordinates":[-119.4954325,45.8958186]}},{"type":"Feature","properties":{"stop_id":"4253061","stop_code":"","platform_code":"","stop_name":"Irrigon High","stop_desc":"","zone_id":"","stop_url":"","location_type":"0","parent_station":"","stop_timezone":"America/Los_Angeles","position":"","direction":"","wheelchair_boarding":"0","tts_stop_name":"","feed_id":"Oregon__Morrow_County_Public_Transit__mdb_mdb-2418","agency_name":"Morrow County Public Transit","route_count":1,"route_ids":"77384","route_short_names":"","route_types":"3","route_type_names":"Bus","routes_json":"[{\"route_id\":\"77384\",\"route_short_name\":\"\",\"route_long_name\":\"Rojo\",\"route_type\":\"3\",\"route_type_name\":\"Bus\",\"route_color\":\"E2190F\",\"route_text_color\":\"000000\"}]"},"geometry":{"type":"Point","coordinates":[-119.4976903,45.8866192]}},{"type":"Feature","properties":{"stop_id":"4253062","stop_code":"","platform_code":"","stop_name":"Irrigon Shell","stop_desc":"","zone_id":"","stop_url":"","location_type":"0","parent_station":"","stop_timezone":"America/Los_Angeles","position":"","direction":"","wheelchair_boarding":"0","tts_stop_name":"","feed_id":"Oregon__Morrow_County_Public_Transit__mdb_mdb-2418","agency_name":"Morrow County Public Transit","route_count":0,"route_ids":"","route_short_names":"","route_types":"","route_type_names":"","routes_json":"[]"},"geometry":{"type":"Point","coordinates":[-119.4977693920695,45.89445225917953]}},{"type":"Feature","properties":{"stop_id":"4253063","stop_code":"","platform_code":"","stop_name":"Main @ Morrow County Gov Center","stop_desc":"","zone_id":"","stop_url":"","location_type":"0","parent_station":"","stop_timezone":"America/Los_Angeles","position":"","direction":"","wheelchair_boarding":"0","tts_stop_name":"","feed_id":"Oregon__Morrow_County_Public_Transit__mdb_mdb-2418","agency_name":"Morrow County Public Transit","route_count":1,"route_ids":"77384","route_short_names":"","route_types":"3","route_type_names":"Bus","routes_json":"[{\"route_id\":\"77384\",\"route_short_name\":\"\",\"route_long_name\":\"Rojo\",\"route_type\":\"3\",\"route_type_name\":\"Bus\",\"route_color\":\"E2190F\",\"route_text_color\":\"000000\"}]"},"geometry":{"type":"Point","coordinates":[-119.4982726,45.8955941]}},{"type":"Feature","properties":{"stop_id":"4253064","stop_code":"","platform_code":"","stop_name":"1st/ California","stop_desc":"","zone_id":"","stop_url":"","location_type":"0","parent_station":"","stop_timezone":"America/Los_Angeles","position":"","direction":"","wheelchair_boarding":"0","tts_stop_name":"","feed_id":"Oregon__Morrow_County_Public_Transit__mdb_mdb-2418","agency_name":"Morrow County Public Transit","route_count":1,"route_ids":"77384","route_short_names":"","route_types":"3","route_type_names":"Bus","routes_json":"[{\"route_id\":\"77384\",\"route_short_name\":\"\",\"route_long_name\":\"Rojo\",\"route_type\":\"3\",\"route_type_name\":\"Bus\",\"route_color\":\"E2190F\",\"route_text_color\":\"000000\"}]"},"geometry":{"type":"Point","coordinates":[-119.4997343,45.8900398]}},{"type":"Feature","properties":{"stop_id":"4253065","stop_code":"","platform_code":"","stop_name":"Riverview RV Park @ Riverview/ Thirteenth","stop_desc":"","zone_id":"","stop_url":"","location_type":"0","parent_station":"","stop_timezone":"America/Los_Angeles","position":"","direction":"","wheelchair_boarding":"0","tts_stop_name":"","feed_id":"Oregon__Morrow_County_Public_Transit__mdb_mdb-2418","agency_name":"Morrow County Public Transit","route_count":1,"route_ids":"77384","route_short_names":"","route_types":"3","route_type_names":"Bus","routes_json":"[{\"route_id\":\"77384\",\"route_short_name\":\"\",\"route_long_name\":\"Rojo\",\"route_type\":\"3\",\"route_type_name\":\"Bus\",\"route_color\":\"E2190F\",\"route_text_color\":\"000000\"}]"},"geometry":{"type":"Point","coordinates":[-119.4839988,45.8956387]}},{"type":"Feature","properties":{"stop_id":"4253066","stop_code":"","platform_code":"","stop_name":"Umatilla Stop","stop_desc":"","zone_id":"","stop_url":"","location_type":"0","parent_station":"","stop_timezone":"America/Los_Angeles","position":"","direction":"","wheelchair_boarding":"0","tts_stop_name":"","feed_id":"Oregon__Morrow_County_Public_Transit__mdb_mdb-2418","agency_name":"Morrow County Public Transit","route_count":0,"route_ids":"","route_short_names":"","route_types":"","route_type_names":"","routes_json":"[]"},"geometry":{"type":"Point","coordinates":[-119.3354071,45.9178702]}},{"type":"Feature","properties":{"stop_id":"4253067","stop_code":"","platform_code":"","stop_name":"Hwy 74 (Heppner Hwy) @ Morrow County Fairgrounds","stop_desc":"","zone_id":"","stop_url":"","location_type":"0","parent_station":"","stop_timezone":"America/Los_Angeles","position":"","direction":"","wheelchair_boarding":"0","tts_stop_name":"","feed_id":"Oregon__Morrow_County_Public_Transit__mdb_mdb-2418","agency_name":"Morrow County Public Transit","route_count":1,"route_ids":"77351","route_short_names":"","route_types":"3","route_type_names":"Bus","routes_json":"[{\"route_id\":\"77351\",\"route_short_name\":\"\",\"route_long_name\":\"Morado\",\"route_type\":\"3\",\"route_type_name\":\"Bus\",\"route_color\":\"5E17EB\",\"route_text_color\":\"FFFFFF\"}]"},"geometry":{"type":"Point","coordinates":[-119.5464528,45.3569896]}},{"type":"Feature","properties":{"stop_id":"4253068","stop_code":"","platform_code":"","stop_name":"Good Shepherd Medical Clinic @ Greenspace","stop_desc":"","zone_id":"","stop_url":"","location_type":"0","parent_station":"","stop_timezone":"America/Los_Angeles","position":"","direction":"","wheelchair_boarding":"0","tts_stop_name":"","feed_id":"Oregon__Morrow_County_Public_Transit__mdb_mdb-2418","agency_name":"Morrow County Public Transit","route_count":2,"route_ids":"77351|77384","route_short_names":"","route_types":"3","route_type_names":"Bus","routes_json":"[{\"route_id\":\"77351\",\"route_short_name\":\"\",\"route_long_name\":\"Morado\",\"route_type\":\"3\",\"route_type_name\":\"Bus\",\"route_color\":\"5E17EB\",\"route_text_color\":\"FFFFFF\"},{\"route_id\":\"77384\",\"route_short_name\":\"\",\"route_long_name\":\"Rojo\",\"route_type\":\"3\",\"route_type_name\":\"Bus\",\"route_color\":\"E2190F\",\"route_text_color\":\"000000\"}]"},"geometry":{"type":"Point","coordinates":[-119.3091409,45.848332]}},{"type":"Feature","properties":{"stop_id":"4253069","stop_code":"","platform_code":"","stop_name":"E Utah Ave/ Division St","stop_desc":"","zone_id":"","stop_url":"","location_type":"0","parent_station":"","stop_timezone":"America/Los_Angeles","position":"","direction":"","wheelchair_boarding":"0","tts_stop_name":"","feed_id":"Oregon__Morrow_County_Public_Transit__mdb_mdb-2418","agency_name":"Morrow County Public Transit","route_count":1,"route_ids":"77384","route_short_names":"","route_types":"3","route_type_names":"Bus","routes_json":"[{\"route_id\":\"77384\",\"route_short_name\":\"\",\"route_long_name\":\"Rojo\",\"route_type\":\"3\",\"route_type_name\":\"Bus\",\"route_color\":\"E2190F\",\"route_text_color\":\"000000\"}]"},"geometry":{"type":"Point","coordinates":[-119.4942128,45.8920793]}},{"type":"Feature","properties":{"stop_id":"4253070","stop_code":"","platform_code":"","stop_name":"Gotta Stop","stop_desc":"","zone_id":"","stop_url":"","location_type":"0","parent_station":"","stop_timezone":"America/Los_Angeles","position":"","direction":"","wheelchair_boarding":"0","tts_stop_name":"","feed_id":"Oregon__Morrow_County_Public_Transit__mdb_mdb-2418","agency_name":"Morrow County Public Transit","route_count":0,"route_ids":"","route_short_names":"","route_types":"","route_type_names":"","routes_json":"[]"},"geometry":{"type":"Point","coordinates":[-119.31710508621497,45.83516751225108]}},{"type":"Feature","properties":{"stop_id":"4253099","stop_code":"","platform_code":"","stop_name":"Front St. NE @ SplashPad","stop_desc":"","zone_id":"","stop_url":"","location_type":"0","parent_station":"","stop_timezone":"America/Los_Angeles","position":"","direction":"","wheelchair_boarding":"0","tts_stop_name":"","feed_id":"Oregon__Morrow_County_Public_Transit__mdb_mdb-2418","agency_name":"Morrow County Public Transit","route_count":1,"route_ids":"77389","route_short_names":"","route_types":"3","route_type_names":"Bus","routes_json":"[{\"route_id\":\"77389\",\"route_short_name\":\"\",\"route_long_name\":\"Amarillo\",\"route_type\":\"3\",\"route_type_name\":\"Bus\",\"route_color\":\"EEEE24\",\"route_text_color\":\"FFFFFF\"}]"},"geometry":{"type":"Point","coordinates":[-119.6899143,45.8396192]}},{"type":"Feature","properties":{"stop_id":"4253100","stop_code":"","platform_code":"","stop_name":"Boardman Marina","stop_desc":"","zone_id":"","stop_url":"","location_type":"0","parent_station":"","stop_timezone":"America/Los_Angeles","position":"","direction":"","wheelchair_boarding":"0","tts_stop_name":"","feed_id":"Oregon__Morrow_County_Public_Transit__mdb_mdb-2418","agency_name":"Morrow County Public Transit","route_count":0,"route_ids":"","route_short_names":"","route_types":"","route_type_names":"","routes_json":"[]"},"geometry":{"type":"Point","coordinates":[-119.7056627,45.8441051]}},{"type":"Feature","properties":{"stop_id":"4253101","stop_code":"","platform_code":"","stop_name":"Marina BB Court","stop_desc":"","zone_id":"","stop_url":"","location_type":"0","parent_station":"","stop_timezone":"America/Los_Angeles","position":"","direction":"","wheelchair_boarding":"0","tts_stop_name":"","feed_id":"Oregon__Morrow_County_Public_Transit__mdb_mdb-2418","agency_name":"Morrow County Public Transit","route_count":1,"route_ids":"77389","route_short_names":"","route_types":"3","route_type_names":"Bus","routes_json":"[{\"route_id\":\"77389\",\"route_short_name\":\"\",\"route_long_name\":\"Amarillo\",\"route_type\":\"3\",\"route_type_name\":\"Bus\",\"route_color\":\"EEEE24\",\"route_text_color\":\"FFFFFF\"}]"},"geometry":{"type":"Point","coordinates":[-119.7127534,45.8418063]}},{"type":"Feature","properties":{"stop_id":"4253102","stop_code":"845","platform_code":"","stop_name":"Marina RV Park IB","stop_desc":"","zone_id":"","stop_url":"","location_type":"0","parent_station":"","stop_timezone":"America/Los_Angeles","position":"","direction":"","wheelchair_boarding":"0","tts_stop_name":"","feed_id":"Oregon__Morrow_County_Public_Transit__mdb_mdb-2418","agency_name":"Morrow County Public Transit","route_count":1,"route_ids":"77389","route_short_names":"","route_types":"3","route_type_names":"Bus","routes_json":"[{\"route_id\":\"77389\",\"route_short_name\":\"\",\"route_long_name\":\"Amarillo\",\"route_type\":\"3\",\"route_type_name\":\"Bus\",\"route_color\":\"EEEE24\",\"route_text_color\":\"FFFFFF\"}]"},"geometry":{"type":"Point","coordinates":[-119.707943,45.843315]}},{"type":"Feature","properties":{"stop_id":"4253103","stop_code":"","platform_code":"","stop_name":"Columbia Ave NW @ 2nd St NW","stop_desc":"","zone_id":"","stop_url":"","location_type":"0","parent_station":"","stop_timezone":"America/Los_Angeles","position":"","direction":"","wheelchair_boarding":"0","tts_stop_name":"","feed_id":"Oregon__Morrow_County_Public_Transit__mdb_mdb-2418","agency_name":"Morrow County Public Transit","route_count":1,"route_ids":"77389","route_short_names":"","route_types":"3","route_type_names":"Bus","routes_json":"[{\"route_id\":\"77389\",\"route_short_name\":\"\",\"route_long_name\":\"Amarillo\",\"route_type\":\"3\",\"route_type_name\":\"Bus\",\"route_color\":\"EEEE24\",\"route_text_color\":\"FFFFFF\"}]"},"geometry":{"type":"Point","coordinates":[-119.7072792,45.8411874]}},{"type":"Feature","properties":{"stop_id":"4253104","stop_code":"","platform_code":"","stop_name":"Boardman Ave @ Sagebrush Apartments","stop_desc":"","zone_id":"","stop_url":"","location_type":"0","parent_station":"","stop_timezone":"America/Los_Angeles","position":"","direction":"","wheelchair_boarding":"0","tts_stop_name":"","feed_id":"Oregon__Morrow_County_Public_Transit__mdb_mdb-2418","agency_name":"Morrow County Public Transit","route_count":1,"route_ids":"77389","route_short_names":"","route_types":"3","route_type_names":"Bus","routes_json":"[{\"route_id\":\"77389\",\"route_short_name\":\"\",\"route_long_name\":\"Amarillo\",\"route_type\":\"3\",\"route_type_name\":\"Bus\",\"route_color\":\"EEEE24\",\"route_text_color\":\"FFFFFF\"}]"},"geometry":{"type":"Point","coordinates":[-119.7130319,45.8385925]}},{"type":"Feature","properties":{"stop_id":"4253105","stop_code":"","platform_code":"","stop_name":"Oregon Trail Blvd","stop_desc":"","zone_id":"","stop_url":"","location_type":"0","parent_station":"","stop_timezone":"America/Los_Angeles","position":"","direction":"","wheelchair_boarding":"0","tts_stop_name":"","feed_id":"Oregon__Morrow_County_Public_Transit__mdb_mdb-2418","agency_name":"Morrow County Public Transit","route_count":1,"route_ids":"77389","route_short_names":"","route_types":"3","route_type_names":"Bus","routes_json":"[{\"route_id\":\"77389\",\"route_short_name\":\"\",\"route_long_name\":\"Amarillo\",\"route_type\":\"3\",\"route_type_name\":\"Bus\",\"route_color\":\"EEEE24\",\"route_text_color\":\"FFFFFF\"}]"},"geometry":{"type":"Point","coordinates":[-119.6974725730791,45.83402612109251]}},{"type":"Feature","properties":{"stop_id":"4253106","stop_code":"","platform_code":"","stop_name":"City Center Dr @ Bank Of EO","stop_desc":"","zone_id":"","stop_url":"","location_type":"0","parent_station":"","stop_timezone":"America/Los_Angeles","position":"","direction":"","wheelchair_boarding":"0","tts_stop_name":"","feed_id":"Oregon__Morrow_County_Public_Transit__mdb_mdb-2418","agency_name":"Morrow County Public Transit","route_count":1,"route_ids":"77389","route_short_names":"","route_types":"3","route_type_names":"Bus","routes_json":"[{\"route_id\":\"77389\",\"route_short_name\":\"\",\"route_long_name\":\"Amarillo\",\"route_type\":\"3\",\"route_type_name\":\"Bus\",\"route_color\":\"EEEE24\",\"route_text_color\":\"FFFFFF\"}]"},"geometry":{"type":"Point","coordinates":[-119.7013009,45.8327793]}},{"type":"Feature","properties":{"stop_id":"4253107","stop_code":"","platform_code":"","stop_name":"Kunze Ln SW - West of Main St","stop_desc":"","zone_id":"","stop_url":"","location_type":"0","parent_station":"","stop_timezone":"America/Los_Angeles","position":"","direction":"","wheelchair_boarding":"0","tts_stop_name":"","feed_id":"Oregon__Morrow_County_Public_Transit__mdb_mdb-2418","agency_name":"Morrow County Public Transit","route_count":1,"route_ids":"77389","route_short_names":"","route_types":"3","route_type_names":"Bus","routes_json":"[{\"route_id\":\"77389\",\"route_short_name\":\"\",\"route_long_name\":\"Amarillo\",\"route_type\":\"3\",\"route_type_name\":\"Bus\",\"route_color\":\"EEEE24\",\"route_text_color\":\"FFFFFF\"}]"},"geometry":{"type":"Point","coordinates":[-119.7014741,45.8207956]}},{"type":"Feature","properties":{"stop_id":"4253108","stop_code":"","platform_code":"","stop_name":"Mt Hood Ave @ Maple Crest Apt","stop_desc":"","zone_id":"","stop_url":"","location_type":"0","parent_station":"","stop_timezone":"America/Los_Angeles","position":"","direction":"","wheelchair_boarding":"0","tts_stop_name":"","feed_id":"Oregon__Morrow_County_Public_Transit__mdb_mdb-2418","agency_name":"Morrow County Public Transit","route_count":1,"route_ids":"77389","route_short_names":"","route_types":"3","route_type_names":"Bus","routes_json":"[{\"route_id\":\"77389\",\"route_short_name\":\"\",\"route_long_name\":\"Amarillo\",\"route_type\":\"3\",\"route_type_name\":\"Bus\",\"route_color\":\"EEEE24\",\"route_text_color\":\"FFFFFF\"}]"},"geometry":{"type":"Point","coordinates":[-119.71817913222064,45.82863170994221]}},{"type":"Feature","properties":{"stop_id":"4253109","stop_code":"","platform_code":"","stop_name":"Wilson Ln @ Juniper Dr SW","stop_desc":"","zone_id":"","stop_url":"","location_type":"0","parent_station":"","stop_timezone":"America/Los_Angeles","position":"","direction":"","wheelchair_boarding":"0","tts_stop_name":"","feed_id":"Oregon__Morrow_County_Public_Transit__mdb_mdb-2418","agency_name":"Morrow County Public Transit","route_count":1,"route_ids":"77389","route_short_names":"","route_types":"3","route_type_names":"Bus","routes_json":"[{\"route_id\":\"77389\",\"route_short_name\":\"\",\"route_long_name\":\"Amarillo\",\"route_type\":\"3\",\"route_type_name\":\"Bus\",\"route_color\":\"EEEE24\",\"route_text_color\":\"FFFFFF\"}]"},"geometry":{"type":"Point","coordinates":[-119.710075,45.8279731]}},{"type":"Feature","properties":{"stop_id":"4253110","stop_code":"","platform_code":"","stop_name":"Locust Rd SW @ Food Pantry","stop_desc":"","zone_id":"","stop_url":"","location_type":"0","parent_station":"","stop_timezone":"America/Los_Angeles","position":"","direction":"","wheelchair_boarding":"0","tts_stop_name":"","feed_id":"Oregon__Morrow_County_Public_Transit__mdb_mdb-2418","agency_name":"Morrow County Public Transit","route_count":1,"route_ids":"77389","route_short_names":"","route_types":"3","route_type_names":"Bus","routes_json":"[{\"route_id\":\"77389\",\"route_short_name\":\"\",\"route_long_name\":\"Amarillo\",\"route_type\":\"3\",\"route_type_name\":\"Bus\",\"route_color\":\"EEEE24\",\"route_text_color\":\"FFFFFF\"}]"},"geometry":{"type":"Point","coordinates":[-119.7068354,45.8294695]}},{"type":"Feature","properties":{"stop_id":"4253111","stop_code":"125","platform_code":"","stop_name":"Willow Fork Dr @ Columbia River Health","stop_desc":"","zone_id":"","stop_url":"","location_type":"0","parent_station":"","stop_timezone":"America/Los_Angeles","position":"","direction":"","wheelchair_boarding":"0","tts_stop_name":"","feed_id":"Oregon__Morrow_County_Public_Transit__mdb_mdb-2418","agency_name":"Morrow County Public Transit","route_count":1,"route_ids":"77389","route_short_names":"","route_types":"3","route_type_names":"Bus","routes_json":"[{\"route_id\":\"77389\",\"route_short_name\":\"\",\"route_long_name\":\"Amarillo\",\"route_type\":\"3\",\"route_type_name\":\"Bus\",\"route_color\":\"EEEE24\",\"route_text_color\":\"FFFFFF\"}]"},"geometry":{"type":"Point","coordinates":[-119.7032406,45.8295238]}},{"type":"Feature","properties":{"stop_id":"4253112","stop_code":"","platform_code":"","stop_name":"6th St & Yerxa Ave","stop_desc":"","zone_id":"","stop_url":"","location_type":"0","parent_station":"","stop_timezone":"America/Los_Angeles","position":"","direction":"","wheelchair_boarding":"0","tts_stop_name":"","feed_id":"Oregon__Morrow_County_Public_Transit__mdb_mdb-2418","agency_name":"Morrow County Public Transit","route_count":1,"route_ids":"77384","route_short_names":"","route_types":"3","route_type_names":"Bus","routes_json":"[{\"route_id\":\"77384\",\"route_short_name\":\"\",\"route_long_name\":\"Rojo\",\"route_type\":\"3\",\"route_type_name\":\"Bus\",\"route_color\":\"E2190F\",\"route_text_color\":\"000000\"}]"},"geometry":{"type":"Point","coordinates":[-119.3355594931068,45.91847217312306]}},{"type":"Feature","properties":{"stop_id":"4253113","stop_code":"","platform_code":"","stop_name":"S First Ave @ The Rustic Truck","stop_desc":"","zone_id":"","stop_url":"","location_type":"0","parent_station":"","stop_timezone":"America/Los_Angeles","position":"","direction":"","wheelchair_boarding":"0","tts_stop_name":"","feed_id":"Oregon__Morrow_County_Public_Transit__mdb_mdb-2418","agency_name":"Morrow County Public Transit","route_count":1,"route_ids":"77384","route_short_names":"","route_types":"3","route_type_names":"Bus","routes_json":"[{\"route_id\":\"77384\",\"route_short_name\":\"\",\"route_long_name\":\"Rojo\",\"route_type\":\"3\",\"route_type_name\":\"Bus\",\"route_color\":\"E2190F\",\"route_text_color\":\"000000\"}]"},"geometry":{"type":"Point","coordinates":[-119.49974609184846,45.89380209003735]}},{"type":"Feature","properties":{"stop_id":"4254465","stop_code":"","platform_code":"","stop_name":"Olson Rd @ Boardman Recreation Center","stop_desc":"","zone_id":"","stop_url":"","location_type":"0","parent_station":"","stop_timezone":"America/Los_Angeles","position":"","direction":"","wheelchair_boarding":"0","tts_stop_name":"","feed_id":"Oregon__Morrow_County_Public_Transit__mdb_mdb-2418","agency_name":"Morrow County Public Transit","route_count":1,"route_ids":"77389","route_short_names":"","route_types":"3","route_type_names":"Bus","routes_json":"[{\"route_id\":\"77389\",\"route_short_name\":\"\",\"route_long_name\":\"Amarillo\",\"route_type\":\"3\",\"route_type_name\":\"Bus\",\"route_color\":\"EEEE24\",\"route_text_color\":\"FFFFFF\"}]"},"geometry":{"type":"Point","coordinates":[-119.685319155,45.840946704]}},{"type":"Feature","properties":{"stop_id":"4259126","stop_code":"917","platform_code":"","stop_name":"Main St @ City Park","stop_desc":"","zone_id":"","stop_url":"","location_type":"0","parent_station":"","stop_timezone":"America/Los_Angeles","position":"","direction":"","wheelchair_boarding":"0","tts_stop_name":"","feed_id":"Oregon__Morrow_County_Public_Transit__mdb_mdb-2418","agency_name":"Morrow County Public Transit","route_count":1,"route_ids":"77351","route_short_names":"","route_types":"3","route_type_names":"Bus","routes_json":"[{\"route_id\":\"77351\",\"route_short_name\":\"\",\"route_long_name\":\"Morado\",\"route_type\":\"3\",\"route_type_name\":\"Bus\",\"route_color\":\"5E17EB\",\"route_text_color\":\"FFFFFF\"}]"},"geometry":{"type":"Point","coordinates":[-119.553447,45.357444]}},{"type":"Feature","properties":{"stop_id":"4259127","stop_code":"906","platform_code":"","stop_name":"Green Acres RV Park","stop_desc":"","zone_id":"","stop_url":"","location_type":"0","parent_station":"","stop_timezone":"America/Los_Angeles","position":"","direction":"","wheelchair_boarding":"0","tts_stop_name":"","feed_id":"Oregon__Morrow_County_Public_Transit__mdb_mdb-2418","agency_name":"Morrow County Public Transit","route_count":1,"route_ids":"77384","route_short_names":"","route_types":"3","route_type_names":"Bus","routes_json":"[{\"route_id\":\"77384\",\"route_short_name\":\"\",\"route_long_name\":\"Rojo\",\"route_type\":\"3\",\"route_type_name\":\"Bus\",\"route_color\":\"E2190F\",\"route_text_color\":\"000000\"}]"},"geometry":{"type":"Point","coordinates":[-119.5587,45.87127]}},{"type":"Feature","properties":{"stop_id":"4259128","stop_code":"908","platform_code":"","stop_name":"Green Acres RV","stop_desc":"","zone_id":"","stop_url":"","location_type":"0","parent_station":"","stop_timezone":"America/Los_Angeles","position":"","direction":"","wheelchair_boarding":"0","tts_stop_name":"","feed_id":"Oregon__Morrow_County_Public_Transit__mdb_mdb-2418","agency_name":"Morrow County Public Transit","route_count":1,"route_ids":"77384","route_short_names":"","route_types":"3","route_type_names":"Bus","routes_json":"[{\"route_id\":\"77384\",\"route_short_name\":\"\",\"route_long_name\":\"Rojo\",\"route_type\":\"3\",\"route_type_name\":\"Bus\",\"route_color\":\"E2190F\",\"route_text_color\":\"000000\"}]"},"geometry":{"type":"Point","coordinates":[-119.558872,45.87128]}},{"type":"Feature","properties":{"stop_id":"4259129","stop_code":"911","platform_code":"","stop_name":"Columbia Lane & West 7th Road","stop_desc":"","zone_id":"","stop_url":"","location_type":"0","parent_station":"","stop_timezone":"America/Los_Angeles","position":"","direction":"","wheelchair_boarding":"0","tts_stop_name":"","feed_id":"Oregon__Morrow_County_Public_Transit__mdb_mdb-2418","agency_name":"Morrow County Public Transit","route_count":1,"route_ids":"77384","route_short_names":"","route_types":"3","route_type_names":"Bus","routes_json":"[{\"route_id\":\"77384\",\"route_short_name\":\"\",\"route_long_name\":\"Rojo\",\"route_type\":\"3\",\"route_type_name\":\"Bus\",\"route_color\":\"E2190F\",\"route_text_color\":\"000000\"}]"},"geometry":{"type":"Point","coordinates":[-119.531884,45.895866]}},{"type":"Feature","properties":{"stop_id":"4259130","stop_code":"912","platform_code":"","stop_name":"Columbia Lane & West 7th Road","stop_desc":"","zone_id":"","stop_url":"","location_type":"0","parent_station":"","stop_timezone":"America/Los_Angeles","position":"","direction":"","wheelchair_boarding":"0","tts_stop_name":"","feed_id":"Oregon__Morrow_County_Public_Transit__mdb_mdb-2418","agency_name":"Morrow County Public Transit","route_count":1,"route_ids":"77384","route_short_names":"","route_types":"3","route_type_names":"Bus","routes_json":"[{\"route_id\":\"77384\",\"route_short_name\":\"\",\"route_long_name\":\"Rojo\",\"route_type\":\"3\",\"route_type_name\":\"Bus\",\"route_color\":\"E2190F\",\"route_text_color\":\"000000\"}]"},"geometry":{"type":"Point","coordinates":[-119.531893,45.89592]}},{"type":"Feature","properties":{"stop_id":"4259131","stop_code":"910","platform_code":"","stop_name":"Columbia Ln & 4 St","stop_desc":"","zone_id":"","stop_url":"","location_type":"0","parent_station":"","stop_timezone":"America/Los_Angeles","position":"","direction":"","wheelchair_boarding":"0","tts_stop_name":"","feed_id":"Oregon__Morrow_County_Public_Transit__mdb_mdb-2418","agency_name":"Morrow County Public Transit","route_count":1,"route_ids":"77384","route_short_names":"","route_types":"3","route_type_names":"Bus","routes_json":"[{\"route_id\":\"77384\",\"route_short_name\":\"\",\"route_long_name\":\"Rojo\",\"route_type\":\"3\",\"route_type_name\":\"Bus\",\"route_color\":\"E2190F\",\"route_text_color\":\"000000\"}]"},"geometry":{"type":"Point","coordinates":[-119.515673,45.895483]}},{"type":"Feature","properties":{"stop_id":"4259132","stop_code":"913","platform_code":"","stop_name":"Columbia Ln & 4 St","stop_desc":"","zone_id":"","stop_url":"","location_type":"0","parent_station":"","stop_timezone":"America/Los_Angeles","position":"","direction":"","wheelchair_boarding":"0","tts_stop_name":"","feed_id":"Oregon__Morrow_County_Public_Transit__mdb_mdb-2418","agency_name":"Morrow County Public Transit","route_count":1,"route_ids":"77384","route_short_names":"","route_types":"3","route_type_names":"Bus","routes_json":"[{\"route_id\":\"77384\",\"route_short_name\":\"\",\"route_long_name\":\"Rojo\",\"route_type\":\"3\",\"route_type_name\":\"Bus\",\"route_color\":\"E2190F\",\"route_text_color\":\"000000\"}]"},"geometry":{"type":"Point","coordinates":[-119.515668,45.895509]}},{"type":"Feature","properties":{"stop_id":"4259133","stop_code":"914","platform_code":"","stop_name":"Morrow Education Center","stop_desc":"","zone_id":"","stop_url":"","location_type":"0","parent_station":"","stop_timezone":"America/Los_Angeles","position":"","direction":"","wheelchair_boarding":"0","tts_stop_name":"","feed_id":"Oregon__Morrow_County_Public_Transit__mdb_mdb-2418","agency_name":"Morrow County Public Transit","route_count":1,"route_ids":"77384","route_short_names":"","route_types":"3","route_type_names":"Bus","routes_json":"[{\"route_id\":\"77384\",\"route_short_name\":\"\",\"route_long_name\":\"Rojo\",\"route_type\":\"3\",\"route_type_name\":\"Bus\",\"route_color\":\"E2190F\",\"route_text_color\":\"000000\"}]"},"geometry":{"type":"Point","coordinates":[-119.508521,45.895322]}},{"type":"Feature","properties":{"stop_id":"4259134","stop_code":"915","platform_code":"","stop_name":"Morrow Education Center","stop_desc":"","zone_id":"","stop_url":"","location_type":"0","parent_station":"","stop_timezone":"America/Los_Angeles","position":"","direction":"","wheelchair_boarding":"0","tts_stop_name":"","feed_id":"Oregon__Morrow_County_Public_Transit__mdb_mdb-2418","agency_name":"Morrow County Public Transit","route_count":1,"route_ids":"77384","route_short_names":"","route_types":"3","route_type_names":"Bus","routes_json":"[{\"route_id\":\"77384\",\"route_short_name\":\"\",\"route_long_name\":\"Rojo\",\"route_type\":\"3\",\"route_type_name\":\"Bus\",\"route_color\":\"E2190F\",\"route_text_color\":\"000000\"}]"},"geometry":{"type":"Point","coordinates":[-119.508527,45.895274]}},{"type":"Feature","properties":{"stop_id":"4259137","stop_code":"861","platform_code":"","stop_name":"Marina RV Park - Outbound","stop_desc":"","zone_id":"","stop_url":"","location_type":"0","parent_station":"","stop_timezone":"America/Los_Angeles","position":"","direction":"","wheelchair_boarding":"0","tts_stop_name":"","feed_id":"Oregon__Morrow_County_Public_Transit__mdb_mdb-2418","agency_name":"Morrow County Public Transit","route_count":1,"route_ids":"77389","route_short_names":"","route_types":"3","route_type_names":"Bus","routes_json":"[{\"route_id\":\"77389\",\"route_short_name\":\"\",\"route_long_name\":\"Amarillo\",\"route_type\":\"3\",\"route_type_name\":\"Bus\",\"route_color\":\"EEEE24\",\"route_text_color\":\"FFFFFF\"}]"},"geometry":{"type":"Point","coordinates":[-119.708226,45.84315]}},{"type":"Feature","properties":{"stop_id":"4259138","stop_code":"","platform_code":"","stop_name":"Ione Community Church","stop_desc":"","zone_id":"","stop_url":"","location_type":"0","parent_station":"","stop_timezone":"America/Los_Angeles","position":"","direction":"","wheelchair_boarding":"0","tts_stop_name":"","feed_id":"Oregon__Morrow_County_Public_Transit__mdb_mdb-2418","agency_name":"Morrow County Public Transit","route_count":1,"route_ids":"77214","route_short_names":"","route_types":"3","route_type_names":"Bus","routes_json":"[{\"route_id\":\"77214\",\"route_short_name\":\"\",\"route_long_name\":\"Verde\",\"route_type\":\"3\",\"route_type_name\":\"Bus\",\"route_color\":\"0A9250\",\"route_text_color\":\"000000\"}]"},"geometry":{"type":"Point","coordinates":[-119.82379304058598,45.50143166987301]}}]}