{"type":"FeatureCollection","features":[{"type":"Feature","properties":{"stop_id":"2751143","stop_code":"","platform_code":"","stop_name":"Ashby BART","stop_desc":"","zone_id":"","stop_url":"","location_type":"0","parent_station":"","stop_timezone":"America/Los_Angeles","position":"","direction":"","wheelchair_boarding":"0","feed_id":"California__West_Berkeley_Shuttle__mdb_mdb-2238","agency_name":"West Berkeley Shuttle","route_count":1,"route_ids":"19499","route_short_names":"","route_types":"3","route_type_names":"Bus","routes_json":"[{\"route_id\":\"19499\",\"route_short_name\":\"\",\"route_long_name\":\"West Berkeley Shuttle\",\"route_type\":\"3\",\"route_type_name\":\"Bus\",\"route_color\":\"124B82\",\"route_text_color\":\"FFFFFF\"}]"},"geometry":{"type":"Point","coordinates":[-122.270110040259,37.8528187175552]}},{"type":"Feature","properties":{"stop_id":"2751147","stop_code":"","platform_code":"","stop_name":"2600 10th St","stop_desc":"","zone_id":"","stop_url":"","location_type":"0","parent_station":"","stop_timezone":"America/Los_Angeles","position":"","direction":"","wheelchair_boarding":"0","feed_id":"California__West_Berkeley_Shuttle__mdb_mdb-2238","agency_name":"West Berkeley Shuttle","route_count":1,"route_ids":"19499","route_short_names":"","route_types":"3","route_type_names":"Bus","routes_json":"[{\"route_id\":\"19499\",\"route_short_name\":\"\",\"route_long_name\":\"West Berkeley Shuttle\",\"route_type\":\"3\",\"route_type_name\":\"Bus\",\"route_color\":\"124B82\",\"route_text_color\":\"FFFFFF\"}]"},"geometry":{"type":"Point","coordinates":[-122.289996593728,37.8582684991207]}},{"type":"Feature","properties":{"stop_id":"2751150","stop_code":"","platform_code":"","stop_name":"7th at Parker NB","stop_desc":"","zone_id":"","stop_url":"","location_type":"0","parent_station":"","stop_timezone":"America/Los_Angeles","position":"","direction":"","wheelchair_boarding":"0","feed_id":"California__West_Berkeley_Shuttle__mdb_mdb-2238","agency_name":"West Berkeley Shuttle","route_count":1,"route_ids":"19499","route_short_names":"","route_types":"3","route_type_names":"Bus","routes_json":"[{\"route_id\":\"19499\",\"route_short_name\":\"\",\"route_long_name\":\"West Berkeley Shuttle\",\"route_type\":\"3\",\"route_type_name\":\"Bus\",\"route_color\":\"124B82\",\"route_text_color\":\"FFFFFF\"}]"},"geometry":{"type":"Point","coordinates":[-122.293478350396,37.8586012673518]}},{"type":"Feature","properties":{"stop_id":"2751153","stop_code":"","platform_code":"","stop_name":"Dwight Way at 6th","stop_desc":"","zone_id":"","stop_url":"","location_type":"0","parent_station":"","stop_timezone":"America/Los_Angeles","position":"","direction":"","wheelchair_boarding":"0","feed_id":"California__West_Berkeley_Shuttle__mdb_mdb-2238","agency_name":"West Berkeley Shuttle","route_count":1,"route_ids":"19499","route_short_names":"","route_types":"3","route_type_names":"Bus","routes_json":"[{\"route_id\":\"19499\",\"route_short_name\":\"\",\"route_long_name\":\"West Berkeley Shuttle\",\"route_type\":\"3\",\"route_type_name\":\"Bus\",\"route_color\":\"124B82\",\"route_text_color\":\"FFFFFF\"}]"},"geometry":{"type":"Point","coordinates":[-122.294922262043,37.859964149085]}},{"type":"Feature","properties":{"stop_id":"2751155","stop_code":"","platform_code":"","stop_name":"Grayson at 7th","stop_desc":"","zone_id":"","stop_url":"","location_type":"0","parent_station":"","stop_timezone":"America/Los_Angeles","position":"","direction":"","wheelchair_boarding":"0","feed_id":"California__West_Berkeley_Shuttle__mdb_mdb-2238","agency_name":"West Berkeley Shuttle","route_count":0,"route_ids":"","route_short_names":"","route_types":"","route_type_names":"","routes_json":"[]"},"geometry":{"type":"Point","coordinates":[-122.294010376996,37.855068756567]}},{"type":"Feature","properties":{"stop_id":"2751156","stop_code":"","platform_code":"","stop_name":"#700 Heinz","stop_desc":"","zone_id":"","stop_url":"","location_type":"0","parent_station":"","stop_timezone":"America/Los_Angeles","position":"","direction":"","wheelchair_boarding":"0","feed_id":"California__West_Berkeley_Shuttle__mdb_mdb-2238","agency_name":"West Berkeley Shuttle","route_count":1,"route_ids":"19499","route_short_names":"","route_types":"3","route_type_names":"Bus","routes_json":"[{\"route_id\":\"19499\",\"route_short_name\":\"\",\"route_long_name\":\"West Berkeley Shuttle\",\"route_type\":\"3\",\"route_type_name\":\"Bus\",\"route_color\":\"124B82\",\"route_text_color\":\"FFFFFF\"}]"},"geometry":{"type":"Point","coordinates":[-122.295178114587,37.8522198672417]}},{"type":"Feature","properties":{"stop_id":"2751157","stop_code":"","platform_code":"","stop_name":"#725 Potter","stop_desc":"","zone_id":"","stop_url":"","location_type":"0","parent_station":"","stop_timezone":"America/Los_Angeles","position":"","direction":"","wheelchair_boarding":"0","feed_id":"California__West_Berkeley_Shuttle__mdb_mdb-2238","agency_name":"West Berkeley Shuttle","route_count":1,"route_ids":"19499","route_short_names":"","route_types":"3","route_type_names":"Bus","routes_json":"[{\"route_id\":\"19499\",\"route_short_name\":\"\",\"route_long_name\":\"West Berkeley Shuttle\",\"route_type\":\"3\",\"route_type_name\":\"Bus\",\"route_color\":\"124B82\",\"route_text_color\":\"FFFFFF\"}]"},"geometry":{"type":"Point","coordinates":[-122.294757053715,37.8513586852571]}},{"type":"Feature","properties":{"stop_id":"2751158","stop_code":"","platform_code":"","stop_name":"Potter at 7th","stop_desc":"","zone_id":"","stop_url":"","location_type":"0","parent_station":"","stop_timezone":"America/Los_Angeles","position":"","direction":"","wheelchair_boarding":"0","feed_id":"California__West_Berkeley_Shuttle__mdb_mdb-2238","agency_name":"West Berkeley Shuttle","route_count":1,"route_ids":"19499","route_short_names":"","route_types":"3","route_type_names":"Bus","routes_json":"[{\"route_id\":\"19499\",\"route_short_name\":\"\",\"route_long_name\":\"West Berkeley Shuttle\",\"route_type\":\"3\",\"route_type_name\":\"Bus\",\"route_color\":\"124B82\",\"route_text_color\":\"FFFFFF\"}]"},"geometry":{"type":"Point","coordinates":[-122.291391732067,37.8514259988957]}},{"type":"Feature","properties":{"stop_id":"2751160","stop_code":"","platform_code":"","stop_name":"Heinz at 7th","stop_desc":"","zone_id":"","stop_url":"","location_type":"0","parent_station":"","stop_timezone":"America/Los_Angeles","position":"","direction":"","wheelchair_boarding":"0","feed_id":"California__West_Berkeley_Shuttle__mdb_mdb-2238","agency_name":"West Berkeley Shuttle","route_count":1,"route_ids":"19499","route_short_names":"","route_types":"3","route_type_names":"Bus","routes_json":"[{\"route_id\":\"19499\",\"route_short_name\":\"\",\"route_long_name\":\"West Berkeley Shuttle\",\"route_type\":\"3\",\"route_type_name\":\"Bus\",\"route_color\":\"124B82\",\"route_text_color\":\"FFFFFF\"}]"},"geometry":{"type":"Point","coordinates":[-122.292779643457,37.853384691809]}},{"type":"Feature","properties":{"stop_id":"2751161","stop_code":"","platform_code":"","stop_name":"7th at Parker SB","stop_desc":"","zone_id":"","stop_url":"","location_type":"0","parent_station":"","stop_timezone":"America/Los_Angeles","position":"","direction":"","wheelchair_boarding":"0","feed_id":"California__West_Berkeley_Shuttle__mdb_mdb-2238","agency_name":"West Berkeley Shuttle","route_count":1,"route_ids":"19499","route_short_names":"","route_types":"3","route_type_names":"Bus","routes_json":"[{\"route_id\":\"19499\",\"route_short_name\":\"\",\"route_long_name\":\"West Berkeley Shuttle\",\"route_type\":\"3\",\"route_type_name\":\"Bus\",\"route_color\":\"124B82\",\"route_text_color\":\"FFFFFF\"}]"},"geometry":{"type":"Point","coordinates":[-122.293682331618,37.8585721659458]}},{"type":"Feature","properties":{"stop_id":"2751165","stop_code":"","platform_code":"","stop_name":"9th at Carleton","stop_desc":"","zone_id":"","stop_url":"","location_type":"0","parent_station":"","stop_timezone":"America/Los_Angeles","position":"","direction":"","wheelchair_boarding":"0","feed_id":"California__West_Berkeley_Shuttle__mdb_mdb-2238","agency_name":"West Berkeley Shuttle","route_count":1,"route_ids":"19499","route_short_names":"","route_types":"3","route_type_names":"Bus","routes_json":"[{\"route_id\":\"19499\",\"route_short_name\":\"\",\"route_long_name\":\"West Berkeley Shuttle\",\"route_type\":\"3\",\"route_type_name\":\"Bus\",\"route_color\":\"124B82\",\"route_text_color\":\"FFFFFF\"}]"},"geometry":{"type":"Point","coordinates":[-122.290741388003,37.8568515962244]}}]}