{"type":"FeatureCollection","features":[{"type":"Feature","properties":{"stop_id":"146954","stop_code":"","stop_name":"ANGELUS AVE ANGELUS SENIOR HOUSING SB","stop_desc":"","stop_url":"","location_type":"","stop_timezone":"","wheelchair_boarding":"0","platform_code":"","parent_station":"","feed_id":"California__Rosemead_Explorer__mdb_mdb-3098","agency_name":"City of Rosemead","route_count":1,"route_ids":"5153","route_short_names":"","route_types":"3","route_type_names":"Bus","routes_json":"[{\"route_id\":\"5153\",\"route_short_name\":\"\",\"route_long_name\":\"EXPLORER 1\",\"route_type\":\"3\",\"route_type_name\":\"Bus\",\"route_color\":\"2CA02C\",\"route_text_color\":\"FFFFFF\"}]"},"geometry":{"type":"Point","coordinates":[-118.0872,34.05666]}},{"type":"Feature","properties":{"stop_id":"146955","stop_code":"","stop_name":"ELLIS LN & OLNEY ST NB","stop_desc":"","stop_url":"","location_type":"","stop_timezone":"","wheelchair_boarding":"0","platform_code":"","parent_station":"","feed_id":"California__Rosemead_Explorer__mdb_mdb-3098","agency_name":"City of Rosemead","route_count":1,"route_ids":"5154","route_short_names":"","route_types":"3","route_type_names":"Bus","routes_json":"[{\"route_id\":\"5154\",\"route_short_name\":\"\",\"route_long_name\":\"EXPLORER 2\",\"route_type\":\"3\",\"route_type_name\":\"Bus\",\"route_color\":\"1F77B4\",\"route_text_color\":\"FFFFFF\"}]"},"geometry":{"type":"Point","coordinates":[-118.06015,34.07338]}},{"type":"Feature","properties":{"stop_id":"146956","stop_code":"","stop_name":"ELLIS LN & OLNEY ST SB","stop_desc":"","stop_url":"","location_type":"","stop_timezone":"","wheelchair_boarding":"0","platform_code":"","parent_station":"","feed_id":"California__Rosemead_Explorer__mdb_mdb-3098","agency_name":"City of Rosemead","route_count":1,"route_ids":"5153","route_short_names":"","route_types":"3","route_type_names":"Bus","routes_json":"[{\"route_id\":\"5153\",\"route_short_name\":\"\",\"route_long_name\":\"EXPLORER 1\",\"route_type\":\"3\",\"route_type_name\":\"Bus\",\"route_color\":\"2CA02C\",\"route_text_color\":\"FFFFFF\"}]"},"geometry":{"type":"Point","coordinates":[-118.06016,34.07336]}},{"type":"Feature","properties":{"stop_id":"146957","stop_code":"","stop_name":"GARVES AVE & DEL MAR AVE WB","stop_desc":"","stop_url":"","location_type":"","stop_timezone":"","wheelchair_boarding":"0","platform_code":"","parent_station":"","feed_id":"California__Rosemead_Explorer__mdb_mdb-3098","agency_name":"City of Rosemead","route_count":1,"route_ids":"5153","route_short_names":"","route_types":"3","route_type_names":"Bus","routes_json":"[{\"route_id\":\"5153\",\"route_short_name\":\"\",\"route_long_name\":\"EXPLORER 1\",\"route_type\":\"3\",\"route_type_name\":\"Bus\",\"route_color\":\"2CA02C\",\"route_text_color\":\"FFFFFF\"}]"},"geometry":{"type":"Point","coordinates":[-118.10002,34.05548]}},{"type":"Feature","properties":{"stop_id":"146958","stop_code":"","stop_name":"GARVEY AVE & (GARVEY COMMUNITY CENTER) EB","stop_desc":"","stop_url":"","location_type":"","stop_timezone":"","wheelchair_boarding":"0","platform_code":"","parent_station":"","feed_id":"California__Rosemead_Explorer__mdb_mdb-3098","agency_name":"City of Rosemead","route_count":1,"route_ids":"5154","route_short_names":"","route_types":"3","route_type_names":"Bus","routes_json":"[{\"route_id\":\"5154\",\"route_short_name\":\"\",\"route_long_name\":\"EXPLORER 2\",\"route_type\":\"3\",\"route_type_name\":\"Bus\",\"route_color\":\"1F77B4\",\"route_text_color\":\"FFFFFF\"}]"},"geometry":{"type":"Point","coordinates":[-118.07065,34.06262]}},{"type":"Feature","properties":{"stop_id":"146959","stop_code":"","stop_name":"GARVEY AVE & DEL MAR AVE EB","stop_desc":"","stop_url":"","location_type":"","stop_timezone":"","wheelchair_boarding":"0","platform_code":"","parent_station":"","feed_id":"California__Rosemead_Explorer__mdb_mdb-3098","agency_name":"City of Rosemead","route_count":1,"route_ids":"5153","route_short_names":"","route_types":"3","route_type_names":"Bus","routes_json":"[{\"route_id\":\"5153\",\"route_short_name\":\"\",\"route_long_name\":\"EXPLORER 1\",\"route_type\":\"3\",\"route_type_name\":\"Bus\",\"route_color\":\"2CA02C\",\"route_text_color\":\"FFFFFF\"}]"},"geometry":{"type":"Point","coordinates":[-118.09911,34.06255]}},{"type":"Feature","properties":{"stop_id":"146960","stop_code":"","stop_name":"GARVEY AVE & DELMAR AVE WB","stop_desc":"","stop_url":"","location_type":"","stop_timezone":"","wheelchair_boarding":"0","platform_code":"","parent_station":"","feed_id":"California__Rosemead_Explorer__mdb_mdb-3098","agency_name":"City of Rosemead","route_count":1,"route_ids":"5154","route_short_names":"","route_types":"3","route_type_names":"Bus","routes_json":"[{\"route_id\":\"5154\",\"route_short_name\":\"\",\"route_long_name\":\"EXPLORER 2\",\"route_type\":\"3\",\"route_type_name\":\"Bus\",\"route_color\":\"1F77B4\",\"route_text_color\":\"FFFFFF\"}]"},"geometry":{"type":"Point","coordinates":[-118.09926,34.06273]}},{"type":"Feature","properties":{"stop_id":"146961","stop_code":"","stop_name":"GARVEY AVE & DELTA AVE EB","stop_desc":"","stop_url":"","location_type":"","stop_timezone":"","wheelchair_boarding":"0","platform_code":"","parent_station":"","feed_id":"California__Rosemead_Explorer__mdb_mdb-3098","agency_name":"City of Rosemead","route_count":1,"route_ids":"5153","route_short_names":"","route_types":"3","route_type_names":"Bus","routes_json":"[{\"route_id\":\"5153\",\"route_short_name\":\"\",\"route_long_name\":\"EXPLORER 1\",\"route_type\":\"3\",\"route_type_name\":\"Bus\",\"route_color\":\"2CA02C\",\"route_text_color\":\"FFFFFF\"}]"},"geometry":{"type":"Point","coordinates":[-118.08662,34.06253]}},{"type":"Feature","properties":{"stop_id":"146962","stop_code":"","stop_name":"GARVEY AVE & DELTA AVE WB","stop_desc":"","stop_url":"","location_type":"","stop_timezone":"","wheelchair_boarding":"0","platform_code":"","parent_station":"","feed_id":"California__Rosemead_Explorer__mdb_mdb-3098","agency_name":"City of Rosemead","route_count":1,"route_ids":"5154","route_short_names":"","route_types":"3","route_type_names":"Bus","routes_json":"[{\"route_id\":\"5154\",\"route_short_name\":\"\",\"route_long_name\":\"EXPLORER 2\",\"route_type\":\"3\",\"route_type_name\":\"Bus\",\"route_color\":\"1F77B4\",\"route_text_color\":\"FFFFFF\"}]"},"geometry":{"type":"Point","coordinates":[-118.08613,34.06278]}},{"type":"Feature","properties":{"stop_id":"146963","stop_code":"","stop_name":"GARVEY AVE & GARVEY COMMUNITY CENTER WB","stop_desc":"","stop_url":"","location_type":"","stop_timezone":"","wheelchair_boarding":"0","platform_code":"","parent_station":"","feed_id":"California__Rosemead_Explorer__mdb_mdb-3098","agency_name":"City of Rosemead","route_count":1,"route_ids":"5153","route_short_names":"","route_types":"3","route_type_names":"Bus","routes_json":"[{\"route_id\":\"5153\",\"route_short_name\":\"\",\"route_long_name\":\"EXPLORER 1\",\"route_type\":\"3\",\"route_type_name\":\"Bus\",\"route_color\":\"2CA02C\",\"route_text_color\":\"FFFFFF\"}]"},"geometry":{"type":"Point","coordinates":[-118.07073,34.06279]}},{"type":"Feature","properties":{"stop_id":"146964","stop_code":"","stop_name":"GARVEY AVE & HELLMAN AVE WB","stop_desc":"","stop_url":"","location_type":"","stop_timezone":"","wheelchair_boarding":"0","platform_code":"","parent_station":"","feed_id":"California__Rosemead_Explorer__mdb_mdb-3098","agency_name":"City of Rosemead","route_count":1,"route_ids":"5154","route_short_names":"","route_types":"3","route_type_names":"Bus","routes_json":"[{\"route_id\":\"5154\",\"route_short_name\":\"\",\"route_long_name\":\"EXPLORER 2\",\"route_type\":\"3\",\"route_type_name\":\"Bus\",\"route_color\":\"1F77B4\",\"route_text_color\":\"FFFFFF\"}]"},"geometry":{"type":"Point","coordinates":[-118.0949,34.06275]}},{"type":"Feature","properties":{"stop_id":"146965","stop_code":"","stop_name":"GARVEY AVE & KELBURN AVE EB","stop_desc":"","stop_url":"","location_type":"","stop_timezone":"","wheelchair_boarding":"0","platform_code":"","parent_station":"","feed_id":"California__Rosemead_Explorer__mdb_mdb-3098","agency_name":"City of Rosemead","route_count":1,"route_ids":"5153","route_short_names":"","route_types":"3","route_type_names":"Bus","routes_json":"[{\"route_id\":\"5153\",\"route_short_name\":\"\",\"route_long_name\":\"EXPLORER 1\",\"route_type\":\"3\",\"route_type_name\":\"Bus\",\"route_color\":\"2CA02C\",\"route_text_color\":\"FFFFFF\"}]"},"geometry":{"type":"Point","coordinates":[-118.09488,34.06257]}},{"type":"Feature","properties":{"stop_id":"146966","stop_code":"","stop_name":"GARVEY AVE & MUSATEL AVE WB","stop_desc":"","stop_url":"","location_type":"","stop_timezone":"","wheelchair_boarding":"0","platform_code":"","parent_station":"","feed_id":"California__Rosemead_Explorer__mdb_mdb-3098","agency_name":"City of Rosemead","route_count":1,"route_ids":"5153","route_short_names":"","route_types":"3","route_type_names":"Bus","routes_json":"[{\"route_id\":\"5153\",\"route_short_name\":\"\",\"route_long_name\":\"EXPLORER 1\",\"route_type\":\"3\",\"route_type_name\":\"Bus\",\"route_color\":\"2CA02C\",\"route_text_color\":\"FFFFFF\"}]"},"geometry":{"type":"Point","coordinates":[-118.0776,34.06278]}},{"type":"Feature","properties":{"stop_id":"146967","stop_code":"","stop_name":"GARVEY AVE & MUSCATEL AVE EB","stop_desc":"","stop_url":"","location_type":"","stop_timezone":"","wheelchair_boarding":"0","platform_code":"","parent_station":"","feed_id":"California__Rosemead_Explorer__mdb_mdb-3098","agency_name":"City of Rosemead","route_count":1,"route_ids":"5154","route_short_names":"","route_types":"3","route_type_names":"Bus","routes_json":"[{\"route_id\":\"5154\",\"route_short_name\":\"\",\"route_long_name\":\"EXPLORER 2\",\"route_type\":\"3\",\"route_type_name\":\"Bus\",\"route_color\":\"1F77B4\",\"route_text_color\":\"FFFFFF\"}]"},"geometry":{"type":"Point","coordinates":[-118.07752,34.06259]}},{"type":"Feature","properties":{"stop_id":"146968","stop_code":"","stop_name":"GARVEY AVE & RIVER AVE EB","stop_desc":"","stop_url":"","location_type":"","stop_timezone":"","wheelchair_boarding":"0","platform_code":"","parent_station":"","feed_id":"California__Rosemead_Explorer__mdb_mdb-3098","agency_name":"City of Rosemead","route_count":1,"route_ids":"5154","route_short_names":"","route_types":"3","route_type_names":"Bus","routes_json":"[{\"route_id\":\"5154\",\"route_short_name\":\"\",\"route_long_name\":\"EXPLORER 2\",\"route_type\":\"3\",\"route_type_name\":\"Bus\",\"route_color\":\"1F77B4\",\"route_text_color\":\"FFFFFF\"}]"},"geometry":{"type":"Point","coordinates":[-118.07345,34.06261]}},{"type":"Feature","properties":{"stop_id":"146969","stop_code":"","stop_name":"GARVEY AVE & ROSEMEAD PL WB","stop_desc":"","stop_url":"","location_type":"","stop_timezone":"","wheelchair_boarding":"0","platform_code":"","parent_station":"","feed_id":"California__Rosemead_Explorer__mdb_mdb-3098","agency_name":"City of Rosemead","route_count":1,"route_ids":"5153","route_short_names":"","route_types":"3","route_type_names":"Bus","routes_json":"[{\"route_id\":\"5153\",\"route_short_name\":\"\",\"route_long_name\":\"EXPLORER 1\",\"route_type\":\"3\",\"route_type_name\":\"Bus\",\"route_color\":\"2CA02C\",\"route_text_color\":\"FFFFFF\"}]"},"geometry":{"type":"Point","coordinates":[-118.07294,34.06279]}},{"type":"Feature","properties":{"stop_id":"146970","stop_code":"","stop_name":"GARVEY AVE & SAN GABRIEL AVE EB","stop_desc":"","stop_url":"","location_type":"","stop_timezone":"","wheelchair_boarding":"0","platform_code":"","parent_station":"","feed_id":"California__Rosemead_Explorer__mdb_mdb-3098","agency_name":"City of Rosemead","route_count":1,"route_ids":"5153","route_short_names":"","route_types":"3","route_type_names":"Bus","routes_json":"[{\"route_id\":\"5153\",\"route_short_name\":\"\",\"route_long_name\":\"EXPLORER 1\",\"route_type\":\"3\",\"route_type_name\":\"Bus\",\"route_color\":\"2CA02C\",\"route_text_color\":\"FFFFFF\"}]"},"geometry":{"type":"Point","coordinates":[-118.09095,34.06258]}},{"type":"Feature","properties":{"stop_id":"146971","stop_code":"","stop_name":"GARVEY AVE & SAN GABRIEL BLVD NB","stop_desc":"","stop_url":"","location_type":"","stop_timezone":"","wheelchair_boarding":"0","platform_code":"","parent_station":"","feed_id":"California__Rosemead_Explorer__mdb_mdb-3098","agency_name":"City of Rosemead","route_count":1,"route_ids":"5154","route_short_names":"","route_types":"3","route_type_names":"Bus","routes_json":"[{\"route_id\":\"5154\",\"route_short_name\":\"\",\"route_long_name\":\"EXPLORER 2\",\"route_type\":\"3\",\"route_type_name\":\"Bus\",\"route_color\":\"1F77B4\",\"route_text_color\":\"FFFFFF\"}]"},"geometry":{"type":"Point","coordinates":[-118.09149,34.06274]}},{"type":"Feature","properties":{"stop_id":"146972","stop_code":"","stop_name":"GARVEY AVE & WALNUT GROVE AVE WB","stop_desc":"","stop_url":"","location_type":"","stop_timezone":"","wheelchair_boarding":"0","platform_code":"","parent_station":"","feed_id":"California__Rosemead_Explorer__mdb_mdb-3098","agency_name":"City of Rosemead","route_count":1,"route_ids":"5154","route_short_names":"","route_types":"3","route_type_names":"Bus","routes_json":"[{\"route_id\":\"5154\",\"route_short_name\":\"\",\"route_long_name\":\"EXPLORER 2\",\"route_type\":\"3\",\"route_type_name\":\"Bus\",\"route_color\":\"1F77B4\",\"route_text_color\":\"FFFFFF\"}]"},"geometry":{"type":"Point","coordinates":[-118.08228,34.06279]}},{"type":"Feature","properties":{"stop_id":"146973","stop_code":"","stop_name":"GRAVES AVE & DEL MAR AVE EB","stop_desc":"","stop_url":"","location_type":"","stop_timezone":"","wheelchair_boarding":"0","platform_code":"","parent_station":"","feed_id":"California__Rosemead_Explorer__mdb_mdb-3098","agency_name":"City of Rosemead","route_count":1,"route_ids":"5154","route_short_names":"","route_types":"3","route_type_names":"Bus","routes_json":"[{\"route_id\":\"5154\",\"route_short_name\":\"\",\"route_long_name\":\"EXPLORER 2\",\"route_type\":\"3\",\"route_type_name\":\"Bus\",\"route_color\":\"1F77B4\",\"route_text_color\":\"FFFFFF\"}]"},"geometry":{"type":"Point","coordinates":[-118.09981,34.05531]}},{"type":"Feature","properties":{"stop_id":"146974","stop_code":"","stop_name":"GRAVES AVE & KELBURN AVE EB","stop_desc":"","stop_url":"","location_type":"","stop_timezone":"","wheelchair_boarding":"0","platform_code":"","parent_station":"","feed_id":"California__Rosemead_Explorer__mdb_mdb-3098","agency_name":"City of Rosemead","route_count":1,"route_ids":"5154","route_short_names":"","route_types":"3","route_type_names":"Bus","routes_json":"[{\"route_id\":\"5154\",\"route_short_name\":\"\",\"route_long_name\":\"EXPLORER 2\",\"route_type\":\"3\",\"route_type_name\":\"Bus\",\"route_color\":\"1F77B4\",\"route_text_color\":\"FFFFFF\"}]"},"geometry":{"type":"Point","coordinates":[-118.0949,34.05455]}},{"type":"Feature","properties":{"stop_id":"146975","stop_code":"","stop_name":"GRAVES AVE & KELBURN AVE WB","stop_desc":"","stop_url":"","location_type":"","stop_timezone":"","wheelchair_boarding":"0","platform_code":"","parent_station":"","feed_id":"California__Rosemead_Explorer__mdb_mdb-3098","agency_name":"City of Rosemead","route_count":1,"route_ids":"5153","route_short_names":"","route_types":"3","route_type_names":"Bus","routes_json":"[{\"route_id\":\"5153\",\"route_short_name\":\"\",\"route_long_name\":\"EXPLORER 1\",\"route_type\":\"3\",\"route_type_name\":\"Bus\",\"route_color\":\"2CA02C\",\"route_text_color\":\"FFFFFF\"}]"},"geometry":{"type":"Point","coordinates":[-118.09483,34.05465]}},{"type":"Feature","properties":{"stop_id":"146976","stop_code":"","stop_name":"GRAVES AVE & SAN GABRIEL BLVD WB","stop_desc":"","stop_url":"","location_type":"","stop_timezone":"","wheelchair_boarding":"0","platform_code":"","parent_station":"","feed_id":"California__Rosemead_Explorer__mdb_mdb-3098","agency_name":"City of Rosemead","route_count":1,"route_ids":"5153","route_short_names":"","route_types":"3","route_type_names":"Bus","routes_json":"[{\"route_id\":\"5153\",\"route_short_name\":\"\",\"route_long_name\":\"EXPLORER 1\",\"route_type\":\"3\",\"route_type_name\":\"Bus\",\"route_color\":\"2CA02C\",\"route_text_color\":\"FFFFFF\"}]"},"geometry":{"type":"Point","coordinates":[-118.09095,34.05404]}},{"type":"Feature","properties":{"stop_id":"146977","stop_code":"","stop_name":"JACKSON AVE & FERN AVE SB","stop_desc":"","stop_url":"","location_type":"","stop_timezone":"","wheelchair_boarding":"0","platform_code":"","parent_station":"","feed_id":"California__Rosemead_Explorer__mdb_mdb-3098","agency_name":"City of Rosemead","route_count":1,"route_ids":"5154","route_short_names":"","route_types":"3","route_type_names":"Bus","routes_json":"[{\"route_id\":\"5154\",\"route_short_name\":\"\",\"route_long_name\":\"EXPLORER 2\",\"route_type\":\"3\",\"route_type_name\":\"Bus\",\"route_color\":\"1F77B4\",\"route_text_color\":\"FFFFFF\"}]"},"geometry":{"type":"Point","coordinates":[-118.10378,34.05933]}},{"type":"Feature","properties":{"stop_id":"146978","stop_code":"","stop_name":"JACKSON AVE & GARVALIA AVE NB","stop_desc":"","stop_url":"","location_type":"","stop_timezone":"","wheelchair_boarding":"0","platform_code":"","parent_station":"","feed_id":"California__Rosemead_Explorer__mdb_mdb-3098","agency_name":"City of Rosemead","route_count":1,"route_ids":"5153","route_short_names":"","route_types":"3","route_type_names":"Bus","routes_json":"[{\"route_id\":\"5153\",\"route_short_name\":\"\",\"route_long_name\":\"EXPLORER 1\",\"route_type\":\"3\",\"route_type_name\":\"Bus\",\"route_color\":\"2CA02C\",\"route_text_color\":\"FFFFFF\"}]"},"geometry":{"type":"Point","coordinates":[-118.1037,34.05859]}},{"type":"Feature","properties":{"stop_id":"146979","stop_code":"","stop_name":"JACKSON AVE & GARVALIA AVE SB","stop_desc":"","stop_url":"","location_type":"","stop_timezone":"","wheelchair_boarding":"0","platform_code":"","parent_station":"","feed_id":"California__Rosemead_Explorer__mdb_mdb-3098","agency_name":"City of Rosemead","route_count":1,"route_ids":"5154","route_short_names":"","route_types":"3","route_type_names":"Bus","routes_json":"[{\"route_id\":\"5154\",\"route_short_name\":\"\",\"route_long_name\":\"EXPLORER 2\",\"route_type\":\"3\",\"route_type_name\":\"Bus\",\"route_color\":\"1F77B4\",\"route_text_color\":\"FFFFFF\"}]"},"geometry":{"type":"Point","coordinates":[-118.10379,34.05793]}},{"type":"Feature","properties":{"stop_id":"146980","stop_code":"","stop_name":"JACKSON AVE & GARVEY AVE NB","stop_desc":"","stop_url":"","location_type":"","stop_timezone":"","wheelchair_boarding":"0","platform_code":"","parent_station":"","feed_id":"California__Rosemead_Explorer__mdb_mdb-3098","agency_name":"City of Rosemead","route_count":1,"route_ids":"5153","route_short_names":"","route_types":"3","route_type_names":"Bus","routes_json":"[{\"route_id\":\"5153\",\"route_short_name\":\"\",\"route_long_name\":\"EXPLORER 1\",\"route_type\":\"3\",\"route_type_name\":\"Bus\",\"route_color\":\"2CA02C\",\"route_text_color\":\"FFFFFF\"}]"},"geometry":{"type":"Point","coordinates":[-118.10371,34.06242]}},{"type":"Feature","properties":{"stop_id":"146981","stop_code":"","stop_name":"JACKSON AVE & GARVEY AVE SB","stop_desc":"","stop_url":"","location_type":"","stop_timezone":"","wheelchair_boarding":"0","platform_code":"","parent_station":"","feed_id":"California__Rosemead_Explorer__mdb_mdb-3098","agency_name":"City of Rosemead","route_count":1,"route_ids":"5154","route_short_names":"","route_types":"3","route_type_names":"Bus","routes_json":"[{\"route_id\":\"5154\",\"route_short_name\":\"\",\"route_long_name\":\"EXPLORER 2\",\"route_type\":\"3\",\"route_type_name\":\"Bus\",\"route_color\":\"1F77B4\",\"route_text_color\":\"FFFFFF\"}]"},"geometry":{"type":"Point","coordinates":[-118.10379,34.06241]}},{"type":"Feature","properties":{"stop_id":"146983","stop_code":"","stop_name":"JACKSON AVE & GRAVES AVE EB","stop_desc":"","stop_url":"","location_type":"","stop_timezone":"","wheelchair_boarding":"0","platform_code":"","parent_station":"","feed_id":"California__Rosemead_Explorer__mdb_mdb-3098","agency_name":"City of Rosemead","route_count":1,"route_ids":"5154","route_short_names":"","route_types":"3","route_type_names":"Bus","routes_json":"[{\"route_id\":\"5154\",\"route_short_name\":\"\",\"route_long_name\":\"EXPLORER 2\",\"route_type\":\"3\",\"route_type_name\":\"Bus\",\"route_color\":\"1F77B4\",\"route_text_color\":\"FFFFFF\"}]"},"geometry":{"type":"Point","coordinates":[-118.10378,34.05555]}},{"type":"Feature","properties":{"stop_id":"146982","stop_code":"","stop_name":"JACKSON AVE & GRAVES AVE NB","stop_desc":"","stop_url":"","location_type":"","stop_timezone":"","wheelchair_boarding":"0","platform_code":"","parent_station":"","feed_id":"California__Rosemead_Explorer__mdb_mdb-3098","agency_name":"City of Rosemead","route_count":1,"route_ids":"5153","route_short_names":"","route_types":"3","route_type_names":"Bus","routes_json":"[{\"route_id\":\"5153\",\"route_short_name\":\"\",\"route_long_name\":\"EXPLORER 1\",\"route_type\":\"3\",\"route_type_name\":\"Bus\",\"route_color\":\"2CA02C\",\"route_text_color\":\"FFFFFF\"}]"},"geometry":{"type":"Point","coordinates":[-118.10365,34.05577]}},{"type":"Feature","properties":{"stop_id":"146984","stop_code":"","stop_name":"MARSHALL ST & RIO HONDO AVE EB","stop_desc":"","stop_url":"","location_type":"","stop_timezone":"","wheelchair_boarding":"0","platform_code":"","parent_station":"","feed_id":"California__Rosemead_Explorer__mdb_mdb-3098","agency_name":"City of Rosemead","route_count":1,"route_ids":"5154","route_short_names":"","route_types":"3","route_type_names":"Bus","routes_json":"[{\"route_id\":\"5154\",\"route_short_name\":\"\",\"route_long_name\":\"EXPLORER 2\",\"route_type\":\"3\",\"route_type_name\":\"Bus\",\"route_color\":\"1F77B4\",\"route_text_color\":\"FFFFFF\"}]"},"geometry":{"type":"Point","coordinates":[-118.06479,34.07576]}},{"type":"Feature","properties":{"stop_id":"146985","stop_code":"","stop_name":"MARSHALL ST & RIO HONDO AVE WB","stop_desc":"","stop_url":"","location_type":"","stop_timezone":"","wheelchair_boarding":"0","platform_code":"","parent_station":"","feed_id":"California__Rosemead_Explorer__mdb_mdb-3098","agency_name":"City of Rosemead","route_count":1,"route_ids":"5153","route_short_names":"","route_types":"3","route_type_names":"Bus","routes_json":"[{\"route_id\":\"5153\",\"route_short_name\":\"\",\"route_long_name\":\"EXPLORER 1\",\"route_type\":\"3\",\"route_type_name\":\"Bus\",\"route_color\":\"2CA02C\",\"route_text_color\":\"FFFFFF\"}]"},"geometry":{"type":"Point","coordinates":[-118.06471,34.07585]}},{"type":"Feature","properties":{"stop_id":"146986","stop_code":"","stop_name":"MISSION DR & (ROSEMEAD HIGHSCHOOL) WB","stop_desc":"","stop_url":"","location_type":"","stop_timezone":"","wheelchair_boarding":"0","platform_code":"","parent_station":"","feed_id":"California__Rosemead_Explorer__mdb_mdb-3098","agency_name":"City of Rosemead","route_count":1,"route_ids":"5154","route_short_names":"","route_types":"3","route_type_names":"Bus","routes_json":"[{\"route_id\":\"5154\",\"route_short_name\":\"\",\"route_long_name\":\"EXPLORER 2\",\"route_type\":\"3\",\"route_type_name\":\"Bus\",\"route_color\":\"1F77B4\",\"route_text_color\":\"FFFFFF\"}]"},"geometry":{"type":"Point","coordinates":[-118.0717,34.08384]}},{"type":"Feature","properties":{"stop_id":"146987","stop_code":"","stop_name":"MISSION DR & VALLEY BLVD WB","stop_desc":"","stop_url":"","location_type":"","stop_timezone":"","wheelchair_boarding":"0","platform_code":"","parent_station":"","feed_id":"California__Rosemead_Explorer__mdb_mdb-3098","agency_name":"City of Rosemead","route_count":1,"route_ids":"5154","route_short_names":"","route_types":"3","route_type_names":"Bus","routes_json":"[{\"route_id\":\"5154\",\"route_short_name\":\"\",\"route_long_name\":\"EXPLORER 2\",\"route_type\":\"3\",\"route_type_name\":\"Bus\",\"route_color\":\"1F77B4\",\"route_text_color\":\"FFFFFF\"}]"},"geometry":{"type":"Point","coordinates":[-118.06557,34.08151]}},{"type":"Feature","properties":{"stop_id":"146988","stop_code":"","stop_name":"MONTEBELLO MALL FOOD COURT SB","stop_desc":"","stop_url":"","location_type":"","stop_timezone":"","wheelchair_boarding":"0","platform_code":"","parent_station":"","feed_id":"California__Rosemead_Explorer__mdb_mdb-3098","agency_name":"City of Rosemead","route_count":2,"route_ids":"5153|5154","route_short_names":"","route_types":"3","route_type_names":"Bus","routes_json":"[{\"route_id\":\"5153\",\"route_short_name\":\"\",\"route_long_name\":\"EXPLORER 1\",\"route_type\":\"3\",\"route_type_name\":\"Bus\",\"route_color\":\"2CA02C\",\"route_text_color\":\"FFFFFF\"},{\"route_id\":\"5154\",\"route_short_name\":\"\",\"route_long_name\":\"EXPLORER 2\",\"route_type\":\"3\",\"route_type_name\":\"Bus\",\"route_color\":\"1F77B4\",\"route_text_color\":\"FFFFFF\"}]"},"geometry":{"type":"Point","coordinates":[-118.08477,34.03651]}},{"type":"Feature","properties":{"stop_id":"146989","stop_code":"","stop_name":"OLNEY ST & RIO HONDO AVE EB","stop_desc":"","stop_url":"","location_type":"","stop_timezone":"","wheelchair_boarding":"0","platform_code":"","parent_station":"","feed_id":"California__Rosemead_Explorer__mdb_mdb-3098","agency_name":"City of Rosemead","route_count":1,"route_ids":"5154","route_short_names":"","route_types":"3","route_type_names":"Bus","routes_json":"[{\"route_id\":\"5154\",\"route_short_name\":\"\",\"route_long_name\":\"EXPLORER 2\",\"route_type\":\"3\",\"route_type_name\":\"Bus\",\"route_color\":\"1F77B4\",\"route_text_color\":\"FFFFFF\"}]"},"geometry":{"type":"Point","coordinates":[-118.06419,34.07311]}},{"type":"Feature","properties":{"stop_id":"146990","stop_code":"","stop_name":"OLNEY ST & RIO HONDO AVE WB","stop_desc":"","stop_url":"","location_type":"","stop_timezone":"","wheelchair_boarding":"0","platform_code":"","parent_station":"","feed_id":"California__Rosemead_Explorer__mdb_mdb-3098","agency_name":"City of Rosemead","route_count":1,"route_ids":"5153","route_short_names":"","route_types":"3","route_type_names":"Bus","routes_json":"[{\"route_id\":\"5153\",\"route_short_name\":\"\",\"route_long_name\":\"EXPLORER 1\",\"route_type\":\"3\",\"route_type_name\":\"Bus\",\"route_color\":\"2CA02C\",\"route_text_color\":\"FFFFFF\"}]"},"geometry":{"type":"Point","coordinates":[-118.06421,34.07318]}},{"type":"Feature","properties":{"stop_id":"146991","stop_code":"","stop_name":"ROSEMEAD BLVD & MARSHAL WB","stop_desc":"","stop_url":"","location_type":"","stop_timezone":"","wheelchair_boarding":"0","platform_code":"","parent_station":"","feed_id":"California__Rosemead_Explorer__mdb_mdb-3098","agency_name":"City of Rosemead","route_count":1,"route_ids":"5153","route_short_names":"","route_types":"3","route_type_names":"Bus","routes_json":"[{\"route_id\":\"5153\",\"route_short_name\":\"\",\"route_long_name\":\"EXPLORER 1\",\"route_type\":\"3\",\"route_type_name\":\"Bus\",\"route_color\":\"2CA02C\",\"route_text_color\":\"FFFFFF\"}]"},"geometry":{"type":"Point","coordinates":[-118.07318,34.07523]}},{"type":"Feature","properties":{"stop_id":"146992","stop_code":"","stop_name":"ROSEMEAD BLVD & NEWBY AVE SB","stop_desc":"","stop_url":"","location_type":"","stop_timezone":"","wheelchair_boarding":"0","platform_code":"","parent_station":"","feed_id":"California__Rosemead_Explorer__mdb_mdb-3098","agency_name":"City of Rosemead","route_count":1,"route_ids":"5154","route_short_names":"","route_types":"3","route_type_names":"Bus","routes_json":"[{\"route_id\":\"5154\",\"route_short_name\":\"\",\"route_long_name\":\"EXPLORER 2\",\"route_type\":\"3\",\"route_type_name\":\"Bus\",\"route_color\":\"1F77B4\",\"route_text_color\":\"FFFFFF\"}]"},"geometry":{"type":"Point","coordinates":[-118.07339,34.0825]}},{"type":"Feature","properties":{"stop_id":"146993","stop_code":"","stop_name":"RUSH & ANGELUS AVE WB","stop_desc":"","stop_url":"","location_type":"","stop_timezone":"","wheelchair_boarding":"0","platform_code":"","parent_station":"","feed_id":"California__Rosemead_Explorer__mdb_mdb-3098","agency_name":"City of Rosemead","route_count":1,"route_ids":"5153","route_short_names":"","route_types":"3","route_type_names":"Bus","routes_json":"[{\"route_id\":\"5153\",\"route_short_name\":\"\",\"route_long_name\":\"EXPLORER 1\",\"route_type\":\"3\",\"route_type_name\":\"Bus\",\"route_color\":\"2CA02C\",\"route_text_color\":\"FFFFFF\"}]"},"geometry":{"type":"Point","coordinates":[-118.08678,34.05176]}},{"type":"Feature","properties":{"stop_id":"146994","stop_code":"","stop_name":"SAN GABRIEL BLVD & LA MERCED RD SB","stop_desc":"","stop_url":"","location_type":"","stop_timezone":"","wheelchair_boarding":"0","platform_code":"","parent_station":"","feed_id":"California__Rosemead_Explorer__mdb_mdb-3098","agency_name":"City of Rosemead","route_count":1,"route_ids":"5154","route_short_names":"","route_types":"3","route_type_names":"Bus","routes_json":"[{\"route_id\":\"5154\",\"route_short_name\":\"\",\"route_long_name\":\"EXPLORER 2\",\"route_type\":\"3\",\"route_type_name\":\"Bus\",\"route_color\":\"1F77B4\",\"route_text_color\":\"FFFFFF\"}]"},"geometry":{"type":"Point","coordinates":[-118.09066,34.0533]}},{"type":"Feature","properties":{"stop_id":"146995","stop_code":"","stop_name":"TARGET (END OF ROUTE)","stop_desc":"","stop_url":"","location_type":"","stop_timezone":"","wheelchair_boarding":"0","platform_code":"","parent_station":"","feed_id":"California__Rosemead_Explorer__mdb_mdb-3098","agency_name":"City of Rosemead","route_count":2,"route_ids":"5153|5154","route_short_names":"","route_types":"3","route_type_names":"Bus","routes_json":"[{\"route_id\":\"5153\",\"route_short_name\":\"\",\"route_long_name\":\"EXPLORER 1\",\"route_type\":\"3\",\"route_type_name\":\"Bus\",\"route_color\":\"2CA02C\",\"route_text_color\":\"FFFFFF\"},{\"route_id\":\"5154\",\"route_short_name\":\"\",\"route_long_name\":\"EXPLORER 2\",\"route_type\":\"3\",\"route_type_name\":\"Bus\",\"route_color\":\"1F77B4\",\"route_text_color\":\"FFFFFF\"}]"},"geometry":{"type":"Point","coordinates":[-118.07063,34.07486]}},{"type":"Feature","properties":{"stop_id":"146996","stop_code":"","stop_name":"TARGET (START OF ROUTE)","stop_desc":"","stop_url":"","location_type":"","stop_timezone":"","wheelchair_boarding":"0","platform_code":"","parent_station":"","feed_id":"California__Rosemead_Explorer__mdb_mdb-3098","agency_name":"City of Rosemead","route_count":2,"route_ids":"5153|5154","route_short_names":"","route_types":"3","route_type_names":"Bus","routes_json":"[{\"route_id\":\"5153\",\"route_short_name\":\"\",\"route_long_name\":\"EXPLORER 1\",\"route_type\":\"3\",\"route_type_name\":\"Bus\",\"route_color\":\"2CA02C\",\"route_text_color\":\"FFFFFF\"},{\"route_id\":\"5154\",\"route_short_name\":\"\",\"route_long_name\":\"EXPLORER 2\",\"route_type\":\"3\",\"route_type_name\":\"Bus\",\"route_color\":\"1F77B4\",\"route_text_color\":\"FFFFFF\"}]"},"geometry":{"type":"Point","coordinates":[-118.07063,34.07484]}},{"type":"Feature","properties":{"stop_id":"146997","stop_code":"","stop_name":"TEMPLE CITY BLVD & GUESS ST NB","stop_desc":"","stop_url":"","location_type":"","stop_timezone":"","wheelchair_boarding":"0","platform_code":"","parent_station":"","feed_id":"California__Rosemead_Explorer__mdb_mdb-3098","agency_name":"City of Rosemead","route_count":1,"route_ids":"5154","route_short_names":"","route_types":"3","route_type_names":"Bus","routes_json":"[{\"route_id\":\"5154\",\"route_short_name\":\"\",\"route_long_name\":\"EXPLORER 2\",\"route_type\":\"3\",\"route_type_name\":\"Bus\",\"route_color\":\"1F77B4\",\"route_text_color\":\"FFFFFF\"}]"},"geometry":{"type":"Point","coordinates":[-118.05856,34.07852]}},{"type":"Feature","properties":{"stop_id":"146998","stop_code":"","stop_name":"TEMPLE CITY BLVD & GUESS ST SB","stop_desc":"","stop_url":"","location_type":"","stop_timezone":"","wheelchair_boarding":"0","platform_code":"","parent_station":"","feed_id":"California__Rosemead_Explorer__mdb_mdb-3098","agency_name":"City of Rosemead","route_count":1,"route_ids":"5153","route_short_names":"","route_types":"3","route_type_names":"Bus","routes_json":"[{\"route_id\":\"5153\",\"route_short_name\":\"\",\"route_long_name\":\"EXPLORER 1\",\"route_type\":\"3\",\"route_type_name\":\"Bus\",\"route_color\":\"2CA02C\",\"route_text_color\":\"FFFFFF\"}]"},"geometry":{"type":"Point","coordinates":[-118.0587,34.0784]}},{"type":"Feature","properties":{"stop_id":"146999","stop_code":"","stop_name":"TEMPLE CITY BLVD & MARSHALL ST NB","stop_desc":"","stop_url":"","location_type":"","stop_timezone":"","wheelchair_boarding":"0","platform_code":"","parent_station":"","feed_id":"California__Rosemead_Explorer__mdb_mdb-3098","agency_name":"City of Rosemead","route_count":1,"route_ids":"5154","route_short_names":"","route_types":"3","route_type_names":"Bus","routes_json":"[{\"route_id\":\"5154\",\"route_short_name\":\"\",\"route_long_name\":\"EXPLORER 2\",\"route_type\":\"3\",\"route_type_name\":\"Bus\",\"route_color\":\"1F77B4\",\"route_text_color\":\"FFFFFF\"}]"},"geometry":{"type":"Point","coordinates":[-118.0585,34.07606]}},{"type":"Feature","properties":{"stop_id":"147000","stop_code":"","stop_name":"TEMPLE CITY BLVD & MARSHALL ST SB","stop_desc":"","stop_url":"","location_type":"","stop_timezone":"","wheelchair_boarding":"0","platform_code":"","parent_station":"","feed_id":"California__Rosemead_Explorer__mdb_mdb-3098","agency_name":"City of Rosemead","route_count":1,"route_ids":"5153","route_short_names":"","route_types":"3","route_type_names":"Bus","routes_json":"[{\"route_id\":\"5153\",\"route_short_name\":\"\",\"route_long_name\":\"EXPLORER 1\",\"route_type\":\"3\",\"route_type_name\":\"Bus\",\"route_color\":\"2CA02C\",\"route_text_color\":\"FFFFFF\"}]"},"geometry":{"type":"Point","coordinates":[-118.05869,34.07605]}},{"type":"Feature","properties":{"stop_id":"147001","stop_code":"","stop_name":"TOWN CENTERDR & MONTEBELLO BLVD EB","stop_desc":"","stop_url":"","location_type":"","stop_timezone":"","wheelchair_boarding":"0","platform_code":"","parent_station":"","feed_id":"California__Rosemead_Explorer__mdb_mdb-3098","agency_name":"City of Rosemead","route_count":1,"route_ids":"5153","route_short_names":"","route_types":"3","route_type_names":"Bus","routes_json":"[{\"route_id\":\"5153\",\"route_short_name\":\"\",\"route_long_name\":\"EXPLORER 1\",\"route_type\":\"3\",\"route_type_name\":\"Bus\",\"route_color\":\"2CA02C\",\"route_text_color\":\"FFFFFF\"}]"},"geometry":{"type":"Point","coordinates":[-118.08219,34.0378]}},{"type":"Feature","properties":{"stop_id":"147002","stop_code":"","stop_name":"TOWNCENTER DRIVE & MONTEBELLO BLVD SB","stop_desc":"","stop_url":"","location_type":"","stop_timezone":"","wheelchair_boarding":"0","platform_code":"","parent_station":"","feed_id":"California__Rosemead_Explorer__mdb_mdb-3098","agency_name":"City of Rosemead","route_count":1,"route_ids":"5154","route_short_names":"","route_types":"3","route_type_names":"Bus","routes_json":"[{\"route_id\":\"5154\",\"route_short_name\":\"\",\"route_long_name\":\"EXPLORER 2\",\"route_type\":\"3\",\"route_type_name\":\"Bus\",\"route_color\":\"1F77B4\",\"route_text_color\":\"FFFFFF\"}]"},"geometry":{"type":"Point","coordinates":[-118.08218,34.0378]}},{"type":"Feature","properties":{"stop_id":"147003","stop_code":"","stop_name":"VALLEY BLVD & (ANIMAL HOSPITAL) WB","stop_desc":"","stop_url":"","location_type":"","stop_timezone":"","wheelchair_boarding":"0","platform_code":"","parent_station":"","feed_id":"California__Rosemead_Explorer__mdb_mdb-3098","agency_name":"City of Rosemead","route_count":1,"route_ids":"5154","route_short_names":"","route_types":"3","route_type_names":"Bus","routes_json":"[{\"route_id\":\"5154\",\"route_short_name\":\"\",\"route_long_name\":\"EXPLORER 2\",\"route_type\":\"3\",\"route_type_name\":\"Bus\",\"route_color\":\"1F77B4\",\"route_text_color\":\"FFFFFF\"}]"},"geometry":{"type":"Point","coordinates":[-118.05917,34.08143]}},{"type":"Feature","properties":{"stop_id":"147004","stop_code":"","stop_name":"VALLEY BLVD & HART AVE EB","stop_desc":"","stop_url":"","location_type":"","stop_timezone":"","wheelchair_boarding":"0","platform_code":"","parent_station":"","feed_id":"California__Rosemead_Explorer__mdb_mdb-3098","agency_name":"City of Rosemead","route_count":1,"route_ids":"5153","route_short_names":"","route_types":"3","route_type_names":"Bus","routes_json":"[{\"route_id\":\"5153\",\"route_short_name\":\"\",\"route_long_name\":\"EXPLORER 1\",\"route_type\":\"3\",\"route_type_name\":\"Bus\",\"route_color\":\"2CA02C\",\"route_text_color\":\"FFFFFF\"}]"},"geometry":{"type":"Point","coordinates":[-118.07002,34.08088]}},{"type":"Feature","properties":{"stop_id":"147005","stop_code":"","stop_name":"VALLEY BLVD & MERWYN C. GILL WB","stop_desc":"","stop_url":"","location_type":"","stop_timezone":"","wheelchair_boarding":"0","platform_code":"","parent_station":"","feed_id":"California__Rosemead_Explorer__mdb_mdb-3098","agency_name":"City of Rosemead","route_count":1,"route_ids":"5154","route_short_names":"","route_types":"3","route_type_names":"Bus","routes_json":"[{\"route_id\":\"5154\",\"route_short_name\":\"\",\"route_long_name\":\"EXPLORER 2\",\"route_type\":\"3\",\"route_type_name\":\"Bus\",\"route_color\":\"1F77B4\",\"route_text_color\":\"FFFFFF\"}]"},"geometry":{"type":"Point","coordinates":[-118.06154,34.08133]}},{"type":"Feature","properties":{"stop_id":"147006","stop_code":"","stop_name":"VALLEY BLVD & MERWYN GILWY EB","stop_desc":"","stop_url":"","location_type":"","stop_timezone":"","wheelchair_boarding":"0","platform_code":"","parent_station":"","feed_id":"California__Rosemead_Explorer__mdb_mdb-3098","agency_name":"City of Rosemead","route_count":1,"route_ids":"5153","route_short_names":"","route_types":"3","route_type_names":"Bus","routes_json":"[{\"route_id\":\"5153\",\"route_short_name\":\"\",\"route_long_name\":\"EXPLORER 1\",\"route_type\":\"3\",\"route_type_name\":\"Bus\",\"route_color\":\"2CA02C\",\"route_text_color\":\"FFFFFF\"}]"},"geometry":{"type":"Point","coordinates":[-118.06148,34.08116]}},{"type":"Feature","properties":{"stop_id":"147007","stop_code":"","stop_name":"VALLEY BLVD & MISSION DRIVE EB","stop_desc":"","stop_url":"","location_type":"","stop_timezone":"","wheelchair_boarding":"0","platform_code":"","parent_station":"","feed_id":"California__Rosemead_Explorer__mdb_mdb-3098","agency_name":"City of Rosemead","route_count":1,"route_ids":"5153","route_short_names":"","route_types":"3","route_type_names":"Bus","routes_json":"[{\"route_id\":\"5153\",\"route_short_name\":\"\",\"route_long_name\":\"EXPLORER 1\",\"route_type\":\"3\",\"route_type_name\":\"Bus\",\"route_color\":\"2CA02C\",\"route_text_color\":\"FFFFFF\"}]"},"geometry":{"type":"Point","coordinates":[-118.06582,34.08105]}},{"type":"Feature","properties":{"stop_id":"147008","stop_code":"","stop_name":"VALLEY BLVD & MUSCATEL AVE NB","stop_desc":"","stop_url":"","location_type":"","stop_timezone":"","wheelchair_boarding":"0","platform_code":"","parent_station":"","feed_id":"California__Rosemead_Explorer__mdb_mdb-3098","agency_name":"City of Rosemead","route_count":1,"route_ids":"5153","route_short_names":"","route_types":"3","route_type_names":"Bus","routes_json":"[{\"route_id\":\"5153\",\"route_short_name\":\"\",\"route_long_name\":\"EXPLORER 1\",\"route_type\":\"3\",\"route_type_name\":\"Bus\",\"route_color\":\"2CA02C\",\"route_text_color\":\"FFFFFF\"}]"},"geometry":{"type":"Point","coordinates":[-118.07731,34.08062]}},{"type":"Feature","properties":{"stop_id":"147009","stop_code":"","stop_name":"VALLEY BLVD & MUSCATEL AVE WB","stop_desc":"","stop_url":"","location_type":"","stop_timezone":"","wheelchair_boarding":"0","platform_code":"","parent_station":"","feed_id":"California__Rosemead_Explorer__mdb_mdb-3098","agency_name":"City of Rosemead","route_count":1,"route_ids":"5154","route_short_names":"","route_types":"3","route_type_names":"Bus","routes_json":"[{\"route_id\":\"5154\",\"route_short_name\":\"\",\"route_long_name\":\"EXPLORER 2\",\"route_type\":\"3\",\"route_type_name\":\"Bus\",\"route_color\":\"1F77B4\",\"route_text_color\":\"FFFFFF\"}]"},"geometry":{"type":"Point","coordinates":[-118.07809,34.08075]}},{"type":"Feature","properties":{"stop_id":"147010","stop_code":"","stop_name":"VALLEY BLVD & RIO HONDO AVE WB","stop_desc":"","stop_url":"","location_type":"","stop_timezone":"","wheelchair_boarding":"0","platform_code":"","parent_station":"","feed_id":"California__Rosemead_Explorer__mdb_mdb-3098","agency_name":"City of Rosemead","route_count":1,"route_ids":"5154","route_short_names":"","route_types":"3","route_type_names":"Bus","routes_json":"[{\"route_id\":\"5154\",\"route_short_name\":\"\",\"route_long_name\":\"EXPLORER 2\",\"route_type\":\"3\",\"route_type_name\":\"Bus\",\"route_color\":\"1F77B4\",\"route_text_color\":\"FFFFFF\"}]"},"geometry":{"type":"Point","coordinates":[-118.06434,34.08125]}},{"type":"Feature","properties":{"stop_id":"147011","stop_code":"","stop_name":"VALLEY BLVD & ROSEMEAD BLVD EB","stop_desc":"","stop_url":"","location_type":"","stop_timezone":"","wheelchair_boarding":"0","platform_code":"","parent_station":"","feed_id":"California__Rosemead_Explorer__mdb_mdb-3098","agency_name":"City of Rosemead","route_count":1,"route_ids":"5153","route_short_names":"","route_types":"3","route_type_names":"Bus","routes_json":"[{\"route_id\":\"5153\",\"route_short_name\":\"\",\"route_long_name\":\"EXPLORER 1\",\"route_type\":\"3\",\"route_type_name\":\"Bus\",\"route_color\":\"2CA02C\",\"route_text_color\":\"FFFFFF\"}]"},"geometry":{"type":"Point","coordinates":[-118.07272,34.08079]}},{"type":"Feature","properties":{"stop_id":"147012","stop_code":"","stop_name":"VALLEY BLVD & TEMPLE CITY BLVD EB","stop_desc":"","stop_url":"","location_type":"","stop_timezone":"","wheelchair_boarding":"0","platform_code":"","parent_station":"","feed_id":"California__Rosemead_Explorer__mdb_mdb-3098","agency_name":"City of Rosemead","route_count":1,"route_ids":"5153","route_short_names":"","route_types":"3","route_type_names":"Bus","routes_json":"[{\"route_id\":\"5153\",\"route_short_name\":\"\",\"route_long_name\":\"EXPLORER 1\",\"route_type\":\"3\",\"route_type_name\":\"Bus\",\"route_color\":\"2CA02C\",\"route_text_color\":\"FFFFFF\"}]"},"geometry":{"type":"Point","coordinates":[-118.05868,34.08123]}},{"type":"Feature","properties":{"stop_id":"147013","stop_code":"","stop_name":"WALMART (GARDEN SIDE) NB","stop_desc":"","stop_url":"","location_type":"","stop_timezone":"","wheelchair_boarding":"0","platform_code":"","parent_station":"","feed_id":"California__Rosemead_Explorer__mdb_mdb-3098","agency_name":"City of Rosemead","route_count":1,"route_ids":"5153","route_short_names":"","route_types":"3","route_type_names":"Bus","routes_json":"[{\"route_id\":\"5153\",\"route_short_name\":\"\",\"route_long_name\":\"EXPLORER 1\",\"route_type\":\"3\",\"route_type_name\":\"Bus\",\"route_color\":\"2CA02C\",\"route_text_color\":\"FFFFFF\"}]"},"geometry":{"type":"Point","coordinates":[-118.08458,34.05089]}},{"type":"Feature","properties":{"stop_id":"147014","stop_code":"","stop_name":"WALMART SB","stop_desc":"","stop_url":"","location_type":"","stop_timezone":"","wheelchair_boarding":"0","platform_code":"","parent_station":"","feed_id":"California__Rosemead_Explorer__mdb_mdb-3098","agency_name":"City of Rosemead","route_count":2,"route_ids":"5153|5154","route_short_names":"","route_types":"3","route_type_names":"Bus","routes_json":"[{\"route_id\":\"5153\",\"route_short_name\":\"\",\"route_long_name\":\"EXPLORER 1\",\"route_type\":\"3\",\"route_type_name\":\"Bus\",\"route_color\":\"2CA02C\",\"route_text_color\":\"FFFFFF\"},{\"route_id\":\"5154\",\"route_short_name\":\"\",\"route_long_name\":\"EXPLORER 2\",\"route_type\":\"3\",\"route_type_name\":\"Bus\",\"route_color\":\"1F77B4\",\"route_text_color\":\"FFFFFF\"}]"},"geometry":{"type":"Point","coordinates":[-118.08473,34.05093]}},{"type":"Feature","properties":{"stop_id":"147015","stop_code":"","stop_name":"WALNUT AVE & VALLEY BLVD NB","stop_desc":"","stop_url":"","location_type":"","stop_timezone":"","wheelchair_boarding":"0","platform_code":"","parent_station":"","feed_id":"California__Rosemead_Explorer__mdb_mdb-3098","agency_name":"City of Rosemead","route_count":1,"route_ids":"5153","route_short_names":"","route_types":"3","route_type_names":"Bus","routes_json":"[{\"route_id\":\"5153\",\"route_short_name\":\"\",\"route_long_name\":\"EXPLORER 1\",\"route_type\":\"3\",\"route_type_name\":\"Bus\",\"route_color\":\"2CA02C\",\"route_text_color\":\"FFFFFF\"}]"},"geometry":{"type":"Point","coordinates":[-118.08198,34.08023]}},{"type":"Feature","properties":{"stop_id":"147030","stop_code":"","stop_name":"WALNUT GROVE AVE ( UNIVERSITY OF THE WEST) NB","stop_desc":"","stop_url":"","location_type":"","stop_timezone":"","wheelchair_boarding":"0","platform_code":"","parent_station":"","feed_id":"California__Rosemead_Explorer__mdb_mdb-3098","agency_name":"City of Rosemead","route_count":1,"route_ids":"5154","route_short_names":"","route_types":"3","route_type_names":"Bus","routes_json":"[{\"route_id\":\"5154\",\"route_short_name\":\"\",\"route_long_name\":\"EXPLORER 2\",\"route_type\":\"3\",\"route_type_name\":\"Bus\",\"route_color\":\"1F77B4\",\"route_text_color\":\"FFFFFF\"}]"},"geometry":{"type":"Point","coordinates":[-118.08177,34.04508]}},{"type":"Feature","properties":{"stop_id":"147031","stop_code":"","stop_name":"WALNUT GROVE AVE (PANDA SIGN) SB","stop_desc":"","stop_url":"","location_type":"","stop_timezone":"","wheelchair_boarding":"0","platform_code":"","parent_station":"","feed_id":"California__Rosemead_Explorer__mdb_mdb-3098","agency_name":"City of Rosemead","route_count":1,"route_ids":"5154","route_short_names":"","route_types":"3","route_type_names":"Bus","routes_json":"[{\"route_id\":\"5154\",\"route_short_name\":\"\",\"route_long_name\":\"EXPLORER 2\",\"route_type\":\"3\",\"route_type_name\":\"Bus\",\"route_color\":\"1F77B4\",\"route_text_color\":\"FFFFFF\"}]"},"geometry":{"type":"Point","coordinates":[-118.08199,34.04852]}},{"type":"Feature","properties":{"stop_id":"147032","stop_code":"","stop_name":"WALNUT GROVE AVE (UNIVERSITY OF THE WEST) NB","stop_desc":"","stop_url":"","location_type":"","stop_timezone":"","wheelchair_boarding":"0","platform_code":"","parent_station":"","feed_id":"California__Rosemead_Explorer__mdb_mdb-3098","agency_name":"City of Rosemead","route_count":1,"route_ids":"5153","route_short_names":"","route_types":"3","route_type_names":"Bus","routes_json":"[{\"route_id\":\"5153\",\"route_short_name\":\"\",\"route_long_name\":\"EXPLORER 1\",\"route_type\":\"3\",\"route_type_name\":\"Bus\",\"route_color\":\"2CA02C\",\"route_text_color\":\"FFFFFF\"}]"},"geometry":{"type":"Point","coordinates":[-118.08178,34.04508]}},{"type":"Feature","properties":{"stop_id":"147016","stop_code":"","stop_name":"WALNUT GROVE AVE & FERN AVE NB","stop_desc":"","stop_url":"","location_type":"","stop_timezone":"","wheelchair_boarding":"0","platform_code":"","parent_station":"","feed_id":"California__Rosemead_Explorer__mdb_mdb-3098","agency_name":"City of Rosemead","route_count":1,"route_ids":"5154","route_short_names":"","route_types":"3","route_type_names":"Bus","routes_json":"[{\"route_id\":\"5154\",\"route_short_name\":\"\",\"route_long_name\":\"EXPLORER 2\",\"route_type\":\"3\",\"route_type_name\":\"Bus\",\"route_color\":\"1F77B4\",\"route_text_color\":\"FFFFFF\"}]"},"geometry":{"type":"Point","coordinates":[-118.081838834,34.05916667]}},{"type":"Feature","properties":{"stop_id":"147017","stop_code":"","stop_name":"WALNUT GROVE AVE & FERN AVE SB","stop_desc":"","stop_url":"","location_type":"","stop_timezone":"","wheelchair_boarding":"0","platform_code":"","parent_station":"","feed_id":"California__Rosemead_Explorer__mdb_mdb-3098","agency_name":"City of Rosemead","route_count":1,"route_ids":"5153","route_short_names":"","route_types":"3","route_type_names":"Bus","routes_json":"[{\"route_id\":\"5153\",\"route_short_name\":\"\",\"route_long_name\":\"EXPLORER 1\",\"route_type\":\"3\",\"route_type_name\":\"Bus\",\"route_color\":\"2CA02C\",\"route_text_color\":\"FFFFFF\"}]"},"geometry":{"type":"Point","coordinates":[-118.08204,34.05923]}},{"type":"Feature","properties":{"stop_id":"147018","stop_code":"","stop_name":"WALNUT GROVE AVE & GARVEY AVE EB","stop_desc":"","stop_url":"","location_type":"","stop_timezone":"","wheelchair_boarding":"0","platform_code":"","parent_station":"","feed_id":"California__Rosemead_Explorer__mdb_mdb-3098","agency_name":"City of Rosemead","route_count":1,"route_ids":"5153","route_short_names":"","route_types":"3","route_type_names":"Bus","routes_json":"[{\"route_id\":\"5153\",\"route_short_name\":\"\",\"route_long_name\":\"EXPLORER 1\",\"route_type\":\"3\",\"route_type_name\":\"Bus\",\"route_color\":\"2CA02C\",\"route_text_color\":\"FFFFFF\"}]"},"geometry":{"type":"Point","coordinates":[-118.0819,34.06313]}},{"type":"Feature","properties":{"stop_id":"147019","stop_code":"","stop_name":"WALNUT GROVE AVE & GARVEY AVE NB","stop_desc":"","stop_url":"","location_type":"","stop_timezone":"","wheelchair_boarding":"0","platform_code":"","parent_station":"","feed_id":"California__Rosemead_Explorer__mdb_mdb-3098","agency_name":"City of Rosemead","route_count":1,"route_ids":"5154","route_short_names":"","route_types":"3","route_type_names":"Bus","routes_json":"[{\"route_id\":\"5154\",\"route_short_name\":\"\",\"route_long_name\":\"EXPLORER 2\",\"route_type\":\"3\",\"route_type_name\":\"Bus\",\"route_color\":\"1F77B4\",\"route_text_color\":\"FFFFFF\"}]"},"geometry":{"type":"Point","coordinates":[-118.08188,34.06246]}},{"type":"Feature","properties":{"stop_id":"147020","stop_code":"","stop_name":"WALNUT GROVE AVE & GARVEY AVE SB","stop_desc":"","stop_url":"","location_type":"","stop_timezone":"","wheelchair_boarding":"0","platform_code":"","parent_station":"","feed_id":"California__Rosemead_Explorer__mdb_mdb-3098","agency_name":"City of Rosemead","route_count":1,"route_ids":"5153","route_short_names":"","route_types":"3","route_type_names":"Bus","routes_json":"[{\"route_id\":\"5153\",\"route_short_name\":\"\",\"route_long_name\":\"EXPLORER 1\",\"route_type\":\"3\",\"route_type_name\":\"Bus\",\"route_color\":\"2CA02C\",\"route_text_color\":\"FFFFFF\"}]"},"geometry":{"type":"Point","coordinates":[-118.08205,34.06226]}},{"type":"Feature","properties":{"stop_id":"147021","stop_code":"","stop_name":"WALNUT GROVE AVE & HELLMAN AVE SB","stop_desc":"","stop_url":"","location_type":"","stop_timezone":"","wheelchair_boarding":"0","platform_code":"","parent_station":"","feed_id":"California__Rosemead_Explorer__mdb_mdb-3098","agency_name":"City of Rosemead","route_count":1,"route_ids":"5154","route_short_names":"","route_types":"3","route_type_names":"Bus","routes_json":"[{\"route_id\":\"5154\",\"route_short_name\":\"\",\"route_long_name\":\"EXPLORER 2\",\"route_type\":\"3\",\"route_type_name\":\"Bus\",\"route_color\":\"1F77B4\",\"route_text_color\":\"FFFFFF\"}]"},"geometry":{"type":"Point","coordinates":[-118.0822,34.06946]}},{"type":"Feature","properties":{"stop_id":"147022","stop_code":"","stop_name":"WALNUT GROVE AVE & KLINGERMAN ST SB","stop_desc":"","stop_url":"","location_type":"","stop_timezone":"","wheelchair_boarding":"0","platform_code":"","parent_station":"","feed_id":"California__Rosemead_Explorer__mdb_mdb-3098","agency_name":"City of Rosemead","route_count":1,"route_ids":"5153","route_short_names":"","route_types":"3","route_type_names":"Bus","routes_json":"[{\"route_id\":\"5153\",\"route_short_name\":\"\",\"route_long_name\":\"EXPLORER 1\",\"route_type\":\"3\",\"route_type_name\":\"Bus\",\"route_color\":\"2CA02C\",\"route_text_color\":\"FFFFFF\"}]"},"geometry":{"type":"Point","coordinates":[-118.08202,34.05516]}},{"type":"Feature","properties":{"stop_id":"147023","stop_code":"","stop_name":"WALNUT GROVE AVE & LA MADRINA DRIVE SB","stop_desc":"","stop_url":"","location_type":"","stop_timezone":"","wheelchair_boarding":"0","platform_code":"","parent_station":"","feed_id":"California__Rosemead_Explorer__mdb_mdb-3098","agency_name":"City of Rosemead","route_count":1,"route_ids":"5153","route_short_names":"","route_types":"3","route_type_names":"Bus","routes_json":"[{\"route_id\":\"5153\",\"route_short_name\":\"\",\"route_long_name\":\"EXPLORER 1\",\"route_type\":\"3\",\"route_type_name\":\"Bus\",\"route_color\":\"2CA02C\",\"route_text_color\":\"FFFFFF\"}]"},"geometry":{"type":"Point","coordinates":[-118.08196,34.04332]}},{"type":"Feature","properties":{"stop_id":"147024","stop_code":"","stop_name":"WALNUT GROVE AVE & LA MADRINA SB","stop_desc":"","stop_url":"","location_type":"","stop_timezone":"","wheelchair_boarding":"0","platform_code":"","parent_station":"","feed_id":"California__Rosemead_Explorer__mdb_mdb-3098","agency_name":"City of Rosemead","route_count":1,"route_ids":"5154","route_short_names":"","route_types":"3","route_type_names":"Bus","routes_json":"[{\"route_id\":\"5154\",\"route_short_name\":\"\",\"route_long_name\":\"EXPLORER 2\",\"route_type\":\"3\",\"route_type_name\":\"Bus\",\"route_color\":\"1F77B4\",\"route_text_color\":\"FFFFFF\"}]"},"geometry":{"type":"Point","coordinates":[-118.08195,34.04328]}},{"type":"Feature","properties":{"stop_id":"147025","stop_code":"","stop_name":"WALNUT GROVE AVE & LANDIS VIEW LANE NB","stop_desc":"","stop_url":"","location_type":"","stop_timezone":"","wheelchair_boarding":"0","platform_code":"","parent_station":"","feed_id":"California__Rosemead_Explorer__mdb_mdb-3098","agency_name":"City of Rosemead","route_count":1,"route_ids":"5153","route_short_names":"","route_types":"3","route_type_names":"Bus","routes_json":"[{\"route_id\":\"5153\",\"route_short_name\":\"\",\"route_long_name\":\"EXPLORER 1\",\"route_type\":\"3\",\"route_type_name\":\"Bus\",\"route_color\":\"2CA02C\",\"route_text_color\":\"FFFFFF\"}]"},"geometry":{"type":"Point","coordinates":[-118.08175,34.04156]}},{"type":"Feature","properties":{"stop_id":"147026","stop_code":"","stop_name":"WALNUT GROVE AVE & LANDIS VIEW LN NB","stop_desc":"","stop_url":"","location_type":"","stop_timezone":"","wheelchair_boarding":"0","platform_code":"","parent_station":"","feed_id":"California__Rosemead_Explorer__mdb_mdb-3098","agency_name":"City of Rosemead","route_count":1,"route_ids":"5154","route_short_names":"","route_types":"3","route_type_names":"Bus","routes_json":"[{\"route_id\":\"5154\",\"route_short_name\":\"\",\"route_long_name\":\"EXPLORER 2\",\"route_type\":\"3\",\"route_type_name\":\"Bus\",\"route_color\":\"1F77B4\",\"route_text_color\":\"FFFFFF\"}]"},"geometry":{"type":"Point","coordinates":[-118.08176,34.04166]}},{"type":"Feature","properties":{"stop_id":"147027","stop_code":"","stop_name":"WALNUT GROVE AVE & RAMONA BLVD NB","stop_desc":"","stop_url":"","location_type":"","stop_timezone":"","wheelchair_boarding":"0","platform_code":"","parent_station":"","feed_id":"California__Rosemead_Explorer__mdb_mdb-3098","agency_name":"City of Rosemead","route_count":1,"route_ids":"5153","route_short_names":"","route_types":"3","route_type_names":"Bus","routes_json":"[{\"route_id\":\"5153\",\"route_short_name\":\"\",\"route_long_name\":\"EXPLORER 1\",\"route_type\":\"3\",\"route_type_name\":\"Bus\",\"route_color\":\"2CA02C\",\"route_text_color\":\"FFFFFF\"}]"},"geometry":{"type":"Point","coordinates":[-118.08201,34.06951]}},{"type":"Feature","properties":{"stop_id":"147028","stop_code":"","stop_name":"WALNUT GROVE AVE & RUSH ST NB","stop_desc":"","stop_url":"","location_type":"","stop_timezone":"","wheelchair_boarding":"0","platform_code":"","parent_station":"","feed_id":"California__Rosemead_Explorer__mdb_mdb-3098","agency_name":"City of Rosemead","route_count":1,"route_ids":"5154","route_short_names":"","route_types":"3","route_type_names":"Bus","routes_json":"[{\"route_id\":\"5154\",\"route_short_name\":\"\",\"route_long_name\":\"EXPLORER 2\",\"route_type\":\"3\",\"route_type_name\":\"Bus\",\"route_color\":\"1F77B4\",\"route_text_color\":\"FFFFFF\"}]"},"geometry":{"type":"Point","coordinates":[-118.08176,34.05228]}},{"type":"Feature","properties":{"stop_id":"147029","stop_code":"","stop_name":"WALNUT GROVE AVE & VALLEY BLVD WB","stop_desc":"","stop_url":"","location_type":"","stop_timezone":"","wheelchair_boarding":"0","platform_code":"","parent_station":"","feed_id":"California__Rosemead_Explorer__mdb_mdb-3098","agency_name":"City of Rosemead","route_count":1,"route_ids":"5154","route_short_names":"","route_types":"3","route_type_names":"Bus","routes_json":"[{\"route_id\":\"5154\",\"route_short_name\":\"\",\"route_long_name\":\"EXPLORER 2\",\"route_type\":\"3\",\"route_type_name\":\"Bus\",\"route_color\":\"1F77B4\",\"route_text_color\":\"FFFFFF\"}]"},"geometry":{"type":"Point","coordinates":[-118.08215,34.08016]}},{"type":"Feature","properties":{"stop_id":"147033","stop_code":"","stop_name":"WALNUT GROVE AVE SB","stop_desc":"","stop_url":"","location_type":"","stop_timezone":"","wheelchair_boarding":"0","platform_code":"","parent_station":"","feed_id":"California__Rosemead_Explorer__mdb_mdb-3098","agency_name":"City of Rosemead","route_count":1,"route_ids":"5153","route_short_names":"","route_types":"3","route_type_names":"Bus","routes_json":"[{\"route_id\":\"5153\",\"route_short_name\":\"\",\"route_long_name\":\"EXPLORER 1\",\"route_type\":\"3\",\"route_type_name\":\"Bus\",\"route_color\":\"2CA02C\",\"route_text_color\":\"FFFFFF\"}]"},"geometry":{"type":"Point","coordinates":[-118.08189,34.0485]}}]}