{"type":"FeatureCollection","features":[{"type":"Feature","properties":{"stop_id":"20467","stop_code":"","stop_name":"Downtown Transit Center","stop_desc":"","zone_id":"","stop_url":"","location_type":"0","parent_station":"","stop_timezone":"America/Los_Angeles","wheelchair_boarding":"0","platform_code":"","tts_stop_name":"","feed_id":"Oregon__Woodburn_Transit_Service_(WTS)__mdb_mdb-251","agency_name":"Woodburn Transit","route_count":2,"route_ids":"15203|717","route_short_names":"","route_types":"3","route_type_names":"Bus","routes_json":"[{\"route_id\":\"15203\",\"route_short_name\":\"\",\"route_long_name\":\"Express Loop\",\"route_type\":\"3\",\"route_type_name\":\"Bus\",\"route_color\":\"9CBB2F\",\"route_text_color\":\"000000\"},{\"route_id\":\"717\",\"route_short_name\":\"\",\"route_long_name\":\"Woodburn City Loop\",\"route_type\":\"3\",\"route_type_name\":\"Bus\",\"route_color\":\"3B5273\",\"route_text_color\":\"FFFFFF\"}]"},"geometry":{"type":"Point","coordinates":[-122.8578668627934,45.142272846122296]}},{"type":"Feature","properties":{"stop_id":"20415","stop_code":"","stop_name":"S Front St at Woodburn Aquatic Center","stop_desc":"","zone_id":"","stop_url":"","location_type":"0","parent_station":"","stop_timezone":"America/Los_Angeles","wheelchair_boarding":"0","platform_code":"","tts_stop_name":"","feed_id":"Oregon__Woodburn_Transit_Service_(WTS)__mdb_mdb-251","agency_name":"Woodburn Transit","route_count":1,"route_ids":"717","route_short_names":"","route_types":"3","route_type_names":"Bus","routes_json":"[{\"route_id\":\"717\",\"route_short_name\":\"\",\"route_long_name\":\"Woodburn City Loop\",\"route_type\":\"3\",\"route_type_name\":\"Bus\",\"route_color\":\"3B5273\",\"route_text_color\":\"FFFFFF\"}]"},"geometry":{"type":"Point","coordinates":[-122.85967475686334,45.13998637173802]}},{"type":"Feature","properties":{"stop_id":"20416","stop_code":"","stop_name":"S Front St & Tout St","stop_desc":"","zone_id":"","stop_url":"","location_type":"0","parent_station":"","stop_timezone":"America/Los_Angeles","wheelchair_boarding":"0","platform_code":"","tts_stop_name":"","feed_id":"Oregon__Woodburn_Transit_Service_(WTS)__mdb_mdb-251","agency_name":"Woodburn Transit","route_count":1,"route_ids":"717","route_short_names":"","route_types":"3","route_type_names":"Bus","routes_json":"[{\"route_id\":\"717\",\"route_short_name\":\"\",\"route_long_name\":\"Woodburn City Loop\",\"route_type\":\"3\",\"route_type_name\":\"Bus\",\"route_color\":\"3B5273\",\"route_text_color\":\"FFFFFF\"}]"},"geometry":{"type":"Point","coordinates":[-122.862195895975,45.13793813390311]}},{"type":"Feature","properties":{"stop_id":"20417","stop_code":"","stop_name":"S Front St & S Settlemier Ave","stop_desc":"","zone_id":"","stop_url":"","location_type":"0","parent_station":"","stop_timezone":"America/Los_Angeles","wheelchair_boarding":"0","platform_code":"","tts_stop_name":"","feed_id":"Oregon__Woodburn_Transit_Service_(WTS)__mdb_mdb-251","agency_name":"Woodburn Transit","route_count":1,"route_ids":"717","route_short_names":"","route_types":"3","route_type_names":"Bus","routes_json":"[{\"route_id\":\"717\",\"route_short_name\":\"\",\"route_long_name\":\"Woodburn City Loop\",\"route_type\":\"3\",\"route_type_name\":\"Bus\",\"route_color\":\"3B5273\",\"route_text_color\":\"FFFFFF\"}]"},"geometry":{"type":"Point","coordinates":[-122.864150039,45.136321772]}},{"type":"Feature","properties":{"stop_id":"20418","stop_code":"","stop_name":"S Settlemier Ave & Oak St","stop_desc":"","zone_id":"","stop_url":"","location_type":"0","parent_station":"","stop_timezone":"America/Los_Angeles","wheelchair_boarding":"0","platform_code":"","tts_stop_name":"","feed_id":"Oregon__Woodburn_Transit_Service_(WTS)__mdb_mdb-251","agency_name":"Woodburn Transit","route_count":1,"route_ids":"717","route_short_names":"","route_types":"3","route_type_names":"Bus","routes_json":"[{\"route_id\":\"717\",\"route_short_name\":\"\",\"route_long_name\":\"Woodburn City Loop\",\"route_type\":\"3\",\"route_type_name\":\"Bus\",\"route_color\":\"3B5273\",\"route_text_color\":\"FFFFFF\"}]"},"geometry":{"type":"Point","coordinates":[-122.8622230471623,45.14212404151581]}},{"type":"Feature","properties":{"stop_id":"20419","stop_code":"","stop_name":"Alvah G. Cowan Park (N Settlemier Ave & Garfield St)","stop_desc":"","zone_id":"","stop_url":"","location_type":"0","parent_station":"","stop_timezone":"America/Los_Angeles","wheelchair_boarding":"0","platform_code":"","tts_stop_name":"","feed_id":"Oregon__Woodburn_Transit_Service_(WTS)__mdb_mdb-251","agency_name":"Woodburn Transit","route_count":1,"route_ids":"717","route_short_names":"","route_types":"3","route_type_names":"Bus","routes_json":"[{\"route_id\":\"717\",\"route_short_name\":\"\",\"route_long_name\":\"Woodburn City Loop\",\"route_type\":\"3\",\"route_type_name\":\"Bus\",\"route_color\":\"3B5273\",\"route_text_color\":\"FFFFFF\"}]"},"geometry":{"type":"Point","coordinates":[-122.86113519642036,45.14465052152991]}},{"type":"Feature","properties":{"stop_id":"20420","stop_code":"","stop_name":"N Settlemier Ave & W Lincoln St","stop_desc":"","zone_id":"","stop_url":"","location_type":"0","parent_station":"","stop_timezone":"America/Los_Angeles","wheelchair_boarding":"0","platform_code":"","tts_stop_name":"","feed_id":"Oregon__Woodburn_Transit_Service_(WTS)__mdb_mdb-251","agency_name":"Woodburn Transit","route_count":1,"route_ids":"717","route_short_names":"","route_types":"3","route_type_names":"Bus","routes_json":"[{\"route_id\":\"717\",\"route_short_name\":\"\",\"route_long_name\":\"Woodburn City Loop\",\"route_type\":\"3\",\"route_type_name\":\"Bus\",\"route_color\":\"3B5273\",\"route_text_color\":\"FFFFFF\"}]"},"geometry":{"type":"Point","coordinates":[-122.860330045,45.146961585]}},{"type":"Feature","properties":{"stop_id":"20470","stop_code":"","stop_name":"N Settlemier Ave & Harrison St","stop_desc":"","zone_id":"","stop_url":"","location_type":"0","parent_station":"","stop_timezone":"America/Los_Angeles","wheelchair_boarding":"0","platform_code":"","tts_stop_name":"","feed_id":"Oregon__Woodburn_Transit_Service_(WTS)__mdb_mdb-251","agency_name":"Woodburn Transit","route_count":1,"route_ids":"717","route_short_names":"","route_types":"3","route_type_names":"Bus","routes_json":"[{\"route_id\":\"717\",\"route_short_name\":\"\",\"route_long_name\":\"Woodburn City Loop\",\"route_type\":\"3\",\"route_type_name\":\"Bus\",\"route_color\":\"3B5273\",\"route_text_color\":\"FFFFFF\"}]"},"geometry":{"type":"Point","coordinates":[-122.85992807827542,45.14826975496536]}},{"type":"Feature","properties":{"stop_id":"20421","stop_code":"","stop_name":"N Boones Ferry Rd at Boones Family Dental","stop_desc":"","zone_id":"","stop_url":"","location_type":"0","parent_station":"","stop_timezone":"America/Los_Angeles","wheelchair_boarding":"0","platform_code":"","tts_stop_name":"","feed_id":"Oregon__Woodburn_Transit_Service_(WTS)__mdb_mdb-251","agency_name":"Woodburn Transit","route_count":1,"route_ids":"717","route_short_names":"","route_types":"3","route_type_names":"Bus","routes_json":"[{\"route_id\":\"717\",\"route_short_name\":\"\",\"route_long_name\":\"Woodburn City Loop\",\"route_type\":\"3\",\"route_type_name\":\"Bus\",\"route_color\":\"3B5273\",\"route_text_color\":\"FFFFFF\"}]"},"geometry":{"type":"Point","coordinates":[-122.85896045686611,45.15099569894741]}},{"type":"Feature","properties":{"stop_id":"783757","stop_code":"","stop_name":"N Boones Ferry Rd & Country Club Rd","stop_desc":"","zone_id":"","stop_url":"","location_type":"0","parent_station":"","stop_timezone":"America/Los_Angeles","wheelchair_boarding":"0","platform_code":"","tts_stop_name":"","feed_id":"Oregon__Woodburn_Transit_Service_(WTS)__mdb_mdb-251","agency_name":"Woodburn Transit","route_count":1,"route_ids":"717","route_short_names":"","route_types":"3","route_type_names":"Bus","routes_json":"[{\"route_id\":\"717\",\"route_short_name\":\"\",\"route_long_name\":\"Woodburn City Loop\",\"route_type\":\"3\",\"route_type_name\":\"Bus\",\"route_color\":\"3B5273\",\"route_text_color\":\"FFFFFF\"}]"},"geometry":{"type":"Point","coordinates":[-122.85769568300536,45.1547507602713]}},{"type":"Feature","properties":{"stop_id":"20422","stop_code":"","stop_name":"Country Club Rd across from LDS Church","stop_desc":"","zone_id":"","stop_url":"","location_type":"0","parent_station":"","stop_timezone":"America/Los_Angeles","wheelchair_boarding":"0","platform_code":"","tts_stop_name":"","feed_id":"Oregon__Woodburn_Transit_Service_(WTS)__mdb_mdb-251","agency_name":"Woodburn Transit","route_count":1,"route_ids":"717","route_short_names":"","route_types":"3","route_type_names":"Bus","routes_json":"[{\"route_id\":\"717\",\"route_short_name\":\"\",\"route_long_name\":\"Woodburn City Loop\",\"route_type\":\"3\",\"route_type_name\":\"Bus\",\"route_color\":\"3B5273\",\"route_text_color\":\"FFFFFF\"}]"},"geometry":{"type":"Point","coordinates":[-122.859726,45.155537]}},{"type":"Feature","properties":{"stop_id":"20423","stop_code":"","stop_name":"Country Club Rd & Astor Way","stop_desc":"","zone_id":"","stop_url":"","location_type":"0","parent_station":"","stop_timezone":"America/Los_Angeles","wheelchair_boarding":"0","platform_code":"","tts_stop_name":"","feed_id":"Oregon__Woodburn_Transit_Service_(WTS)__mdb_mdb-251","agency_name":"Woodburn Transit","route_count":1,"route_ids":"717","route_short_names":"","route_types":"3","route_type_names":"Bus","routes_json":"[{\"route_id\":\"717\",\"route_short_name\":\"\",\"route_long_name\":\"Woodburn City Loop\",\"route_type\":\"3\",\"route_type_name\":\"Bus\",\"route_color\":\"3B5273\",\"route_text_color\":\"FFFFFF\"}]"},"geometry":{"type":"Point","coordinates":[-122.86319921143485,45.15561275828648]}},{"type":"Feature","properties":{"stop_id":"20424","stop_code":"","stop_name":"Country Club Rd & Umpqua Rd","stop_desc":"","zone_id":"","stop_url":"","location_type":"0","parent_station":"","stop_timezone":"America/Los_Angeles","wheelchair_boarding":"0","platform_code":"","tts_stop_name":"","feed_id":"Oregon__Woodburn_Transit_Service_(WTS)__mdb_mdb-251","agency_name":"Woodburn Transit","route_count":1,"route_ids":"717","route_short_names":"","route_types":"3","route_type_names":"Bus","routes_json":"[{\"route_id\":\"717\",\"route_short_name\":\"\",\"route_long_name\":\"Woodburn City Loop\",\"route_type\":\"3\",\"route_type_name\":\"Bus\",\"route_color\":\"3B5273\",\"route_text_color\":\"FFFFFF\"}]"},"geometry":{"type":"Point","coordinates":[-122.866058,45.155678]}},{"type":"Feature","properties":{"stop_id":"20425","stop_code":"","stop_name":"Country Club Rd & Princeton Rd","stop_desc":"","zone_id":"","stop_url":"","location_type":"0","parent_station":"","stop_timezone":"America/Los_Angeles","wheelchair_boarding":"0","platform_code":"","tts_stop_name":"","feed_id":"Oregon__Woodburn_Transit_Service_(WTS)__mdb_mdb-251","agency_name":"Woodburn Transit","route_count":1,"route_ids":"717","route_short_names":"","route_types":"3","route_type_names":"Bus","routes_json":"[{\"route_id\":\"717\",\"route_short_name\":\"\",\"route_long_name\":\"Woodburn City Loop\",\"route_type\":\"3\",\"route_type_name\":\"Bus\",\"route_color\":\"3B5273\",\"route_text_color\":\"FFFFFF\"}]"},"geometry":{"type":"Point","coordinates":[-122.869514,45.155731]}},{"type":"Feature","properties":{"stop_id":"20426","stop_code":"","stop_name":"Princeton Rd & Finzer Way","stop_desc":"","zone_id":"","stop_url":"","location_type":"0","parent_station":"","stop_timezone":"America/Los_Angeles","wheelchair_boarding":"0","platform_code":"","tts_stop_name":"","feed_id":"Oregon__Woodburn_Transit_Service_(WTS)__mdb_mdb-251","agency_name":"Woodburn Transit","route_count":1,"route_ids":"717","route_short_names":"","route_types":"3","route_type_names":"Bus","routes_json":"[{\"route_id\":\"717\",\"route_short_name\":\"\",\"route_long_name\":\"Woodburn City Loop\",\"route_type\":\"3\",\"route_type_name\":\"Bus\",\"route_color\":\"3B5273\",\"route_text_color\":\"FFFFFF\"}]"},"geometry":{"type":"Point","coordinates":[-122.86991722129954,45.15326161554722]}},{"type":"Feature","properties":{"stop_id":"20427","stop_code":"","stop_name":"Rainier Rd & Princeton Rd","stop_desc":"","zone_id":"","stop_url":"","location_type":"0","parent_station":"","stop_timezone":"America/Los_Angeles","wheelchair_boarding":"0","platform_code":"","tts_stop_name":"","feed_id":"Oregon__Woodburn_Transit_Service_(WTS)__mdb_mdb-251","agency_name":"Woodburn Transit","route_count":1,"route_ids":"717","route_short_names":"","route_types":"3","route_type_names":"Bus","routes_json":"[{\"route_id\":\"717\",\"route_short_name\":\"\",\"route_long_name\":\"Woodburn City Loop\",\"route_type\":\"3\",\"route_type_name\":\"Bus\",\"route_color\":\"3B5273\",\"route_text_color\":\"FFFFFF\"}]"},"geometry":{"type":"Point","coordinates":[-122.86985061183938,45.1514187397367]}},{"type":"Feature","properties":{"stop_id":"783756","stop_code":"","stop_name":"Woodburn Memorial Transit Center","stop_desc":"","zone_id":"","stop_url":"","location_type":"0","parent_station":"","stop_timezone":"America/Los_Angeles","wheelchair_boarding":"0","platform_code":"","tts_stop_name":"","feed_id":"Oregon__Woodburn_Transit_Service_(WTS)__mdb_mdb-251","agency_name":"Woodburn Transit","route_count":2,"route_ids":"15203|717","route_short_names":"","route_types":"3","route_type_names":"Bus","routes_json":"[{\"route_id\":\"15203\",\"route_short_name\":\"\",\"route_long_name\":\"Express Loop\",\"route_type\":\"3\",\"route_type_name\":\"Bus\",\"route_color\":\"9CBB2F\",\"route_text_color\":\"000000\"},{\"route_id\":\"717\",\"route_short_name\":\"\",\"route_long_name\":\"Woodburn City Loop\",\"route_type\":\"3\",\"route_type_name\":\"Bus\",\"route_color\":\"3B5273\",\"route_text_color\":\"FFFFFF\"}]"},"geometry":{"type":"Point","coordinates":[-122.8766941129228,45.15157658236663]}},{"type":"Feature","properties":{"stop_id":"20429","stop_code":"","stop_name":"Woodburn Premium Outlets","stop_desc":"","zone_id":"","stop_url":"","location_type":"0","parent_station":"","stop_timezone":"America/Los_Angeles","wheelchair_boarding":"0","platform_code":"","tts_stop_name":"","feed_id":"Oregon__Woodburn_Transit_Service_(WTS)__mdb_mdb-251","agency_name":"Woodburn Transit","route_count":1,"route_ids":"717","route_short_names":"","route_types":"3","route_type_names":"Bus","routes_json":"[{\"route_id\":\"717\",\"route_short_name\":\"\",\"route_long_name\":\"Woodburn City Loop\",\"route_type\":\"3\",\"route_type_name\":\"Bus\",\"route_color\":\"3B5273\",\"route_text_color\":\"FFFFFF\"}]"},"geometry":{"type":"Point","coordinates":[-122.878603616,45.155313807]}},{"type":"Feature","properties":{"stop_id":"20430","stop_code":"","stop_name":"N Arney Rd (Portland-Woodburn RV Park/Arby's)","stop_desc":"","zone_id":"","stop_url":"","location_type":"0","parent_station":"","stop_timezone":"America/Los_Angeles","wheelchair_boarding":"0","platform_code":"","tts_stop_name":"","feed_id":"Oregon__Woodburn_Transit_Service_(WTS)__mdb_mdb-251","agency_name":"Woodburn Transit","route_count":1,"route_ids":"717","route_short_names":"","route_types":"3","route_type_names":"Bus","routes_json":"[{\"route_id\":\"717\",\"route_short_name\":\"\",\"route_long_name\":\"Woodburn City Loop\",\"route_type\":\"3\",\"route_type_name\":\"Bus\",\"route_color\":\"3B5273\",\"route_text_color\":\"FFFFFF\"}]"},"geometry":{"type":"Point","coordinates":[-122.88223391193864,45.152452825172105]}},{"type":"Feature","properties":{"stop_id":"20431","stop_code":"","stop_name":"Myrtle St & Olive Ave","stop_desc":"","zone_id":"","stop_url":"","location_type":"0","parent_station":"","stop_timezone":"America/Los_Angeles","wheelchair_boarding":"0","platform_code":"","tts_stop_name":"","feed_id":"Oregon__Woodburn_Transit_Service_(WTS)__mdb_mdb-251","agency_name":"Woodburn Transit","route_count":1,"route_ids":"717","route_short_names":"","route_types":"3","route_type_names":"Bus","routes_json":"[{\"route_id\":\"717\",\"route_short_name\":\"\",\"route_long_name\":\"Woodburn City Loop\",\"route_type\":\"3\",\"route_type_name\":\"Bus\",\"route_color\":\"3B5273\",\"route_text_color\":\"FFFFFF\"}]"},"geometry":{"type":"Point","coordinates":[-122.88918493762242,45.15154858153281]}},{"type":"Feature","properties":{"stop_id":"20432","stop_code":"","stop_name":"Willow Ave","stop_desc":"","zone_id":"","stop_url":"","location_type":"0","parent_station":"","stop_timezone":"America/Los_Angeles","wheelchair_boarding":"0","platform_code":"","tts_stop_name":"","feed_id":"Oregon__Woodburn_Transit_Service_(WTS)__mdb_mdb-251","agency_name":"Woodburn Transit","route_count":1,"route_ids":"717","route_short_names":"","route_types":"3","route_type_names":"Bus","routes_json":"[{\"route_id\":\"717\",\"route_short_name\":\"\",\"route_long_name\":\"Woodburn City Loop\",\"route_type\":\"3\",\"route_type_name\":\"Bus\",\"route_color\":\"3B5273\",\"route_text_color\":\"FFFFFF\"}]"},"geometry":{"type":"Point","coordinates":[-122.891946584,45.152720688]}},{"type":"Feature","properties":{"stop_id":"20433","stop_code":"","stop_name":"Willow Ave & Camas St","stop_desc":"","zone_id":"","stop_url":"","location_type":"0","parent_station":"","stop_timezone":"America/Los_Angeles","wheelchair_boarding":"0","platform_code":"","tts_stop_name":"","feed_id":"Oregon__Woodburn_Transit_Service_(WTS)__mdb_mdb-251","agency_name":"Woodburn Transit","route_count":1,"route_ids":"717","route_short_names":"","route_types":"3","route_type_names":"Bus","routes_json":"[{\"route_id\":\"717\",\"route_short_name\":\"\",\"route_long_name\":\"Woodburn City Loop\",\"route_type\":\"3\",\"route_type_name\":\"Bus\",\"route_color\":\"3B5273\",\"route_text_color\":\"FFFFFF\"}]"},"geometry":{"type":"Point","coordinates":[-122.88958028152948,45.15533137652909]}},{"type":"Feature","properties":{"stop_id":"20434","stop_code":"","stop_name":"Linda St at Seventh-day Adventist Church","stop_desc":"","zone_id":"","stop_url":"","location_type":"0","parent_station":"","stop_timezone":"America/Los_Angeles","wheelchair_boarding":"0","platform_code":"","tts_stop_name":"","feed_id":"Oregon__Woodburn_Transit_Service_(WTS)__mdb_mdb-251","agency_name":"Woodburn Transit","route_count":1,"route_ids":"717","route_short_names":"","route_types":"3","route_type_names":"Bus","routes_json":"[{\"route_id\":\"717\",\"route_short_name\":\"\",\"route_long_name\":\"Woodburn City Loop\",\"route_type\":\"3\",\"route_type_name\":\"Bus\",\"route_color\":\"3B5273\",\"route_text_color\":\"FFFFFF\"}]"},"geometry":{"type":"Point","coordinates":[-122.888158929,45.156521039]}},{"type":"Feature","properties":{"stop_id":"755020","stop_code":"","stop_name":"Linda St at Burlingham Park","stop_desc":"","zone_id":"","stop_url":"","location_type":"0","parent_station":"","stop_timezone":"America/Los_Angeles","wheelchair_boarding":"0","platform_code":"","tts_stop_name":"","feed_id":"Oregon__Woodburn_Transit_Service_(WTS)__mdb_mdb-251","agency_name":"Woodburn Transit","route_count":1,"route_ids":"717","route_short_names":"","route_types":"3","route_type_names":"Bus","routes_json":"[{\"route_id\":\"717\",\"route_short_name\":\"\",\"route_long_name\":\"Woodburn City Loop\",\"route_type\":\"3\",\"route_type_name\":\"Bus\",\"route_color\":\"3B5273\",\"route_text_color\":\"FFFFFF\"}]"},"geometry":{"type":"Point","coordinates":[-122.886250913,45.156097943]}},{"type":"Feature","properties":{"stop_id":"772474","stop_code":"","stop_name":"Woodland Ave & McNaught St","stop_desc":"","zone_id":"","stop_url":"","location_type":"0","parent_station":"","stop_timezone":"America/Los_Angeles","wheelchair_boarding":"0","platform_code":"","tts_stop_name":"","feed_id":"Oregon__Woodburn_Transit_Service_(WTS)__mdb_mdb-251","agency_name":"Woodburn Transit","route_count":1,"route_ids":"717","route_short_names":"","route_types":"3","route_type_names":"Bus","routes_json":"[{\"route_id\":\"717\",\"route_short_name\":\"\",\"route_long_name\":\"Woodburn City Loop\",\"route_type\":\"3\",\"route_type_name\":\"Bus\",\"route_color\":\"3B5273\",\"route_text_color\":\"FFFFFF\"}]"},"geometry":{"type":"Point","coordinates":[-122.886178372,45.153793457]}},{"type":"Feature","properties":{"stop_id":"20436","stop_code":"","stop_name":"Lawson Ave at Burger King","stop_desc":"","zone_id":"","stop_url":"","location_type":"0","parent_station":"","stop_timezone":"America/Los_Angeles","wheelchair_boarding":"0","platform_code":"","tts_stop_name":"","feed_id":"Oregon__Woodburn_Transit_Service_(WTS)__mdb_mdb-251","agency_name":"Woodburn Transit","route_count":1,"route_ids":"717","route_short_names":"","route_types":"3","route_type_names":"Bus","routes_json":"[{\"route_id\":\"717\",\"route_short_name\":\"\",\"route_long_name\":\"Woodburn City Loop\",\"route_type\":\"3\",\"route_type_name\":\"Bus\",\"route_color\":\"3B5273\",\"route_text_color\":\"FFFFFF\"}]"},"geometry":{"type":"Point","coordinates":[-122.877617,45.149532]}},{"type":"Feature","properties":{"stop_id":"755016","stop_code":"","stop_name":"Walmart (Harvard Dr & Stacy Allison Way)","stop_desc":"","zone_id":"","stop_url":"","location_type":"0","parent_station":"","stop_timezone":"America/Los_Angeles","wheelchair_boarding":"0","platform_code":"","tts_stop_name":"","feed_id":"Oregon__Woodburn_Transit_Service_(WTS)__mdb_mdb-251","agency_name":"Woodburn Transit","route_count":2,"route_ids":"15203|717","route_short_names":"","route_types":"3","route_type_names":"Bus","routes_json":"[{\"route_id\":\"15203\",\"route_short_name\":\"\",\"route_long_name\":\"Express Loop\",\"route_type\":\"3\",\"route_type_name\":\"Bus\",\"route_color\":\"9CBB2F\",\"route_text_color\":\"000000\"},{\"route_id\":\"717\",\"route_short_name\":\"\",\"route_long_name\":\"Woodburn City Loop\",\"route_type\":\"3\",\"route_type_name\":\"Bus\",\"route_color\":\"3B5273\",\"route_text_color\":\"FFFFFF\"}]"},"geometry":{"type":"Point","coordinates":[-122.87881069536182,45.14870660816644]}},{"type":"Feature","properties":{"stop_id":"4249462","stop_code":"","stop_name":"W Hayes St & S Columbia Dr","stop_desc":"","zone_id":"","stop_url":"","location_type":"0","parent_station":"","stop_timezone":"America/Los_Angeles","wheelchair_boarding":"0","platform_code":"","tts_stop_name":"","feed_id":"Oregon__Woodburn_Transit_Service_(WTS)__mdb_mdb-251","agency_name":"Woodburn Transit","route_count":1,"route_ids":"717","route_short_names":"","route_types":"3","route_type_names":"Bus","routes_json":"[{\"route_id\":\"717\",\"route_short_name\":\"\",\"route_long_name\":\"Woodburn City Loop\",\"route_type\":\"3\",\"route_type_name\":\"Bus\",\"route_color\":\"3B5273\",\"route_text_color\":\"FFFFFF\"}]"},"geometry":{"type":"Point","coordinates":[-122.87473506337469,45.14725655873849]}},{"type":"Feature","properties":{"stop_id":"20441","stop_code":"","stop_name":"Oregon Way at Hwy 214","stop_desc":"","zone_id":"","stop_url":"","location_type":"0","parent_station":"","stop_timezone":"America/Los_Angeles","wheelchair_boarding":"0","platform_code":"","tts_stop_name":"","feed_id":"Oregon__Woodburn_Transit_Service_(WTS)__mdb_mdb-251","agency_name":"Woodburn Transit","route_count":1,"route_ids":"717","route_short_names":"","route_types":"3","route_type_names":"Bus","routes_json":"[{\"route_id\":\"717\",\"route_short_name\":\"\",\"route_long_name\":\"Woodburn City Loop\",\"route_type\":\"3\",\"route_type_name\":\"Bus\",\"route_color\":\"3B5273\",\"route_text_color\":\"FFFFFF\"}]"},"geometry":{"type":"Point","coordinates":[-122.873193919659,45.1506200871912]}},{"type":"Feature","properties":{"stop_id":"20442","stop_code":"","stop_name":"Hwy 214 at N Cascade Dr","stop_desc":"","zone_id":"","stop_url":"","location_type":"0","parent_station":"","stop_timezone":"America/Los_Angeles","wheelchair_boarding":"0","platform_code":"","tts_stop_name":"","feed_id":"Oregon__Woodburn_Transit_Service_(WTS)__mdb_mdb-251","agency_name":"Woodburn Transit","route_count":1,"route_ids":"717","route_short_names":"","route_types":"3","route_type_names":"Bus","routes_json":"[{\"route_id\":\"717\",\"route_short_name\":\"\",\"route_long_name\":\"Woodburn City Loop\",\"route_type\":\"3\",\"route_type_name\":\"Bus\",\"route_color\":\"3B5273\",\"route_text_color\":\"FFFFFF\"}]"},"geometry":{"type":"Point","coordinates":[-122.87099521145456,45.15079886254466]}},{"type":"Feature","properties":{"stop_id":"20443","stop_code":"","stop_name":"Hwy 214 at Twin Oaks Apartments/Fire Station","stop_desc":"","zone_id":"","stop_url":"","location_type":"0","parent_station":"","stop_timezone":"America/Los_Angeles","wheelchair_boarding":"0","platform_code":"","tts_stop_name":"","feed_id":"Oregon__Woodburn_Transit_Service_(WTS)__mdb_mdb-251","agency_name":"Woodburn Transit","route_count":1,"route_ids":"717","route_short_names":"","route_types":"3","route_type_names":"Bus","routes_json":"[{\"route_id\":\"717\",\"route_short_name\":\"\",\"route_long_name\":\"Woodburn City Loop\",\"route_type\":\"3\",\"route_type_name\":\"Bus\",\"route_color\":\"3B5273\",\"route_text_color\":\"FFFFFF\"}]"},"geometry":{"type":"Point","coordinates":[-122.86566310064188,45.149565527966814]}},{"type":"Feature","properties":{"stop_id":"20444","stop_code":"","stop_name":"Hwy 214 at Leasure St","stop_desc":"","zone_id":"","stop_url":"","location_type":"0","parent_station":"","stop_timezone":"America/Los_Angeles","wheelchair_boarding":"0","platform_code":"","tts_stop_name":"","feed_id":"Oregon__Woodburn_Transit_Service_(WTS)__mdb_mdb-251","agency_name":"Woodburn Transit","route_count":1,"route_ids":"717","route_short_names":"","route_types":"3","route_type_names":"Bus","routes_json":"[{\"route_id\":\"717\",\"route_short_name\":\"\",\"route_long_name\":\"Woodburn City Loop\",\"route_type\":\"3\",\"route_type_name\":\"Bus\",\"route_color\":\"3B5273\",\"route_text_color\":\"FFFFFF\"}]"},"geometry":{"type":"Point","coordinates":[-122.86221729263818,45.14953455898001]}},{"type":"Feature","properties":{"stop_id":"20445","stop_code":"","stop_name":"Hwy 214 & 5th St (Eastbound)","stop_desc":"","zone_id":"","stop_url":"","location_type":"0","parent_station":"","stop_timezone":"America/Los_Angeles","wheelchair_boarding":"0","platform_code":"","tts_stop_name":"","feed_id":"Oregon__Woodburn_Transit_Service_(WTS)__mdb_mdb-251","agency_name":"Woodburn Transit","route_count":1,"route_ids":"717","route_short_names":"","route_types":"3","route_type_names":"Bus","routes_json":"[{\"route_id\":\"717\",\"route_short_name\":\"\",\"route_long_name\":\"Woodburn City Loop\",\"route_type\":\"3\",\"route_type_name\":\"Bus\",\"route_color\":\"3B5273\",\"route_text_color\":\"FFFFFF\"}]"},"geometry":{"type":"Point","coordinates":[-122.8537202025945,45.15050582648976]}},{"type":"Feature","properties":{"stop_id":"20446","stop_code":"","stop_name":"Hwy 214 at Police Department","stop_desc":"","zone_id":"","stop_url":"","location_type":"0","parent_station":"","stop_timezone":"America/Los_Angeles","wheelchair_boarding":"0","platform_code":"","tts_stop_name":"","feed_id":"Oregon__Woodburn_Transit_Service_(WTS)__mdb_mdb-251","agency_name":"Woodburn Transit","route_count":1,"route_ids":"717","route_short_names":"","route_types":"3","route_type_names":"Bus","routes_json":"[{\"route_id\":\"717\",\"route_short_name\":\"\",\"route_long_name\":\"Woodburn City Loop\",\"route_type\":\"3\",\"route_type_name\":\"Bus\",\"route_color\":\"3B5273\",\"route_text_color\":\"FFFFFF\"}]"},"geometry":{"type":"Point","coordinates":[-122.843786180019,45.1516112852517]}},{"type":"Feature","properties":{"stop_id":"20447","stop_code":"","stop_name":"Hwy 214 & Park Ave","stop_desc":"","zone_id":"","stop_url":"","location_type":"0","parent_station":"","stop_timezone":"America/Los_Angeles","wheelchair_boarding":"0","platform_code":"","tts_stop_name":"","feed_id":"Oregon__Woodburn_Transit_Service_(WTS)__mdb_mdb-251","agency_name":"Woodburn Transit","route_count":1,"route_ids":"717","route_short_names":"","route_types":"3","route_type_names":"Bus","routes_json":"[{\"route_id\":\"717\",\"route_short_name\":\"\",\"route_long_name\":\"Woodburn City Loop\",\"route_type\":\"3\",\"route_type_name\":\"Bus\",\"route_color\":\"3B5273\",\"route_text_color\":\"FFFFFF\"}]"},"geometry":{"type":"Point","coordinates":[-122.8401976284408,45.15140810668379]}},{"type":"Feature","properties":{"stop_id":"20448","stop_code":"","stop_name":"Bi-Mart/Mega Foods","stop_desc":"","zone_id":"","stop_url":"","location_type":"0","parent_station":"","stop_timezone":"America/Los_Angeles","wheelchair_boarding":"0","platform_code":"","tts_stop_name":"","feed_id":"Oregon__Woodburn_Transit_Service_(WTS)__mdb_mdb-251","agency_name":"Woodburn Transit","route_count":2,"route_ids":"15203|717","route_short_names":"","route_types":"3","route_type_names":"Bus","routes_json":"[{\"route_id\":\"15203\",\"route_short_name\":\"\",\"route_long_name\":\"Express Loop\",\"route_type\":\"3\",\"route_type_name\":\"Bus\",\"route_color\":\"9CBB2F\",\"route_text_color\":\"000000\"},{\"route_id\":\"717\",\"route_short_name\":\"\",\"route_long_name\":\"Woodburn City Loop\",\"route_type\":\"3\",\"route_type_name\":\"Bus\",\"route_color\":\"3B5273\",\"route_text_color\":\"FFFFFF\"}]"},"geometry":{"type":"Point","coordinates":[-122.834999,45.151276]}},{"type":"Feature","properties":{"stop_id":"20449","stop_code":"","stop_name":"Hwy 214/99E & James St","stop_desc":"","zone_id":"","stop_url":"","location_type":"0","parent_station":"","stop_timezone":"America/Los_Angeles","wheelchair_boarding":"0","platform_code":"","tts_stop_name":"","feed_id":"Oregon__Woodburn_Transit_Service_(WTS)__mdb_mdb-251","agency_name":"Woodburn Transit","route_count":1,"route_ids":"717","route_short_names":"","route_types":"3","route_type_names":"Bus","routes_json":"[{\"route_id\":\"717\",\"route_short_name\":\"\",\"route_long_name\":\"Woodburn City Loop\",\"route_type\":\"3\",\"route_type_name\":\"Bus\",\"route_color\":\"3B5273\",\"route_text_color\":\"FFFFFF\"}]"},"geometry":{"type":"Point","coordinates":[-122.835144,45.147034]}},{"type":"Feature","properties":{"stop_id":"20451","stop_code":"","stop_name":"E Lincoln St & Park Ave","stop_desc":"","zone_id":"","stop_url":"","location_type":"0","parent_station":"","stop_timezone":"America/Los_Angeles","wheelchair_boarding":"0","platform_code":"","tts_stop_name":"","feed_id":"Oregon__Woodburn_Transit_Service_(WTS)__mdb_mdb-251","agency_name":"Woodburn Transit","route_count":1,"route_ids":"717","route_short_names":"","route_types":"3","route_type_names":"Bus","routes_json":"[{\"route_id\":\"717\",\"route_short_name\":\"\",\"route_long_name\":\"Woodburn City Loop\",\"route_type\":\"3\",\"route_type_name\":\"Bus\",\"route_color\":\"3B5273\",\"route_text_color\":\"FFFFFF\"}]"},"geometry":{"type":"Point","coordinates":[-122.842691839,45.14327447]}},{"type":"Feature","properties":{"stop_id":"20452","stop_code":"","stop_name":"E Lincoln St at Washington Elementary School","stop_desc":"","zone_id":"","stop_url":"","location_type":"0","parent_station":"","stop_timezone":"America/Los_Angeles","wheelchair_boarding":"0","platform_code":"","tts_stop_name":"","feed_id":"Oregon__Woodburn_Transit_Service_(WTS)__mdb_mdb-251","agency_name":"Woodburn Transit","route_count":1,"route_ids":"717","route_short_names":"","route_types":"3","route_type_names":"Bus","routes_json":"[{\"route_id\":\"717\",\"route_short_name\":\"\",\"route_long_name\":\"Woodburn City Loop\",\"route_type\":\"3\",\"route_type_name\":\"Bus\",\"route_color\":\"3B5273\",\"route_text_color\":\"FFFFFF\"}]"},"geometry":{"type":"Point","coordinates":[-122.8475526219975,45.14304030435258]}},{"type":"Feature","properties":{"stop_id":"20453","stop_code":"","stop_name":"E Lincoln St at Chemeketa Community College/DHS","stop_desc":"","zone_id":"","stop_url":"","location_type":"0","parent_station":"","stop_timezone":"America/Los_Angeles","wheelchair_boarding":"0","platform_code":"","tts_stop_name":"","feed_id":"Oregon__Woodburn_Transit_Service_(WTS)__mdb_mdb-251","agency_name":"Woodburn Transit","route_count":1,"route_ids":"717","route_short_names":"","route_types":"3","route_type_names":"Bus","routes_json":"[{\"route_id\":\"717\",\"route_short_name\":\"\",\"route_long_name\":\"Woodburn City Loop\",\"route_type\":\"3\",\"route_type_name\":\"Bus\",\"route_color\":\"3B5273\",\"route_text_color\":\"FFFFFF\"}]"},"geometry":{"type":"Point","coordinates":[-122.85318187533515,45.14335456867863]}},{"type":"Feature","properties":{"stop_id":"20454","stop_code":"","stop_name":"Young St at Iglesia Bautista Victoria","stop_desc":"","zone_id":"","stop_url":"","location_type":"0","parent_station":"","stop_timezone":"America/Los_Angeles","wheelchair_boarding":"0","platform_code":"","tts_stop_name":"","feed_id":"Oregon__Woodburn_Transit_Service_(WTS)__mdb_mdb-251","agency_name":"Woodburn Transit","route_count":1,"route_ids":"717","route_short_names":"","route_types":"3","route_type_names":"Bus","routes_json":"[{\"route_id\":\"717\",\"route_short_name\":\"\",\"route_long_name\":\"Woodburn City Loop\",\"route_type\":\"3\",\"route_type_name\":\"Bus\",\"route_color\":\"3B5273\",\"route_text_color\":\"FFFFFF\"}]"},"geometry":{"type":"Point","coordinates":[-122.85120990515873,45.13974108127079]}},{"type":"Feature","properties":{"stop_id":"20455","stop_code":"","stop_name":"Young St & Gatch St","stop_desc":"","zone_id":"","stop_url":"","location_type":"0","parent_station":"","stop_timezone":"America/Los_Angeles","wheelchair_boarding":"0","platform_code":"","tts_stop_name":"","feed_id":"Oregon__Woodburn_Transit_Service_(WTS)__mdb_mdb-251","agency_name":"Woodburn Transit","route_count":1,"route_ids":"717","route_short_names":"","route_types":"3","route_type_names":"Bus","routes_json":"[{\"route_id\":\"717\",\"route_short_name\":\"\",\"route_long_name\":\"Woodburn City Loop\",\"route_type\":\"3\",\"route_type_name\":\"Bus\",\"route_color\":\"3B5273\",\"route_text_color\":\"FFFFFF\"}]"},"geometry":{"type":"Point","coordinates":[-122.84845047766048,45.138760060917605]}},{"type":"Feature","properties":{"stop_id":"20456","stop_code":"","stop_name":"Young St & Bryan St","stop_desc":"","zone_id":"","stop_url":"","location_type":"0","parent_station":"","stop_timezone":"America/Los_Angeles","wheelchair_boarding":"0","platform_code":"","tts_stop_name":"","feed_id":"Oregon__Woodburn_Transit_Service_(WTS)__mdb_mdb-251","agency_name":"Woodburn Transit","route_count":1,"route_ids":"717","route_short_names":"","route_types":"3","route_type_names":"Bus","routes_json":"[{\"route_id\":\"717\",\"route_short_name\":\"\",\"route_long_name\":\"Woodburn City Loop\",\"route_type\":\"3\",\"route_type_name\":\"Bus\",\"route_color\":\"3B5273\",\"route_text_color\":\"FFFFFF\"}]"},"geometry":{"type":"Point","coordinates":[-122.84635018558816,45.137908031019606]}},{"type":"Feature","properties":{"stop_id":"20457","stop_code":"","stop_name":"Hwy 214/99E & Young St (Northbound)","stop_desc":"","zone_id":"","stop_url":"","location_type":"0","parent_station":"","stop_timezone":"America/Los_Angeles","wheelchair_boarding":"0","platform_code":"","tts_stop_name":"","feed_id":"Oregon__Woodburn_Transit_Service_(WTS)__mdb_mdb-251","agency_name":"Woodburn Transit","route_count":1,"route_ids":"717","route_short_names":"","route_types":"3","route_type_names":"Bus","routes_json":"[{\"route_id\":\"717\",\"route_short_name\":\"\",\"route_long_name\":\"Woodburn City Loop\",\"route_type\":\"3\",\"route_type_name\":\"Bus\",\"route_color\":\"3B5273\",\"route_text_color\":\"FFFFFF\"}]"},"geometry":{"type":"Point","coordinates":[-122.84334477929715,45.13748559698985]}},{"type":"Feature","properties":{"stop_id":"20458","stop_code":"","stop_name":"Hwy 214/99E & Aztec Dr","stop_desc":"","zone_id":"","stop_url":"","location_type":"0","parent_station":"","stop_timezone":"America/Los_Angeles","wheelchair_boarding":"0","platform_code":"","tts_stop_name":"","feed_id":"Oregon__Woodburn_Transit_Service_(WTS)__mdb_mdb-251","agency_name":"Woodburn Transit","route_count":1,"route_ids":"717","route_short_names":"","route_types":"3","route_type_names":"Bus","routes_json":"[{\"route_id\":\"717\",\"route_short_name\":\"\",\"route_long_name\":\"Woodburn City Loop\",\"route_type\":\"3\",\"route_type_name\":\"Bus\",\"route_color\":\"3B5273\",\"route_text_color\":\"FFFFFF\"}]"},"geometry":{"type":"Point","coordinates":[-122.840881,45.140171]}},{"type":"Feature","properties":{"stop_id":"20459","stop_code":"","stop_name":"Hwy 214/99E & E Lincoln Rd NE (Goodwill)","stop_desc":"","zone_id":"","stop_url":"","location_type":"0","parent_station":"","stop_timezone":"America/Los_Angeles","wheelchair_boarding":"0","platform_code":"","tts_stop_name":"","feed_id":"Oregon__Woodburn_Transit_Service_(WTS)__mdb_mdb-251","agency_name":"Woodburn Transit","route_count":2,"route_ids":"15203|717","route_short_names":"","route_types":"3","route_type_names":"Bus","routes_json":"[{\"route_id\":\"15203\",\"route_short_name\":\"\",\"route_long_name\":\"Express Loop\",\"route_type\":\"3\",\"route_type_name\":\"Bus\",\"route_color\":\"9CBB2F\",\"route_text_color\":\"000000\"},{\"route_id\":\"717\",\"route_short_name\":\"\",\"route_long_name\":\"Woodburn City Loop\",\"route_type\":\"3\",\"route_type_name\":\"Bus\",\"route_color\":\"3B5273\",\"route_text_color\":\"FFFFFF\"}]"},"geometry":{"type":"Point","coordinates":[-122.838162929,45.143225281]}},{"type":"Feature","properties":{"stop_id":"20460","stop_code":"","stop_name":"Hwy 214/99E & Hardcastle Ave (Northbound)","stop_desc":"","zone_id":"","stop_url":"","location_type":"0","parent_station":"","stop_timezone":"America/Los_Angeles","wheelchair_boarding":"0","platform_code":"","tts_stop_name":"","feed_id":"Oregon__Woodburn_Transit_Service_(WTS)__mdb_mdb-251","agency_name":"Woodburn Transit","route_count":1,"route_ids":"717","route_short_names":"","route_types":"3","route_type_names":"Bus","routes_json":"[{\"route_id\":\"717\",\"route_short_name\":\"\",\"route_long_name\":\"Woodburn City Loop\",\"route_type\":\"3\",\"route_type_name\":\"Bus\",\"route_color\":\"3B5273\",\"route_text_color\":\"FFFFFF\"}]"},"geometry":{"type":"Point","coordinates":[-122.83555579913543,45.14617335537753]}},{"type":"Feature","properties":{"stop_id":"20461","stop_code":"","stop_name":"Hwy 214/99E & Mt Jefferson Ave (Northbound)","stop_desc":"","zone_id":"","stop_url":"","location_type":"0","parent_station":"","stop_timezone":"America/Los_Angeles","wheelchair_boarding":"0","platform_code":"","tts_stop_name":"","feed_id":"Oregon__Woodburn_Transit_Service_(WTS)__mdb_mdb-251","agency_name":"Woodburn Transit","route_count":1,"route_ids":"717","route_short_names":"","route_types":"3","route_type_names":"Bus","routes_json":"[{\"route_id\":\"717\",\"route_short_name\":\"\",\"route_long_name\":\"Woodburn City Loop\",\"route_type\":\"3\",\"route_type_name\":\"Bus\",\"route_color\":\"3B5273\",\"route_text_color\":\"FFFFFF\"}]"},"geometry":{"type":"Point","coordinates":[-122.8330637720338,45.14898168898688]}},{"type":"Feature","properties":{"stop_id":"20462","stop_code":"","stop_name":"Big 5/DMV","stop_desc":"","zone_id":"","stop_url":"","location_type":"0","parent_station":"","stop_timezone":"America/Los_Angeles","wheelchair_boarding":"0","platform_code":"","tts_stop_name":"","feed_id":"Oregon__Woodburn_Transit_Service_(WTS)__mdb_mdb-251","agency_name":"Woodburn Transit","route_count":2,"route_ids":"15203|717","route_short_names":"","route_types":"3","route_type_names":"Bus","routes_json":"[{\"route_id\":\"15203\",\"route_short_name\":\"\",\"route_long_name\":\"Express Loop\",\"route_type\":\"3\",\"route_type_name\":\"Bus\",\"route_color\":\"9CBB2F\",\"route_text_color\":\"000000\"},{\"route_id\":\"717\",\"route_short_name\":\"\",\"route_long_name\":\"Woodburn City Loop\",\"route_type\":\"3\",\"route_type_name\":\"Bus\",\"route_color\":\"3B5273\",\"route_text_color\":\"FFFFFF\"}]"},"geometry":{"type":"Point","coordinates":[-122.832474,45.151394]}},{"type":"Feature","properties":{"stop_id":"20463","stop_code":"","stop_name":"Hwy 214 at Salud Medical Center","stop_desc":"","zone_id":"","stop_url":"","location_type":"0","parent_station":"","stop_timezone":"America/Los_Angeles","wheelchair_boarding":"0","platform_code":"","tts_stop_name":"","feed_id":"Oregon__Woodburn_Transit_Service_(WTS)__mdb_mdb-251","agency_name":"Woodburn Transit","route_count":1,"route_ids":"717","route_short_names":"","route_types":"3","route_type_names":"Bus","routes_json":"[{\"route_id\":\"717\",\"route_short_name\":\"\",\"route_long_name\":\"Woodburn City Loop\",\"route_type\":\"3\",\"route_type_name\":\"Bus\",\"route_color\":\"3B5273\",\"route_text_color\":\"FFFFFF\"}]"},"geometry":{"type":"Point","coordinates":[-122.83995219323624,45.15161894920763]}},{"type":"Feature","properties":{"stop_id":"755014","stop_code":"","stop_name":"Hwy 214 & Meridian Dr (Westbound)","stop_desc":"","zone_id":"","stop_url":"","location_type":"0","parent_station":"","stop_timezone":"America/Los_Angeles","wheelchair_boarding":"0","platform_code":"","tts_stop_name":"","feed_id":"Oregon__Woodburn_Transit_Service_(WTS)__mdb_mdb-251","agency_name":"Woodburn Transit","route_count":1,"route_ids":"717","route_short_names":"","route_types":"3","route_type_names":"Bus","routes_json":"[{\"route_id\":\"717\",\"route_short_name\":\"\",\"route_long_name\":\"Woodburn City Loop\",\"route_type\":\"3\",\"route_type_name\":\"Bus\",\"route_color\":\"3B5273\",\"route_text_color\":\"FFFFFF\"}]"},"geometry":{"type":"Point","coordinates":[-122.85351894989812,45.15076272866878]}},{"type":"Feature","properties":{"stop_id":"20465","stop_code":"","stop_name":"Harrison St & N 3rd St","stop_desc":"","zone_id":"","stop_url":"","location_type":"0","parent_station":"","stop_timezone":"America/Los_Angeles","wheelchair_boarding":"0","platform_code":"","tts_stop_name":"","feed_id":"Oregon__Woodburn_Transit_Service_(WTS)__mdb_mdb-251","agency_name":"Woodburn Transit","route_count":1,"route_ids":"717","route_short_names":"","route_types":"3","route_type_names":"Bus","routes_json":"[{\"route_id\":\"717\",\"route_short_name\":\"\",\"route_long_name\":\"Woodburn City Loop\",\"route_type\":\"3\",\"route_type_name\":\"Bus\",\"route_color\":\"3B5273\",\"route_text_color\":\"FFFFFF\"}]"},"geometry":{"type":"Point","coordinates":[-122.856699803,45.145990336]}},{"type":"Feature","properties":{"stop_id":"20466","stop_code":"","stop_name":"Post Office (525 N 1st St)","stop_desc":"","zone_id":"","stop_url":"","location_type":"0","parent_station":"","stop_timezone":"America/Los_Angeles","wheelchair_boarding":"0","platform_code":"","tts_stop_name":"","feed_id":"Oregon__Woodburn_Transit_Service_(WTS)__mdb_mdb-251","agency_name":"Woodburn Transit","route_count":1,"route_ids":"717","route_short_names":"","route_types":"3","route_type_names":"Bus","routes_json":"[{\"route_id\":\"717\",\"route_short_name\":\"\",\"route_long_name\":\"Woodburn City Loop\",\"route_type\":\"3\",\"route_type_name\":\"Bus\",\"route_color\":\"3B5273\",\"route_text_color\":\"FFFFFF\"}]"},"geometry":{"type":"Point","coordinates":[-122.85599939172089,45.14415582649392]}},{"type":"Feature","properties":{"stop_id":"2576671","stop_code":"","stop_name":"Safeway (1550 N Pacific Hwy)","stop_desc":"","zone_id":"","stop_url":"","location_type":"0","parent_station":"","stop_timezone":"America/Los_Angeles","wheelchair_boarding":"0","platform_code":"","tts_stop_name":"","feed_id":"Oregon__Woodburn_Transit_Service_(WTS)__mdb_mdb-251","agency_name":"Woodburn Transit","route_count":1,"route_ids":"15203","route_short_names":"","route_types":"3","route_type_names":"Bus","routes_json":"[{\"route_id\":\"15203\",\"route_short_name\":\"\",\"route_long_name\":\"Express Loop\",\"route_type\":\"3\",\"route_type_name\":\"Bus\",\"route_color\":\"9CBB2F\",\"route_text_color\":\"000000\"}]"},"geometry":{"type":"Point","coordinates":[-122.830040925,45.150291175]}},{"type":"Feature","properties":{"stop_id":"3","stop_code":"","stop_name":"Amazon","stop_desc":"","zone_id":"","stop_url":"","location_type":"0","parent_station":"","stop_timezone":"","wheelchair_boarding":"","platform_code":"","tts_stop_name":"","feed_id":"Oregon__Woodburn_Transit_Service_(WTS)__mdb_mdb-251","agency_name":"Woodburn Transit","route_count":1,"route_ids":"C-Route","route_short_names":"","route_types":"3","route_type_names":"Bus","routes_json":"[{\"route_id\":\"C-Route\",\"route_short_name\":\"\",\"route_long_name\":\"C-Route\",\"route_type\":\"3\",\"route_type_name\":\"Bus\",\"route_color\":\"EE1D23\",\"route_text_color\":\"FFFFFF\"}]"},"geometry":{"type":"Point","coordinates":[-122.89531610148312,45.14055430084057]}},{"type":"Feature","properties":{"stop_id":"2","stop_code":"","stop_name":"WMTC Bay 2","stop_desc":"","zone_id":"","stop_url":"","location_type":"0","parent_station":"","stop_timezone":"","wheelchair_boarding":"","platform_code":"","tts_stop_name":"","feed_id":"Oregon__Woodburn_Transit_Service_(WTS)__mdb_mdb-251","agency_name":"Woodburn Transit","route_count":1,"route_ids":"C-Route","route_short_names":"","route_types":"3","route_type_names":"Bus","routes_json":"[{\"route_id\":\"C-Route\",\"route_short_name\":\"\",\"route_long_name\":\"C-Route\",\"route_type\":\"3\",\"route_type_name\":\"Bus\",\"route_color\":\"EE1D23\",\"route_text_color\":\"FFFFFF\"}]"},"geometry":{"type":"Point","coordinates":[-122.876681993923,45.15116927931984]}},{"type":"Feature","properties":{"stop_id":"1","stop_code":"","stop_name":"Winco","stop_desc":"","zone_id":"","stop_url":"","location_type":"0","parent_station":"","stop_timezone":"","wheelchair_boarding":"","platform_code":"","tts_stop_name":"","feed_id":"Oregon__Woodburn_Transit_Service_(WTS)__mdb_mdb-251","agency_name":"Woodburn Transit","route_count":1,"route_ids":"C-Route","route_short_names":"","route_types":"3","route_type_names":"Bus","routes_json":"[{\"route_id\":\"C-Route\",\"route_short_name\":\"\",\"route_long_name\":\"C-Route\",\"route_type\":\"3\",\"route_type_name\":\"Bus\",\"route_color\":\"EE1D23\",\"route_text_color\":\"FFFFFF\"}]"},"geometry":{"type":"Point","coordinates":[-122.89072412265176,45.14819983758831]}},{"type":"Feature","properties":{"stop_id":"4","stop_code":"","stop_name":"Do It Best","stop_desc":"","zone_id":"","stop_url":"","location_type":"0","parent_station":"","stop_timezone":"","wheelchair_boarding":"","platform_code":"","tts_stop_name":"","feed_id":"Oregon__Woodburn_Transit_Service_(WTS)__mdb_mdb-251","agency_name":"Woodburn Transit","route_count":1,"route_ids":"C-Route","route_short_names":"","route_types":"3","route_type_names":"Bus","routes_json":"[{\"route_id\":\"C-Route\",\"route_short_name\":\"\",\"route_long_name\":\"C-Route\",\"route_type\":\"3\",\"route_type_name\":\"Bus\",\"route_color\":\"EE1D23\",\"route_text_color\":\"FFFFFF\"}]"},"geometry":{"type":"Point","coordinates":[-122.8861573506974,45.15028836262991]}}]}