{"type":"FeatureCollection","features":[{"type":"Feature","properties":{"stop_id":"2583236","stop_code":"","platform_code":"","stop_name":"East Street","stop_desc":"","zone_id":"","stop_url":"","location_type":"0","parent_station":"","stop_timezone":"America/Los_Angeles","position":"","direction":"","wheelchair_boarding":"0","tts_stop_name":"","feed_id":"California__Auburn_Transit__mdb_mdb-2275","agency_name":"Auburn Transit","route_count":1,"route_ids":"32372","route_short_names":"","route_types":"3","route_type_names":"Bus","routes_json":"[{\"route_id\":\"32372\",\"route_short_name\":\"\",\"route_long_name\":\"Auburn Loop\",\"route_type\":\"3\",\"route_type_name\":\"Bus\",\"route_color\":\"BF3C39\",\"route_text_color\":\"FFFFFF\"}]"},"geometry":{"type":"Point","coordinates":[-121.075037,38.897941]}},{"type":"Feature","properties":{"stop_id":"2583237","stop_code":"","platform_code":"","stop_name":"Auburn Palms","stop_desc":"","zone_id":"","stop_url":"","location_type":"0","parent_station":"","stop_timezone":"America/Los_Angeles","position":"","direction":"","wheelchair_boarding":"0","tts_stop_name":"","feed_id":"California__Auburn_Transit__mdb_mdb-2275","agency_name":"Auburn Transit","route_count":1,"route_ids":"32372","route_short_names":"","route_types":"3","route_type_names":"Bus","routes_json":"[{\"route_id\":\"32372\",\"route_short_name\":\"\",\"route_long_name\":\"Auburn Loop\",\"route_type\":\"3\",\"route_type_name\":\"Bus\",\"route_color\":\"BF3C39\",\"route_text_color\":\"FFFFFF\"}]"},"geometry":{"type":"Point","coordinates":[-121.074751,38.911465]}},{"type":"Feature","properties":{"stop_id":"2583238","stop_code":"","platform_code":"","stop_name":"Luther / Teal","stop_desc":"","zone_id":"","stop_url":"","location_type":"0","parent_station":"","stop_timezone":"America/Los_Angeles","position":"","direction":"","wheelchair_boarding":"0","tts_stop_name":"","feed_id":"California__Auburn_Transit__mdb_mdb-2275","agency_name":"Auburn Transit","route_count":1,"route_ids":"32372","route_short_names":"","route_types":"3","route_type_names":"Bus","routes_json":"[{\"route_id\":\"32372\",\"route_short_name\":\"\",\"route_long_name\":\"Auburn Loop\",\"route_type\":\"3\",\"route_type_name\":\"Bus\",\"route_color\":\"BF3C39\",\"route_text_color\":\"FFFFFF\"}]"},"geometry":{"type":"Point","coordinates":[-121.072921,38.927829]}},{"type":"Feature","properties":{"stop_id":"2583239","stop_code":"","platform_code":"","stop_name":"ARD Park","stop_desc":"","zone_id":"","stop_url":"","location_type":"0","parent_station":"","stop_timezone":"America/Los_Angeles","position":"","direction":"","wheelchair_boarding":"0","tts_stop_name":"","feed_id":"California__Auburn_Transit__mdb_mdb-2275","agency_name":"Auburn Transit","route_count":1,"route_ids":"32372","route_short_names":"","route_types":"3","route_type_names":"Bus","routes_json":"[{\"route_id\":\"32372\",\"route_short_name\":\"\",\"route_long_name\":\"Auburn Loop\",\"route_type\":\"3\",\"route_type_name\":\"Bus\",\"route_color\":\"BF3C39\",\"route_text_color\":\"FFFFFF\"}]"},"geometry":{"type":"Point","coordinates":[-121.0777,38.88783]}},{"type":"Feature","properties":{"stop_id":"2583240","stop_code":"","platform_code":"","stop_name":"High St @ Tap & Vine","stop_desc":"","zone_id":"","stop_url":"","location_type":"0","parent_station":"","stop_timezone":"America/Los_Angeles","position":"","direction":"","wheelchair_boarding":"0","tts_stop_name":"","feed_id":"California__Auburn_Transit__mdb_mdb-2275","agency_name":"Auburn Transit","route_count":0,"route_ids":"","route_short_names":"","route_types":"","route_type_names":"","routes_json":"[]"},"geometry":{"type":"Point","coordinates":[-121.07003,38.89926]}},{"type":"Feature","properties":{"stop_id":"2583241","stop_code":"","platform_code":"","stop_name":"Auburn Woods","stop_desc":"","zone_id":"","stop_url":"","location_type":"0","parent_station":"","stop_timezone":"America/Los_Angeles","position":"","direction":"","wheelchair_boarding":"0","tts_stop_name":"","feed_id":"California__Auburn_Transit__mdb_mdb-2275","agency_name":"Auburn Transit","route_count":0,"route_ids":"","route_short_names":"","route_types":"","route_type_names":"","routes_json":"[]"},"geometry":{"type":"Point","coordinates":[-121.061403,38.913577]}},{"type":"Feature","properties":{"stop_id":"2583242","stop_code":"","platform_code":"","stop_name":"Auburn Townhouses","stop_desc":"","zone_id":"","stop_url":"","location_type":"0","parent_station":"","stop_timezone":"America/Los_Angeles","position":"","direction":"","wheelchair_boarding":"0","tts_stop_name":"","feed_id":"California__Auburn_Transit__mdb_mdb-2275","agency_name":"Auburn Transit","route_count":1,"route_ids":"32372","route_short_names":"","route_types":"3","route_type_names":"Bus","routes_json":"[{\"route_id\":\"32372\",\"route_short_name\":\"\",\"route_long_name\":\"Auburn Loop\",\"route_type\":\"3\",\"route_type_name\":\"Bus\",\"route_color\":\"BF3C39\",\"route_text_color\":\"FFFFFF\"}]"},"geometry":{"type":"Point","coordinates":[-121.06115,38.913901]}},{"type":"Feature","properties":{"stop_id":"2583243","stop_code":"","platform_code":"","stop_name":"Nevada Station","stop_desc":"","zone_id":"","stop_url":"","location_type":"0","parent_station":"","stop_timezone":"America/Los_Angeles","position":"","direction":"","wheelchair_boarding":"0","tts_stop_name":"","feed_id":"California__Auburn_Transit__mdb_mdb-2275","agency_name":"Auburn Transit","route_count":1,"route_ids":"32372","route_short_names":"","route_types":"3","route_type_names":"Bus","routes_json":"[{\"route_id\":\"32372\",\"route_short_name\":\"\",\"route_long_name\":\"Auburn Loop\",\"route_type\":\"3\",\"route_type_name\":\"Bus\",\"route_color\":\"BF3C39\",\"route_text_color\":\"FFFFFF\"}]"},"geometry":{"type":"Point","coordinates":[-121.082894,38.902847]}},{"type":"Feature","properties":{"stop_id":"2583244","stop_code":"","platform_code":"","stop_name":"Boardman","stop_desc":"","zone_id":"","stop_url":"","location_type":"0","parent_station":"","stop_timezone":"America/Los_Angeles","position":"","direction":"","wheelchair_boarding":"0","tts_stop_name":"","feed_id":"California__Auburn_Transit__mdb_mdb-2275","agency_name":"Auburn Transit","route_count":1,"route_ids":"32372","route_short_names":"","route_types":"3","route_type_names":"Bus","routes_json":"[{\"route_id\":\"32372\",\"route_short_name\":\"\",\"route_long_name\":\"Auburn Loop\",\"route_type\":\"3\",\"route_type_name\":\"Bus\",\"route_color\":\"BF3C39\",\"route_text_color\":\"FFFFFF\"}]"},"geometry":{"type":"Point","coordinates":[-121.065743,38.899501]}},{"type":"Feature","properties":{"stop_id":"2583245","stop_code":"","platform_code":"","stop_name":"Dorothy Way","stop_desc":"","zone_id":"","stop_url":"","location_type":"0","parent_station":"","stop_timezone":"America/Los_Angeles","position":"","direction":"","wheelchair_boarding":"0","tts_stop_name":"","feed_id":"California__Auburn_Transit__mdb_mdb-2275","agency_name":"Auburn Transit","route_count":0,"route_ids":"","route_short_names":"","route_types":"","route_type_names":"","routes_json":"[]"},"geometry":{"type":"Point","coordinates":[-121.07614,38.914738]}},{"type":"Feature","properties":{"stop_id":"2583246","stop_code":"","platform_code":"","stop_name":"Grocery Outlet","stop_desc":"","zone_id":"","stop_url":"","location_type":"0","parent_station":"","stop_timezone":"America/Los_Angeles","position":"","direction":"","wheelchair_boarding":"0","tts_stop_name":"","feed_id":"California__Auburn_Transit__mdb_mdb-2275","agency_name":"Auburn Transit","route_count":1,"route_ids":"32372","route_short_names":"","route_types":"3","route_type_names":"Bus","routes_json":"[{\"route_id\":\"32372\",\"route_short_name\":\"\",\"route_long_name\":\"Auburn Loop\",\"route_type\":\"3\",\"route_type_name\":\"Bus\",\"route_color\":\"BF3C39\",\"route_text_color\":\"FFFFFF\"}]"},"geometry":{"type":"Point","coordinates":[-121.074856,38.905383]}},{"type":"Feature","properties":{"stop_id":"2583247","stop_code":"","platform_code":"","stop_name":"Auburn Villa","stop_desc":"","zone_id":"","stop_url":"","location_type":"0","parent_station":"","stop_timezone":"America/Los_Angeles","position":"","direction":"","wheelchair_boarding":"0","tts_stop_name":"","feed_id":"California__Auburn_Transit__mdb_mdb-2275","agency_name":"Auburn Transit","route_count":0,"route_ids":"","route_short_names":"","route_types":"","route_type_names":"","routes_json":"[]"},"geometry":{"type":"Point","coordinates":[-121.072858,38.908252]}},{"type":"Feature","properties":{"stop_id":"2583248","stop_code":"","platform_code":"","stop_name":"Ashford Park","stop_desc":"","zone_id":"","stop_url":"","location_type":"0","parent_station":"","stop_timezone":"America/Los_Angeles","position":"","direction":"","wheelchair_boarding":"0","tts_stop_name":"","feed_id":"California__Auburn_Transit__mdb_mdb-2275","agency_name":"Auburn Transit","route_count":0,"route_ids":"","route_short_names":"","route_types":"","route_type_names":"","routes_json":"[]"},"geometry":{"type":"Point","coordinates":[-121.06356,38.919688]}},{"type":"Feature","properties":{"stop_id":"2583249","stop_code":"","platform_code":"","stop_name":"Nevada Station","stop_desc":"","zone_id":"","stop_url":"","location_type":"0","parent_station":"","stop_timezone":"America/Los_Angeles","position":"","direction":"","wheelchair_boarding":"0","tts_stop_name":"","feed_id":"California__Auburn_Transit__mdb_mdb-2275","agency_name":"Auburn Transit","route_count":1,"route_ids":"32372","route_short_names":"","route_types":"3","route_type_names":"Bus","routes_json":"[{\"route_id\":\"32372\",\"route_short_name\":\"\",\"route_long_name\":\"Auburn Loop\",\"route_type\":\"3\",\"route_type_name\":\"Bus\",\"route_color\":\"BF3C39\",\"route_text_color\":\"FFFFFF\"}]"},"geometry":{"type":"Point","coordinates":[-121.082727,38.903354]}},{"type":"Feature","properties":{"stop_id":"2583250","stop_code":"","platform_code":"","stop_name":"Monkey Cat","stop_desc":"","zone_id":"","stop_url":"","location_type":"0","parent_station":"","stop_timezone":"America/Los_Angeles","position":"","direction":"","wheelchair_boarding":"0","tts_stop_name":"","feed_id":"California__Auburn_Transit__mdb_mdb-2275","agency_name":"Auburn Transit","route_count":1,"route_ids":"32372","route_short_names":"","route_types":"3","route_type_names":"Bus","routes_json":"[{\"route_id\":\"32372\",\"route_short_name\":\"\",\"route_long_name\":\"Auburn Loop\",\"route_type\":\"3\",\"route_type_name\":\"Bus\",\"route_color\":\"BF3C39\",\"route_text_color\":\"FFFFFF\"}]"},"geometry":{"type":"Point","coordinates":[-121.067727,38.900604]}},{"type":"Feature","properties":{"stop_id":"2583251","stop_code":"","platform_code":"","stop_name":"Savemart","stop_desc":"","zone_id":"","stop_url":"","location_type":"0","parent_station":"","stop_timezone":"America/Los_Angeles","position":"","direction":"","wheelchair_boarding":"0","tts_stop_name":"","feed_id":"California__Auburn_Transit__mdb_mdb-2275","agency_name":"Auburn Transit","route_count":1,"route_ids":"32372","route_short_names":"","route_types":"3","route_type_names":"Bus","routes_json":"[{\"route_id\":\"32372\",\"route_short_name\":\"\",\"route_long_name\":\"Auburn Loop\",\"route_type\":\"3\",\"route_type_name\":\"Bus\",\"route_color\":\"BF3C39\",\"route_text_color\":\"FFFFFF\"}]"},"geometry":{"type":"Point","coordinates":[-121.073804,38.905758]}},{"type":"Feature","properties":{"stop_id":"2583252","stop_code":"","platform_code":"","stop_name":"Dairy / Incline","stop_desc":"","zone_id":"","stop_url":"","location_type":"0","parent_station":"","stop_timezone":"America/Los_Angeles","position":"","direction":"","wheelchair_boarding":"0","tts_stop_name":"","feed_id":"California__Auburn_Transit__mdb_mdb-2275","agency_name":"Auburn Transit","route_count":1,"route_ids":"32372","route_short_names":"","route_types":"3","route_type_names":"Bus","routes_json":"[{\"route_id\":\"32372\",\"route_short_name\":\"\",\"route_long_name\":\"Auburn Loop\",\"route_type\":\"3\",\"route_type_name\":\"Bus\",\"route_color\":\"BF3C39\",\"route_text_color\":\"FFFFFF\"}]"},"geometry":{"type":"Point","coordinates":[-121.071926,38.921836]}},{"type":"Feature","properties":{"stop_id":"2583253","stop_code":"","platform_code":"","stop_name":"Auburn Ravine / Dairy","stop_desc":"","zone_id":"","stop_url":"","location_type":"0","parent_station":"","stop_timezone":"America/Los_Angeles","position":"","direction":"","wheelchair_boarding":"0","tts_stop_name":"","feed_id":"California__Auburn_Transit__mdb_mdb-2275","agency_name":"Auburn Transit","route_count":1,"route_ids":"32372","route_short_names":"","route_types":"3","route_type_names":"Bus","routes_json":"[{\"route_id\":\"32372\",\"route_short_name\":\"\",\"route_long_name\":\"Auburn Loop\",\"route_type\":\"3\",\"route_type_name\":\"Bus\",\"route_color\":\"BF3C39\",\"route_text_color\":\"FFFFFF\"}]"},"geometry":{"type":"Point","coordinates":[-121.072516,38.915239]}},{"type":"Feature","properties":{"stop_id":"2583254","stop_code":"","platform_code":"","stop_name":"Alta Vista","stop_desc":"","zone_id":"","stop_url":"","location_type":"0","parent_station":"","stop_timezone":"America/Los_Angeles","position":"","direction":"","wheelchair_boarding":"0","tts_stop_name":"","feed_id":"California__Auburn_Transit__mdb_mdb-2275","agency_name":"Auburn Transit","route_count":1,"route_ids":"32372","route_short_names":"","route_types":"3","route_type_names":"Bus","routes_json":"[{\"route_id\":\"32372\",\"route_short_name\":\"\",\"route_long_name\":\"Auburn Loop\",\"route_type\":\"3\",\"route_type_name\":\"Bus\",\"route_color\":\"BF3C39\",\"route_text_color\":\"FFFFFF\"}]"},"geometry":{"type":"Point","coordinates":[-121.064121,38.909695]}},{"type":"Feature","properties":{"stop_id":"2583255","stop_code":"","platform_code":"","stop_name":"Vista Care","stop_desc":"","zone_id":"","stop_url":"","location_type":"0","parent_station":"","stop_timezone":"America/Los_Angeles","position":"","direction":"","wheelchair_boarding":"0","tts_stop_name":"","feed_id":"California__Auburn_Transit__mdb_mdb-2275","agency_name":"Auburn Transit","route_count":1,"route_ids":"32372","route_short_names":"","route_types":"3","route_type_names":"Bus","routes_json":"[{\"route_id\":\"32372\",\"route_short_name\":\"\",\"route_long_name\":\"Auburn Loop\",\"route_type\":\"3\",\"route_type_name\":\"Bus\",\"route_color\":\"BF3C39\",\"route_text_color\":\"FFFFFF\"}]"},"geometry":{"type":"Point","coordinates":[-121.056236,38.931944]}},{"type":"Feature","properties":{"stop_id":"2583256","stop_code":"","platform_code":"","stop_name":"Valley Oaks","stop_desc":"","zone_id":"","stop_url":"","location_type":"0","parent_station":"","stop_timezone":"America/Los_Angeles","position":"","direction":"","wheelchair_boarding":"0","tts_stop_name":"","feed_id":"California__Auburn_Transit__mdb_mdb-2275","agency_name":"Auburn Transit","route_count":1,"route_ids":"32372","route_short_names":"","route_types":"3","route_type_names":"Bus","routes_json":"[{\"route_id\":\"32372\",\"route_short_name\":\"\",\"route_long_name\":\"Auburn Loop\",\"route_type\":\"3\",\"route_type_name\":\"Bus\",\"route_color\":\"BF3C39\",\"route_text_color\":\"FFFFFF\"}]"},"geometry":{"type":"Point","coordinates":[-121.074332,38.91029]}},{"type":"Feature","properties":{"stop_id":"2583257","stop_code":"","platform_code":"","stop_name":"Auburn Ravine / Mikkelson","stop_desc":"","zone_id":"","stop_url":"","location_type":"0","parent_station":"","stop_timezone":"America/Los_Angeles","position":"","direction":"","wheelchair_boarding":"0","tts_stop_name":"","feed_id":"California__Auburn_Transit__mdb_mdb-2275","agency_name":"Auburn Transit","route_count":0,"route_ids":"","route_short_names":"","route_types":"","route_type_names":"","routes_json":"[]"},"geometry":{"type":"Point","coordinates":[-121.069669,38.915644]}},{"type":"Feature","properties":{"stop_id":"2583258","stop_code":"","platform_code":"","stop_name":"Palm Ave @ 200 - Riebes Auto Parts","stop_desc":"","zone_id":"","stop_url":"","location_type":"0","parent_station":"","stop_timezone":"America/Los_Angeles","position":"","direction":"","wheelchair_boarding":"0","tts_stop_name":"","feed_id":"California__Auburn_Transit__mdb_mdb-2275","agency_name":"Auburn Transit","route_count":0,"route_ids":"","route_short_names":"","route_types":"","route_type_names":"","routes_json":"[]"},"geometry":{"type":"Point","coordinates":[-121.07593,38.908332]}},{"type":"Feature","properties":{"stop_id":"2583259","stop_code":"","platform_code":"","stop_name":"Dairy Rd / Dairy Ln","stop_desc":"","zone_id":"","stop_url":"","location_type":"0","parent_station":"","stop_timezone":"America/Los_Angeles","position":"","direction":"","wheelchair_boarding":"0","tts_stop_name":"","feed_id":"California__Auburn_Transit__mdb_mdb-2275","agency_name":"Auburn Transit","route_count":1,"route_ids":"32372","route_short_names":"","route_types":"3","route_type_names":"Bus","routes_json":"[{\"route_id\":\"32372\",\"route_short_name\":\"\",\"route_long_name\":\"Auburn Loop\",\"route_type\":\"3\",\"route_type_name\":\"Bus\",\"route_color\":\"BF3C39\",\"route_text_color\":\"FFFFFF\"}]"},"geometry":{"type":"Point","coordinates":[-121.072215,38.924818]}},{"type":"Feature","properties":{"stop_id":"2583260","stop_code":"","platform_code":"","stop_name":"Auburn Crossings","stop_desc":"","zone_id":"","stop_url":"","location_type":"0","parent_station":"","stop_timezone":"America/Los_Angeles","position":"","direction":"","wheelchair_boarding":"0","tts_stop_name":"","feed_id":"California__Auburn_Transit__mdb_mdb-2275","agency_name":"Auburn Transit","route_count":1,"route_ids":"32372","route_short_names":"","route_types":"3","route_type_names":"Bus","routes_json":"[{\"route_id\":\"32372\",\"route_short_name\":\"\",\"route_long_name\":\"Auburn Loop\",\"route_type\":\"3\",\"route_type_name\":\"Bus\",\"route_color\":\"BF3C39\",\"route_text_color\":\"FFFFFF\"}]"},"geometry":{"type":"Point","coordinates":[-121.057104,38.92175]}},{"type":"Feature","properties":{"stop_id":"2583261","stop_code":"","platform_code":"","stop_name":"Regal Theater","stop_desc":"","zone_id":"","stop_url":"","location_type":"0","parent_station":"","stop_timezone":"America/Los_Angeles","position":"","direction":"","wheelchair_boarding":"0","tts_stop_name":"","feed_id":"California__Auburn_Transit__mdb_mdb-2275","agency_name":"Auburn Transit","route_count":0,"route_ids":"","route_short_names":"","route_types":"","route_type_names":"","routes_json":"[]"},"geometry":{"type":"Point","coordinates":[-121.079876,38.91432]}},{"type":"Feature","properties":{"stop_id":"2583262","stop_code":"","platform_code":"","stop_name":"McAuley Meadows","stop_desc":"","zone_id":"","stop_url":"","location_type":"0","parent_station":"","stop_timezone":"America/Los_Angeles","position":"","direction":"","wheelchair_boarding":"0","tts_stop_name":"","feed_id":"California__Auburn_Transit__mdb_mdb-2275","agency_name":"Auburn Transit","route_count":1,"route_ids":"32372","route_short_names":"","route_types":"3","route_type_names":"Bus","routes_json":"[{\"route_id\":\"32372\",\"route_short_name\":\"\",\"route_long_name\":\"Auburn Loop\",\"route_type\":\"3\",\"route_type_name\":\"Bus\",\"route_color\":\"BF3C39\",\"route_text_color\":\"FFFFFF\"}]"},"geometry":{"type":"Point","coordinates":[-121.079616,38.878361]}},{"type":"Feature","properties":{"stop_id":"2583263","stop_code":"","platform_code":"","stop_name":"Luther / Garth","stop_desc":"","zone_id":"","stop_url":"","location_type":"0","parent_station":"","stop_timezone":"America/Los_Angeles","position":"","direction":"","wheelchair_boarding":"0","tts_stop_name":"","feed_id":"California__Auburn_Transit__mdb_mdb-2275","agency_name":"Auburn Transit","route_count":1,"route_ids":"32372","route_short_names":"","route_types":"3","route_type_names":"Bus","routes_json":"[{\"route_id\":\"32372\",\"route_short_name\":\"\",\"route_long_name\":\"Auburn Loop\",\"route_type\":\"3\",\"route_type_name\":\"Bus\",\"route_color\":\"BF3C39\",\"route_text_color\":\"FFFFFF\"}]"},"geometry":{"type":"Point","coordinates":[-121.058087,38.928194]}},{"type":"Feature","properties":{"stop_id":"2583264","stop_code":"","platform_code":"","stop_name":"Library","stop_desc":"","zone_id":"","stop_url":"","location_type":"0","parent_station":"","stop_timezone":"America/Los_Angeles","position":"","direction":"","wheelchair_boarding":"0","tts_stop_name":"","feed_id":"California__Auburn_Transit__mdb_mdb-2275","agency_name":"Auburn Transit","route_count":0,"route_ids":"","route_short_names":"","route_types":"","route_type_names":"","routes_json":"[]"},"geometry":{"type":"Point","coordinates":[-121.082275,38.905816]}},{"type":"Feature","properties":{"stop_id":"2583265","stop_code":"","platform_code":"","stop_name":"Lincoln Way @ Awful Annie's","stop_desc":"","zone_id":"","stop_url":"","location_type":"0","parent_station":"","stop_timezone":"America/Los_Angeles","position":"","direction":"","wheelchair_boarding":"0","tts_stop_name":"","feed_id":"California__Auburn_Transit__mdb_mdb-2275","agency_name":"Auburn Transit","route_count":0,"route_ids":"","route_short_names":"","route_types":"","route_type_names":"","routes_json":"[]"},"geometry":{"type":"Point","coordinates":[-121.056003,38.926372]}},{"type":"Feature","properties":{"stop_id":"2583266","stop_code":"","platform_code":"","stop_name":"Sacramento / Pacific","stop_desc":"","zone_id":"","stop_url":"","location_type":"0","parent_station":"","stop_timezone":"America/Los_Angeles","position":"","direction":"","wheelchair_boarding":"0","tts_stop_name":"","feed_id":"California__Auburn_Transit__mdb_mdb-2275","agency_name":"Auburn Transit","route_count":1,"route_ids":"32372","route_short_names":"","route_types":"3","route_type_names":"Bus","routes_json":"[{\"route_id\":\"32372\",\"route_short_name\":\"\",\"route_long_name\":\"Auburn Loop\",\"route_type\":\"3\",\"route_type_name\":\"Bus\",\"route_color\":\"BF3C39\",\"route_text_color\":\"FFFFFF\"}]"},"geometry":{"type":"Point","coordinates":[-121.075931,38.886297]}},{"type":"Feature","properties":{"stop_id":"2583267","stop_code":"","platform_code":"","stop_name":"Fulweiler Ave","stop_desc":"","zone_id":"","stop_url":"","location_type":"0","parent_station":"","stop_timezone":"America/Los_Angeles","position":"","direction":"","wheelchair_boarding":"0","tts_stop_name":"","feed_id":"California__Auburn_Transit__mdb_mdb-2275","agency_name":"Auburn Transit","route_count":0,"route_ids":"","route_short_names":"","route_types":"","route_type_names":"","routes_json":"[]"},"geometry":{"type":"Point","coordinates":[-121.07843,38.903769]}},{"type":"Feature","properties":{"stop_id":"2583268","stop_code":"","platform_code":"","stop_name":"Borland","stop_desc":"","zone_id":"","stop_url":"","location_type":"0","parent_station":"","stop_timezone":"America/Los_Angeles","position":"","direction":"","wheelchair_boarding":"0","tts_stop_name":"","feed_id":"California__Auburn_Transit__mdb_mdb-2275","agency_name":"Auburn Transit","route_count":1,"route_ids":"32372","route_short_names":"","route_types":"3","route_type_names":"Bus","routes_json":"[{\"route_id\":\"32372\",\"route_short_name\":\"\",\"route_long_name\":\"Auburn Loop\",\"route_type\":\"3\",\"route_type_name\":\"Bus\",\"route_color\":\"BF3C39\",\"route_text_color\":\"FFFFFF\"}]"},"geometry":{"type":"Point","coordinates":[-121.064586,38.899846]}},{"type":"Feature","properties":{"stop_id":"2583269","stop_code":"","platform_code":"","stop_name":"Nevada St @ Feed Store","stop_desc":"","zone_id":"","stop_url":"","location_type":"0","parent_station":"","stop_timezone":"America/Los_Angeles","position":"","direction":"","wheelchair_boarding":"0","tts_stop_name":"","feed_id":"California__Auburn_Transit__mdb_mdb-2275","agency_name":"Auburn Transit","route_count":0,"route_ids":"","route_short_names":"","route_types":"","route_type_names":"","routes_json":"[]"},"geometry":{"type":"Point","coordinates":[-121.080853,38.899913]}},{"type":"Feature","properties":{"stop_id":"2583270","stop_code":"","platform_code":"","stop_name":"Nevada Station","stop_desc":"","zone_id":"","stop_url":"","location_type":"0","parent_station":"","stop_timezone":"America/Los_Angeles","position":"","direction":"","wheelchair_boarding":"0","tts_stop_name":"","feed_id":"California__Auburn_Transit__mdb_mdb-2275","agency_name":"Auburn Transit","route_count":0,"route_ids":"","route_short_names":"","route_types":"","route_type_names":"","routes_json":"[]"},"geometry":{"type":"Point","coordinates":[-121.082918,38.902997]}},{"type":"Feature","properties":{"stop_id":"2583271","stop_code":"","platform_code":"","stop_name":"Raley's","stop_desc":"","zone_id":"","stop_url":"","location_type":"0","parent_station":"","stop_timezone":"America/Los_Angeles","position":"","direction":"","wheelchair_boarding":"0","tts_stop_name":"","feed_id":"California__Auburn_Transit__mdb_mdb-2275","agency_name":"Auburn Transit","route_count":1,"route_ids":"32372","route_short_names":"","route_types":"3","route_type_names":"Bus","routes_json":"[{\"route_id\":\"32372\",\"route_short_name\":\"\",\"route_long_name\":\"Auburn Loop\",\"route_type\":\"3\",\"route_type_name\":\"Bus\",\"route_color\":\"BF3C39\",\"route_text_color\":\"FFFFFF\"}]"},"geometry":{"type":"Point","coordinates":[-121.054535,38.923571]}},{"type":"Feature","properties":{"stop_id":"2583272","stop_code":"","platform_code":"","stop_name":"Longhorn Meat","stop_desc":"","zone_id":"","stop_url":"","location_type":"0","parent_station":"","stop_timezone":"America/Los_Angeles","position":"","direction":"","wheelchair_boarding":"0","tts_stop_name":"","feed_id":"California__Auburn_Transit__mdb_mdb-2275","agency_name":"Auburn Transit","route_count":0,"route_ids":"","route_short_names":"","route_types":"","route_type_names":"","routes_json":"[]"},"geometry":{"type":"Point","coordinates":[-121.060936,38.91615]}},{"type":"Feature","properties":{"stop_id":"2583273","stop_code":"","platform_code":"","stop_name":"Swanson","stop_desc":"","zone_id":"","stop_url":"","location_type":"0","parent_station":"","stop_timezone":"America/Los_Angeles","position":"","direction":"","wheelchair_boarding":"0","tts_stop_name":"","feed_id":"California__Auburn_Transit__mdb_mdb-2275","agency_name":"Auburn Transit","route_count":0,"route_ids":"","route_short_names":"","route_types":"","route_type_names":"","routes_json":"[]"},"geometry":{"type":"Point","coordinates":[-121.069737,38.912806]}},{"type":"Feature","properties":{"stop_id":"2583274","stop_code":"","platform_code":"","stop_name":"Starbucks","stop_desc":"","zone_id":"","stop_url":"","location_type":"0","parent_station":"","stop_timezone":"America/Los_Angeles","position":"","direction":"","wheelchair_boarding":"0","tts_stop_name":"","feed_id":"California__Auburn_Transit__mdb_mdb-2275","agency_name":"Auburn Transit","route_count":0,"route_ids":"","route_short_names":"","route_types":"","route_type_names":"","routes_json":"[]"},"geometry":{"type":"Point","coordinates":[-121.059307,38.922727]}},{"type":"Feature","properties":{"stop_id":"2583275","stop_code":"","platform_code":"","stop_name":"U.S. Bank","stop_desc":"","zone_id":"","stop_url":"","location_type":"0","parent_station":"","stop_timezone":"America/Los_Angeles","position":"","direction":"","wheelchair_boarding":"0","tts_stop_name":"","feed_id":"California__Auburn_Transit__mdb_mdb-2275","agency_name":"Auburn Transit","route_count":0,"route_ids":"","route_short_names":"","route_types":"","route_type_names":"","routes_json":"[]"},"geometry":{"type":"Point","coordinates":[-121.07095,38.898597]}},{"type":"Feature","properties":{"stop_id":"2583276","stop_code":"","platform_code":"","stop_name":"Courthouse","stop_desc":"","zone_id":"","stop_url":"","location_type":"0","parent_station":"","stop_timezone":"America/Los_Angeles","position":"","direction":"","wheelchair_boarding":"0","tts_stop_name":"","feed_id":"California__Auburn_Transit__mdb_mdb-2275","agency_name":"Auburn Transit","route_count":1,"route_ids":"32372","route_short_names":"","route_types":"3","route_type_names":"Bus","routes_json":"[{\"route_id\":\"32372\",\"route_short_name\":\"\",\"route_long_name\":\"Auburn Loop\",\"route_type\":\"3\",\"route_type_name\":\"Bus\",\"route_color\":\"BF3C39\",\"route_text_color\":\"FFFFFF\"}]"},"geometry":{"type":"Point","coordinates":[-121.077356,38.897093]}},{"type":"Feature","properties":{"stop_id":"2583277","stop_code":"","platform_code":"","stop_name":"Nevada Station","stop_desc":"","zone_id":"","stop_url":"","location_type":"0","parent_station":"","stop_timezone":"America/Los_Angeles","position":"","direction":"","wheelchair_boarding":"0","tts_stop_name":"","feed_id":"California__Auburn_Transit__mdb_mdb-2275","agency_name":"Auburn Transit","route_count":0,"route_ids":"","route_short_names":"","route_types":"","route_type_names":"","routes_json":"[]"},"geometry":{"type":"Point","coordinates":[-121.082945,38.903147]}},{"type":"Feature","properties":{"stop_id":"2583278","stop_code":"","platform_code":"","stop_name":"High St @ Union Bank","stop_desc":"","zone_id":"","stop_url":"","location_type":"0","parent_station":"","stop_timezone":"America/Los_Angeles","position":"","direction":"","wheelchair_boarding":"0","tts_stop_name":"","feed_id":"California__Auburn_Transit__mdb_mdb-2275","agency_name":"Auburn Transit","route_count":0,"route_ids":"","route_short_names":"","route_types":"","route_type_names":"","routes_json":"[]"},"geometry":{"type":"Point","coordinates":[-121.069122,38.900661]}},{"type":"Feature","properties":{"stop_id":"2583279","stop_code":"","platform_code":"","stop_name":"Brookside","stop_desc":"","zone_id":"","stop_url":"","location_type":"0","parent_station":"","stop_timezone":"America/Los_Angeles","position":"","direction":"","wheelchair_boarding":"0","tts_stop_name":"","feed_id":"California__Auburn_Transit__mdb_mdb-2275","agency_name":"Auburn Transit","route_count":0,"route_ids":"","route_short_names":"","route_types":"","route_type_names":"","routes_json":"[]"},"geometry":{"type":"Point","coordinates":[-121.072198,38.909749]}},{"type":"Feature","properties":{"stop_id":"2583280","stop_code":"","platform_code":"","stop_name":"7/11 - Sacramento","stop_desc":"","zone_id":"","stop_url":"","location_type":"0","parent_station":"","stop_timezone":"America/Los_Angeles","position":"","direction":"","wheelchair_boarding":"0","tts_stop_name":"","feed_id":"California__Auburn_Transit__mdb_mdb-2275","agency_name":"Auburn Transit","route_count":1,"route_ids":"32372","route_short_names":"","route_types":"3","route_type_names":"Bus","routes_json":"[{\"route_id\":\"32372\",\"route_short_name\":\"\",\"route_long_name\":\"Auburn Loop\",\"route_type\":\"3\",\"route_type_name\":\"Bus\",\"route_color\":\"BF3C39\",\"route_text_color\":\"FFFFFF\"}]"},"geometry":{"type":"Point","coordinates":[-121.076151,38.889701]}},{"type":"Feature","properties":{"stop_id":"2583281","stop_code":"","platform_code":"","stop_name":"Reamer/High Street","stop_desc":"","zone_id":"","stop_url":"","location_type":"0","parent_station":"","stop_timezone":"America/Los_Angeles","position":"","direction":"","wheelchair_boarding":"0","tts_stop_name":"","feed_id":"California__Auburn_Transit__mdb_mdb-2275","agency_name":"Auburn Transit","route_count":1,"route_ids":"32372","route_short_names":"","route_types":"3","route_type_names":"Bus","routes_json":"[{\"route_id\":\"32372\",\"route_short_name\":\"\",\"route_long_name\":\"Auburn Loop\",\"route_type\":\"3\",\"route_type_name\":\"Bus\",\"route_color\":\"BF3C39\",\"route_text_color\":\"FFFFFF\"}]"},"geometry":{"type":"Point","coordinates":[-121.068655,38.901789]}},{"type":"Feature","properties":{"stop_id":"2583282","stop_code":"","platform_code":"","stop_name":"Old Town","stop_desc":"","zone_id":"","stop_url":"","location_type":"0","parent_station":"","stop_timezone":"America/Los_Angeles","position":"","direction":"","wheelchair_boarding":"0","tts_stop_name":"","feed_id":"California__Auburn_Transit__mdb_mdb-2275","agency_name":"Auburn Transit","route_count":1,"route_ids":"32372","route_short_names":"","route_types":"3","route_type_names":"Bus","routes_json":"[{\"route_id\":\"32372\",\"route_short_name\":\"\",\"route_long_name\":\"Auburn Loop\",\"route_type\":\"3\",\"route_type_name\":\"Bus\",\"route_color\":\"BF3C39\",\"route_text_color\":\"FFFFFF\"}]"},"geometry":{"type":"Point","coordinates":[-121.07828,38.895696]}},{"type":"Feature","properties":{"stop_id":"2583283","stop_code":"","platform_code":"","stop_name":"Lincoln Way @ 210","stop_desc":"","zone_id":"","stop_url":"","location_type":"0","parent_station":"","stop_timezone":"America/Los_Angeles","position":"","direction":"","wheelchair_boarding":"0","tts_stop_name":"","feed_id":"California__Auburn_Transit__mdb_mdb-2275","agency_name":"Auburn Transit","route_count":0,"route_ids":"","route_short_names":"","route_types":"","route_type_names":"","routes_json":"[]"},"geometry":{"type":"Point","coordinates":[-121.064412,38.909518]}},{"type":"Feature","properties":{"stop_id":"2583284","stop_code":"","platform_code":"","stop_name":"Elders/State Theater","stop_desc":"","zone_id":"","stop_url":"","location_type":"0","parent_station":"","stop_timezone":"America/Los_Angeles","position":"","direction":"","wheelchair_boarding":"0","tts_stop_name":"","feed_id":"California__Auburn_Transit__mdb_mdb-2275","agency_name":"Auburn Transit","route_count":1,"route_ids":"32372","route_short_names":"","route_types":"3","route_type_names":"Bus","routes_json":"[{\"route_id\":\"32372\",\"route_short_name\":\"\",\"route_long_name\":\"Auburn Loop\",\"route_type\":\"3\",\"route_type_name\":\"Bus\",\"route_color\":\"BF3C39\",\"route_text_color\":\"FFFFFF\"}]"},"geometry":{"type":"Point","coordinates":[-121.071423,38.898702]}},{"type":"Feature","properties":{"stop_id":"2583285","stop_code":"","platform_code":"","stop_name":"Foothill Market","stop_desc":"","zone_id":"","stop_url":"","location_type":"0","parent_station":"","stop_timezone":"America/Los_Angeles","position":"","direction":"","wheelchair_boarding":"0","tts_stop_name":"","feed_id":"California__Auburn_Transit__mdb_mdb-2275","agency_name":"Auburn Transit","route_count":1,"route_ids":"32372","route_short_names":"","route_types":"3","route_type_names":"Bus","routes_json":"[{\"route_id\":\"32372\",\"route_short_name\":\"\",\"route_long_name\":\"Auburn Loop\",\"route_type\":\"3\",\"route_type_name\":\"Bus\",\"route_color\":\"BF3C39\",\"route_text_color\":\"FFFFFF\"}]"},"geometry":{"type":"Point","coordinates":[-121.060776,38.916026]}},{"type":"Feature","properties":{"stop_id":"2583286","stop_code":"","platform_code":"","stop_name":"Staples","stop_desc":"","zone_id":"","stop_url":"","location_type":"0","parent_station":"","stop_timezone":"America/Los_Angeles","position":"","direction":"","wheelchair_boarding":"0","tts_stop_name":"","feed_id":"California__Auburn_Transit__mdb_mdb-2275","agency_name":"Auburn Transit","route_count":0,"route_ids":"","route_short_names":"","route_types":"","route_type_names":"","routes_json":"[]"},"geometry":{"type":"Point","coordinates":[-121.077753,38.903936]}},{"type":"Feature","properties":{"stop_id":"2751400","stop_code":"","platform_code":"","stop_name":"Springhill Suites","stop_desc":"","zone_id":"","stop_url":"","location_type":"0","parent_station":"","stop_timezone":"America/Los_Angeles","position":"","direction":"","wheelchair_boarding":"0","tts_stop_name":"","feed_id":"California__Auburn_Transit__mdb_mdb-2275","agency_name":"Auburn Transit","route_count":0,"route_ids":"","route_short_names":"","route_types":"","route_type_names":"","routes_json":"[]"},"geometry":{"type":"Point","coordinates":[-121.057782094704,38.9308403706407]}},{"type":"Feature","properties":{"stop_id":"2751413","stop_code":"","platform_code":"","stop_name":"Holiday Inn","stop_desc":"","zone_id":"","stop_url":"","location_type":"0","parent_station":"","stop_timezone":"America/Los_Angeles","position":"","direction":"","wheelchair_boarding":"0","tts_stop_name":"","feed_id":"California__Auburn_Transit__mdb_mdb-2275","agency_name":"Auburn Transit","route_count":0,"route_ids":"","route_short_names":"","route_types":"","route_type_names":"","routes_json":"[]"},"geometry":{"type":"Point","coordinates":[-121.074100399833,38.9017876516289]}},{"type":"Feature","properties":{"stop_id":"2751414","stop_code":"","platform_code":"","stop_name":"Gold Country Fairgrounds","stop_desc":"","zone_id":"","stop_url":"","location_type":"0","parent_station":"","stop_timezone":"America/Los_Angeles","position":"","direction":"","wheelchair_boarding":"0","tts_stop_name":"","feed_id":"California__Auburn_Transit__mdb_mdb-2275","agency_name":"Auburn Transit","route_count":1,"route_ids":"32372","route_short_names":"","route_types":"3","route_type_names":"Bus","routes_json":"[{\"route_id\":\"32372\",\"route_short_name\":\"\",\"route_long_name\":\"Auburn Loop\",\"route_type\":\"3\",\"route_type_name\":\"Bus\",\"route_color\":\"BF3C39\",\"route_text_color\":\"FFFFFF\"}]"},"geometry":{"type":"Point","coordinates":[-121.075333505048,38.8935841465084]}},{"type":"Feature","properties":{"stop_id":"2751415","stop_code":"","platform_code":"","stop_name":"Confluence","stop_desc":"","zone_id":"","stop_url":"","location_type":"0","parent_station":"","stop_timezone":"America/Los_Angeles","position":"","direction":"","wheelchair_boarding":"0","tts_stop_name":"","feed_id":"California__Auburn_Transit__mdb_mdb-2275","agency_name":"Auburn Transit","route_count":0,"route_ids":"","route_short_names":"","route_types":"","route_type_names":"","routes_json":"[]"},"geometry":{"type":"Point","coordinates":[-121.035781594468,38.9158332397784]}},{"type":"Feature","properties":{"stop_id":"3446932","stop_code":"","platform_code":"","stop_name":"Rodeway Inn","stop_desc":"","zone_id":"","stop_url":"","location_type":"0","parent_station":"","stop_timezone":"America/Los_Angeles","position":"","direction":"","wheelchair_boarding":"0","tts_stop_name":"","feed_id":"California__Auburn_Transit__mdb_mdb-2275","agency_name":"Auburn Transit","route_count":1,"route_ids":"32372","route_short_names":"","route_types":"3","route_type_names":"Bus","routes_json":"[{\"route_id\":\"32372\",\"route_short_name\":\"\",\"route_long_name\":\"Auburn Loop\",\"route_type\":\"3\",\"route_type_name\":\"Bus\",\"route_color\":\"BF3C39\",\"route_text_color\":\"FFFFFF\"}]"},"geometry":{"type":"Point","coordinates":[-121.055755287645,38.927494913411]}},{"type":"Feature","properties":{"stop_id":"3446933","stop_code":"","platform_code":"","stop_name":"Depoe Bay","stop_desc":"","zone_id":"","stop_url":"","location_type":"0","parent_station":"","stop_timezone":"America/Los_Angeles","position":"","direction":"","wheelchair_boarding":"0","tts_stop_name":"","feed_id":"California__Auburn_Transit__mdb_mdb-2275","agency_name":"Auburn Transit","route_count":1,"route_ids":"32372","route_short_names":"","route_types":"3","route_type_names":"Bus","routes_json":"[{\"route_id\":\"32372\",\"route_short_name\":\"\",\"route_long_name\":\"Auburn Loop\",\"route_type\":\"3\",\"route_type_name\":\"Bus\",\"route_color\":\"BF3C39\",\"route_text_color\":\"FFFFFF\"}]"},"geometry":{"type":"Point","coordinates":[-121.069112,38.900711]}}]}