{"type":"FeatureCollection","features":[{"type":"Feature","properties":{"stop_id":"Orange01_Purple01_Green01_Rapid01","stop_code":"","stop_name":"Hobbs Express","stop_desc":"","zone_id":"","stop_url":"","location_type":"","parent_station":"","stop_timezone":"","wheelchair_boarding":"1","feed_id":"New_Mexico__City_of_Hobbs__mdb_ntd-60190","agency_name":"Hobbs Express Public Transportation","route_count":4,"route_ids":"Green|Orange|Purple|Yellow","route_short_names":"Green|Orange|Purple|Rapid","route_types":"3","route_type_names":"Bus","routes_json":"[{\"route_id\":\"Green\",\"route_short_name\":\"Green\",\"route_long_name\":\"\",\"route_type\":\"3\",\"route_type_name\":\"Bus\",\"route_color\":\"00FF00\",\"route_text_color\":\"000000\"},{\"route_id\":\"Orange\",\"route_short_name\":\"Orange\",\"route_long_name\":\"\",\"route_type\":\"3\",\"route_type_name\":\"Bus\",\"route_color\":\"FF6600\",\"route_text_color\":\"FFFFFF\"},{\"route_id\":\"Purple\",\"route_short_name\":\"Purple\",\"route_long_name\":\"\",\"route_type\":\"3\",\"route_type_name\":\"Bus\",\"route_color\":\"6600FF\",\"route_text_color\":\"FFFFFF\"},{\"route_id\":\"Yellow\",\"route_short_name\":\"Rapid\",\"route_long_name\":\"\",\"route_type\":\"3\",\"route_type_name\":\"Bus\",\"route_color\":\"FFFF00\",\"route_text_color\":\"000000\"}]"},"geometry":{"type":"Point","coordinates":[-103.1407446,32.7009269]}},{"type":"Feature","properties":{"stop_id":"Orange02","stop_code":"","stop_name":"Broadmoor Mall","stop_desc":"","zone_id":"","stop_url":"","location_type":"","parent_station":"","stop_timezone":"","wheelchair_boarding":"1","feed_id":"New_Mexico__City_of_Hobbs__mdb_ntd-60190","agency_name":"Hobbs Express Public Transportation","route_count":1,"route_ids":"Orange","route_short_names":"Orange","route_types":"3","route_type_names":"Bus","routes_json":"[{\"route_id\":\"Orange\",\"route_short_name\":\"Orange\",\"route_long_name\":\"\",\"route_type\":\"3\",\"route_type_name\":\"Bus\",\"route_color\":\"FF6600\",\"route_text_color\":\"FFFFFF\"}]"},"geometry":{"type":"Point","coordinates":[-103.1398485,32.714292]}},{"type":"Feature","properties":{"stop_id":"Orange03","stop_code":"","stop_name":"Cedars/Highrise","stop_desc":"","zone_id":"","stop_url":"","location_type":"","parent_station":"","stop_timezone":"","wheelchair_boarding":"1","feed_id":"New_Mexico__City_of_Hobbs__mdb_ntd-60190","agency_name":"Hobbs Express Public Transportation","route_count":1,"route_ids":"Orange","route_short_names":"Orange","route_types":"3","route_type_names":"Bus","routes_json":"[{\"route_id\":\"Orange\",\"route_short_name\":\"Orange\",\"route_long_name\":\"\",\"route_type\":\"3\",\"route_type_name\":\"Bus\",\"route_color\":\"FF6600\",\"route_text_color\":\"FFFFFF\"}]"},"geometry":{"type":"Point","coordinates":[-103.1411127,32.7163851]}},{"type":"Feature","properties":{"stop_id":"Orange04","stop_code":"","stop_name":"Albertsons","stop_desc":"","zone_id":"","stop_url":"","location_type":"","parent_station":"","stop_timezone":"","wheelchair_boarding":"1","feed_id":"New_Mexico__City_of_Hobbs__mdb_ntd-60190","agency_name":"Hobbs Express Public Transportation","route_count":1,"route_ids":"Orange","route_short_names":"Orange","route_types":"3","route_type_names":"Bus","routes_json":"[{\"route_id\":\"Orange\",\"route_short_name\":\"Orange\",\"route_long_name\":\"\",\"route_type\":\"3\",\"route_type_name\":\"Bus\",\"route_color\":\"FF6600\",\"route_text_color\":\"FFFFFF\"}]"},"geometry":{"type":"Point","coordinates":[-103.143715,32.7275883]}},{"type":"Feature","properties":{"stop_id":"Orange05_Green09_Rapid08","stop_code":"","stop_name":"Walmart","stop_desc":"","zone_id":"","stop_url":"","location_type":"","parent_station":"","stop_timezone":"","wheelchair_boarding":"1","feed_id":"New_Mexico__City_of_Hobbs__mdb_ntd-60190","agency_name":"Hobbs Express Public Transportation","route_count":3,"route_ids":"Green|Orange|Yellow","route_short_names":"Green|Orange|Rapid","route_types":"3","route_type_names":"Bus","routes_json":"[{\"route_id\":\"Green\",\"route_short_name\":\"Green\",\"route_long_name\":\"\",\"route_type\":\"3\",\"route_type_name\":\"Bus\",\"route_color\":\"00FF00\",\"route_text_color\":\"000000\"},{\"route_id\":\"Orange\",\"route_short_name\":\"Orange\",\"route_long_name\":\"\",\"route_type\":\"3\",\"route_type_name\":\"Bus\",\"route_color\":\"FF6600\",\"route_text_color\":\"FFFFFF\"},{\"route_id\":\"Yellow\",\"route_short_name\":\"Rapid\",\"route_long_name\":\"\",\"route_type\":\"3\",\"route_type_name\":\"Bus\",\"route_color\":\"FFFF00\",\"route_text_color\":\"000000\"}]"},"geometry":{"type":"Point","coordinates":[-103.1593937,32.74302]}},{"type":"Feature","properties":{"stop_id":"Orange06","stop_code":"","stop_name":"SkyView Apts.","stop_desc":"","zone_id":"","stop_url":"","location_type":"","parent_station":"","stop_timezone":"","wheelchair_boarding":"1","feed_id":"New_Mexico__City_of_Hobbs__mdb_ntd-60190","agency_name":"Hobbs Express Public Transportation","route_count":1,"route_ids":"Orange","route_short_names":"Orange","route_types":"3","route_type_names":"Bus","routes_json":"[{\"route_id\":\"Orange\",\"route_short_name\":\"Orange\",\"route_long_name\":\"\",\"route_type\":\"3\",\"route_type_name\":\"Bus\",\"route_color\":\"FF6600\",\"route_text_color\":\"FFFFFF\"}]"},"geometry":{"type":"Point","coordinates":[-103.1298011,32.7400965]}},{"type":"Feature","properties":{"stop_id":"Orange07","stop_code":"","stop_name":"Bel Aire Shopping","stop_desc":"","zone_id":"","stop_url":"","location_type":"","parent_station":"","stop_timezone":"","wheelchair_boarding":"1","feed_id":"New_Mexico__City_of_Hobbs__mdb_ntd-60190","agency_name":"Hobbs Express Public Transportation","route_count":1,"route_ids":"Orange","route_short_names":"Orange","route_types":"3","route_type_names":"Bus","routes_json":"[{\"route_id\":\"Orange\",\"route_short_name\":\"Orange\",\"route_long_name\":\"\",\"route_type\":\"3\",\"route_type_name\":\"Bus\",\"route_color\":\"FF6600\",\"route_text_color\":\"FFFFFF\"}]"},"geometry":{"type":"Point","coordinates":[-103.1259731,32.724756]}},{"type":"Feature","properties":{"stop_id":"Orange08","stop_code":"","stop_name":"Park Place Apts.","stop_desc":"","zone_id":"","stop_url":"","location_type":"","parent_station":"","stop_timezone":"","wheelchair_boarding":"1","feed_id":"New_Mexico__City_of_Hobbs__mdb_ntd-60190","agency_name":"Hobbs Express Public Transportation","route_count":1,"route_ids":"Orange","route_short_names":"Orange","route_types":"3","route_type_names":"Bus","routes_json":"[{\"route_id\":\"Orange\",\"route_short_name\":\"Orange\",\"route_long_name\":\"\",\"route_type\":\"3\",\"route_type_name\":\"Bus\",\"route_color\":\"FF6600\",\"route_text_color\":\"FFFFFF\"}]"},"geometry":{"type":"Point","coordinates":[-103.124865,32.7221431]}},{"type":"Feature","properties":{"stop_id":"Orange09_Purple10","stop_code":"","stop_name":"Nor-Lea Medical","stop_desc":"","zone_id":"","stop_url":"","location_type":"","parent_station":"","stop_timezone":"","wheelchair_boarding":"1","feed_id":"New_Mexico__City_of_Hobbs__mdb_ntd-60190","agency_name":"Hobbs Express Public Transportation","route_count":2,"route_ids":"Orange|Purple","route_short_names":"Orange|Purple","route_types":"3","route_type_names":"Bus","routes_json":"[{\"route_id\":\"Orange\",\"route_short_name\":\"Orange\",\"route_long_name\":\"\",\"route_type\":\"3\",\"route_type_name\":\"Bus\",\"route_color\":\"FF6600\",\"route_text_color\":\"FFFFFF\"},{\"route_id\":\"Purple\",\"route_short_name\":\"Purple\",\"route_long_name\":\"\",\"route_type\":\"3\",\"route_type_name\":\"Bus\",\"route_color\":\"6600FF\",\"route_text_color\":\"FFFFFF\"}]"},"geometry":{"type":"Point","coordinates":[-103.1277867,32.7213385]}},{"type":"Feature","properties":{"stop_id":"Orange10_Rapid05","stop_code":"","stop_name":"Hobbs Apts.","stop_desc":"","zone_id":"","stop_url":"","location_type":"","parent_station":"","stop_timezone":"","wheelchair_boarding":"1","feed_id":"New_Mexico__City_of_Hobbs__mdb_ntd-60190","agency_name":"Hobbs Express Public Transportation","route_count":2,"route_ids":"Orange|Yellow","route_short_names":"Orange|Rapid","route_types":"3","route_type_names":"Bus","routes_json":"[{\"route_id\":\"Orange\",\"route_short_name\":\"Orange\",\"route_long_name\":\"\",\"route_type\":\"3\",\"route_type_name\":\"Bus\",\"route_color\":\"FF6600\",\"route_text_color\":\"FFFFFF\"},{\"route_id\":\"Yellow\",\"route_short_name\":\"Rapid\",\"route_long_name\":\"\",\"route_type\":\"3\",\"route_type_name\":\"Bus\",\"route_color\":\"FFFF00\",\"route_text_color\":\"000000\"}]"},"geometry":{"type":"Point","coordinates":[-103.1140119,32.7060451]}},{"type":"Feature","properties":{"stop_id":"Orange11_Rapid04","stop_code":"","stop_name":"Broadway Apts.","stop_desc":"","zone_id":"","stop_url":"","location_type":"","parent_station":"","stop_timezone":"","wheelchair_boarding":"1","feed_id":"New_Mexico__City_of_Hobbs__mdb_ntd-60190","agency_name":"Hobbs Express Public Transportation","route_count":2,"route_ids":"Orange|Yellow","route_short_names":"Orange|Rapid","route_types":"3","route_type_names":"Bus","routes_json":"[{\"route_id\":\"Orange\",\"route_short_name\":\"Orange\",\"route_long_name\":\"\",\"route_type\":\"3\",\"route_type_name\":\"Bus\",\"route_color\":\"FF6600\",\"route_text_color\":\"FFFFFF\"},{\"route_id\":\"Yellow\",\"route_short_name\":\"Rapid\",\"route_long_name\":\"\",\"route_type\":\"3\",\"route_type_name\":\"Bus\",\"route_color\":\"FFFF00\",\"route_text_color\":\"000000\"}]"},"geometry":{"type":"Point","coordinates":[-103.123048,32.700878]}},{"type":"Feature","properties":{"stop_id":"Orange12","stop_code":"","stop_name":"La Tienda","stop_desc":"","zone_id":"","stop_url":"","location_type":"","parent_station":"","stop_timezone":"","wheelchair_boarding":"1","feed_id":"New_Mexico__City_of_Hobbs__mdb_ntd-60190","agency_name":"Hobbs Express Public Transportation","route_count":1,"route_ids":"Orange","route_short_names":"Orange","route_types":"3","route_type_names":"Bus","routes_json":"[{\"route_id\":\"Orange\",\"route_short_name\":\"Orange\",\"route_long_name\":\"\",\"route_type\":\"3\",\"route_type_name\":\"Bus\",\"route_color\":\"FF6600\",\"route_text_color\":\"FFFFFF\"}]"},"geometry":{"type":"Point","coordinates":[-103.131373,32.697133]}},{"type":"Feature","properties":{"stop_id":"Purple02","stop_code":"","stop_name":"Guidance Center","stop_desc":"","zone_id":"","stop_url":"","location_type":"","parent_station":"","stop_timezone":"","wheelchair_boarding":"1","feed_id":"New_Mexico__City_of_Hobbs__mdb_ntd-60190","agency_name":"Hobbs Express Public Transportation","route_count":1,"route_ids":"Purple","route_short_names":"Purple","route_types":"3","route_type_names":"Bus","routes_json":"[{\"route_id\":\"Purple\",\"route_short_name\":\"Purple\",\"route_long_name\":\"\",\"route_type\":\"3\",\"route_type_name\":\"Bus\",\"route_color\":\"6600FF\",\"route_text_color\":\"FFFFFF\"}]"},"geometry":{"type":"Point","coordinates":[-103.146804,32.700922]}},{"type":"Feature","properties":{"stop_id":"Purple03","stop_code":"","stop_name":"Princess Jeanne","stop_desc":"","zone_id":"","stop_url":"","location_type":"","parent_station":"","stop_timezone":"","wheelchair_boarding":"1","feed_id":"New_Mexico__City_of_Hobbs__mdb_ntd-60190","agency_name":"Hobbs Express Public Transportation","route_count":1,"route_ids":"Purple","route_short_names":"Purple","route_types":"3","route_type_names":"Bus","routes_json":"[{\"route_id\":\"Purple\",\"route_short_name\":\"Purple\",\"route_long_name\":\"\",\"route_type\":\"3\",\"route_type_name\":\"Bus\",\"route_color\":\"6600FF\",\"route_text_color\":\"FFFFFF\"}]"},"geometry":{"type":"Point","coordinates":[-103.149243,32.718098]}},{"type":"Feature","properties":{"stop_id":"Purple04","stop_code":"","stop_name":"San Mateo/Berry","stop_desc":"","zone_id":"","stop_url":"","location_type":"","parent_station":"","stop_timezone":"","wheelchair_boarding":"1","feed_id":"New_Mexico__City_of_Hobbs__mdb_ntd-60190","agency_name":"Hobbs Express Public Transportation","route_count":1,"route_ids":"Purple","route_short_names":"Purple","route_types":"3","route_type_names":"Bus","routes_json":"[{\"route_id\":\"Purple\",\"route_short_name\":\"Purple\",\"route_long_name\":\"\",\"route_type\":\"3\",\"route_type_name\":\"Bus\",\"route_color\":\"6600FF\",\"route_text_color\":\"FFFFFF\"}]"},"geometry":{"type":"Point","coordinates":[-103.151757,32.714652]}},{"type":"Feature","properties":{"stop_id":"Purple05","stop_code":"","stop_name":"San Mateo/Sanger","stop_desc":"","zone_id":"","stop_url":"","location_type":"","parent_station":"","stop_timezone":"","wheelchair_boarding":"1","feed_id":"New_Mexico__City_of_Hobbs__mdb_ntd-60190","agency_name":"Hobbs Express Public Transportation","route_count":1,"route_ids":"Purple","route_short_names":"Purple","route_types":"3","route_type_names":"Bus","routes_json":"[{\"route_id\":\"Purple\",\"route_short_name\":\"Purple\",\"route_long_name\":\"\",\"route_type\":\"3\",\"route_type_name\":\"Bus\",\"route_color\":\"6600FF\",\"route_text_color\":\"FFFFFF\"}]"},"geometry":{"type":"Point","coordinates":[-103.152157,32.711222]}},{"type":"Feature","properties":{"stop_id":"Purple06","stop_code":"","stop_name":"Turner Plaza","stop_desc":"","zone_id":"","stop_url":"","location_type":"","parent_station":"","stop_timezone":"","wheelchair_boarding":"1","feed_id":"New_Mexico__City_of_Hobbs__mdb_ntd-60190","agency_name":"Hobbs Express Public Transportation","route_count":1,"route_ids":"Purple","route_short_names":"Purple","route_types":"3","route_type_names":"Bus","routes_json":"[{\"route_id\":\"Purple\",\"route_short_name\":\"Purple\",\"route_long_name\":\"\",\"route_type\":\"3\",\"route_type_name\":\"Bus\",\"route_color\":\"6600FF\",\"route_text_color\":\"FFFFFF\"}]"},"geometry":{"type":"Point","coordinates":[-103.14099,32.72089]}},{"type":"Feature","properties":{"stop_id":"Purple07","stop_code":"","stop_name":"Hobbs Junction","stop_desc":"","zone_id":"","stop_url":"","location_type":"","parent_station":"","stop_timezone":"","wheelchair_boarding":"1","feed_id":"New_Mexico__City_of_Hobbs__mdb_ntd-60190","agency_name":"Hobbs Express Public Transportation","route_count":1,"route_ids":"Purple","route_short_names":"Purple","route_types":"3","route_type_names":"Bus","routes_json":"[{\"route_id\":\"Purple\",\"route_short_name\":\"Purple\",\"route_long_name\":\"\",\"route_type\":\"3\",\"route_type_name\":\"Bus\",\"route_color\":\"6600FF\",\"route_text_color\":\"FFFFFF\"}]"},"geometry":{"type":"Point","coordinates":[-103.1438048,32.7246989]}},{"type":"Feature","properties":{"stop_id":"Purple08","stop_code":"","stop_name":"American Medical","stop_desc":"","zone_id":"","stop_url":"","location_type":"","parent_station":"","stop_timezone":"","wheelchair_boarding":"1","feed_id":"New_Mexico__City_of_Hobbs__mdb_ntd-60190","agency_name":"Hobbs Express Public Transportation","route_count":1,"route_ids":"Purple","route_short_names":"Purple","route_types":"3","route_type_names":"Bus","routes_json":"[{\"route_id\":\"Purple\",\"route_short_name\":\"Purple\",\"route_long_name\":\"\",\"route_type\":\"3\",\"route_type_name\":\"Bus\",\"route_color\":\"6600FF\",\"route_text_color\":\"FFFFFF\"}]"},"geometry":{"type":"Point","coordinates":[-103.135762,32.728339]}},{"type":"Feature","properties":{"stop_id":"Purple09","stop_code":"","stop_name":"Social Security Office","stop_desc":"","zone_id":"","stop_url":"","location_type":"","parent_station":"","stop_timezone":"","wheelchair_boarding":"1","feed_id":"New_Mexico__City_of_Hobbs__mdb_ntd-60190","agency_name":"Hobbs Express Public Transportation","route_count":1,"route_ids":"Purple","route_short_names":"Purple","route_types":"3","route_type_names":"Bus","routes_json":"[{\"route_id\":\"Purple\",\"route_short_name\":\"Purple\",\"route_long_name\":\"\",\"route_type\":\"3\",\"route_type_name\":\"Bus\",\"route_color\":\"6600FF\",\"route_text_color\":\"FFFFFF\"}]"},"geometry":{"type":"Point","coordinates":[-103.1319175,32.725552]}},{"type":"Feature","properties":{"stop_id":"Purple12","stop_code":"","stop_name":"Playa Escondida","stop_desc":"","zone_id":"","stop_url":"","location_type":"","parent_station":"","stop_timezone":"","wheelchair_boarding":"1","feed_id":"New_Mexico__City_of_Hobbs__mdb_ntd-60190","agency_name":"Hobbs Express Public Transportation","route_count":1,"route_ids":"Purple","route_short_names":"Purple","route_types":"3","route_type_names":"Bus","routes_json":"[{\"route_id\":\"Purple\",\"route_short_name\":\"Purple\",\"route_long_name\":\"\",\"route_type\":\"3\",\"route_type_name\":\"Bus\",\"route_color\":\"6600FF\",\"route_text_color\":\"FFFFFF\"}]"},"geometry":{"type":"Point","coordinates":[-103.125484,32.716583]}},{"type":"Feature","properties":{"stop_id":"Purple13","stop_code":"","stop_name":"Washington Apts.","stop_desc":"","zone_id":"","stop_url":"","location_type":"","parent_station":"","stop_timezone":"","wheelchair_boarding":"1","feed_id":"New_Mexico__City_of_Hobbs__mdb_ntd-60190","agency_name":"Hobbs Express Public Transportation","route_count":1,"route_ids":"Purple","route_short_names":"Purple","route_types":"3","route_type_names":"Bus","routes_json":"[{\"route_id\":\"Purple\",\"route_short_name\":\"Purple\",\"route_long_name\":\"\",\"route_type\":\"3\",\"route_type_name\":\"Bus\",\"route_color\":\"6600FF\",\"route_text_color\":\"FFFFFF\"}]"},"geometry":{"type":"Point","coordinates":[-103.119355,32.696536]}},{"type":"Feature","properties":{"stop_id":"Purple14","stop_code":"","stop_name":"Leaf Apts.","stop_desc":"","zone_id":"","stop_url":"","location_type":"","parent_station":"","stop_timezone":"","wheelchair_boarding":"1","feed_id":"New_Mexico__City_of_Hobbs__mdb_ntd-60190","agency_name":"Hobbs Express Public Transportation","route_count":1,"route_ids":"Purple","route_short_names":"Purple","route_types":"3","route_type_names":"Bus","routes_json":"[{\"route_id\":\"Purple\",\"route_short_name\":\"Purple\",\"route_long_name\":\"\",\"route_type\":\"3\",\"route_type_name\":\"Bus\",\"route_color\":\"6600FF\",\"route_text_color\":\"FFFFFF\"}]"},"geometry":{"type":"Point","coordinates":[-103.117801,32.695324]}},{"type":"Feature","properties":{"stop_id":"Purple15","stop_code":"","stop_name":"Main/McKinley","stop_desc":"","zone_id":"","stop_url":"","location_type":"","parent_station":"","stop_timezone":"","wheelchair_boarding":"1","feed_id":"New_Mexico__City_of_Hobbs__mdb_ntd-60190","agency_name":"Hobbs Express Public Transportation","route_count":1,"route_ids":"Purple","route_short_names":"Purple","route_types":"3","route_type_names":"Bus","routes_json":"[{\"route_id\":\"Purple\",\"route_short_name\":\"Purple\",\"route_long_name\":\"\",\"route_type\":\"3\",\"route_type_name\":\"Bus\",\"route_color\":\"6600FF\",\"route_text_color\":\"FFFFFF\"}]"},"geometry":{"type":"Point","coordinates":[-103.132472,32.692549]}},{"type":"Feature","properties":{"stop_id":"Green02","stop_code":"","stop_name":"Covenant Hospital (new)","stop_desc":"","zone_id":"","stop_url":"","location_type":"","parent_station":"","stop_timezone":"","wheelchair_boarding":"1","feed_id":"New_Mexico__City_of_Hobbs__mdb_ntd-60190","agency_name":"Hobbs Express Public Transportation","route_count":1,"route_ids":"Green","route_short_names":"Green","route_types":"3","route_type_names":"Bus","routes_json":"[{\"route_id\":\"Green\",\"route_short_name\":\"Green\",\"route_long_name\":\"\",\"route_type\":\"3\",\"route_type_name\":\"Bus\",\"route_color\":\"00FF00\",\"route_text_color\":\"000000\"}]"},"geometry":{"type":"Point","coordinates":[-103.173979,32.755379]}},{"type":"Feature","properties":{"stop_id":"Green03","stop_code":"","stop_name":"University of Southwest","stop_desc":"","zone_id":"","stop_url":"","location_type":"","parent_station":"","stop_timezone":"","wheelchair_boarding":"1","feed_id":"New_Mexico__City_of_Hobbs__mdb_ntd-60190","agency_name":"Hobbs Express Public Transportation","route_count":1,"route_ids":"Green","route_short_names":"Green","route_types":"3","route_type_names":"Bus","routes_json":"[{\"route_id\":\"Green\",\"route_short_name\":\"Green\",\"route_long_name\":\"\",\"route_type\":\"3\",\"route_type_name\":\"Bus\",\"route_color\":\"00FF00\",\"route_text_color\":\"000000\"}]"},"geometry":{"type":"Point","coordinates":[-103.1892843,32.7746409]}},{"type":"Feature","properties":{"stop_id":"Green04","stop_code":"","stop_name":"Covenant Medical (old)","stop_desc":"","zone_id":"","stop_url":"","location_type":"","parent_station":"","stop_timezone":"","wheelchair_boarding":"1","feed_id":"New_Mexico__City_of_Hobbs__mdb_ntd-60190","agency_name":"Hobbs Express Public Transportation","route_count":1,"route_ids":"Green","route_short_names":"Green","route_types":"3","route_type_names":"Bus","routes_json":"[{\"route_id\":\"Green\",\"route_short_name\":\"Green\",\"route_long_name\":\"\",\"route_type\":\"3\",\"route_type_name\":\"Bus\",\"route_color\":\"00FF00\",\"route_text_color\":\"000000\"}]"},"geometry":{"type":"Point","coordinates":[-103.1848302,32.7612341]}},{"type":"Feature","properties":{"stop_id":"Green05","stop_code":"","stop_name":"NMJC Main Stop","stop_desc":"","zone_id":"","stop_url":"","location_type":"","parent_station":"","stop_timezone":"","wheelchair_boarding":"1","feed_id":"New_Mexico__City_of_Hobbs__mdb_ntd-60190","agency_name":"Hobbs Express Public Transportation","route_count":1,"route_ids":"Green","route_short_names":"Green","route_types":"3","route_type_names":"Bus","routes_json":"[{\"route_id\":\"Green\",\"route_short_name\":\"Green\",\"route_long_name\":\"\",\"route_type\":\"3\",\"route_type_name\":\"Bus\",\"route_color\":\"00FF00\",\"route_text_color\":\"000000\"}]"},"geometry":{"type":"Point","coordinates":[-103.1813129,32.757971]}},{"type":"Feature","properties":{"stop_id":"Green06","stop_code":"","stop_name":"NMJC Dorm","stop_desc":"","zone_id":"","stop_url":"","location_type":"","parent_station":"","stop_timezone":"","wheelchair_boarding":"1","feed_id":"New_Mexico__City_of_Hobbs__mdb_ntd-60190","agency_name":"Hobbs Express Public Transportation","route_count":1,"route_ids":"Green","route_short_names":"Green","route_types":"3","route_type_names":"Bus","routes_json":"[{\"route_id\":\"Green\",\"route_short_name\":\"Green\",\"route_long_name\":\"\",\"route_type\":\"3\",\"route_type_name\":\"Bus\",\"route_color\":\"00FF00\",\"route_text_color\":\"000000\"}]"},"geometry":{"type":"Point","coordinates":[-103.1853561,32.7570046]}},{"type":"Feature","properties":{"stop_id":"Green07","stop_code":"","stop_name":"Zia Park Casino","stop_desc":"","zone_id":"","stop_url":"","location_type":"","parent_station":"","stop_timezone":"","wheelchair_boarding":"1","feed_id":"New_Mexico__City_of_Hobbs__mdb_ntd-60190","agency_name":"Hobbs Express Public Transportation","route_count":1,"route_ids":"Green","route_short_names":"Green","route_types":"3","route_type_names":"Bus","routes_json":"[{\"route_id\":\"Green\",\"route_short_name\":\"Green\",\"route_long_name\":\"\",\"route_type\":\"3\",\"route_type_name\":\"Bus\",\"route_color\":\"00FF00\",\"route_text_color\":\"000000\"}]"},"geometry":{"type":"Point","coordinates":[-103.1854273,32.752879]}},{"type":"Feature","properties":{"stop_id":"Green08","stop_code":"","stop_name":"C.O.R.E.","stop_desc":"","zone_id":"","stop_url":"","location_type":"","parent_station":"","stop_timezone":"","wheelchair_boarding":"1","feed_id":"New_Mexico__City_of_Hobbs__mdb_ntd-60190","agency_name":"Hobbs Express Public Transportation","route_count":1,"route_ids":"Green","route_short_names":"Green","route_types":"3","route_type_names":"Bus","routes_json":"[{\"route_id\":\"Green\",\"route_short_name\":\"Green\",\"route_long_name\":\"\",\"route_type\":\"3\",\"route_type_name\":\"Bus\",\"route_color\":\"00FF00\",\"route_text_color\":\"000000\"}]"},"geometry":{"type":"Point","coordinates":[-103.17677,32.753891]}},{"type":"Feature","properties":{"stop_id":"Rapid02","stop_code":"","stop_name":"City Hall","stop_desc":"","zone_id":"","stop_url":"","location_type":"","parent_station":"","stop_timezone":"","wheelchair_boarding":"","feed_id":"New_Mexico__City_of_Hobbs__mdb_ntd-60190","agency_name":"Hobbs Express Public Transportation","route_count":1,"route_ids":"Yellow","route_short_names":"Rapid","route_types":"3","route_type_names":"Bus","routes_json":"[{\"route_id\":\"Yellow\",\"route_short_name\":\"Rapid\",\"route_long_name\":\"\",\"route_type\":\"3\",\"route_type_name\":\"Bus\",\"route_color\":\"FFFF00\",\"route_text_color\":\"000000\"}]"},"geometry":{"type":"Point","coordinates":[-103.134867,32.701361]}},{"type":"Feature","properties":{"stop_id":"Rapid03","stop_code":"","stop_name":"Police Department","stop_desc":"","zone_id":"","stop_url":"","location_type":"","parent_station":"","stop_timezone":"","wheelchair_boarding":"","feed_id":"New_Mexico__City_of_Hobbs__mdb_ntd-60190","agency_name":"Hobbs Express Public Transportation","route_count":1,"route_ids":"Yellow","route_short_names":"Rapid","route_types":"3","route_type_names":"Bus","routes_json":"[{\"route_id\":\"Yellow\",\"route_short_name\":\"Rapid\",\"route_long_name\":\"\",\"route_type\":\"3\",\"route_type_name\":\"Bus\",\"route_color\":\"FFFF00\",\"route_text_color\":\"000000\"}]"},"geometry":{"type":"Point","coordinates":[-103.1361069,32.7029335]}},{"type":"Feature","properties":{"stop_id":"Rapid06","stop_code":"","stop_name":"Willow Bend Apts","stop_desc":"","zone_id":"","stop_url":"","location_type":"","parent_station":"","stop_timezone":"","wheelchair_boarding":"","feed_id":"New_Mexico__City_of_Hobbs__mdb_ntd-60190","agency_name":"Hobbs Express Public Transportation","route_count":1,"route_ids":"Yellow","route_short_names":"Rapid","route_types":"3","route_type_names":"Bus","routes_json":"[{\"route_id\":\"Yellow\",\"route_short_name\":\"Rapid\",\"route_long_name\":\"\",\"route_type\":\"3\",\"route_type_name\":\"Bus\",\"route_color\":\"FFFF00\",\"route_text_color\":\"000000\"}]"},"geometry":{"type":"Point","coordinates":[-103.112643,32.710113]}},{"type":"Feature","properties":{"stop_id":"Rapid07","stop_code":"","stop_name":"Navajo/Dal Paso","stop_desc":"","zone_id":"","stop_url":"","location_type":"","parent_station":"","stop_timezone":"","wheelchair_boarding":"","feed_id":"New_Mexico__City_of_Hobbs__mdb_ntd-60190","agency_name":"Hobbs Express Public Transportation","route_count":1,"route_ids":"Yellow","route_short_names":"Rapid","route_types":"3","route_type_names":"Bus","routes_json":"[{\"route_id\":\"Yellow\",\"route_short_name\":\"Rapid\",\"route_long_name\":\"\",\"route_type\":\"3\",\"route_type_name\":\"Bus\",\"route_color\":\"FFFF00\",\"route_text_color\":\"000000\"}]"},"geometry":{"type":"Point","coordinates":[-103.1288416,32.7403473]}},{"type":"Feature","properties":{"stop_id":"Rapid09","stop_code":"","stop_name":"Walgreens","stop_desc":"","zone_id":"","stop_url":"","location_type":"","parent_station":"","stop_timezone":"","wheelchair_boarding":"","feed_id":"New_Mexico__City_of_Hobbs__mdb_ntd-60190","agency_name":"Hobbs Express Public Transportation","route_count":1,"route_ids":"Yellow","route_short_names":"Rapid","route_types":"3","route_type_names":"Bus","routes_json":"[{\"route_id\":\"Yellow\",\"route_short_name\":\"Rapid\",\"route_long_name\":\"\",\"route_type\":\"3\",\"route_type_name\":\"Bus\",\"route_color\":\"FFFF00\",\"route_text_color\":\"000000\"}]"},"geometry":{"type":"Point","coordinates":[-103.1461674,32.7397773]}},{"type":"Feature","properties":{"stop_id":"Rapid10","stop_code":"","stop_name":"Triangle Park","stop_desc":"","zone_id":"","stop_url":"","location_type":"","parent_station":"","stop_timezone":"","wheelchair_boarding":"","feed_id":"New_Mexico__City_of_Hobbs__mdb_ntd-60190","agency_name":"Hobbs Express Public Transportation","route_count":1,"route_ids":"Yellow","route_short_names":"Rapid","route_types":"3","route_type_names":"Bus","routes_json":"[{\"route_id\":\"Yellow\",\"route_short_name\":\"Rapid\",\"route_long_name\":\"\",\"route_type\":\"3\",\"route_type_name\":\"Bus\",\"route_color\":\"FFFF00\",\"route_text_color\":\"000000\"}]"},"geometry":{"type":"Point","coordinates":[-103.135356,32.713118]}},{"type":"Feature","properties":{"stop_id":"Rapid11","stop_code":"","stop_name":"Library","stop_desc":"","zone_id":"","stop_url":"","location_type":"","parent_station":"","stop_timezone":"","wheelchair_boarding":"","feed_id":"New_Mexico__City_of_Hobbs__mdb_ntd-60190","agency_name":"Hobbs Express Public Transportation","route_count":1,"route_ids":"Yellow","route_short_names":"Rapid","route_types":"3","route_type_names":"Bus","routes_json":"[{\"route_id\":\"Yellow\",\"route_short_name\":\"Rapid\",\"route_long_name\":\"\",\"route_type\":\"3\",\"route_type_name\":\"Bus\",\"route_color\":\"FFFF00\",\"route_text_color\":\"000000\"}]"},"geometry":{"type":"Point","coordinates":[-103.137883,32.7050905]}}]}