{"type":"FeatureCollection","features":[{"type":"Feature","properties":{"stop_id":"bay_sugar_eb","stop_code":"","stop_name":"Bayou Rd. at Sugar Mill Dr.","stop_desc":"","zone_id":"","stop_url":"","location_type":"","parent_station":"","stop_timezone":"","wheelchair_boarding":"1","feed_id":"Louisiana__St._Bernard_Parish__mdb_ntd-60058","agency_name":"St. Bernard Urban Rapid Transit","route_count":0,"route_ids":"","route_short_names":"","route_types":"","route_type_names":"","routes_json":"[]"},"geometry":{"type":"Point","coordinates":[-89.869885,29.86792]}},{"type":"Feature","properties":{"stop_id":"bay_torr","stop_code":"","stop_name":"Bayou Road at Torres St.","stop_desc":"","zone_id":"","stop_url":"","location_type":"","parent_station":"","stop_timezone":"","wheelchair_boarding":"1","feed_id":"Louisiana__St._Bernard_Parish__mdb_ntd-60058","agency_name":"St. Bernard Urban Rapid Transit","route_count":1,"route_ids":"SBURT","route_short_names":"SBURT","route_types":"3","route_type_names":"Bus","routes_json":"[{\"route_id\":\"SBURT\",\"route_short_name\":\"SBURT\",\"route_long_name\":\"\",\"route_type\":\"3\",\"route_type_name\":\"Bus\",\"route_color\":\"64748B\",\"route_text_color\":\"FFFFFF\"}]"},"geometry":{"type":"Point","coordinates":[-89.87414,29.86791]}},{"type":"Feature","properties":{"stop_id":"bay_torr_eb","stop_code":"","stop_name":"Bayou Road at Torres St.","stop_desc":"","zone_id":"","stop_url":"","location_type":"","parent_station":"","stop_timezone":"","wheelchair_boarding":"1","feed_id":"Louisiana__St._Bernard_Parish__mdb_ntd-60058","agency_name":"St. Bernard Urban Rapid Transit","route_count":1,"route_ids":"SBURT","route_short_names":"SBURT","route_types":"3","route_type_names":"Bus","routes_json":"[{\"route_id\":\"SBURT\",\"route_short_name\":\"SBURT\",\"route_long_name\":\"\",\"route_type\":\"3\",\"route_type_name\":\"Bus\",\"route_color\":\"64748B\",\"route_text_color\":\"FFFFFF\"}]"},"geometry":{"type":"Point","coordinates":[-89.874483,29.867768]}},{"type":"Feature","properties":{"stop_id":"richards_rv","stop_code":"","stop_name":"Richards RV Park (350 Bayou Rd.)","stop_desc":"","zone_id":"","stop_url":"","location_type":"","parent_station":"","stop_timezone":"","wheelchair_boarding":"1","feed_id":"Louisiana__St._Bernard_Parish__mdb_ntd-60058","agency_name":"St. Bernard Urban Rapid Transit","route_count":1,"route_ids":"SBURT","route_short_names":"SBURT","route_types":"3","route_type_names":"Bus","routes_json":"[{\"route_id\":\"SBURT\",\"route_short_name\":\"SBURT\",\"route_long_name\":\"\",\"route_type\":\"3\",\"route_type_name\":\"Bus\",\"route_color\":\"64748B\",\"route_text_color\":\"FFFFFF\"}]"},"geometry":{"type":"Point","coordinates":[-89.88163,29.86798]}},{"type":"Feature","properties":{"stop_id":"bay_371_richards_wb","stop_code":"","stop_name":"371 Bayou Rd.","stop_desc":"","zone_id":"","stop_url":"","location_type":"","parent_station":"","stop_timezone":"","wheelchair_boarding":"1","feed_id":"Louisiana__St._Bernard_Parish__mdb_ntd-60058","agency_name":"St. Bernard Urban Rapid Transit","route_count":1,"route_ids":"SBURT","route_short_names":"SBURT","route_types":"3","route_type_names":"Bus","routes_json":"[{\"route_id\":\"SBURT\",\"route_short_name\":\"SBURT\",\"route_long_name\":\"\",\"route_type\":\"3\",\"route_type_name\":\"Bus\",\"route_color\":\"64748B\",\"route_text_color\":\"FFFFFF\"}]"},"geometry":{"type":"Point","coordinates":[-89.881632,29.867989]}},{"type":"Feature","properties":{"stop_id":"bay_christie","stop_code":"","stop_name":"Bayou Road at Christie Dr.","stop_desc":"","zone_id":"","stop_url":"","location_type":"","parent_station":"","stop_timezone":"","wheelchair_boarding":"1","feed_id":"Louisiana__St._Bernard_Parish__mdb_ntd-60058","agency_name":"St. Bernard Urban Rapid Transit","route_count":1,"route_ids":"SBURT","route_short_names":"SBURT","route_types":"3","route_type_names":"Bus","routes_json":"[{\"route_id\":\"SBURT\",\"route_short_name\":\"SBURT\",\"route_long_name\":\"\",\"route_type\":\"3\",\"route_type_name\":\"Bus\",\"route_color\":\"64748B\",\"route_text_color\":\"FFFFFF\"}]"},"geometry":{"type":"Point","coordinates":[-89.890593,29.868367]}},{"type":"Feature","properties":{"stop_id":"junc_stbhwy","stop_code":"","stop_name":"Junction (St. Bernard Hwy Parkway)","stop_desc":"","zone_id":"","stop_url":"","location_type":"","parent_station":"","stop_timezone":"","wheelchair_boarding":"1","feed_id":"Louisiana__St._Bernard_Parish__mdb_ntd-60058","agency_name":"St. Bernard Urban Rapid Transit","route_count":1,"route_ids":"SBURT","route_short_names":"SBURT","route_types":"3","route_type_names":"Bus","routes_json":"[{\"route_id\":\"SBURT\",\"route_short_name\":\"SBURT\",\"route_long_name\":\"\",\"route_type\":\"3\",\"route_type_name\":\"Bus\",\"route_color\":\"64748B\",\"route_text_color\":\"FFFFFF\"}]"},"geometry":{"type":"Point","coordinates":[-89.891272,29.868487]}},{"type":"Feature","properties":{"stop_id":"esb_green_wb","stop_code":"","stop_name":"E. St. Bernard Hwy at Green Ave.","stop_desc":"","zone_id":"","stop_url":"","location_type":"","parent_station":"","stop_timezone":"","wheelchair_boarding":"1","feed_id":"Louisiana__St._Bernard_Parish__mdb_ntd-60058","agency_name":"St. Bernard Urban Rapid Transit","route_count":1,"route_ids":"SBURT","route_short_names":"SBURT","route_types":"3","route_type_names":"Bus","routes_json":"[{\"route_id\":\"SBURT\",\"route_short_name\":\"SBURT\",\"route_long_name\":\"\",\"route_type\":\"3\",\"route_type_name\":\"Bus\",\"route_color\":\"64748B\",\"route_text_color\":\"FFFFFF\"}]"},"geometry":{"type":"Point","coordinates":[-89.89555,29.874493]}},{"type":"Feature","properties":{"stop_id":"esb_green_eb","stop_code":"","stop_name":"E. St. Bernard Hwy at Green Ave.","stop_desc":"","zone_id":"","stop_url":"","location_type":"","parent_station":"","stop_timezone":"","wheelchair_boarding":"1","feed_id":"Louisiana__St._Bernard_Parish__mdb_ntd-60058","agency_name":"St. Bernard Urban Rapid Transit","route_count":1,"route_ids":"SBURT","route_short_names":"SBURT","route_types":"3","route_type_names":"Bus","routes_json":"[{\"route_id\":\"SBURT\",\"route_short_name\":\"SBURT\",\"route_long_name\":\"\",\"route_type\":\"3\",\"route_type_name\":\"Bus\",\"route_color\":\"64748B\",\"route_text_color\":\"FFFFFF\"}]"},"geometry":{"type":"Point","coordinates":[-89.895332,29.874503]}},{"type":"Feature","properties":{"stop_id":"esb_goodw_eb","stop_code":"","stop_name":"E St Bernard Hwy and Goodwill Dr.","stop_desc":"","zone_id":"","stop_url":"","location_type":"","parent_station":"","stop_timezone":"","wheelchair_boarding":"1","feed_id":"Louisiana__St._Bernard_Parish__mdb_ntd-60058","agency_name":"St. Bernard Urban Rapid Transit","route_count":1,"route_ids":"SBURT","route_short_names":"SBURT","route_types":"3","route_type_names":"Bus","routes_json":"[{\"route_id\":\"SBURT\",\"route_short_name\":\"SBURT\",\"route_long_name\":\"\",\"route_type\":\"3\",\"route_type_name\":\"Bus\",\"route_color\":\"64748B\",\"route_text_color\":\"FFFFFF\"}]"},"geometry":{"type":"Point","coordinates":[-89.895724,29.876291]}},{"type":"Feature","properties":{"stop_id":"esb_goodw_wb","stop_code":"","stop_name":"E St Bernard Hwy and Goodwill Dr.","stop_desc":"","zone_id":"","stop_url":"","location_type":"","parent_station":"","stop_timezone":"","wheelchair_boarding":"1","feed_id":"Louisiana__St._Bernard_Parish__mdb_ntd-60058","agency_name":"St. Bernard Urban Rapid Transit","route_count":1,"route_ids":"SBURT","route_short_names":"SBURT","route_types":"3","route_type_names":"Bus","routes_json":"[{\"route_id\":\"SBURT\",\"route_short_name\":\"SBURT\",\"route_long_name\":\"\",\"route_type\":\"3\",\"route_type_name\":\"Bus\",\"route_color\":\"64748B\",\"route_text_color\":\"FFFFFF\"}]"},"geometry":{"type":"Point","coordinates":[-89.895452,29.876297]}},{"type":"Feature","properties":{"stop_id":"esb_riverq_wb","stop_code":"","stop_name":"E St Bernard Hwy at River Queen Dr.","stop_desc":"","zone_id":"","stop_url":"","location_type":"","parent_station":"","stop_timezone":"","wheelchair_boarding":"1","feed_id":"Louisiana__St._Bernard_Parish__mdb_ntd-60058","agency_name":"St. Bernard Urban Rapid Transit","route_count":1,"route_ids":"SBURT","route_short_names":"SBURT","route_types":"3","route_type_names":"Bus","routes_json":"[{\"route_id\":\"SBURT\",\"route_short_name\":\"SBURT\",\"route_long_name\":\"\",\"route_type\":\"3\",\"route_type_name\":\"Bus\",\"route_color\":\"64748B\",\"route_text_color\":\"FFFFFF\"}]"},"geometry":{"type":"Point","coordinates":[-89.895781,29.880079]}},{"type":"Feature","properties":{"stop_id":"esb_riverq_eb","stop_code":"","stop_name":"E St Bernard Hwy at River Queen Dr.","stop_desc":"","zone_id":"","stop_url":"","location_type":"","parent_station":"","stop_timezone":"","wheelchair_boarding":"1","feed_id":"Louisiana__St._Bernard_Parish__mdb_ntd-60058","agency_name":"St. Bernard Urban Rapid Transit","route_count":1,"route_ids":"SBURT","route_short_names":"SBURT","route_types":"3","route_type_names":"Bus","routes_json":"[{\"route_id\":\"SBURT\",\"route_short_name\":\"SBURT\",\"route_long_name\":\"\",\"route_type\":\"3\",\"route_type_name\":\"Bus\",\"route_color\":\"64748B\",\"route_text_color\":\"FFFFFF\"}]"},"geometry":{"type":"Point","coordinates":[-89.895971,29.880204]}},{"type":"Feature","properties":{"stop_id":"esb_6701_wb","stop_code":"","stop_name":"6701 E St Bernard Hwy (W. Smith Junior Elementary School)","stop_desc":"","zone_id":"","stop_url":"","location_type":"","parent_station":"","stop_timezone":"","wheelchair_boarding":"1","feed_id":"Louisiana__St._Bernard_Parish__mdb_ntd-60058","agency_name":"St. Bernard Urban Rapid Transit","route_count":1,"route_ids":"SBURT","route_short_names":"SBURT","route_types":"3","route_type_names":"Bus","routes_json":"[{\"route_id\":\"SBURT\",\"route_short_name\":\"SBURT\",\"route_long_name\":\"\",\"route_type\":\"3\",\"route_type_name\":\"Bus\",\"route_color\":\"64748B\",\"route_text_color\":\"FFFFFF\"}]"},"geometry":{"type":"Point","coordinates":[-89.897196,29.889125]}},{"type":"Feature","properties":{"stop_id":"esb_6701_eb","stop_code":"","stop_name":"6701 E St Bernard Hwy (W. Smith Junior Elementary School)","stop_desc":"","zone_id":"","stop_url":"","location_type":"","parent_station":"","stop_timezone":"","wheelchair_boarding":"1","feed_id":"Louisiana__St._Bernard_Parish__mdb_ntd-60058","agency_name":"St. Bernard Urban Rapid Transit","route_count":1,"route_ids":"SBURT","route_short_names":"SBURT","route_types":"3","route_type_names":"Bus","routes_json":"[{\"route_id\":\"SBURT\",\"route_short_name\":\"SBURT\",\"route_long_name\":\"\",\"route_type\":\"3\",\"route_type_name\":\"Bus\",\"route_color\":\"64748B\",\"route_text_color\":\"FFFFFF\"}]"},"geometry":{"type":"Point","coordinates":[-89.897406,29.889165]}},{"type":"Feature","properties":{"stop_id":"esb_b_wb","stop_code":"","stop_name":"E St Bernard Hwy and B St.","stop_desc":"","zone_id":"","stop_url":"","location_type":"","parent_station":"","stop_timezone":"","wheelchair_boarding":"1","feed_id":"Louisiana__St._Bernard_Parish__mdb_ntd-60058","agency_name":"St. Bernard Urban Rapid Transit","route_count":1,"route_ids":"SBURT","route_short_names":"SBURT","route_types":"3","route_type_names":"Bus","routes_json":"[{\"route_id\":\"SBURT\",\"route_short_name\":\"SBURT\",\"route_long_name\":\"\",\"route_type\":\"3\",\"route_type_name\":\"Bus\",\"route_color\":\"64748B\",\"route_text_color\":\"FFFFFF\"}]"},"geometry":{"type":"Point","coordinates":[-89.899758,29.894848]}},{"type":"Feature","properties":{"stop_id":"esb_b_eb","stop_code":"","stop_name":"E. St. Bernard Hwy. at 1st Navy Access Rd.","stop_desc":"","zone_id":"","stop_url":"","location_type":"","parent_station":"","stop_timezone":"","wheelchair_boarding":"1","feed_id":"Louisiana__St._Bernard_Parish__mdb_ntd-60058","agency_name":"St. Bernard Urban Rapid Transit","route_count":1,"route_ids":"SBURT","route_short_names":"SBURT","route_types":"3","route_type_names":"Bus","routes_json":"[{\"route_id\":\"SBURT\",\"route_short_name\":\"SBURT\",\"route_long_name\":\"\",\"route_type\":\"3\",\"route_type_name\":\"Bus\",\"route_color\":\"64748B\",\"route_text_color\":\"FFFFFF\"}]"},"geometry":{"type":"Point","coordinates":[-89.899842,29.89538]}},{"type":"Feature","properties":{"stop_id":"esb_cana_wb","stop_code":"","stop_name":"E St Bernard Hwy. at Canal St.","stop_desc":"","zone_id":"","stop_url":"","location_type":"","parent_station":"","stop_timezone":"","wheelchair_boarding":"1","feed_id":"Louisiana__St._Bernard_Parish__mdb_ntd-60058","agency_name":"St. Bernard Urban Rapid Transit","route_count":1,"route_ids":"SBURT","route_short_names":"SBURT","route_types":"3","route_type_names":"Bus","routes_json":"[{\"route_id\":\"SBURT\",\"route_short_name\":\"SBURT\",\"route_long_name\":\"\",\"route_type\":\"3\",\"route_type_name\":\"Bus\",\"route_color\":\"64748B\",\"route_text_color\":\"FFFFFF\"}]"},"geometry":{"type":"Point","coordinates":[-89.900408,29.896872]}},{"type":"Feature","properties":{"stop_id":"esb_cana_eb","stop_code":"","stop_name":"E St Bernard Hwy. at Canal St.","stop_desc":"","zone_id":"","stop_url":"","location_type":"","parent_station":"","stop_timezone":"","wheelchair_boarding":"1","feed_id":"Louisiana__St._Bernard_Parish__mdb_ntd-60058","agency_name":"St. Bernard Urban Rapid Transit","route_count":1,"route_ids":"SBURT","route_short_names":"SBURT","route_types":"3","route_type_names":"Bus","routes_json":"[{\"route_id\":\"SBURT\",\"route_short_name\":\"SBURT\",\"route_long_name\":\"\",\"route_type\":\"3\",\"route_type_name\":\"Bus\",\"route_color\":\"64748B\",\"route_text_color\":\"FFFFFF\"}]"},"geometry":{"type":"Point","coordinates":[-89.900599,29.896873]}},{"type":"Feature","properties":{"stop_id":"esb_violet_eb","stop_code":"","stop_name":"E St. Bernard Hwy. at Violet St.","stop_desc":"","zone_id":"","stop_url":"","location_type":"","parent_station":"","stop_timezone":"","wheelchair_boarding":"1","feed_id":"Louisiana__St._Bernard_Parish__mdb_ntd-60058","agency_name":"St. Bernard Urban Rapid Transit","route_count":1,"route_ids":"SBURT","route_short_names":"SBURT","route_types":"3","route_type_names":"Bus","routes_json":"[{\"route_id\":\"SBURT\",\"route_short_name\":\"SBURT\",\"route_long_name\":\"\",\"route_type\":\"3\",\"route_type_name\":\"Bus\",\"route_color\":\"64748B\",\"route_text_color\":\"FFFFFF\"}]"},"geometry":{"type":"Point","coordinates":[-89.902314,29.901245]}},{"type":"Feature","properties":{"stop_id":"esb_violet_wb","stop_code":"","stop_name":"E St. Bernard Hwy. at Violet St.","stop_desc":"","zone_id":"","stop_url":"","location_type":"","parent_station":"","stop_timezone":"","wheelchair_boarding":"1","feed_id":"Louisiana__St._Bernard_Parish__mdb_ntd-60058","agency_name":"St. Bernard Urban Rapid Transit","route_count":1,"route_ids":"SBURT","route_short_names":"SBURT","route_types":"3","route_type_names":"Bus","routes_json":"[{\"route_id\":\"SBURT\",\"route_short_name\":\"SBURT\",\"route_long_name\":\"\",\"route_type\":\"3\",\"route_type_name\":\"Bus\",\"route_color\":\"64748B\",\"route_text_color\":\"FFFFFF\"}]"},"geometry":{"type":"Point","coordinates":[-89.90249,29.901249]}},{"type":"Feature","properties":{"stop_id":"col_prov_wb","stop_code":"","stop_name":"Colonial Blvd. at Provencial Ct.","stop_desc":"","zone_id":"","stop_url":"","location_type":"","parent_station":"","stop_timezone":"","wheelchair_boarding":"1","feed_id":"Louisiana__St._Bernard_Parish__mdb_ntd-60058","agency_name":"St. Bernard Urban Rapid Transit","route_count":1,"route_ids":"SBURT","route_short_names":"SBURT","route_types":"3","route_type_names":"Bus","routes_json":"[{\"route_id\":\"SBURT\",\"route_short_name\":\"SBURT\",\"route_long_name\":\"\",\"route_type\":\"3\",\"route_type_name\":\"Bus\",\"route_color\":\"64748B\",\"route_text_color\":\"FFFFFF\"}]"},"geometry":{"type":"Point","coordinates":[-89.902318,29.903765]}},{"type":"Feature","properties":{"stop_id":"col_vict_eb","stop_code":"","stop_name":"Colonial Blvd. at Victorian Ct.","stop_desc":"","zone_id":"","stop_url":"","location_type":"","parent_station":"","stop_timezone":"","wheelchair_boarding":"1","feed_id":"Louisiana__St._Bernard_Parish__mdb_ntd-60058","agency_name":"St. Bernard Urban Rapid Transit","route_count":1,"route_ids":"SBURT","route_short_names":"SBURT","route_types":"3","route_type_names":"Bus","routes_json":"[{\"route_id\":\"SBURT\",\"route_short_name\":\"SBURT\",\"route_long_name\":\"\",\"route_type\":\"3\",\"route_type_name\":\"Bus\",\"route_color\":\"64748B\",\"route_text_color\":\"FFFFFF\"}]"},"geometry":{"type":"Point","coordinates":[-89.902167,29.904169]}},{"type":"Feature","properties":{"stop_id":"col_4th","stop_code":"","stop_name":"Colonial Blvd. & 4th St.","stop_desc":"","zone_id":"","stop_url":"","location_type":"","parent_station":"","stop_timezone":"","wheelchair_boarding":"1","feed_id":"Louisiana__St._Bernard_Parish__mdb_ntd-60058","agency_name":"St. Bernard Urban Rapid Transit","route_count":1,"route_ids":"SBURT","route_short_names":"SBURT","route_types":"3","route_type_names":"Bus","routes_json":"[{\"route_id\":\"SBURT\",\"route_short_name\":\"SBURT\",\"route_long_name\":\"\",\"route_type\":\"3\",\"route_type_name\":\"Bus\",\"route_color\":\"64748B\",\"route_text_color\":\"FFFFFF\"}]"},"geometry":{"type":"Point","coordinates":[-89.899507,29.904874]}},{"type":"Feature","properties":{"stop_id":"col_3rd_eb","stop_code":"","stop_name":"Colonial Blvd. at 3rd St.","stop_desc":"","zone_id":"","stop_url":"","location_type":"","parent_station":"","stop_timezone":"","wheelchair_boarding":"1","feed_id":"Louisiana__St._Bernard_Parish__mdb_ntd-60058","agency_name":"St. Bernard Urban Rapid Transit","route_count":1,"route_ids":"SBURT","route_short_names":"SBURT","route_types":"3","route_type_names":"Bus","routes_json":"[{\"route_id\":\"SBURT\",\"route_short_name\":\"SBURT\",\"route_long_name\":\"\",\"route_type\":\"3\",\"route_type_name\":\"Bus\",\"route_color\":\"64748B\",\"route_text_color\":\"FFFFFF\"}]"},"geometry":{"type":"Point","coordinates":[-89.900161,29.904888]}},{"type":"Feature","properties":{"stop_id":"col_6th_wb","stop_code":"","stop_name":"Colonial Blvd. at 6th St.","stop_desc":"","zone_id":"","stop_url":"","location_type":"","parent_station":"","stop_timezone":"","wheelchair_boarding":"1","feed_id":"Louisiana__St._Bernard_Parish__mdb_ntd-60058","agency_name":"St. Bernard Urban Rapid Transit","route_count":1,"route_ids":"SBURT","route_short_names":"SBURT","route_types":"3","route_type_names":"Bus","routes_json":"[{\"route_id\":\"SBURT\",\"route_short_name\":\"SBURT\",\"route_long_name\":\"\",\"route_type\":\"3\",\"route_type_name\":\"Bus\",\"route_color\":\"64748B\",\"route_text_color\":\"FFFFFF\"}]"},"geometry":{"type":"Point","coordinates":[-89.896891,29.90586]}},{"type":"Feature","properties":{"stop_id":"col_6th_eb","stop_code":"","stop_name":"Colonial Blvd. at 6th St.","stop_desc":"","zone_id":"","stop_url":"","location_type":"","parent_station":"","stop_timezone":"","wheelchair_boarding":"1","feed_id":"Louisiana__St._Bernard_Parish__mdb_ntd-60058","agency_name":"St. Bernard Urban Rapid Transit","route_count":1,"route_ids":"SBURT","route_short_names":"SBURT","route_types":"3","route_type_names":"Bus","routes_json":"[{\"route_id\":\"SBURT\",\"route_short_name\":\"SBURT\",\"route_long_name\":\"\",\"route_type\":\"3\",\"route_type_name\":\"Bus\",\"route_color\":\"64748B\",\"route_text_color\":\"FFFFFF\"}]"},"geometry":{"type":"Point","coordinates":[-89.896993,29.906122]}},{"type":"Feature","properties":{"stop_id":"ejp_oak_wb","stop_code":"","stop_name":"E. Judge Perez Blvd. at Oak Dr.","stop_desc":"","zone_id":"","stop_url":"","location_type":"","parent_station":"","stop_timezone":"","wheelchair_boarding":"1","feed_id":"Louisiana__St._Bernard_Parish__mdb_ntd-60058","agency_name":"St. Bernard Urban Rapid Transit","route_count":1,"route_ids":"SBURT","route_short_names":"SBURT","route_types":"3","route_type_names":"Bus","routes_json":"[{\"route_id\":\"SBURT\",\"route_short_name\":\"SBURT\",\"route_long_name\":\"\",\"route_type\":\"3\",\"route_type_name\":\"Bus\",\"route_color\":\"64748B\",\"route_text_color\":\"FFFFFF\"}]"},"geometry":{"type":"Point","coordinates":[-89.896092,29.909398]}},{"type":"Feature","properties":{"stop_id":"ejp_oak_eb","stop_code":"","stop_name":"E. Judge Perez Blvd. at Oak Dr.","stop_desc":"","zone_id":"","stop_url":"","location_type":"","parent_station":"","stop_timezone":"","wheelchair_boarding":"1","feed_id":"Louisiana__St._Bernard_Parish__mdb_ntd-60058","agency_name":"St. Bernard Urban Rapid Transit","route_count":1,"route_ids":"SBURT","route_short_names":"SBURT","route_types":"3","route_type_names":"Bus","routes_json":"[{\"route_id\":\"SBURT\",\"route_short_name\":\"SBURT\",\"route_long_name\":\"\",\"route_type\":\"3\",\"route_type_name\":\"Bus\",\"route_color\":\"64748B\",\"route_text_color\":\"FFFFFF\"}]"},"geometry":{"type":"Point","coordinates":[-89.896781,29.909576]}},{"type":"Feature","properties":{"stop_id":"ejp_guerra_wb","stop_code":"","stop_name":"E. Judge Perez Blvd. at Guerra Dr.","stop_desc":"","zone_id":"","stop_url":"","location_type":"","parent_station":"","stop_timezone":"","wheelchair_boarding":"1","feed_id":"Louisiana__St._Bernard_Parish__mdb_ntd-60058","agency_name":"St. Bernard Urban Rapid Transit","route_count":1,"route_ids":"SBURT","route_short_names":"SBURT","route_types":"3","route_type_names":"Bus","routes_json":"[{\"route_id\":\"SBURT\",\"route_short_name\":\"SBURT\",\"route_long_name\":\"\",\"route_type\":\"3\",\"route_type_name\":\"Bus\",\"route_color\":\"64748B\",\"route_text_color\":\"FFFFFF\"}]"},"geometry":{"type":"Point","coordinates":[-89.897682,29.911978]}},{"type":"Feature","properties":{"stop_id":"ejp_caluda_eb","stop_code":"","stop_name":"E. Judge Perez Dr. and Caluda Lane","stop_desc":"","zone_id":"","stop_url":"","location_type":"","parent_station":"","stop_timezone":"","wheelchair_boarding":"1","feed_id":"Louisiana__St._Bernard_Parish__mdb_ntd-60058","agency_name":"St. Bernard Urban Rapid Transit","route_count":1,"route_ids":"SBURT","route_short_names":"SBURT","route_types":"3","route_type_names":"Bus","routes_json":"[{\"route_id\":\"SBURT\",\"route_short_name\":\"SBURT\",\"route_long_name\":\"\",\"route_type\":\"3\",\"route_type_name\":\"Bus\",\"route_color\":\"64748B\",\"route_text_color\":\"FFFFFF\"}]"},"geometry":{"type":"Point","coordinates":[-89.898535,29.912359]}},{"type":"Feature","properties":{"stop_id":"angel","stop_code":"","stop_name":"Angelique Estates","stop_desc":"","zone_id":"","stop_url":"","location_type":"","parent_station":"","stop_timezone":"","wheelchair_boarding":"1","feed_id":"Louisiana__St._Bernard_Parish__mdb_ntd-60058","agency_name":"St. Bernard Urban Rapid Transit","route_count":1,"route_ids":"SBURT","route_short_names":"SBURT","route_types":"3","route_type_names":"Bus","routes_json":"[{\"route_id\":\"SBURT\",\"route_short_name\":\"SBURT\",\"route_long_name\":\"\",\"route_type\":\"3\",\"route_type_name\":\"Bus\",\"route_color\":\"64748B\",\"route_text_color\":\"FFFFFF\"}]"},"geometry":{"type":"Point","coordinates":[-89.898721,29.913547]}},{"type":"Feature","properties":{"stop_id":"ejp_kenn_eb","stop_code":"","stop_name":"E. Judge Perez Blvd. and Kenneth Dr.","stop_desc":"","zone_id":"","stop_url":"","location_type":"","parent_station":"","stop_timezone":"","wheelchair_boarding":"1","feed_id":"Louisiana__St._Bernard_Parish__mdb_ntd-60058","agency_name":"St. Bernard Urban Rapid Transit","route_count":1,"route_ids":"SBURT","route_short_names":"SBURT","route_types":"3","route_type_names":"Bus","routes_json":"[{\"route_id\":\"SBURT\",\"route_short_name\":\"SBURT\",\"route_long_name\":\"\",\"route_type\":\"3\",\"route_type_name\":\"Bus\",\"route_color\":\"64748B\",\"route_text_color\":\"FFFFFF\"}]"},"geometry":{"type":"Point","coordinates":[-89.899324,29.913686]}},{"type":"Feature","properties":{"stop_id":"ejp_deercrk_wb","stop_code":"","stop_name":"E. Judge Perez Blvd. at Deer Creek Dr.","stop_desc":"","zone_id":"","stop_url":"","location_type":"","parent_station":"","stop_timezone":"","wheelchair_boarding":"1","feed_id":"Louisiana__St._Bernard_Parish__mdb_ntd-60058","agency_name":"St. Bernard Urban Rapid Transit","route_count":1,"route_ids":"SBURT","route_short_names":"SBURT","route_types":"3","route_type_names":"Bus","routes_json":"[{\"route_id\":\"SBURT\",\"route_short_name\":\"SBURT\",\"route_long_name\":\"\",\"route_type\":\"3\",\"route_type_name\":\"Bus\",\"route_color\":\"64748B\",\"route_text_color\":\"FFFFFF\"}]"},"geometry":{"type":"Point","coordinates":[-89.904862,29.921016]}},{"type":"Feature","properties":{"stop_id":"ejp_uran_eb","stop_code":"","stop_name":"E. Judge Perez Dr. at Uranus Dr.","stop_desc":"","zone_id":"","stop_url":"","location_type":"","parent_station":"","stop_timezone":"","wheelchair_boarding":"1","feed_id":"Louisiana__St._Bernard_Parish__mdb_ntd-60058","agency_name":"St. Bernard Urban Rapid Transit","route_count":1,"route_ids":"SBURT","route_short_names":"SBURT","route_types":"3","route_type_names":"Bus","routes_json":"[{\"route_id\":\"SBURT\",\"route_short_name\":\"SBURT\",\"route_long_name\":\"\",\"route_type\":\"3\",\"route_type_name\":\"Bus\",\"route_color\":\"64748B\",\"route_text_color\":\"FFFFFF\"}]"},"geometry":{"type":"Point","coordinates":[-89.905649,29.921187]}},{"type":"Feature","properties":{"stop_id":"ejp_marg_eb","stop_code":"","stop_name":"E. Judge Perez Dr. at Margaret Ln.","stop_desc":"","zone_id":"","stop_url":"","location_type":"","parent_station":"","stop_timezone":"","wheelchair_boarding":"1","feed_id":"Louisiana__St._Bernard_Parish__mdb_ntd-60058","agency_name":"St. Bernard Urban Rapid Transit","route_count":1,"route_ids":"SBURT","route_short_names":"SBURT","route_types":"3","route_type_names":"Bus","routes_json":"[{\"route_id\":\"SBURT\",\"route_short_name\":\"SBURT\",\"route_long_name\":\"\",\"route_type\":\"3\",\"route_type_name\":\"Bus\",\"route_color\":\"64748B\",\"route_text_color\":\"FFFFFF\"}]"},"geometry":{"type":"Point","coordinates":[-89.909772,29.925274]}},{"type":"Feature","properties":{"stop_id":"ejp_marg_wb","stop_code":"","stop_name":"E. Judge Perez Dr. at Margaret Ln.","stop_desc":"","zone_id":"","stop_url":"","location_type":"","parent_station":"","stop_timezone":"","wheelchair_boarding":"1","feed_id":"Louisiana__St._Bernard_Parish__mdb_ntd-60058","agency_name":"St. Bernard Urban Rapid Transit","route_count":1,"route_ids":"SBURT","route_short_names":"SBURT","route_types":"3","route_type_names":"Bus","routes_json":"[{\"route_id\":\"SBURT\",\"route_short_name\":\"SBURT\",\"route_long_name\":\"\",\"route_type\":\"3\",\"route_type_name\":\"Bus\",\"route_color\":\"64748B\",\"route_text_color\":\"FFFFFF\"}]"},"geometry":{"type":"Point","coordinates":[-89.909398,29.925448]}},{"type":"Feature","properties":{"stop_id":"ejp_marie_eb","stop_code":"","stop_name":"E. Judge Perez Blvd. at St. Marie Dr.","stop_desc":"","zone_id":"","stop_url":"","location_type":"","parent_station":"","stop_timezone":"","wheelchair_boarding":"1","feed_id":"Louisiana__St._Bernard_Parish__mdb_ntd-60058","agency_name":"St. Bernard Urban Rapid Transit","route_count":1,"route_ids":"SBURT","route_short_names":"SBURT","route_types":"3","route_type_names":"Bus","routes_json":"[{\"route_id\":\"SBURT\",\"route_short_name\":\"SBURT\",\"route_long_name\":\"\",\"route_type\":\"3\",\"route_type_name\":\"Bus\",\"route_color\":\"64748B\",\"route_text_color\":\"FFFFFF\"}]"},"geometry":{"type":"Point","coordinates":[-89.919404,29.933558]}},{"type":"Feature","properties":{"stop_id":"ejp_marie_wb","stop_code":"","stop_name":"E. Judge Perez Blvd. at St. Marie Dr.","stop_desc":"","zone_id":"","stop_url":"","location_type":"","parent_station":"","stop_timezone":"","wheelchair_boarding":"1","feed_id":"Louisiana__St._Bernard_Parish__mdb_ntd-60058","agency_name":"St. Bernard Urban Rapid Transit","route_count":1,"route_ids":"SBURT","route_short_names":"SBURT","route_types":"3","route_type_names":"Bus","routes_json":"[{\"route_id\":\"SBURT\",\"route_short_name\":\"SBURT\",\"route_long_name\":\"\",\"route_type\":\"3\",\"route_type_name\":\"Bus\",\"route_color\":\"64748B\",\"route_text_color\":\"FFFFFF\"}]"},"geometry":{"type":"Point","coordinates":[-89.919116,29.933811]}},{"type":"Feature","properties":{"stop_id":"wal_meraux","stop_code":"","stop_name":"2500 Archbishop Philip M Hannan Blvd. (Walmart Neighborhood Market)","stop_desc":"","zone_id":"","stop_url":"","location_type":"","parent_station":"","stop_timezone":"","wheelchair_boarding":"1","feed_id":"Louisiana__St._Bernard_Parish__mdb_ntd-60058","agency_name":"St. Bernard Urban Rapid Transit","route_count":1,"route_ids":"SBURT","route_short_names":"SBURT","route_types":"3","route_type_names":"Bus","routes_json":"[{\"route_id\":\"SBURT\",\"route_short_name\":\"SBURT\",\"route_long_name\":\"\",\"route_type\":\"3\",\"route_type_name\":\"Bus\",\"route_color\":\"64748B\",\"route_text_color\":\"FFFFFF\"}]"},"geometry":{"type":"Point","coordinates":[-89.9235,29.934221]}},{"type":"Feature","properties":{"stop_id":"arch_tracsupply","stop_code":"","stop_name":"2505 Archbishop Philip M Hannan Blvd. (Tractor Supply)","stop_desc":"","zone_id":"","stop_url":"","location_type":"","parent_station":"","stop_timezone":"","wheelchair_boarding":"1","feed_id":"Louisiana__St._Bernard_Parish__mdb_ntd-60058","agency_name":"St. Bernard Urban Rapid Transit","route_count":1,"route_ids":"SBURT","route_short_names":"SBURT","route_types":"3","route_type_names":"Bus","routes_json":"[{\"route_id\":\"SBURT\",\"route_short_name\":\"SBURT\",\"route_long_name\":\"\",\"route_type\":\"3\",\"route_type_name\":\"Bus\",\"route_color\":\"64748B\",\"route_text_color\":\"FFFFFF\"}]"},"geometry":{"type":"Point","coordinates":[-89.923028,29.934314]}},{"type":"Feature","properties":{"stop_id":"ejp_paul_wb","stop_code":"","stop_name":"E. Judge Perez Dr. at Paul Dr.","stop_desc":"","zone_id":"","stop_url":"","location_type":"","parent_station":"","stop_timezone":"","wheelchair_boarding":"1","feed_id":"Louisiana__St._Bernard_Parish__mdb_ntd-60058","agency_name":"St. Bernard Urban Rapid Transit","route_count":1,"route_ids":"SBURT","route_short_names":"SBURT","route_types":"3","route_type_names":"Bus","routes_json":"[{\"route_id\":\"SBURT\",\"route_short_name\":\"SBURT\",\"route_long_name\":\"\",\"route_type\":\"3\",\"route_type_name\":\"Bus\",\"route_color\":\"64748B\",\"route_text_color\":\"FFFFFF\"}]"},"geometry":{"type":"Point","coordinates":[-89.924418,29.936157]}},{"type":"Feature","properties":{"stop_id":"ejp_paul_eb","stop_code":"","stop_name":"E. Judge Perez Dr. at Paul Dr.","stop_desc":"","zone_id":"","stop_url":"","location_type":"","parent_station":"","stop_timezone":"","wheelchair_boarding":"1","feed_id":"Louisiana__St._Bernard_Parish__mdb_ntd-60058","agency_name":"St. Bernard Urban Rapid Transit","route_count":1,"route_ids":"SBURT","route_short_names":"SBURT","route_types":"3","route_type_names":"Bus","routes_json":"[{\"route_id\":\"SBURT\",\"route_short_name\":\"SBURT\",\"route_long_name\":\"\",\"route_type\":\"3\",\"route_type_name\":\"Bus\",\"route_color\":\"64748B\",\"route_text_color\":\"FFFFFF\"}]"},"geometry":{"type":"Point","coordinates":[-89.924131,29.936444]}},{"type":"Feature","properties":{"stop_id":"ejp_wendys_eb","stop_code":"","stop_name":"3840 E. Judge Perez Drive (Wendy's)","stop_desc":"","zone_id":"","stop_url":"","location_type":"","parent_station":"","stop_timezone":"","wheelchair_boarding":"1","feed_id":"Louisiana__St._Bernard_Parish__mdb_ntd-60058","agency_name":"St. Bernard Urban Rapid Transit","route_count":1,"route_ids":"SBURT","route_short_names":"SBURT","route_types":"3","route_type_names":"Bus","routes_json":"[{\"route_id\":\"SBURT\",\"route_short_name\":\"SBURT\",\"route_long_name\":\"\",\"route_type\":\"3\",\"route_type_name\":\"Bus\",\"route_color\":\"64748B\",\"route_text_color\":\"FFFFFF\"}]"},"geometry":{"type":"Point","coordinates":[-89.926557,29.937035]}},{"type":"Feature","properties":{"stop_id":"ejp_bart_eb","stop_code":"","stop_name":"E. Judge Perez Dr. at Bartolo St.","stop_desc":"","zone_id":"","stop_url":"","location_type":"","parent_station":"","stop_timezone":"","wheelchair_boarding":"1","feed_id":"Louisiana__St._Bernard_Parish__mdb_ntd-60058","agency_name":"St. Bernard Urban Rapid Transit","route_count":1,"route_ids":"SBURT","route_short_names":"SBURT","route_types":"3","route_type_names":"Bus","routes_json":"[{\"route_id\":\"SBURT\",\"route_short_name\":\"SBURT\",\"route_long_name\":\"\",\"route_type\":\"3\",\"route_type_name\":\"Bus\",\"route_color\":\"64748B\",\"route_text_color\":\"FFFFFF\"}]"},"geometry":{"type":"Point","coordinates":[-89.931559,29.937396]}},{"type":"Feature","properties":{"stop_id":"ejp_charles_eb","stop_code":"","stop_name":"E. Judge Perez and Charles Dr.","stop_desc":"","zone_id":"","stop_url":"","location_type":"","parent_station":"","stop_timezone":"","wheelchair_boarding":"1","feed_id":"Louisiana__St._Bernard_Parish__mdb_ntd-60058","agency_name":"St. Bernard Urban Rapid Transit","route_count":1,"route_ids":"SBURT","route_short_names":"SBURT","route_types":"3","route_type_names":"Bus","routes_json":"[{\"route_id\":\"SBURT\",\"route_short_name\":\"SBURT\",\"route_long_name\":\"\",\"route_type\":\"3\",\"route_type_name\":\"Bus\",\"route_color\":\"64748B\",\"route_text_color\":\"FFFFFF\"}]"},"geometry":{"type":"Point","coordinates":[-89.948235,29.937437]}},{"type":"Feature","properties":{"stop_id":"ejp_munster_eb","stop_code":"","stop_name":"E. Judge Perez Dr. at Munster Blvd.","stop_desc":"","zone_id":"","stop_url":"","location_type":"","parent_station":"","stop_timezone":"","wheelchair_boarding":"1","feed_id":"Louisiana__St._Bernard_Parish__mdb_ntd-60058","agency_name":"St. Bernard Urban Rapid Transit","route_count":1,"route_ids":"SBURT","route_short_names":"SBURT","route_types":"3","route_type_names":"Bus","routes_json":"[{\"route_id\":\"SBURT\",\"route_short_name\":\"SBURT\",\"route_long_name\":\"\",\"route_type\":\"3\",\"route_type_name\":\"Bus\",\"route_color\":\"64748B\",\"route_text_color\":\"FFFFFF\"}]"},"geometry":{"type":"Point","coordinates":[-89.933358,29.937448]}},{"type":"Feature","properties":{"stop_id":"ejp_campagna_wb","stop_code":"","stop_name":"E. Judge Perez Dr. at Campagna Dr.","stop_desc":"","zone_id":"","stop_url":"","location_type":"","parent_station":"","stop_timezone":"","wheelchair_boarding":"1","feed_id":"Louisiana__St._Bernard_Parish__mdb_ntd-60058","agency_name":"St. Bernard Urban Rapid Transit","route_count":1,"route_ids":"SBURT","route_short_names":"SBURT","route_types":"3","route_type_names":"Bus","routes_json":"[{\"route_id\":\"SBURT\",\"route_short_name\":\"SBURT\",\"route_long_name\":\"\",\"route_type\":\"3\",\"route_type_name\":\"Bus\",\"route_color\":\"64748B\",\"route_text_color\":\"FFFFFF\"}]"},"geometry":{"type":"Point","coordinates":[-89.945694,29.93782]}},{"type":"Feature","properties":{"stop_id":"ejp_judy_wb","stop_code":"","stop_name":"E. Judge Perez Dr. at Judy Dr.","stop_desc":"","zone_id":"","stop_url":"","location_type":"","parent_station":"","stop_timezone":"","wheelchair_boarding":"1","feed_id":"Louisiana__St._Bernard_Parish__mdb_ntd-60058","agency_name":"St. Bernard Urban Rapid Transit","route_count":1,"route_ids":"SBURT","route_short_names":"SBURT","route_types":"3","route_type_names":"Bus","routes_json":"[{\"route_id\":\"SBURT\",\"route_short_name\":\"SBURT\",\"route_long_name\":\"\",\"route_type\":\"3\",\"route_type_name\":\"Bus\",\"route_color\":\"64748B\",\"route_text_color\":\"FFFFFF\"}]"},"geometry":{"type":"Point","coordinates":[-89.929575,29.937734]}},{"type":"Feature","properties":{"stop_id":"ejp_charles_wb","stop_code":"","stop_name":"E. Judge Perez at Charles Dr.","stop_desc":"","zone_id":"","stop_url":"","location_type":"","parent_station":"","stop_timezone":"","wheelchair_boarding":"1","feed_id":"Louisiana__St._Bernard_Parish__mdb_ntd-60058","agency_name":"St. Bernard Urban Rapid Transit","route_count":1,"route_ids":"SBURT","route_short_names":"SBURT","route_types":"3","route_type_names":"Bus","routes_json":"[{\"route_id\":\"SBURT\",\"route_short_name\":\"SBURT\",\"route_long_name\":\"\",\"route_type\":\"3\",\"route_type_name\":\"Bus\",\"route_color\":\"64748B\",\"route_text_color\":\"FFFFFF\"}]"},"geometry":{"type":"Point","coordinates":[-89.947334,29.937794]}},{"type":"Feature","properties":{"stop_id":"ejp_maryann_wb","stop_code":"","stop_name":"E. Judge Perez Dr. at Mary Ann Dr.","stop_desc":"","zone_id":"","stop_url":"","location_type":"","parent_station":"","stop_timezone":"","wheelchair_boarding":"1","feed_id":"Louisiana__St._Bernard_Parish__mdb_ntd-60058","agency_name":"St. Bernard Urban Rapid Transit","route_count":1,"route_ids":"SBURT","route_short_names":"SBURT","route_types":"3","route_type_names":"Bus","routes_json":"[{\"route_id\":\"SBURT\",\"route_short_name\":\"SBURT\",\"route_long_name\":\"\",\"route_type\":\"3\",\"route_type_name\":\"Bus\",\"route_color\":\"64748B\",\"route_text_color\":\"FFFFFF\"}]"},"geometry":{"type":"Point","coordinates":[-89.93378,29.937905]}},{"type":"Feature","properties":{"stop_id":"ejp_volpe_wb","stop_code":"","stop_name":"E. Judge Perez at Volpe Dr.","stop_desc":"","zone_id":"","stop_url":"","location_type":"","parent_station":"","stop_timezone":"","wheelchair_boarding":"1","feed_id":"Louisiana__St._Bernard_Parish__mdb_ntd-60058","agency_name":"St. Bernard Urban Rapid Transit","route_count":1,"route_ids":"SBURT","route_short_names":"SBURT","route_types":"3","route_type_names":"Bus","routes_json":"[{\"route_id\":\"SBURT\",\"route_short_name\":\"SBURT\",\"route_long_name\":\"\",\"route_type\":\"3\",\"route_type_name\":\"Bus\",\"route_color\":\"64748B\",\"route_text_color\":\"FFFFFF\"}]"},"geometry":{"type":"Point","coordinates":[-89.950483,29.937969]}},{"type":"Feature","properties":{"stop_id":"chs_eb","stop_code":"","stop_name":"E. Judge Perez and Palmisano St. (Chalmette High)","stop_desc":"","zone_id":"","stop_url":"","location_type":"","parent_station":"","stop_timezone":"","wheelchair_boarding":"1","feed_id":"Louisiana__St._Bernard_Parish__mdb_ntd-60058","agency_name":"St. Bernard Urban Rapid Transit","route_count":1,"route_ids":"SBURT","route_short_names":"SBURT","route_types":"3","route_type_names":"Bus","routes_json":"[{\"route_id\":\"SBURT\",\"route_short_name\":\"SBURT\",\"route_long_name\":\"\",\"route_type\":\"3\",\"route_type_name\":\"Bus\",\"route_color\":\"64748B\",\"route_text_color\":\"FFFFFF\"}]"},"geometry":{"type":"Point","coordinates":[-89.952512,29.938291]}},{"type":"Feature","properties":{"stop_id":"chs_wb","stop_code":"","stop_name":"Chalmette High School (9th Grade Academy Side)","stop_desc":"","zone_id":"","stop_url":"","location_type":"","parent_station":"","stop_timezone":"","wheelchair_boarding":"1","feed_id":"Louisiana__St._Bernard_Parish__mdb_ntd-60058","agency_name":"St. Bernard Urban Rapid Transit","route_count":1,"route_ids":"SBURT","route_short_names":"SBURT","route_types":"3","route_type_names":"Bus","routes_json":"[{\"route_id\":\"SBURT\",\"route_short_name\":\"SBURT\",\"route_long_name\":\"\",\"route_type\":\"3\",\"route_type_name\":\"Bus\",\"route_color\":\"64748B\",\"route_text_color\":\"FFFFFF\"}]"},"geometry":{"type":"Point","coordinates":[-89.953793,29.939172]}},{"type":"Feature","properties":{"stop_id":"ejp_splashcar_eb","stop_code":"","stop_name":"922 E. Judge Perez Dr. (Splash Car Wash)","stop_desc":"","zone_id":"","stop_url":"","location_type":"","parent_station":"","stop_timezone":"","wheelchair_boarding":"1","feed_id":"Louisiana__St._Bernard_Parish__mdb_ntd-60058","agency_name":"St. Bernard Urban Rapid Transit","route_count":1,"route_ids":"SBURT","route_short_names":"SBURT","route_types":"3","route_type_names":"Bus","routes_json":"[{\"route_id\":\"SBURT\",\"route_short_name\":\"SBURT\",\"route_long_name\":\"\",\"route_type\":\"3\",\"route_type_name\":\"Bus\",\"route_color\":\"64748B\",\"route_text_color\":\"FFFFFF\"}]"},"geometry":{"type":"Point","coordinates":[-89.955371,29.939375]}},{"type":"Feature","properties":{"stop_id":"ejp_pelitere_eb","stop_code":"","stop_name":"E. Judge Perez Dr. at Pelitere Dr.","stop_desc":"","zone_id":"","stop_url":"","location_type":"","parent_station":"","stop_timezone":"","wheelchair_boarding":"1","feed_id":"Louisiana__St._Bernard_Parish__mdb_ntd-60058","agency_name":"St. Bernard Urban Rapid Transit","route_count":1,"route_ids":"SBURT","route_short_names":"SBURT","route_types":"3","route_type_names":"Bus","routes_json":"[{\"route_id\":\"SBURT\",\"route_short_name\":\"SBURT\",\"route_long_name\":\"\",\"route_type\":\"3\",\"route_type_name\":\"Bus\",\"route_color\":\"64748B\",\"route_text_color\":\"FFFFFF\"}]"},"geometry":{"type":"Point","coordinates":[-89.959284,29.940822]}},{"type":"Feature","properties":{"stop_id":"ejp_tournefort_eb","stop_code":"","stop_name":"E. Judge Perez Dr. at Tournefort St.","stop_desc":"","zone_id":"","stop_url":"","location_type":"","parent_station":"","stop_timezone":"","wheelchair_boarding":"1","feed_id":"Louisiana__St._Bernard_Parish__mdb_ntd-60058","agency_name":"St. Bernard Urban Rapid Transit","route_count":1,"route_ids":"SBURT","route_short_names":"SBURT","route_types":"3","route_type_names":"Bus","routes_json":"[{\"route_id\":\"SBURT\",\"route_short_name\":\"SBURT\",\"route_long_name\":\"\",\"route_type\":\"3\",\"route_type_name\":\"Bus\",\"route_color\":\"64748B\",\"route_text_color\":\"FFFFFF\"}]"},"geometry":{"type":"Point","coordinates":[-89.961838,29.941734]}},{"type":"Feature","properties":{"stop_id":"ejp_tournefort_wb","stop_code":"","stop_name":"E. Judge Perez at Tournefort St. (Breaux Mart)","stop_desc":"","zone_id":"","stop_url":"","location_type":"","parent_station":"","stop_timezone":"","wheelchair_boarding":"1","feed_id":"Louisiana__St._Bernard_Parish__mdb_ntd-60058","agency_name":"St. Bernard Urban Rapid Transit","route_count":1,"route_ids":"SBURT","route_short_names":"SBURT","route_types":"3","route_type_names":"Bus","routes_json":"[{\"route_id\":\"SBURT\",\"route_short_name\":\"SBURT\",\"route_long_name\":\"\",\"route_type\":\"3\",\"route_type_name\":\"Bus\",\"route_color\":\"64748B\",\"route_text_color\":\"FFFFFF\"}]"},"geometry":{"type":"Point","coordinates":[-89.961351,29.942012]}},{"type":"Feature","properties":{"stop_id":"ejp_paris_wb","stop_code":"","stop_name":"E. Judge Perez at Paris Rd.","stop_desc":"","zone_id":"","stop_url":"","location_type":"","parent_station":"","stop_timezone":"","wheelchair_boarding":"1","feed_id":"Louisiana__St._Bernard_Parish__mdb_ntd-60058","agency_name":"St. Bernard Urban Rapid Transit","route_count":1,"route_ids":"SBURT","route_short_names":"SBURT","route_types":"3","route_type_names":"Bus","routes_json":"[{\"route_id\":\"SBURT\",\"route_short_name\":\"SBURT\",\"route_long_name\":\"\",\"route_type\":\"3\",\"route_type_name\":\"Bus\",\"route_color\":\"64748B\",\"route_text_color\":\"FFFFFF\"}]"},"geometry":{"type":"Point","coordinates":[-89.96336,29.942679]}},{"type":"Feature","properties":{"stop_id":"ejp_paris_wb2","stop_code":"","stop_name":"Paris Rd. at W. Judge Perez Dr. (Westbound only)","stop_desc":"","zone_id":"","stop_url":"","location_type":"","parent_station":"","stop_timezone":"","wheelchair_boarding":"1","feed_id":"Louisiana__St._Bernard_Parish__mdb_ntd-60058","agency_name":"St. Bernard Urban Rapid Transit","route_count":1,"route_ids":"SBURT","route_short_names":"SBURT","route_types":"3","route_type_names":"Bus","routes_json":"[{\"route_id\":\"SBURT\",\"route_short_name\":\"SBURT\",\"route_long_name\":\"\",\"route_type\":\"3\",\"route_type_name\":\"Bus\",\"route_color\":\"64748B\",\"route_text_color\":\"FFFFFF\"}]"},"geometry":{"type":"Point","coordinates":[-89.963679,29.942901]}},{"type":"Feature","properties":{"stop_id":"wjp_fenelon_wb","stop_code":"","stop_name":"W. Judge Perez Dr. at Fenelon St.","stop_desc":"","zone_id":"","stop_url":"","location_type":"","parent_station":"","stop_timezone":"","wheelchair_boarding":"1","feed_id":"Louisiana__St._Bernard_Parish__mdb_ntd-60058","agency_name":"St. Bernard Urban Rapid Transit","route_count":1,"route_ids":"SBURT","route_short_names":"SBURT","route_types":"3","route_type_names":"Bus","routes_json":"[{\"route_id\":\"SBURT\",\"route_short_name\":\"SBURT\",\"route_long_name\":\"\",\"route_type\":\"3\",\"route_type_name\":\"Bus\",\"route_color\":\"64748B\",\"route_text_color\":\"FFFFFF\"}]"},"geometry":{"type":"Point","coordinates":[-89.96592,29.943251]}},{"type":"Feature","properties":{"stop_id":"wjp_fenelon_eb","stop_code":"","stop_name":"W. Judge Perez at Fenelon St.","stop_desc":"","zone_id":"","stop_url":"","location_type":"","parent_station":"","stop_timezone":"","wheelchair_boarding":"1","feed_id":"Louisiana__St._Bernard_Parish__mdb_ntd-60058","agency_name":"St. Bernard Urban Rapid Transit","route_count":1,"route_ids":"SBURT","route_short_names":"SBURT","route_types":"3","route_type_names":"Bus","routes_json":"[{\"route_id\":\"SBURT\",\"route_short_name\":\"SBURT\",\"route_long_name\":\"\",\"route_type\":\"3\",\"route_type_name\":\"Bus\",\"route_color\":\"64748B\",\"route_text_color\":\"FFFFFF\"}]"},"geometry":{"type":"Point","coordinates":[-89.965285,29.943376]}},{"type":"Feature","properties":{"stop_id":"wjp_vict_eb","stop_code":"","stop_name":"W. Judge Perez Dr. at Victor St. (Papa John's)","stop_desc":"","zone_id":"","stop_url":"","location_type":"","parent_station":"","stop_timezone":"","wheelchair_boarding":"1","feed_id":"Louisiana__St._Bernard_Parish__mdb_ntd-60058","agency_name":"St. Bernard Urban Rapid Transit","route_count":1,"route_ids":"SBURT","route_short_names":"SBURT","route_types":"3","route_type_names":"Bus","routes_json":"[{\"route_id\":\"SBURT\",\"route_short_name\":\"SBURT\",\"route_long_name\":\"\",\"route_type\":\"3\",\"route_type_name\":\"Bus\",\"route_color\":\"64748B\",\"route_text_color\":\"FFFFFF\"}]"},"geometry":{"type":"Point","coordinates":[-89.968275,29.944115]}},{"type":"Feature","properties":{"stop_id":"wjp_vict_wb","stop_code":"","stop_name":"W. Judge Perez Dr. at Victor St.","stop_desc":"","zone_id":"","stop_url":"","location_type":"","parent_station":"","stop_timezone":"","wheelchair_boarding":"1","feed_id":"Louisiana__St._Bernard_Parish__mdb_ntd-60058","agency_name":"St. Bernard Urban Rapid Transit","route_count":1,"route_ids":"SBURT","route_short_names":"SBURT","route_types":"3","route_type_names":"Bus","routes_json":"[{\"route_id\":\"SBURT\",\"route_short_name\":\"SBURT\",\"route_long_name\":\"\",\"route_type\":\"3\",\"route_type_name\":\"Bus\",\"route_color\":\"64748B\",\"route_text_color\":\"FFFFFF\"}]"},"geometry":{"type":"Point","coordinates":[-89.968302,29.944475]}},{"type":"Feature","properties":{"stop_id":"ejp_lyndell_wb","stop_code":"","stop_name":"E. Judge Perez at Lyndell Dr.","stop_desc":"","zone_id":"","stop_url":"","location_type":"","parent_station":"","stop_timezone":"","wheelchair_boarding":"1","feed_id":"Louisiana__St._Bernard_Parish__mdb_ntd-60058","agency_name":"St. Bernard Urban Rapid Transit","route_count":1,"route_ids":"SBURT","route_short_names":"SBURT","route_types":"3","route_type_names":"Bus","routes_json":"[{\"route_id\":\"SBURT\",\"route_short_name\":\"SBURT\",\"route_long_name\":\"\",\"route_type\":\"3\",\"route_type_name\":\"Bus\",\"route_color\":\"64748B\",\"route_text_color\":\"FFFFFF\"}]"},"geometry":{"type":"Point","coordinates":[-89.95703,29.94035]}},{"type":"Feature","properties":{"stop_id":"wjp_pakenham_wb","stop_code":"","stop_name":"W. Judge Perez Dr. at Pakenham Dr.","stop_desc":"","zone_id":"","stop_url":"","location_type":"","parent_station":"","stop_timezone":"","wheelchair_boarding":"1","feed_id":"Louisiana__St._Bernard_Parish__mdb_ntd-60058","agency_name":"St. Bernard Urban Rapid Transit","route_count":1,"route_ids":"SBURT","route_short_names":"SBURT","route_types":"3","route_type_names":"Bus","routes_json":"[{\"route_id\":\"SBURT\",\"route_short_name\":\"SBURT\",\"route_long_name\":\"\",\"route_type\":\"3\",\"route_type_name\":\"Bus\",\"route_color\":\"64748B\",\"route_text_color\":\"FFFFFF\"}]"},"geometry":{"type":"Point","coordinates":[-89.971326,29.945999]}},{"type":"Feature","properties":{"stop_id":"wjp_pakenham_eb","stop_code":"","stop_name":"W. Judge Perez Dr. at Pakenham Dr.","stop_desc":"","zone_id":"","stop_url":"","location_type":"","parent_station":"","stop_timezone":"","wheelchair_boarding":"1","feed_id":"Louisiana__St._Bernard_Parish__mdb_ntd-60058","agency_name":"St. Bernard Urban Rapid Transit","route_count":1,"route_ids":"SBURT","route_short_names":"SBURT","route_types":"3","route_type_names":"Bus","routes_json":"[{\"route_id\":\"SBURT\",\"route_short_name\":\"SBURT\",\"route_long_name\":\"\",\"route_type\":\"3\",\"route_type_name\":\"Bus\",\"route_color\":\"64748B\",\"route_text_color\":\"FFFFFF\"}]"},"geometry":{"type":"Point","coordinates":[-89.971676,29.945789]}},{"type":"Feature","properties":{"stop_id":"paris_bapt_wb","stop_code":"","stop_name":"Paris Rd. and E. St. Jean Baptist St.","stop_desc":"","zone_id":"","stop_url":"","location_type":"","parent_station":"","stop_timezone":"","wheelchair_boarding":"1","feed_id":"Louisiana__St._Bernard_Parish__mdb_ntd-60058","agency_name":"St. Bernard Urban Rapid Transit","route_count":1,"route_ids":"SBURT","route_short_names":"SBURT","route_types":"3","route_type_names":"Bus","routes_json":"[{\"route_id\":\"SBURT\",\"route_short_name\":\"SBURT\",\"route_long_name\":\"\",\"route_type\":\"3\",\"route_type_name\":\"Bus\",\"route_color\":\"64748B\",\"route_text_color\":\"FFFFFF\"}]"},"geometry":{"type":"Point","coordinates":[-89.961706,29.946222]}},{"type":"Feature","properties":{"stop_id":"paris_solidell_wb","stop_code":"","stop_name":"Paris Rd. at E. Solidell St.","stop_desc":"","zone_id":"","stop_url":"","location_type":"","parent_station":"","stop_timezone":"","wheelchair_boarding":"1","feed_id":"Louisiana__St._Bernard_Parish__mdb_ntd-60058","agency_name":"St. Bernard Urban Rapid Transit","route_count":1,"route_ids":"SBURT","route_short_names":"SBURT","route_types":"3","route_type_names":"Bus","routes_json":"[{\"route_id\":\"SBURT\",\"route_short_name\":\"SBURT\",\"route_long_name\":\"\",\"route_type\":\"3\",\"route_type_name\":\"Bus\",\"route_color\":\"64748B\",\"route_text_color\":\"FFFFFF\"}]"},"geometry":{"type":"Point","coordinates":[-89.960279,29.949154]}},{"type":"Feature","properties":{"stop_id":"paris_winndixie","stop_code":"","stop_name":"Paris Rd. at Park Plaza Shopping Ctr (Winn-Dixie)","stop_desc":"","zone_id":"","stop_url":"","location_type":"","parent_station":"","stop_timezone":"","wheelchair_boarding":"1","feed_id":"Louisiana__St._Bernard_Parish__mdb_ntd-60058","agency_name":"St. Bernard Urban Rapid Transit","route_count":1,"route_ids":"SBURT","route_short_names":"SBURT","route_types":"3","route_type_names":"Bus","routes_json":"[{\"route_id\":\"SBURT\",\"route_short_name\":\"SBURT\",\"route_long_name\":\"\",\"route_type\":\"3\",\"route_type_name\":\"Bus\",\"route_color\":\"64748B\",\"route_text_color\":\"FFFFFF\"}]"},"geometry":{"type":"Point","coordinates":[-89.960494,29.949457]}},{"type":"Feature","properties":{"stop_id":"wjp_olhick_eb","stop_code":"","stop_name":"W. Judge Perez Dr. at Old Hickory Ave.","stop_desc":"","zone_id":"","stop_url":"","location_type":"","parent_station":"","stop_timezone":"","wheelchair_boarding":"1","feed_id":"Louisiana__St._Bernard_Parish__mdb_ntd-60058","agency_name":"St. Bernard Urban Rapid Transit","route_count":1,"route_ids":"SBURT","route_short_names":"SBURT","route_types":"3","route_type_names":"Bus","routes_json":"[{\"route_id\":\"SBURT\",\"route_short_name\":\"SBURT\",\"route_long_name\":\"\",\"route_type\":\"3\",\"route_type_name\":\"Bus\",\"route_color\":\"64748B\",\"route_text_color\":\"FFFFFF\"}]"},"geometry":{"type":"Point","coordinates":[-89.972329,29.949842]}},{"type":"Feature","properties":{"stop_id":"wjp_olhick_wb","stop_code":"","stop_name":"W. Judge Perez Dr. at Palm/Old Hickory Ave.","stop_desc":"","zone_id":"","stop_url":"","location_type":"","parent_station":"","stop_timezone":"","wheelchair_boarding":"1","feed_id":"Louisiana__St._Bernard_Parish__mdb_ntd-60058","agency_name":"St. Bernard Urban Rapid Transit","route_count":1,"route_ids":"SBURT","route_short_names":"SBURT","route_types":"3","route_type_names":"Bus","routes_json":"[{\"route_id\":\"SBURT\",\"route_short_name\":\"SBURT\",\"route_long_name\":\"\",\"route_type\":\"3\",\"route_type_name\":\"Bus\",\"route_color\":\"64748B\",\"route_text_color\":\"FFFFFF\"}]"},"geometry":{"type":"Point","coordinates":[-89.97182,29.949869]}},{"type":"Feature","properties":{"stop_id":"biglots_eb","stop_code":"","stop_name":"Cinema Mall (Big Lots)","stop_desc":"","zone_id":"","stop_url":"","location_type":"","parent_station":"","stop_timezone":"","wheelchair_boarding":"1","feed_id":"Louisiana__St._Bernard_Parish__mdb_ntd-60058","agency_name":"St. Bernard Urban Rapid Transit","route_count":1,"route_ids":"SBURT","route_short_names":"SBURT","route_types":"3","route_type_names":"Bus","routes_json":"[{\"route_id\":\"SBURT\",\"route_short_name\":\"SBURT\",\"route_long_name\":\"\",\"route_type\":\"3\",\"route_type_name\":\"Bus\",\"route_color\":\"64748B\",\"route_text_color\":\"FFFFFF\"}]"},"geometry":{"type":"Point","coordinates":[-89.974426,29.95131]}},{"type":"Feature","properties":{"stop_id":"wjp_delaronde_wb","stop_code":"","stop_name":"W. Judge Perez Dr. at De La Ronde Dr.","stop_desc":"","zone_id":"","stop_url":"","location_type":"","parent_station":"","stop_timezone":"","wheelchair_boarding":"1","feed_id":"Louisiana__St._Bernard_Parish__mdb_ntd-60058","agency_name":"St. Bernard Urban Rapid Transit","route_count":1,"route_ids":"SBURT","route_short_names":"SBURT","route_types":"3","route_type_names":"Bus","routes_json":"[{\"route_id\":\"SBURT\",\"route_short_name\":\"SBURT\",\"route_long_name\":\"\",\"route_type\":\"3\",\"route_type_name\":\"Bus\",\"route_color\":\"64748B\",\"route_text_color\":\"FFFFFF\"}]"},"geometry":{"type":"Point","coordinates":[-89.973916,29.951547]}},{"type":"Feature","properties":{"stop_id":"wjp_homedepot_wb","stop_code":"","stop_name":"W. Judge Perez Dr. at Home Depot","stop_desc":"","zone_id":"","stop_url":"","location_type":"","parent_station":"","stop_timezone":"","wheelchair_boarding":"1","feed_id":"Louisiana__St._Bernard_Parish__mdb_ntd-60058","agency_name":"St. Bernard Urban Rapid Transit","route_count":1,"route_ids":"SBURT","route_short_names":"SBURT","route_types":"3","route_type_names":"Bus","routes_json":"[{\"route_id\":\"SBURT\",\"route_short_name\":\"SBURT\",\"route_long_name\":\"\",\"route_type\":\"3\",\"route_type_name\":\"Bus\",\"route_color\":\"64748B\",\"route_text_color\":\"FFFFFF\"}]"},"geometry":{"type":"Point","coordinates":[-89.97595,29.952384]}},{"type":"Feature","properties":{"stop_id":"wjp_retail_eb","stop_code":"","stop_name":"W. Judge Perez Dr. at Chalmette Retail Ctr.","stop_desc":"","zone_id":"","stop_url":"","location_type":"","parent_station":"","stop_timezone":"","wheelchair_boarding":"1","feed_id":"Louisiana__St._Bernard_Parish__mdb_ntd-60058","agency_name":"St. Bernard Urban Rapid Transit","route_count":1,"route_ids":"SBURT","route_short_names":"SBURT","route_types":"3","route_type_names":"Bus","routes_json":"[{\"route_id\":\"SBURT\",\"route_short_name\":\"SBURT\",\"route_long_name\":\"\",\"route_type\":\"3\",\"route_type_name\":\"Bus\",\"route_color\":\"64748B\",\"route_text_color\":\"FFFFFF\"}]"},"geometry":{"type":"Point","coordinates":[-89.977167,29.952439]}},{"type":"Feature","properties":{"stop_id":"paris_genie","stop_code":"","stop_name":"Paris Rd. at E. Genie St.","stop_desc":"","zone_id":"","stop_url":"","location_type":"","parent_station":"","stop_timezone":"","wheelchair_boarding":"1","feed_id":"Louisiana__St._Bernard_Parish__mdb_ntd-60058","agency_name":"St. Bernard Urban Rapid Transit","route_count":1,"route_ids":"SBURT","route_short_names":"SBURT","route_types":"3","route_type_names":"Bus","routes_json":"[{\"route_id\":\"SBURT\",\"route_short_name\":\"SBURT\",\"route_long_name\":\"\",\"route_type\":\"3\",\"route_type_name\":\"Bus\",\"route_color\":\"64748B\",\"route_text_color\":\"FFFFFF\"}]"},"geometry":{"type":"Point","coordinates":[-89.958759,29.952503]}},{"type":"Feature","properties":{"stop_id":"wjp_packen_wb","stop_code":"","stop_name":"W. Judge Perez Dr. at Packenham Ave. (Taco Bell)","stop_desc":"","zone_id":"","stop_url":"","location_type":"","parent_station":"","stop_timezone":"","wheelchair_boarding":"1","feed_id":"Louisiana__St._Bernard_Parish__mdb_ntd-60058","agency_name":"St. Bernard Urban Rapid Transit","route_count":1,"route_ids":"SBURT","route_short_names":"SBURT","route_types":"3","route_type_names":"Bus","routes_json":"[{\"route_id\":\"SBURT\",\"route_short_name\":\"SBURT\",\"route_long_name\":\"\",\"route_type\":\"3\",\"route_type_name\":\"Bus\",\"route_color\":\"64748B\",\"route_text_color\":\"FFFFFF\"}]"},"geometry":{"type":"Point","coordinates":[-89.978676,29.953474]}},{"type":"Feature","properties":{"stop_id":"wjp_jl_eb","stop_code":"","stop_name":"W. Judge Perez Dr. at Jean Lafitte Pkwy.","stop_desc":"","zone_id":"","stop_url":"","location_type":"","parent_station":"","stop_timezone":"","wheelchair_boarding":"1","feed_id":"Louisiana__St._Bernard_Parish__mdb_ntd-60058","agency_name":"St. Bernard Urban Rapid Transit","route_count":1,"route_ids":"SBURT","route_short_names":"SBURT","route_types":"3","route_type_names":"Bus","routes_json":"[{\"route_id\":\"SBURT\",\"route_short_name\":\"SBURT\",\"route_long_name\":\"\",\"route_type\":\"3\",\"route_type_name\":\"Bus\",\"route_color\":\"64748B\",\"route_text_color\":\"FFFFFF\"}]"},"geometry":{"type":"Point","coordinates":[-89.980157,29.954065]}},{"type":"Feature","properties":{"stop_id":"wjp_jl_wb","stop_code":"","stop_name":"W. Judge Perez Dr. at Jean Lafitte Pkwy.","stop_desc":"","zone_id":"","stop_url":"","location_type":"","parent_station":"","stop_timezone":"","wheelchair_boarding":"1","feed_id":"Louisiana__St._Bernard_Parish__mdb_ntd-60058","agency_name":"St. Bernard Urban Rapid Transit","route_count":1,"route_ids":"SBURT","route_short_names":"SBURT","route_types":"3","route_type_names":"Bus","routes_json":"[{\"route_id\":\"SBURT\",\"route_short_name\":\"SBURT\",\"route_long_name\":\"\",\"route_type\":\"3\",\"route_type_name\":\"Bus\",\"route_color\":\"64748B\",\"route_text_color\":\"FFFFFF\"}]"},"geometry":{"type":"Point","coordinates":[-89.980785,29.953879]}},{"type":"Feature","properties":{"stop_id":"wjp_civic_wb","stop_code":"","stop_name":"W. Judge Perez Dr. at Civic Center","stop_desc":"","zone_id":"","stop_url":"","location_type":"","parent_station":"","stop_timezone":"","wheelchair_boarding":"1","feed_id":"Louisiana__St._Bernard_Parish__mdb_ntd-60058","agency_name":"St. Bernard Urban Rapid Transit","route_count":1,"route_ids":"SBURT","route_short_names":"SBURT","route_types":"3","route_type_names":"Bus","routes_json":"[{\"route_id\":\"SBURT\",\"route_short_name\":\"SBURT\",\"route_long_name\":\"\",\"route_type\":\"3\",\"route_type_name\":\"Bus\",\"route_color\":\"64748B\",\"route_text_color\":\"FFFFFF\"}]"},"geometry":{"type":"Point","coordinates":[-89.981439,29.954625]}},{"type":"Feature","properties":{"stop_id":"ncc","stop_code":"","stop_name":"Nunez Community College","stop_desc":"","zone_id":"","stop_url":"","location_type":"","parent_station":"","stop_timezone":"","wheelchair_boarding":"1","feed_id":"Louisiana__St._Bernard_Parish__mdb_ntd-60058","agency_name":"St. Bernard Urban Rapid Transit","route_count":1,"route_ids":"SBURT","route_short_names":"SBURT","route_types":"3","route_type_names":"Bus","routes_json":"[{\"route_id\":\"SBURT\",\"route_short_name\":\"SBURT\",\"route_long_name\":\"\",\"route_type\":\"3\",\"route_type_name\":\"Bus\",\"route_color\":\"64748B\",\"route_text_color\":\"FFFFFF\"}]"},"geometry":{"type":"Point","coordinates":[-89.959074,29.954848]}},{"type":"Feature","properties":{"stop_id":"wjp_meraux_eb","stop_code":"","stop_name":"W. Judge Perez Dr. at Dr. Meraux Blvd.","stop_desc":"","zone_id":"","stop_url":"","location_type":"","parent_station":"","stop_timezone":"","wheelchair_boarding":"1","feed_id":"Louisiana__St._Bernard_Parish__mdb_ntd-60058","agency_name":"St. Bernard Urban Rapid Transit","route_count":1,"route_ids":"SBURT","route_short_names":"SBURT","route_types":"3","route_type_names":"Bus","routes_json":"[{\"route_id\":\"SBURT\",\"route_short_name\":\"SBURT\",\"route_long_name\":\"\",\"route_type\":\"3\",\"route_type_name\":\"Bus\",\"route_color\":\"64748B\",\"route_text_color\":\"FFFFFF\"}]"},"geometry":{"type":"Point","coordinates":[-89.983451,29.955443]}},{"type":"Feature","properties":{"stop_id":"wjp_meraux_wb","stop_code":"","stop_name":"W. Judge Perez Dr. at Dr. Meraux Blvd.","stop_desc":"","zone_id":"","stop_url":"","location_type":"","parent_station":"","stop_timezone":"","wheelchair_boarding":"1","feed_id":"Louisiana__St._Bernard_Parish__mdb_ntd-60058","agency_name":"St. Bernard Urban Rapid Transit","route_count":1,"route_ids":"SBURT","route_short_names":"SBURT","route_types":"3","route_type_names":"Bus","routes_json":"[{\"route_id\":\"SBURT\",\"route_short_name\":\"SBURT\",\"route_long_name\":\"\",\"route_type\":\"3\",\"route_type_name\":\"Bus\",\"route_color\":\"64748B\",\"route_text_color\":\"FFFFFF\"}]"},"geometry":{"type":"Point","coordinates":[-89.98412,29.955198]}},{"type":"Feature","properties":{"stop_id":"sbph","stop_code":"","stop_name":"St Bernard Parish Hospital","stop_desc":"","zone_id":"","stop_url":"","location_type":"","parent_station":"","stop_timezone":"","wheelchair_boarding":"1","feed_id":"Louisiana__St._Bernard_Parish__mdb_ntd-60058","agency_name":"St. Bernard Urban Rapid Transit","route_count":1,"route_ids":"SBURT","route_short_names":"SBURT","route_types":"3","route_type_names":"Bus","routes_json":"[{\"route_id\":\"SBURT\",\"route_short_name\":\"SBURT\",\"route_long_name\":\"\",\"route_type\":\"3\",\"route_type_name\":\"Bus\",\"route_color\":\"64748B\",\"route_text_color\":\"FFFFFF\"}]"},"geometry":{"type":"Point","coordinates":[-89.988277,29.955817]}},{"type":"Feature","properties":{"stop_id":"wal_chal","stop_code":"","stop_name":"Walmart - Meraux (Supercenter W. Judge Perez Dr.)","stop_desc":"","zone_id":"","stop_url":"","location_type":"","parent_station":"","stop_timezone":"","wheelchair_boarding":"1","feed_id":"Louisiana__St._Bernard_Parish__mdb_ntd-60058","agency_name":"St. Bernard Urban Rapid Transit","route_count":1,"route_ids":"SBURT","route_short_names":"SBURT","route_types":"3","route_type_names":"Bus","routes_json":"[{\"route_id\":\"SBURT\",\"route_short_name\":\"SBURT\",\"route_long_name\":\"\",\"route_type\":\"3\",\"route_type_name\":\"Bus\",\"route_color\":\"64748B\",\"route_text_color\":\"FFFFFF\"}]"},"geometry":{"type":"Point","coordinates":[-89.986681,29.956267]}},{"type":"Feature","properties":{"stop_id":"wal_chal2","stop_code":"","stop_name":"Walmart (Chalmette) (Raising Cane's)","stop_desc":"","zone_id":"","stop_url":"","location_type":"","parent_station":"","stop_timezone":"","wheelchair_boarding":"1","feed_id":"Louisiana__St._Bernard_Parish__mdb_ntd-60058","agency_name":"St. Bernard Urban Rapid Transit","route_count":1,"route_ids":"SBURT","route_short_names":"SBURT","route_types":"3","route_type_names":"Bus","routes_json":"[{\"route_id\":\"SBURT\",\"route_short_name\":\"SBURT\",\"route_long_name\":\"\",\"route_type\":\"3\",\"route_type_name\":\"Bus\",\"route_color\":\"64748B\",\"route_text_color\":\"FFFFFF\"}]"},"geometry":{"type":"Point","coordinates":[-89.985232,29.956131]}},{"type":"Feature","properties":{"stop_id":"stcl_meh","stop_code":"","stop_name":"St Claude Ave. at Mehle St.","stop_desc":"","zone_id":"","stop_url":"","location_type":"","parent_station":"","stop_timezone":"","wheelchair_boarding":"1","feed_id":"Louisiana__St._Bernard_Parish__mdb_ntd-60058","agency_name":"St. Bernard Urban Rapid Transit","route_count":1,"route_ids":"SBURT","route_short_names":"SBURT","route_types":"3","route_type_names":"Bus","routes_json":"[{\"route_id\":\"SBURT\",\"route_short_name\":\"SBURT\",\"route_long_name\":\"\",\"route_type\":\"3\",\"route_type_name\":\"Bus\",\"route_color\":\"64748B\",\"route_text_color\":\"FFFFFF\"}]"},"geometry":{"type":"Point","coordinates":[-90.004577,29.957698]}},{"type":"Feature","properties":{"stop_id":"wjp_rowl_wb","stop_code":"","stop_name":"W. Judge Perez Dr. at Rowley Blvd.","stop_desc":"","zone_id":"","stop_url":"","location_type":"","parent_station":"","stop_timezone":"","wheelchair_boarding":"1","feed_id":"Louisiana__St._Bernard_Parish__mdb_ntd-60058","agency_name":"St. Bernard Urban Rapid Transit","route_count":1,"route_ids":"SBURT","route_short_names":"SBURT","route_types":"3","route_type_names":"Bus","routes_json":"[{\"route_id\":\"SBURT\",\"route_short_name\":\"SBURT\",\"route_long_name\":\"\",\"route_type\":\"3\",\"route_type_name\":\"Bus\",\"route_color\":\"64748B\",\"route_text_color\":\"FFFFFF\"}]"},"geometry":{"type":"Point","coordinates":[-89.992587,29.958722]}},{"type":"Feature","properties":{"stop_id":"wjp_rowl_eb","stop_code":"","stop_name":"W. Judge Perez Dr. at Rowley Blvd.","stop_desc":"","zone_id":"","stop_url":"","location_type":"","parent_station":"","stop_timezone":"","wheelchair_boarding":"1","feed_id":"Louisiana__St._Bernard_Parish__mdb_ntd-60058","agency_name":"St. Bernard Urban Rapid Transit","route_count":1,"route_ids":"SBURT","route_short_names":"SBURT","route_types":"3","route_type_names":"Bus","routes_json":"[{\"route_id\":\"SBURT\",\"route_short_name\":\"SBURT\",\"route_long_name\":\"\",\"route_type\":\"3\",\"route_type_name\":\"Bus\",\"route_color\":\"64748B\",\"route_text_color\":\"FFFFFF\"}]"},"geometry":{"type":"Point","coordinates":[-89.992281,29.958888]}},{"type":"Feature","properties":{"stop_id":"wjp_center_eb","stop_code":"","stop_name":"W. Judge Perez Dr. at Center St.","stop_desc":"","zone_id":"","stop_url":"","location_type":"","parent_station":"","stop_timezone":"","wheelchair_boarding":"1","feed_id":"Louisiana__St._Bernard_Parish__mdb_ntd-60058","agency_name":"St. Bernard Urban Rapid Transit","route_count":1,"route_ids":"SBURT","route_short_names":"SBURT","route_types":"3","route_type_names":"Bus","routes_json":"[{\"route_id\":\"SBURT\",\"route_short_name\":\"SBURT\",\"route_long_name\":\"\",\"route_type\":\"3\",\"route_type_name\":\"Bus\",\"route_color\":\"64748B\",\"route_text_color\":\"FFFFFF\"}]"},"geometry":{"type":"Point","coordinates":[-89.996897,29.960473]}},{"type":"Feature","properties":{"stop_id":"wjp_center_wb","stop_code":"","stop_name":"W. Judge Perez Dr. at Center St.","stop_desc":"","zone_id":"","stop_url":"","location_type":"","parent_station":"","stop_timezone":"","wheelchair_boarding":"1","feed_id":"Louisiana__St._Bernard_Parish__mdb_ntd-60058","agency_name":"St. Bernard Urban Rapid Transit","route_count":1,"route_ids":"SBURT","route_short_names":"SBURT","route_types":"3","route_type_names":"Bus","routes_json":"[{\"route_id\":\"SBURT\",\"route_short_name\":\"SBURT\",\"route_long_name\":\"\",\"route_type\":\"3\",\"route_type_name\":\"Bus\",\"route_color\":\"64748B\",\"route_text_color\":\"FFFFFF\"}]"},"geometry":{"type":"Point","coordinates":[-89.996536,29.960614]}},{"type":"Feature","properties":{"stop_id":"aycock_wb","stop_code":"","stop_name":"1550 Aycock St.","stop_desc":"","zone_id":"","stop_url":"","location_type":"","parent_station":"","stop_timezone":"","wheelchair_boarding":"1","feed_id":"Louisiana__St._Bernard_Parish__mdb_ntd-60058","agency_name":"St. Bernard Urban Rapid Transit","route_count":1,"route_ids":"SBURT","route_short_names":"SBURT","route_types":"3","route_type_names":"Bus","routes_json":"[{\"route_id\":\"SBURT\",\"route_short_name\":\"SBURT\",\"route_long_name\":\"\",\"route_type\":\"3\",\"route_type_name\":\"Bus\",\"route_color\":\"64748B\",\"route_text_color\":\"FFFFFF\"}]"},"geometry":{"type":"Point","coordinates":[-90.000798,29.960999]}},{"type":"Feature","properties":{"stop_id":"wjp_mehle_eb","stop_code":"","stop_name":"W. Judge Perez & Mehle Street","stop_desc":"","zone_id":"","stop_url":"","location_type":"","parent_station":"","stop_timezone":"","wheelchair_boarding":"1","feed_id":"Louisiana__St._Bernard_Parish__mdb_ntd-60058","agency_name":"St. Bernard Urban Rapid Transit","route_count":1,"route_ids":"SBURT","route_short_names":"SBURT","route_types":"3","route_type_names":"Bus","routes_json":"[{\"route_id\":\"SBURT\",\"route_short_name\":\"SBURT\",\"route_long_name\":\"\",\"route_type\":\"3\",\"route_type_name\":\"Bus\",\"route_color\":\"64748B\",\"route_text_color\":\"FFFFFF\"}]"},"geometry":{"type":"Point","coordinates":[-90.002546,29.962052]}},{"type":"Feature","properties":{"stop_id":"ejp_oakridge_eb","stop_code":"","stop_name":"E. Judge Perez Blvd. and Oak Ridge Blvd.","stop_desc":"","zone_id":"","stop_url":"","location_type":"","parent_station":"","stop_timezone":"","wheelchair_boarding":"1","feed_id":"Louisiana__St._Bernard_Parish__mdb_ntd-60058","agency_name":"St. Bernard Urban Rapid Transit","route_count":1,"route_ids":"SBURT","route_short_names":"SBURT","route_types":"3","route_type_names":"Bus","routes_json":"[{\"route_id\":\"SBURT\",\"route_short_name\":\"SBURT\",\"route_long_name\":\"\",\"route_type\":\"3\",\"route_type_name\":\"Bus\",\"route_color\":\"64748B\",\"route_text_color\":\"FFFFFF\"}]"},"geometry":{"type":"Point","coordinates":[-89.895177,29.906947]}}]}