{"type":"FeatureCollection","features":[{"type":"Feature","properties":{"stop_id":"FHSU Tiger","stop_code":"","stop_name":"FHSU Tiger Stop","stop_desc":"","zone_id":"","stop_url":"","location_type":"","parent_station":"","stop_timezone":"","wheelchair_boarding":"1","feed_id":"Kansas__Developmental_Services_of_NW_Kansas_ACCESS_Transportation__mdb_ntd-70060","agency_name":"Developmental Services of NW Kansas/ACCESS Transportation","route_count":1,"route_ids":"Tiger","route_short_names":"","route_types":"3","route_type_names":"Bus","routes_json":"[{\"route_id\":\"Tiger\",\"route_short_name\":\"\",\"route_long_name\":\"Tiger Route\",\"route_type\":\"3\",\"route_type_name\":\"Bus\",\"route_color\":\"CC0033\",\"route_text_color\":\"FFFFFF\"}]"},"geometry":{"type":"Point","coordinates":[-99.342112,38.869107]}},{"type":"Feature","properties":{"stop_id":"WalMart Tiger","stop_code":"","stop_name":"WalMart Tiger Stop","stop_desc":"","zone_id":"","stop_url":"","location_type":"","parent_station":"","stop_timezone":"","wheelchair_boarding":"1","feed_id":"Kansas__Developmental_Services_of_NW_Kansas_ACCESS_Transportation__mdb_ntd-70060","agency_name":"Developmental Services of NW Kansas/ACCESS Transportation","route_count":1,"route_ids":"Tiger","route_short_names":"","route_types":"3","route_type_names":"Bus","routes_json":"[{\"route_id\":\"Tiger\",\"route_short_name\":\"\",\"route_long_name\":\"Tiger Route\",\"route_type\":\"3\",\"route_type_name\":\"Bus\",\"route_color\":\"CC0033\",\"route_text_color\":\"FFFFFF\"}]"},"geometry":{"type":"Point","coordinates":[-99.320559,38.90372]}},{"type":"Feature","properties":{"stop_id":"mall","stop_code":"","stop_name":"Big Creek Mall","stop_desc":"","zone_id":"","stop_url":"","location_type":"","parent_station":"","stop_timezone":"","wheelchair_boarding":"","feed_id":"Kansas__Developmental_Services_of_NW_Kansas_ACCESS_Transportation__mdb_ntd-70060","agency_name":"Developmental Services of NW Kansas/ACCESS Transportation","route_count":1,"route_ids":"Tiger","route_short_names":"","route_types":"3","route_type_names":"Bus","routes_json":"[{\"route_id\":\"Tiger\",\"route_short_name\":\"\",\"route_long_name\":\"Tiger Route\",\"route_type\":\"3\",\"route_type_name\":\"Bus\",\"route_color\":\"CC0033\",\"route_text_color\":\"FFFFFF\"}]"},"geometry":{"type":"Point","coordinates":[-99.31625,38.89086]}}]}