{"type":"FeatureCollection","features":[{"type":"Feature","properties":{"stop_id":"1","stop_code":"1","stop_name":"Mangonia Park Station","stop_desc":"","zone_id":"","stop_url":"","location_type":"","parent_station":"","stop_timezone":"","wheelchair_boarding":"1","feed_id":"Florida__South_Florida_Regional_Transportation_Authority__mdb_tld-492","agency_name":"Tri-Rail","route_count":1,"route_ids":"1","route_short_names":"TRIRAIL","route_types":"2","route_type_names":"Rail","routes_json":"[{\"route_id\":\"1\",\"route_short_name\":\"TRIRAIL\",\"route_long_name\":\"Mainline\",\"route_type\":\"2\",\"route_type_name\":\"Rail\",\"route_color\":\"009BDB\",\"route_text_color\":\"FFFFFF\"}]"},"geometry":{"type":"Point","coordinates":[-80.07693481,26.75874329]}},{"type":"Feature","properties":{"stop_id":"2","stop_code":"2","stop_name":"West Palm Beach Station","stop_desc":"","zone_id":"","stop_url":"","location_type":"","parent_station":"","stop_timezone":"","wheelchair_boarding":"1","feed_id":"Florida__South_Florida_Regional_Transportation_Authority__mdb_tld-492","agency_name":"Tri-Rail","route_count":1,"route_ids":"1","route_short_names":"TRIRAIL","route_types":"2","route_type_names":"Rail","routes_json":"[{\"route_id\":\"1\",\"route_short_name\":\"TRIRAIL\",\"route_long_name\":\"Mainline\",\"route_type\":\"2\",\"route_type_name\":\"Rail\",\"route_color\":\"009BDB\",\"route_text_color\":\"FFFFFF\"}]"},"geometry":{"type":"Point","coordinates":[-80.06253815,26.7132988]}},{"type":"Feature","properties":{"stop_id":"3","stop_code":"3","stop_name":"Lake Worth Beach Station","stop_desc":"","zone_id":"","stop_url":"","location_type":"","parent_station":"","stop_timezone":"","wheelchair_boarding":"1","feed_id":"Florida__South_Florida_Regional_Transportation_Authority__mdb_tld-492","agency_name":"Tri-Rail","route_count":1,"route_ids":"1","route_short_names":"TRIRAIL","route_types":"2","route_type_names":"Rail","routes_json":"[{\"route_id\":\"1\",\"route_short_name\":\"TRIRAIL\",\"route_long_name\":\"Mainline\",\"route_type\":\"2\",\"route_type_name\":\"Rail\",\"route_color\":\"009BDB\",\"route_text_color\":\"FFFFFF\"}]"},"geometry":{"type":"Point","coordinates":[-80.06912994,26.61614227]}},{"type":"Feature","properties":{"stop_id":"4","stop_code":"4","stop_name":"Boynton Beach Station","stop_desc":"","zone_id":"","stop_url":"","location_type":"","parent_station":"","stop_timezone":"","wheelchair_boarding":"1","feed_id":"Florida__South_Florida_Regional_Transportation_Authority__mdb_tld-492","agency_name":"Tri-Rail","route_count":1,"route_ids":"1","route_short_names":"TRIRAIL","route_types":"2","route_type_names":"Rail","routes_json":"[{\"route_id\":\"1\",\"route_short_name\":\"TRIRAIL\",\"route_long_name\":\"Mainline\",\"route_type\":\"2\",\"route_type_name\":\"Rail\",\"route_color\":\"009BDB\",\"route_text_color\":\"FFFFFF\"}]"},"geometry":{"type":"Point","coordinates":[-80.07059479,26.55378342]}},{"type":"Feature","properties":{"stop_id":"5","stop_code":"5","stop_name":"Delray Beach Station","stop_desc":"","zone_id":"","stop_url":"","location_type":"","parent_station":"","stop_timezone":"","wheelchair_boarding":"1","feed_id":"Florida__South_Florida_Regional_Transportation_Authority__mdb_tld-492","agency_name":"Tri-Rail","route_count":1,"route_ids":"1","route_short_names":"TRIRAIL","route_types":"2","route_type_names":"Rail","routes_json":"[{\"route_id\":\"1\",\"route_short_name\":\"TRIRAIL\",\"route_long_name\":\"Mainline\",\"route_type\":\"2\",\"route_type_name\":\"Rail\",\"route_color\":\"009BDB\",\"route_text_color\":\"FFFFFF\"}]"},"geometry":{"type":"Point","coordinates":[-80.09096527,26.45424271]}},{"type":"Feature","properties":{"stop_id":"6","stop_code":"6","stop_name":"Boca Raton Station","stop_desc":"","zone_id":"","stop_url":"","location_type":"","parent_station":"","stop_timezone":"","wheelchair_boarding":"1","feed_id":"Florida__South_Florida_Regional_Transportation_Authority__mdb_tld-492","agency_name":"Tri-Rail","route_count":1,"route_ids":"1","route_short_names":"TRIRAIL","route_types":"2","route_type_names":"Rail","routes_json":"[{\"route_id\":\"1\",\"route_short_name\":\"TRIRAIL\",\"route_long_name\":\"Mainline\",\"route_type\":\"2\",\"route_type_name\":\"Rail\",\"route_color\":\"009BDB\",\"route_text_color\":\"FFFFFF\"}]"},"geometry":{"type":"Point","coordinates":[-80.09902954,26.3927002]}},{"type":"Feature","properties":{"stop_id":"7","stop_code":"7","stop_name":"Deerfield Beach Station","stop_desc":"","zone_id":"","stop_url":"","location_type":"","parent_station":"","stop_timezone":"","wheelchair_boarding":"1","feed_id":"Florida__South_Florida_Regional_Transportation_Authority__mdb_tld-492","agency_name":"Tri-Rail","route_count":1,"route_ids":"1","route_short_names":"TRIRAIL","route_types":"2","route_type_names":"Rail","routes_json":"[{\"route_id\":\"1\",\"route_short_name\":\"TRIRAIL\",\"route_long_name\":\"Mainline\",\"route_type\":\"2\",\"route_type_name\":\"Rail\",\"route_color\":\"009BDB\",\"route_text_color\":\"FFFFFF\"}]"},"geometry":{"type":"Point","coordinates":[-80.12255096,26.31686211]}},{"type":"Feature","properties":{"stop_id":"8","stop_code":"8","stop_name":"Pompano Beach Station","stop_desc":"","zone_id":"","stop_url":"","location_type":"","parent_station":"","stop_timezone":"","wheelchair_boarding":"1","feed_id":"Florida__South_Florida_Regional_Transportation_Authority__mdb_tld-492","agency_name":"Tri-Rail","route_count":1,"route_ids":"1","route_short_names":"TRIRAIL","route_types":"2","route_type_names":"Rail","routes_json":"[{\"route_id\":\"1\",\"route_short_name\":\"TRIRAIL\",\"route_long_name\":\"Mainline\",\"route_type\":\"2\",\"route_type_name\":\"Rail\",\"route_color\":\"009BDB\",\"route_text_color\":\"FFFFFF\"}]"},"geometry":{"type":"Point","coordinates":[-80.1348114,26.27228546]}},{"type":"Feature","properties":{"stop_id":"9","stop_code":"9","stop_name":"Cypress Creek Station","stop_desc":"","zone_id":"","stop_url":"","location_type":"","parent_station":"","stop_timezone":"","wheelchair_boarding":"1","feed_id":"Florida__South_Florida_Regional_Transportation_Authority__mdb_tld-492","agency_name":"Tri-Rail","route_count":1,"route_ids":"1","route_short_names":"TRIRAIL","route_types":"2","route_type_names":"Rail","routes_json":"[{\"route_id\":\"1\",\"route_short_name\":\"TRIRAIL\",\"route_long_name\":\"Mainline\",\"route_type\":\"2\",\"route_type_name\":\"Rail\",\"route_color\":\"009BDB\",\"route_text_color\":\"FFFFFF\"}]"},"geometry":{"type":"Point","coordinates":[-80.15036774,26.20119476]}},{"type":"Feature","properties":{"stop_id":"10","stop_code":"10","stop_name":"Fort Lauderdale Station","stop_desc":"","zone_id":"","stop_url":"","location_type":"","parent_station":"","stop_timezone":"","wheelchair_boarding":"1","feed_id":"Florida__South_Florida_Regional_Transportation_Authority__mdb_tld-492","agency_name":"Tri-Rail","route_count":1,"route_ids":"1","route_short_names":"TRIRAIL","route_types":"2","route_type_names":"Rail","routes_json":"[{\"route_id\":\"1\",\"route_short_name\":\"TRIRAIL\",\"route_long_name\":\"Mainline\",\"route_type\":\"2\",\"route_type_name\":\"Rail\",\"route_color\":\"009BDB\",\"route_text_color\":\"FFFFFF\"}]"},"geometry":{"type":"Point","coordinates":[-80.16980743,26.11994171]}},{"type":"Feature","properties":{"stop_id":"11","stop_code":"11","stop_name":"Fort Lauderdale Airport Station","stop_desc":"","zone_id":"","stop_url":"","location_type":"","parent_station":"","stop_timezone":"","wheelchair_boarding":"1","feed_id":"Florida__South_Florida_Regional_Transportation_Authority__mdb_tld-492","agency_name":"Tri-Rail","route_count":1,"route_ids":"1","route_short_names":"TRIRAIL","route_types":"2","route_type_names":"Rail","routes_json":"[{\"route_id\":\"1\",\"route_short_name\":\"TRIRAIL\",\"route_long_name\":\"Mainline\",\"route_type\":\"2\",\"route_type_name\":\"Rail\",\"route_color\":\"009BDB\",\"route_text_color\":\"FFFFFF\"}]"},"geometry":{"type":"Point","coordinates":[-80.16567993,26.06165314]}},{"type":"Feature","properties":{"stop_id":"12","stop_code":"12","stop_name":"Sheridan Street Station","stop_desc":"","zone_id":"","stop_url":"","location_type":"","parent_station":"","stop_timezone":"","wheelchair_boarding":"1","feed_id":"Florida__South_Florida_Regional_Transportation_Authority__mdb_tld-492","agency_name":"Tri-Rail","route_count":1,"route_ids":"1","route_short_names":"TRIRAIL","route_types":"2","route_type_names":"Rail","routes_json":"[{\"route_id\":\"1\",\"route_short_name\":\"TRIRAIL\",\"route_long_name\":\"Mainline\",\"route_type\":\"2\",\"route_type_name\":\"Rail\",\"route_color\":\"009BDB\",\"route_text_color\":\"FFFFFF\"}]"},"geometry":{"type":"Point","coordinates":[-80.16808319,26.03221703]}},{"type":"Feature","properties":{"stop_id":"13","stop_code":"13","stop_name":"Hollywood Station","stop_desc":"","zone_id":"","stop_url":"","location_type":"","parent_station":"","stop_timezone":"","wheelchair_boarding":"1","feed_id":"Florida__South_Florida_Regional_Transportation_Authority__mdb_tld-492","agency_name":"Tri-Rail","route_count":1,"route_ids":"1","route_short_names":"TRIRAIL","route_types":"2","route_type_names":"Rail","routes_json":"[{\"route_id\":\"1\",\"route_short_name\":\"TRIRAIL\",\"route_long_name\":\"Mainline\",\"route_type\":\"2\",\"route_type_name\":\"Rail\",\"route_color\":\"009BDB\",\"route_text_color\":\"FFFFFF\"}]"},"geometry":{"type":"Point","coordinates":[-80.16765594,26.01241112]}},{"type":"Feature","properties":{"stop_id":"14","stop_code":"14","stop_name":"Golden Glades Station","stop_desc":"","zone_id":"","stop_url":"","location_type":"","parent_station":"","stop_timezone":"","wheelchair_boarding":"1","feed_id":"Florida__South_Florida_Regional_Transportation_Authority__mdb_tld-492","agency_name":"Tri-Rail","route_count":1,"route_ids":"1","route_short_names":"TRIRAIL","route_types":"2","route_type_names":"Rail","routes_json":"[{\"route_id\":\"1\",\"route_short_name\":\"TRIRAIL\",\"route_long_name\":\"Mainline\",\"route_type\":\"2\",\"route_type_name\":\"Rail\",\"route_color\":\"009BDB\",\"route_text_color\":\"FFFFFF\"}]"},"geometry":{"type":"Point","coordinates":[-80.21691895,25.92155075]}},{"type":"Feature","properties":{"stop_id":"15","stop_code":"15","stop_name":"Opa-Locka Station","stop_desc":"","zone_id":"","stop_url":"","location_type":"","parent_station":"","stop_timezone":"","wheelchair_boarding":"1","feed_id":"Florida__South_Florida_Regional_Transportation_Authority__mdb_tld-492","agency_name":"Tri-Rail","route_count":1,"route_ids":"1","route_short_names":"TRIRAIL","route_types":"2","route_type_names":"Rail","routes_json":"[{\"route_id\":\"1\",\"route_short_name\":\"TRIRAIL\",\"route_long_name\":\"Mainline\",\"route_type\":\"2\",\"route_type_name\":\"Rail\",\"route_color\":\"009BDB\",\"route_text_color\":\"FFFFFF\"}]"},"geometry":{"type":"Point","coordinates":[-80.25269318,25.90003586]}},{"type":"Feature","properties":{"stop_id":"16","stop_code":"16","stop_name":"Metrorail Transfer Station","stop_desc":"","zone_id":"","stop_url":"","location_type":"","parent_station":"","stop_timezone":"","wheelchair_boarding":"1","feed_id":"Florida__South_Florida_Regional_Transportation_Authority__mdb_tld-492","agency_name":"Tri-Rail","route_count":2,"route_ids":"2|1","route_short_names":"TRDML|TRIRAIL","route_types":"2","route_type_names":"Rail","routes_json":"[{\"route_id\":\"2\",\"route_short_name\":\"TRDML\",\"route_long_name\":\"Downtown Miami Link\",\"route_type\":\"2\",\"route_type_name\":\"Rail\",\"route_color\":\"F3BE17\",\"route_text_color\":\"000000\"},{\"route_id\":\"1\",\"route_short_name\":\"TRIRAIL\",\"route_long_name\":\"Mainline\",\"route_type\":\"2\",\"route_type_name\":\"Rail\",\"route_color\":\"009BDB\",\"route_text_color\":\"FFFFFF\"}]"},"geometry":{"type":"Point","coordinates":[-80.25962067,25.84639359]}},{"type":"Feature","properties":{"stop_id":"17","stop_code":"17","stop_name":"Hialeah Market Station","stop_desc":"","zone_id":"","stop_url":"","location_type":"","parent_station":"","stop_timezone":"","wheelchair_boarding":"1","feed_id":"Florida__South_Florida_Regional_Transportation_Authority__mdb_tld-492","agency_name":"Tri-Rail","route_count":1,"route_ids":"1","route_short_names":"TRIRAIL","route_types":"2","route_type_names":"Rail","routes_json":"[{\"route_id\":\"1\",\"route_short_name\":\"TRIRAIL\",\"route_long_name\":\"Mainline\",\"route_type\":\"2\",\"route_type_name\":\"Rail\",\"route_color\":\"009BDB\",\"route_text_color\":\"FFFFFF\"}]"},"geometry":{"type":"Point","coordinates":[-80.25870514,25.81123924]}},{"type":"Feature","properties":{"stop_id":"18","stop_code":"18","stop_name":"Miami Airport Station","stop_desc":"","zone_id":"","stop_url":"","location_type":"","parent_station":"","stop_timezone":"","wheelchair_boarding":"1","feed_id":"Florida__South_Florida_Regional_Transportation_Authority__mdb_tld-492","agency_name":"Tri-Rail","route_count":1,"route_ids":"1","route_short_names":"TRIRAIL","route_types":"2","route_type_names":"Rail","routes_json":"[{\"route_id\":\"1\",\"route_short_name\":\"TRIRAIL\",\"route_long_name\":\"Mainline\",\"route_type\":\"2\",\"route_type_name\":\"Rail\",\"route_color\":\"009BDB\",\"route_text_color\":\"FFFFFF\"}]"},"geometry":{"type":"Point","coordinates":[-80.2583313,25.7959404]}},{"type":"Feature","properties":{"stop_id":"19","stop_code":"19","stop_name":"MiamiCentral Station","stop_desc":"","zone_id":"","stop_url":"","location_type":"","parent_station":"","stop_timezone":"","wheelchair_boarding":"1","feed_id":"Florida__South_Florida_Regional_Transportation_Authority__mdb_tld-492","agency_name":"Tri-Rail","route_count":2,"route_ids":"2|1","route_short_names":"TRDML|TRIRAIL","route_types":"2","route_type_names":"Rail","routes_json":"[{\"route_id\":\"2\",\"route_short_name\":\"TRDML\",\"route_long_name\":\"Downtown Miami Link\",\"route_type\":\"2\",\"route_type_name\":\"Rail\",\"route_color\":\"F3BE17\",\"route_text_color\":\"000000\"},{\"route_id\":\"1\",\"route_short_name\":\"TRIRAIL\",\"route_long_name\":\"Mainline\",\"route_type\":\"2\",\"route_type_name\":\"Rail\",\"route_color\":\"009BDB\",\"route_text_color\":\"FFFFFF\"}]"},"geometry":{"type":"Point","coordinates":[-80.1960144,25.78096962]}},{"type":"Feature","properties":{"stop_id":"20","stop_code":"20","stop_name":"Tri-Rail FLL Airport Station","stop_desc":"","zone_id":"","stop_url":"","location_type":"","parent_station":"","stop_timezone":"","wheelchair_boarding":"1","feed_id":"Florida__South_Florida_Regional_Transportation_Authority__mdb_tld-492","agency_name":"Tri-Rail","route_count":1,"route_ids":"4","route_short_names":"FLA1","route_types":"3","route_type_names":"Bus","routes_json":"[{\"route_id\":\"4\",\"route_short_name\":\"FLA1\",\"route_long_name\":\"Fort Lauderdale Airport Shuttle\",\"route_type\":\"3\",\"route_type_name\":\"Bus\",\"route_color\":\"F5821F\",\"route_text_color\":\"FFFFFF\"}]"},"geometry":{"type":"Point","coordinates":[-80.16609031,26.06169321]}},{"type":"Feature","properties":{"stop_id":"21","stop_code":"21","stop_name":"Terminal 1","stop_desc":"","zone_id":"","stop_url":"","location_type":"","parent_station":"","stop_timezone":"","wheelchair_boarding":"1","feed_id":"Florida__South_Florida_Regional_Transportation_Authority__mdb_tld-492","agency_name":"Tri-Rail","route_count":1,"route_ids":"4","route_short_names":"FLA1","route_types":"3","route_type_names":"Bus","routes_json":"[{\"route_id\":\"4\",\"route_short_name\":\"FLA1\",\"route_long_name\":\"Fort Lauderdale Airport Shuttle\",\"route_type\":\"3\",\"route_type_name\":\"Bus\",\"route_color\":\"F5821F\",\"route_text_color\":\"FFFFFF\"}]"},"geometry":{"type":"Point","coordinates":[-80.14061251,26.07235625]}},{"type":"Feature","properties":{"stop_id":"22","stop_code":"22","stop_name":"Terminal 2/3","stop_desc":"","zone_id":"","stop_url":"","location_type":"","parent_station":"","stop_timezone":"","wheelchair_boarding":"1","feed_id":"Florida__South_Florida_Regional_Transportation_Authority__mdb_tld-492","agency_name":"Tri-Rail","route_count":1,"route_ids":"4","route_short_names":"FLA1","route_types":"3","route_type_names":"Bus","routes_json":"[{\"route_id\":\"4\",\"route_short_name\":\"FLA1\",\"route_long_name\":\"Fort Lauderdale Airport Shuttle\",\"route_type\":\"3\",\"route_type_name\":\"Bus\",\"route_color\":\"F5821F\",\"route_text_color\":\"FFFFFF\"}]"},"geometry":{"type":"Point","coordinates":[-80.14491055,26.07234271]}},{"type":"Feature","properties":{"stop_id":"23","stop_code":"23","stop_name":"Terminal 4","stop_desc":"","zone_id":"","stop_url":"","location_type":"","parent_station":"","stop_timezone":"","wheelchair_boarding":"1","feed_id":"Florida__South_Florida_Regional_Transportation_Authority__mdb_tld-492","agency_name":"Tri-Rail","route_count":1,"route_ids":"4","route_short_names":"FLA1","route_types":"3","route_type_names":"Bus","routes_json":"[{\"route_id\":\"4\",\"route_short_name\":\"FLA1\",\"route_long_name\":\"Fort Lauderdale Airport Shuttle\",\"route_type\":\"3\",\"route_type_name\":\"Bus\",\"route_color\":\"F5821F\",\"route_text_color\":\"FFFFFF\"}]"},"geometry":{"type":"Point","coordinates":[-80.144858,26.070414]}}]}