{"type":"FeatureCollection","features":[{"type":"Feature","properties":{"stop_id":"EI","stop_code":"","stop_name":"Ellis Island","stop_desc":"","zone_id":"","stop_url":"","location_type":"","parent_station":"","stop_timezone":"","wheelchair_boarding":"1","feed_id":"New_Jersey__Statue_of_Liberty_National_Monument__mdb_tld-6909","agency_name":"National Park Service","route_count":5,"route_ids":"NY|EIBP|EILILSP|LSPClr|NJ","route_short_names":"","route_types":"4","route_type_names":"Ferry","routes_json":"[{\"route_id\":\"NY\",\"route_short_name\":\"\",\"route_long_name\":\"Battery Park Full Loop\",\"route_type\":\"4\",\"route_type_name\":\"Ferry\",\"route_color\":\"64748B\",\"route_text_color\":\"FFFFFF\"},{\"route_id\":\"EIBP\",\"route_short_name\":\"\",\"route_long_name\":\"Ellis Island - Battery Park Evening Return ONLY\",\"route_type\":\"4\",\"route_type_name\":\"Ferry\",\"route_color\":\"64748B\",\"route_text_color\":\"FFFFFF\"},{\"route_id\":\"EILILSP\",\"route_short_name\":\"\",\"route_long_name\":\"Ellis Island Liberty State Park Evening Return ONLY\",\"route_type\":\"4\",\"route_type_name\":\"Ferry\",\"route_color\":\"64748B\",\"route_text_color\":\"FFFFFF\"},{\"route_id\":\"LSPClr\",\"route_short_name\":\"\",\"route_long_name\":\"Liberty Island Liberty State Park Evening Return ONLY\",\"route_type\":\"4\",\"route_type_name\":\"Ferry\",\"route_color\":\"64748B\",\"route_text_color\":\"FFFFFF\"},{\"route_id\":\"NJ\",\"route_short_name\":\"\",\"route_long_name\":\"Liberty State Park Loop\",\"route_type\":\"4\",\"route_type_name\":\"Ferry\",\"route_color\":\"64748B\",\"route_text_color\":\"FFFFFF\"}]"},"geometry":{"type":"Point","coordinates":[-74.040506,40.698939]}},{"type":"Feature","properties":{"stop_id":"LI","stop_code":"","stop_name":"Liberty Island","stop_desc":"","zone_id":"","stop_url":"","location_type":"","parent_station":"","stop_timezone":"","wheelchair_boarding":"1","feed_id":"New_Jersey__Statue_of_Liberty_National_Monument__mdb_tld-6909","agency_name":"National Park Service","route_count":5,"route_ids":"NY|EILILSP|LIBP|LSPClr|NJ","route_short_names":"","route_types":"4","route_type_names":"Ferry","routes_json":"[{\"route_id\":\"NY\",\"route_short_name\":\"\",\"route_long_name\":\"Battery Park Full Loop\",\"route_type\":\"4\",\"route_type_name\":\"Ferry\",\"route_color\":\"64748B\",\"route_text_color\":\"FFFFFF\"},{\"route_id\":\"EILILSP\",\"route_short_name\":\"\",\"route_long_name\":\"Ellis Island Liberty State Park Evening Return ONLY\",\"route_type\":\"4\",\"route_type_name\":\"Ferry\",\"route_color\":\"64748B\",\"route_text_color\":\"FFFFFF\"},{\"route_id\":\"LIBP\",\"route_short_name\":\"\",\"route_long_name\":\"Liberty Island - Battery Park Evening Return ONLY\",\"route_type\":\"4\",\"route_type_name\":\"Ferry\",\"route_color\":\"64748B\",\"route_text_color\":\"FFFFFF\"},{\"route_id\":\"LSPClr\",\"route_short_name\":\"\",\"route_long_name\":\"Liberty Island Liberty State Park Evening Return ONLY\",\"route_type\":\"4\",\"route_type_name\":\"Ferry\",\"route_color\":\"64748B\",\"route_text_color\":\"FFFFFF\"},{\"route_id\":\"NJ\",\"route_short_name\":\"\",\"route_long_name\":\"Liberty State Park Loop\",\"route_type\":\"4\",\"route_type_name\":\"Ferry\",\"route_color\":\"64748B\",\"route_text_color\":\"FFFFFF\"}]"},"geometry":{"type":"Point","coordinates":[-74.047706,40.689834]}},{"type":"Feature","properties":{"stop_id":"BP","stop_code":"","stop_name":"Battery Park","stop_desc":"","zone_id":"","stop_url":"","location_type":"","parent_station":"","stop_timezone":"","wheelchair_boarding":"1","feed_id":"New_Jersey__Statue_of_Liberty_National_Monument__mdb_tld-6909","agency_name":"National Park Service","route_count":3,"route_ids":"NY|EIBP|LIBP","route_short_names":"","route_types":"4","route_type_names":"Ferry","routes_json":"[{\"route_id\":\"NY\",\"route_short_name\":\"\",\"route_long_name\":\"Battery Park Full Loop\",\"route_type\":\"4\",\"route_type_name\":\"Ferry\",\"route_color\":\"64748B\",\"route_text_color\":\"FFFFFF\"},{\"route_id\":\"EIBP\",\"route_short_name\":\"\",\"route_long_name\":\"Ellis Island - Battery Park Evening Return ONLY\",\"route_type\":\"4\",\"route_type_name\":\"Ferry\",\"route_color\":\"64748B\",\"route_text_color\":\"FFFFFF\"},{\"route_id\":\"LIBP\",\"route_short_name\":\"\",\"route_long_name\":\"Liberty Island - Battery Park Evening Return ONLY\",\"route_type\":\"4\",\"route_type_name\":\"Ferry\",\"route_color\":\"64748B\",\"route_text_color\":\"FFFFFF\"}]"},"geometry":{"type":"Point","coordinates":[-74.016198,40.701617]}},{"type":"Feature","properties":{"stop_id":"LSP","stop_code":"","stop_name":"Liberty State Park","stop_desc":"","zone_id":"","stop_url":"","location_type":"","parent_station":"","stop_timezone":"","wheelchair_boarding":"1","feed_id":"New_Jersey__Statue_of_Liberty_National_Monument__mdb_tld-6909","agency_name":"National Park Service","route_count":3,"route_ids":"EILILSP|LSPClr|NJ","route_short_names":"","route_types":"4","route_type_names":"Ferry","routes_json":"[{\"route_id\":\"EILILSP\",\"route_short_name\":\"\",\"route_long_name\":\"Ellis Island Liberty State Park Evening Return ONLY\",\"route_type\":\"4\",\"route_type_name\":\"Ferry\",\"route_color\":\"64748B\",\"route_text_color\":\"FFFFFF\"},{\"route_id\":\"LSPClr\",\"route_short_name\":\"\",\"route_long_name\":\"Liberty Island Liberty State Park Evening Return ONLY\",\"route_type\":\"4\",\"route_type_name\":\"Ferry\",\"route_color\":\"64748B\",\"route_text_color\":\"FFFFFF\"},{\"route_id\":\"NJ\",\"route_short_name\":\"\",\"route_long_name\":\"Liberty State Park Loop\",\"route_type\":\"4\",\"route_type_name\":\"Ferry\",\"route_color\":\"64748B\",\"route_text_color\":\"FFFFFF\"}]"},"geometry":{"type":"Point","coordinates":[-74.033775,40.707675]}}]}