{"type":"FeatureCollection","features":[{"type":"Feature","properties":{"stop_id":"1","stop_code":"","stop_name":"Pensacola (Downtown)","stop_desc":"","zone_id":"","stop_url":"","location_type":"","parent_station":"","stop_timezone":"","wheelchair_boarding":"1","feed_id":"Florida__National_Park_Service__mdb_tld-6676","agency_name":"National Park Service","route_count":1,"route_ids":"PBF","route_short_names":"","route_types":"4","route_type_names":"Ferry","routes_json":"[{\"route_id\":\"PBF\",\"route_short_name\":\"\",\"route_long_name\":\"Pensacola Bay City Ferry\",\"route_type\":\"4\",\"route_type_name\":\"Ferry\",\"route_color\":\"C56C39\",\"route_text_color\":\"FFFFFF\"}]"},"geometry":{"type":"Point","coordinates":[-87.2122253380277,30.404776423603]}},{"type":"Feature","properties":{"stop_id":"2","stop_code":"","stop_name":"Fort Pickens","stop_desc":"","zone_id":"","stop_url":"","location_type":"","parent_station":"","stop_timezone":"","wheelchair_boarding":"1","feed_id":"Florida__National_Park_Service__mdb_tld-6676","agency_name":"National Park Service","route_count":1,"route_ids":"PBF","route_short_names":"","route_types":"4","route_type_names":"Ferry","routes_json":"[{\"route_id\":\"PBF\",\"route_short_name\":\"\",\"route_long_name\":\"Pensacola Bay City Ferry\",\"route_type\":\"4\",\"route_type_name\":\"Ferry\",\"route_color\":\"C56C39\",\"route_text_color\":\"FFFFFF\"}]"},"geometry":{"type":"Point","coordinates":[-87.288916,30.330299]}},{"type":"Feature","properties":{"stop_id":"3","stop_code":"","stop_name":"Pensacola Beach - Quietwater","stop_desc":"","zone_id":"","stop_url":"","location_type":"","parent_station":"","stop_timezone":"","wheelchair_boarding":"1","feed_id":"Florida__National_Park_Service__mdb_tld-6676","agency_name":"National Park Service","route_count":1,"route_ids":"PBF","route_short_names":"","route_types":"4","route_type_names":"Ferry","routes_json":"[{\"route_id\":\"PBF\",\"route_short_name\":\"\",\"route_long_name\":\"Pensacola Bay City Ferry\",\"route_type\":\"4\",\"route_type_name\":\"Ferry\",\"route_color\":\"C56C39\",\"route_text_color\":\"FFFFFF\"}]"},"geometry":{"type":"Point","coordinates":[-87.1414496700348,30.3349750245952]}}]}