{"type":"FeatureCollection","features":[{"type":"Feature","properties":{"stop_id":"100","stop_code":"100","stop_name":"Coal Twp Wal-Mart","stop_desc":"","zone_id":"","stop_url":"","location_type":"0","parent_station":"","wheelchair_boarding":"0","feed_id":"Pennsylvania__Lower_Anthracite_Transit_System__mdb_tld-7023","agency_name":"Lower Anthracite Transit Systems","route_count":3,"route_ids":"1|2|3","route_short_names":"1|2|3","route_types":"3","route_type_names":"Bus","routes_json":"[{\"route_id\":\"1\",\"route_short_name\":\"1\",\"route_long_name\":\"Mount Carmel\",\"route_type\":\"3\",\"route_type_name\":\"Bus\",\"route_color\":\"953634\",\"route_text_color\":\"FFFFFF\"},{\"route_id\":\"2\",\"route_short_name\":\"2\",\"route_long_name\":\"Shamokin\",\"route_type\":\"3\",\"route_type_name\":\"Bus\",\"route_color\":\"7B2FB1\",\"route_text_color\":\"FFFFFF\"},{\"route_id\":\"3\",\"route_short_name\":\"3\",\"route_long_name\":\"Sunbury\",\"route_type\":\"3\",\"route_type_name\":\"Bus\",\"route_color\":\"1153EE\",\"route_text_color\":\"FFFFFF\"}]"},"geometry":{"type":"Point","coordinates":[-76.505733,40.787216]}},{"type":"Feature","properties":{"stop_id":"101","stop_code":"101","stop_name":"MC Mount Carmel High Rise","stop_desc":"","zone_id":"","stop_url":"","location_type":"0","parent_station":"","wheelchair_boarding":"0","feed_id":"Pennsylvania__Lower_Anthracite_Transit_System__mdb_tld-7023","agency_name":"Lower Anthracite Transit Systems","route_count":1,"route_ids":"1","route_short_names":"1","route_types":"3","route_type_names":"Bus","routes_json":"[{\"route_id\":\"1\",\"route_short_name\":\"1\",\"route_long_name\":\"Mount Carmel\",\"route_type\":\"3\",\"route_type_name\":\"Bus\",\"route_color\":\"953634\",\"route_text_color\":\"FFFFFF\"}]"},"geometry":{"type":"Point","coordinates":[-76.410628,40.793354]}},{"type":"Feature","properties":{"stop_id":"102","stop_code":"102","stop_name":"Weis","stop_desc":"","zone_id":"","stop_url":"","location_type":"0","parent_station":"","wheelchair_boarding":"0","feed_id":"Pennsylvania__Lower_Anthracite_Transit_System__mdb_tld-7023","agency_name":"Lower Anthracite Transit Systems","route_count":1,"route_ids":"2","route_short_names":"2","route_types":"3","route_type_names":"Bus","routes_json":"[{\"route_id\":\"2\",\"route_short_name\":\"2\",\"route_long_name\":\"Shamokin\",\"route_type\":\"3\",\"route_type_name\":\"Bus\",\"route_color\":\"7B2FB1\",\"route_text_color\":\"FFFFFF\"}]"},"geometry":{"type":"Point","coordinates":[-76.561186,40.790421]}},{"type":"Feature","properties":{"stop_id":"103","stop_code":"103","stop_name":"Anthra Plaza","stop_desc":"","zone_id":"","stop_url":"","location_type":"0","parent_station":"","wheelchair_boarding":"0","feed_id":"Pennsylvania__Lower_Anthracite_Transit_System__mdb_tld-7023","agency_name":"Lower Anthracite Transit Systems","route_count":1,"route_ids":"2","route_short_names":"2","route_types":"3","route_type_names":"Bus","routes_json":"[{\"route_id\":\"2\",\"route_short_name\":\"2\",\"route_long_name\":\"Shamokin\",\"route_type\":\"3\",\"route_type_name\":\"Bus\",\"route_color\":\"7B2FB1\",\"route_text_color\":\"FFFFFF\"}]"},"geometry":{"type":"Point","coordinates":[-76.521091,40.789651]}},{"type":"Feature","properties":{"stop_id":"104","stop_code":"104","stop_name":"Ashland","stop_desc":"","zone_id":"","stop_url":"","location_type":"0","parent_station":"","wheelchair_boarding":"0","feed_id":"Pennsylvania__Lower_Anthracite_Transit_System__mdb_tld-7023","agency_name":"Lower Anthracite Transit Systems","route_count":1,"route_ids":"1","route_short_names":"1","route_types":"3","route_type_names":"Bus","routes_json":"[{\"route_id\":\"1\",\"route_short_name\":\"1\",\"route_long_name\":\"Mount Carmel\",\"route_type\":\"3\",\"route_type_name\":\"Bus\",\"route_color\":\"953634\",\"route_text_color\":\"FFFFFF\"}]"},"geometry":{"type":"Point","coordinates":[-76.354736,40.779656]}},{"type":"Feature","properties":{"stop_id":"105","stop_code":"105","stop_name":"Atlas Firard and Fern","stop_desc":"","zone_id":"","stop_url":"","location_type":"0","parent_station":"","wheelchair_boarding":"0","feed_id":"Pennsylvania__Lower_Anthracite_Transit_System__mdb_tld-7023","agency_name":"Lower Anthracite Transit Systems","route_count":1,"route_ids":"1","route_short_names":"1","route_types":"3","route_type_names":"Bus","routes_json":"[{\"route_id\":\"1\",\"route_short_name\":\"1\",\"route_long_name\":\"Mount Carmel\",\"route_type\":\"3\",\"route_type_name\":\"Bus\",\"route_color\":\"953634\",\"route_text_color\":\"FFFFFF\"}]"},"geometry":{"type":"Point","coordinates":[-76.427466,40.799853]}},{"type":"Feature","properties":{"stop_id":"106","stop_code":"106","stop_name":"Atlas Saylor & PA 61","stop_desc":"","zone_id":"","stop_url":"","location_type":"0","parent_station":"","wheelchair_boarding":"0","feed_id":"Pennsylvania__Lower_Anthracite_Transit_System__mdb_tld-7023","agency_name":"Lower Anthracite Transit Systems","route_count":1,"route_ids":"1","route_short_names":"1","route_types":"3","route_type_names":"Bus","routes_json":"[{\"route_id\":\"1\",\"route_short_name\":\"1\",\"route_long_name\":\"Mount Carmel\",\"route_type\":\"3\",\"route_type_name\":\"Bus\",\"route_color\":\"953634\",\"route_text_color\":\"FFFFFF\"}]"},"geometry":{"type":"Point","coordinates":[-76.434333,40.79911]}},{"type":"Feature","properties":{"stop_id":"107","stop_code":"107","stop_name":"Coal Twp Plaza at Coal Twp","stop_desc":"","zone_id":"","stop_url":"","location_type":"0","parent_station":"","wheelchair_boarding":"0","feed_id":"Pennsylvania__Lower_Anthracite_Transit_System__mdb_tld-7023","agency_name":"Lower Anthracite Transit Systems","route_count":2,"route_ids":"1|2","route_short_names":"1|2","route_types":"3","route_type_names":"Bus","routes_json":"[{\"route_id\":\"1\",\"route_short_name\":\"1\",\"route_long_name\":\"Mount Carmel\",\"route_type\":\"3\",\"route_type_name\":\"Bus\",\"route_color\":\"953634\",\"route_text_color\":\"FFFFFF\"},{\"route_id\":\"2\",\"route_short_name\":\"2\",\"route_long_name\":\"Shamokin\",\"route_type\":\"3\",\"route_type_name\":\"Bus\",\"route_color\":\"7B2FB1\",\"route_text_color\":\"FFFFFF\"}]"},"geometry":{"type":"Point","coordinates":[-76.506111,40.790472]}},{"type":"Feature","properties":{"stop_id":"108","stop_code":"108","stop_name":"Den Mar Geisinger Kulpmont","stop_desc":"","zone_id":"","stop_url":"","location_type":"0","parent_station":"","wheelchair_boarding":"0","feed_id":"Pennsylvania__Lower_Anthracite_Transit_System__mdb_tld-7023","agency_name":"Lower Anthracite Transit Systems","route_count":1,"route_ids":"1","route_short_names":"1","route_types":"3","route_type_names":"Bus","routes_json":"[{\"route_id\":\"1\",\"route_short_name\":\"1\",\"route_long_name\":\"Mount Carmel\",\"route_type\":\"3\",\"route_type_name\":\"Bus\",\"route_color\":\"953634\",\"route_text_color\":\"FFFFFF\"}]"},"geometry":{"type":"Point","coordinates":[-76.455618,40.78737]}},{"type":"Feature","properties":{"stop_id":"109","stop_code":"109","stop_name":"Den Mar Missouri Ln & Arizona Dr","stop_desc":"","zone_id":"","stop_url":"","location_type":"0","parent_station":"","wheelchair_boarding":"0","feed_id":"Pennsylvania__Lower_Anthracite_Transit_System__mdb_tld-7023","agency_name":"Lower Anthracite Transit Systems","route_count":1,"route_ids":"1","route_short_names":"1","route_types":"3","route_type_names":"Bus","routes_json":"[{\"route_id\":\"1\",\"route_short_name\":\"1\",\"route_long_name\":\"Mount Carmel\",\"route_type\":\"3\",\"route_type_name\":\"Bus\",\"route_color\":\"953634\",\"route_text_color\":\"FFFFFF\"}]"},"geometry":{"type":"Point","coordinates":[-76.457666,40.785694]}},{"type":"Feature","properties":{"stop_id":"110","stop_code":"110","stop_name":"Den Mar Serenity Gardens","stop_desc":"","zone_id":"","stop_url":"","location_type":"0","parent_station":"","wheelchair_boarding":"0","feed_id":"Pennsylvania__Lower_Anthracite_Transit_System__mdb_tld-7023","agency_name":"Lower Anthracite Transit Systems","route_count":1,"route_ids":"1","route_short_names":"1","route_types":"3","route_type_names":"Bus","routes_json":"[{\"route_id\":\"1\",\"route_short_name\":\"1\",\"route_long_name\":\"Mount Carmel\",\"route_type\":\"3\",\"route_type_name\":\"Bus\",\"route_color\":\"953634\",\"route_text_color\":\"FFFFFF\"}]"},"geometry":{"type":"Point","coordinates":[-76.46265,40.786548]}},{"type":"Feature","properties":{"stop_id":"111","stop_code":"111","stop_name":"Kulp Chestnut & 11th","stop_desc":"","zone_id":"","stop_url":"","location_type":"0","parent_station":"","wheelchair_boarding":"0","feed_id":"Pennsylvania__Lower_Anthracite_Transit_System__mdb_tld-7023","agency_name":"Lower Anthracite Transit Systems","route_count":1,"route_ids":"1","route_short_names":"1","route_types":"3","route_type_names":"Bus","routes_json":"[{\"route_id\":\"1\",\"route_short_name\":\"1\",\"route_long_name\":\"Mount Carmel\",\"route_type\":\"3\",\"route_type_name\":\"Bus\",\"route_color\":\"953634\",\"route_text_color\":\"FFFFFF\"}]"},"geometry":{"type":"Point","coordinates":[-76.476583,40.793305]}},{"type":"Feature","properties":{"stop_id":"112","stop_code":"112","stop_name":"Kulp Chestnut & 6th","stop_desc":"","zone_id":"","stop_url":"","location_type":"0","parent_station":"","wheelchair_boarding":"0","feed_id":"Pennsylvania__Lower_Anthracite_Transit_System__mdb_tld-7023","agency_name":"Lower Anthracite Transit Systems","route_count":1,"route_ids":"1","route_short_names":"1","route_types":"3","route_type_names":"Bus","routes_json":"[{\"route_id\":\"1\",\"route_short_name\":\"1\",\"route_long_name\":\"Mount Carmel\",\"route_type\":\"3\",\"route_type_name\":\"Bus\",\"route_color\":\"953634\",\"route_text_color\":\"FFFFFF\"}]"},"geometry":{"type":"Point","coordinates":[-76.466861,40.79425]}},{"type":"Feature","properties":{"stop_id":"113","stop_code":"113","stop_name":"Kulp Life Geisinger / Townpark","stop_desc":"","zone_id":"","stop_url":"","location_type":"0","parent_station":"","wheelchair_boarding":"0","feed_id":"Pennsylvania__Lower_Anthracite_Transit_System__mdb_tld-7023","agency_name":"Lower Anthracite Transit Systems","route_count":1,"route_ids":"1","route_short_names":"1","route_types":"3","route_type_names":"Bus","routes_json":"[{\"route_id\":\"1\",\"route_short_name\":\"1\",\"route_long_name\":\"Mount Carmel\",\"route_type\":\"3\",\"route_type_name\":\"Bus\",\"route_color\":\"953634\",\"route_text_color\":\"FFFFFF\"}]"},"geometry":{"type":"Point","coordinates":[-76.476583,40.793582]}},{"type":"Feature","properties":{"stop_id":"114","stop_code":"114","stop_name":"Kulp Spruce & 9th","stop_desc":"","zone_id":"","stop_url":"","location_type":"0","parent_station":"","wheelchair_boarding":"0","feed_id":"Pennsylvania__Lower_Anthracite_Transit_System__mdb_tld-7023","agency_name":"Lower Anthracite Transit Systems","route_count":1,"route_ids":"1","route_short_names":"1","route_types":"3","route_type_names":"Bus","routes_json":"[{\"route_id\":\"1\",\"route_short_name\":\"1\",\"route_long_name\":\"Mount Carmel\",\"route_type\":\"3\",\"route_type_name\":\"Bus\",\"route_color\":\"953634\",\"route_text_color\":\"FFFFFF\"}]"},"geometry":{"type":"Point","coordinates":[-76.472625,40.794803]}},{"type":"Feature","properties":{"stop_id":"115","stop_code":"115","stop_name":"Kulp Timber wood","stop_desc":"","zone_id":"","stop_url":"","location_type":"0","parent_station":"","wheelchair_boarding":"0","feed_id":"Pennsylvania__Lower_Anthracite_Transit_System__mdb_tld-7023","agency_name":"Lower Anthracite Transit Systems","route_count":1,"route_ids":"1","route_short_names":"1","route_types":"3","route_type_names":"Bus","routes_json":"[{\"route_id\":\"1\",\"route_short_name\":\"1\",\"route_long_name\":\"Mount Carmel\",\"route_type\":\"3\",\"route_type_name\":\"Bus\",\"route_color\":\"953634\",\"route_text_color\":\"FFFFFF\"}]"},"geometry":{"type":"Point","coordinates":[-76.466556,40.797167]}},{"type":"Feature","properties":{"stop_id":"116","stop_code":"116","stop_name":"Locust Gap Marshall & Railroad","stop_desc":"","zone_id":"","stop_url":"","location_type":"0","parent_station":"","wheelchair_boarding":"0","feed_id":"Pennsylvania__Lower_Anthracite_Transit_System__mdb_tld-7023","agency_name":"Lower Anthracite Transit Systems","route_count":1,"route_ids":"1","route_short_names":"1","route_types":"3","route_type_names":"Bus","routes_json":"[{\"route_id\":\"1\",\"route_short_name\":\"1\",\"route_long_name\":\"Mount Carmel\",\"route_type\":\"3\",\"route_type_name\":\"Bus\",\"route_color\":\"953634\",\"route_text_color\":\"FFFFFF\"}]"},"geometry":{"type":"Point","coordinates":[-76.44136,40.771556]}},{"type":"Feature","properties":{"stop_id":"117","stop_code":"117","stop_name":"Marion Heights Melrose & Belgrade","stop_desc":"","zone_id":"","stop_url":"","location_type":"0","parent_station":"","wheelchair_boarding":"0","feed_id":"Pennsylvania__Lower_Anthracite_Transit_System__mdb_tld-7023","agency_name":"Lower Anthracite Transit Systems","route_count":1,"route_ids":"1","route_short_names":"1","route_types":"3","route_type_names":"Bus","routes_json":"[{\"route_id\":\"1\",\"route_short_name\":\"1\",\"route_long_name\":\"Mount Carmel\",\"route_type\":\"3\",\"route_type_name\":\"Bus\",\"route_color\":\"953634\",\"route_text_color\":\"FFFFFF\"}]"},"geometry":{"type":"Point","coordinates":[-76.46467,40.80497]}},{"type":"Feature","properties":{"stop_id":"118","stop_code":"118","stop_name":"Marion Heights Star Physical","stop_desc":"","zone_id":"","stop_url":"","location_type":"0","parent_station":"","wheelchair_boarding":"0","feed_id":"Pennsylvania__Lower_Anthracite_Transit_System__mdb_tld-7023","agency_name":"Lower Anthracite Transit Systems","route_count":1,"route_ids":"1","route_short_names":"1","route_types":"3","route_type_names":"Bus","routes_json":"[{\"route_id\":\"1\",\"route_short_name\":\"1\",\"route_long_name\":\"Mount Carmel\",\"route_type\":\"3\",\"route_type_name\":\"Bus\",\"route_color\":\"953634\",\"route_text_color\":\"FFFFFF\"}]"},"geometry":{"type":"Point","coordinates":[-76.460889,40.807249]}},{"type":"Feature","properties":{"stop_id":"119","stop_code":"119","stop_name":"MC 2nd & Locust","stop_desc":"","zone_id":"","stop_url":"","location_type":"0","parent_station":"","wheelchair_boarding":"0","feed_id":"Pennsylvania__Lower_Anthracite_Transit_System__mdb_tld-7023","agency_name":"Lower Anthracite Transit Systems","route_count":1,"route_ids":"1","route_short_names":"1","route_types":"3","route_type_names":"Bus","routes_json":"[{\"route_id\":\"1\",\"route_short_name\":\"1\",\"route_long_name\":\"Mount Carmel\",\"route_type\":\"3\",\"route_type_name\":\"Bus\",\"route_color\":\"953634\",\"route_text_color\":\"FFFFFF\"}]"},"geometry":{"type":"Point","coordinates":[-76.406388,40.799138]}},{"type":"Feature","properties":{"stop_id":"120","stop_code":"120","stop_name":"MC 3rd & Oak","stop_desc":"","zone_id":"","stop_url":"","location_type":"0","parent_station":"","wheelchair_boarding":"0","feed_id":"Pennsylvania__Lower_Anthracite_Transit_System__mdb_tld-7023","agency_name":"Lower Anthracite Transit Systems","route_count":1,"route_ids":"1","route_short_names":"1","route_types":"3","route_type_names":"Bus","routes_json":"[{\"route_id\":\"1\",\"route_short_name\":\"1\",\"route_long_name\":\"Mount Carmel\",\"route_type\":\"3\",\"route_type_name\":\"Bus\",\"route_color\":\"953634\",\"route_text_color\":\"FFFFFF\"}]"},"geometry":{"type":"Point","coordinates":[-76.413255,40.796929]}},{"type":"Feature","properties":{"stop_id":"121","stop_code":"121","stop_name":"MC Oak & 3rd","stop_desc":"","zone_id":"","stop_url":"","location_type":"0","parent_station":"","wheelchair_boarding":"0","feed_id":"Pennsylvania__Lower_Anthracite_Transit_System__mdb_tld-7023","agency_name":"Lower Anthracite Transit Systems","route_count":1,"route_ids":"1","route_short_names":"1","route_types":"3","route_type_names":"Bus","routes_json":"[{\"route_id\":\"1\",\"route_short_name\":\"1\",\"route_long_name\":\"Mount Carmel\",\"route_type\":\"3\",\"route_type_name\":\"Bus\",\"route_color\":\"953634\",\"route_text_color\":\"FFFFFF\"}]"},"geometry":{"type":"Point","coordinates":[-76.413222,40.796889]}},{"type":"Feature","properties":{"stop_id":"122","stop_code":"122","stop_name":"MC 4th & Winnie The Pooh","stop_desc":"","zone_id":"","stop_url":"","location_type":"0","parent_station":"","wheelchair_boarding":"0","feed_id":"Pennsylvania__Lower_Anthracite_Transit_System__mdb_tld-7023","agency_name":"Lower Anthracite Transit Systems","route_count":1,"route_ids":"1","route_short_names":"1","route_types":"3","route_type_names":"Bus","routes_json":"[{\"route_id\":\"1\",\"route_short_name\":\"1\",\"route_long_name\":\"Mount Carmel\",\"route_type\":\"3\",\"route_type_name\":\"Bus\",\"route_color\":\"953634\",\"route_text_color\":\"FFFFFF\"}]"},"geometry":{"type":"Point","coordinates":[-76.408972,40.796528]}},{"type":"Feature","properties":{"stop_id":"123","stop_code":"123","stop_name":"MC Market & 5th","stop_desc":"","zone_id":"","stop_url":"","location_type":"0","parent_station":"","wheelchair_boarding":"0","feed_id":"Pennsylvania__Lower_Anthracite_Transit_System__mdb_tld-7023","agency_name":"Lower Anthracite Transit Systems","route_count":1,"route_ids":"1","route_short_names":"1","route_types":"3","route_type_names":"Bus","routes_json":"[{\"route_id\":\"1\",\"route_short_name\":\"1\",\"route_long_name\":\"Mount Carmel\",\"route_type\":\"3\",\"route_type_name\":\"Bus\",\"route_color\":\"953634\",\"route_text_color\":\"FFFFFF\"}]"},"geometry":{"type":"Point","coordinates":[-76.409778,40.795278]}},{"type":"Feature","properties":{"stop_id":"124","stop_code":"124","stop_name":"MC CVS and Boyer's","stop_desc":"","zone_id":"","stop_url":"","location_type":"0","parent_station":"","wheelchair_boarding":"0","feed_id":"Pennsylvania__Lower_Anthracite_Transit_System__mdb_tld-7023","agency_name":"Lower Anthracite Transit Systems","route_count":1,"route_ids":"1","route_short_names":"1","route_types":"3","route_type_names":"Bus","routes_json":"[{\"route_id\":\"1\",\"route_short_name\":\"1\",\"route_long_name\":\"Mount Carmel\",\"route_type\":\"3\",\"route_type_name\":\"Bus\",\"route_color\":\"953634\",\"route_text_color\":\"FFFFFF\"}]"},"geometry":{"type":"Point","coordinates":[-76.421666,40.794639]}},{"type":"Feature","properties":{"stop_id":"125","stop_code":"125","stop_name":"MC Mount Carmel Senior Center","stop_desc":"","zone_id":"","stop_url":"","location_type":"0","parent_station":"","wheelchair_boarding":"0","feed_id":"Pennsylvania__Lower_Anthracite_Transit_System__mdb_tld-7023","agency_name":"Lower Anthracite Transit Systems","route_count":1,"route_ids":"1","route_short_names":"1","route_types":"3","route_type_names":"Bus","routes_json":"[{\"route_id\":\"1\",\"route_short_name\":\"1\",\"route_long_name\":\"Mount Carmel\",\"route_type\":\"3\",\"route_type_name\":\"Bus\",\"route_color\":\"953634\",\"route_text_color\":\"FFFFFF\"}]"},"geometry":{"type":"Point","coordinates":[-76.410055,40.79661]}},{"type":"Feature","properties":{"stop_id":"126","stop_code":"126","stop_name":"MC Pleasant Valley","stop_desc":"","zone_id":"","stop_url":"","location_type":"0","parent_station":"","wheelchair_boarding":"0","feed_id":"Pennsylvania__Lower_Anthracite_Transit_System__mdb_tld-7023","agency_name":"Lower Anthracite Transit Systems","route_count":1,"route_ids":"1","route_short_names":"1","route_types":"3","route_type_names":"Bus","routes_json":"[{\"route_id\":\"1\",\"route_short_name\":\"1\",\"route_long_name\":\"Mount Carmel\",\"route_type\":\"3\",\"route_type_name\":\"Bus\",\"route_color\":\"953634\",\"route_text_color\":\"FFFFFF\"}]"},"geometry":{"type":"Point","coordinates":[-76.423582,40.792916]}},{"type":"Feature","properties":{"stop_id":"127","stop_code":"127","stop_name":"MC Poplar & 5th","stop_desc":"","zone_id":"","stop_url":"","location_type":"0","parent_station":"","wheelchair_boarding":"0","feed_id":"Pennsylvania__Lower_Anthracite_Transit_System__mdb_tld-7023","agency_name":"Lower Anthracite Transit Systems","route_count":1,"route_ids":"1","route_short_names":"1","route_types":"3","route_type_names":"Bus","routes_json":"[{\"route_id\":\"1\",\"route_short_name\":\"1\",\"route_long_name\":\"Mount Carmel\",\"route_type\":\"3\",\"route_type_name\":\"Bus\",\"route_color\":\"953634\",\"route_text_color\":\"FFFFFF\"}]"},"geometry":{"type":"Point","coordinates":[-76.416803,40.79402]}},{"type":"Feature","properties":{"stop_id":"128","stop_code":"128","stop_name":"MC Poplar & Ave","stop_desc":"","zone_id":"","stop_url":"","location_type":"0","parent_station":"","wheelchair_boarding":"0","feed_id":"Pennsylvania__Lower_Anthracite_Transit_System__mdb_tld-7023","agency_name":"Lower Anthracite Transit Systems","route_count":1,"route_ids":"1","route_short_names":"1","route_types":"3","route_type_names":"Bus","routes_json":"[{\"route_id\":\"1\",\"route_short_name\":\"1\",\"route_long_name\":\"Mount Carmel\",\"route_type\":\"3\",\"route_type_name\":\"Bus\",\"route_color\":\"953634\",\"route_text_color\":\"FFFFFF\"}]"},"geometry":{"type":"Point","coordinates":[-76.417991,40.798245]}},{"type":"Feature","properties":{"stop_id":"129","stop_code":"129","stop_name":"MC Willow Court","stop_desc":"","zone_id":"","stop_url":"","location_type":"0","parent_station":"","wheelchair_boarding":"0","feed_id":"Pennsylvania__Lower_Anthracite_Transit_System__mdb_tld-7023","agency_name":"Lower Anthracite Transit Systems","route_count":1,"route_ids":"1","route_short_names":"1","route_types":"3","route_type_names":"Bus","routes_json":"[{\"route_id\":\"1\",\"route_short_name\":\"1\",\"route_long_name\":\"Mount Carmel\",\"route_type\":\"3\",\"route_type_name\":\"Bus\",\"route_color\":\"953634\",\"route_text_color\":\"FFFFFF\"}]"},"geometry":{"type":"Point","coordinates":[-76.419082,40.791749]}},{"type":"Feature","properties":{"stop_id":"131","stop_code":"131","stop_name":"Ranshaw Main St. & 4th","stop_desc":"","zone_id":"","stop_url":"","location_type":"0","parent_station":"","wheelchair_boarding":"0","feed_id":"Pennsylvania__Lower_Anthracite_Transit_System__mdb_tld-7023","agency_name":"Lower Anthracite Transit Systems","route_count":1,"route_ids":"2","route_short_names":"2","route_types":"3","route_type_names":"Bus","routes_json":"[{\"route_id\":\"2\",\"route_short_name\":\"2\",\"route_long_name\":\"Shamokin\",\"route_type\":\"3\",\"route_type_name\":\"Bus\",\"route_color\":\"7B2FB1\",\"route_text_color\":\"FFFFFF\"}]"},"geometry":{"type":"Point","coordinates":[-76.517148,40.786541]}},{"type":"Feature","properties":{"stop_id":"133","stop_code":"133","stop_name":"SH 6th & Walnut","stop_desc":"","zone_id":"","stop_url":"","location_type":"0","parent_station":"","wheelchair_boarding":"0","feed_id":"Pennsylvania__Lower_Anthracite_Transit_System__mdb_tld-7023","agency_name":"Lower Anthracite Transit Systems","route_count":1,"route_ids":"2","route_short_names":"2","route_types":"3","route_type_names":"Bus","routes_json":"[{\"route_id\":\"2\",\"route_short_name\":\"2\",\"route_long_name\":\"Shamokin\",\"route_type\":\"3\",\"route_type_name\":\"Bus\",\"route_color\":\"7B2FB1\",\"route_text_color\":\"FFFFFF\"}]"},"geometry":{"type":"Point","coordinates":[-76.560332,40.789846]}},{"type":"Feature","properties":{"stop_id":"134","stop_code":"134","stop_name":"SH 8th & Career Center","stop_desc":"","zone_id":"","stop_url":"","location_type":"0","parent_station":"","wheelchair_boarding":"0","feed_id":"Pennsylvania__Lower_Anthracite_Transit_System__mdb_tld-7023","agency_name":"Lower Anthracite Transit Systems","route_count":1,"route_ids":"2","route_short_names":"2","route_types":"3","route_type_names":"Bus","routes_json":"[{\"route_id\":\"2\",\"route_short_name\":\"2\",\"route_long_name\":\"Shamokin\",\"route_type\":\"3\",\"route_type_name\":\"Bus\",\"route_color\":\"7B2FB1\",\"route_text_color\":\"FFFFFF\"}]"},"geometry":{"type":"Point","coordinates":[-76.555744,40.788894]}},{"type":"Feature","properties":{"stop_id":"135","stop_code":"135","stop_name":"SH Chestnut St. Senior Center","stop_desc":"","zone_id":"","stop_url":"","location_type":"0","parent_station":"","wheelchair_boarding":"0","feed_id":"Pennsylvania__Lower_Anthracite_Transit_System__mdb_tld-7023","agency_name":"Lower Anthracite Transit Systems","route_count":1,"route_ids":"2","route_short_names":"2","route_types":"3","route_type_names":"Bus","routes_json":"[{\"route_id\":\"2\",\"route_short_name\":\"2\",\"route_long_name\":\"Shamokin\",\"route_type\":\"3\",\"route_type_name\":\"Bus\",\"route_color\":\"7B2FB1\",\"route_text_color\":\"FFFFFF\"}]"},"geometry":{"type":"Point","coordinates":[-76.566683,40.787436]}},{"type":"Feature","properties":{"stop_id":"136","stop_code":"136","stop_name":"SH Dewart St. & Shamokin St.","stop_desc":"","zone_id":"","stop_url":"","location_type":"0","parent_station":"","wheelchair_boarding":"0","feed_id":"Pennsylvania__Lower_Anthracite_Transit_System__mdb_tld-7023","agency_name":"Lower Anthracite Transit Systems","route_count":1,"route_ids":"2","route_short_names":"2","route_types":"3","route_type_names":"Bus","routes_json":"[{\"route_id\":\"2\",\"route_short_name\":\"2\",\"route_long_name\":\"Shamokin\",\"route_type\":\"3\",\"route_type_name\":\"Bus\",\"route_color\":\"7B2FB1\",\"route_text_color\":\"FFFFFF\"}]"},"geometry":{"type":"Point","coordinates":[-76.551095,40.793803]}},{"type":"Feature","properties":{"stop_id":"137","stop_code":"137","stop_name":"SH Fir & Pine","stop_desc":"","zone_id":"","stop_url":"","location_type":"0","parent_station":"","wheelchair_boarding":"0","feed_id":"Pennsylvania__Lower_Anthracite_Transit_System__mdb_tld-7023","agency_name":"Lower Anthracite Transit Systems","route_count":1,"route_ids":"2","route_short_names":"2","route_types":"3","route_type_names":"Bus","routes_json":"[{\"route_id\":\"2\",\"route_short_name\":\"2\",\"route_long_name\":\"Shamokin\",\"route_type\":\"3\",\"route_type_name\":\"Bus\",\"route_color\":\"7B2FB1\",\"route_text_color\":\"FFFFFF\"}]"},"geometry":{"type":"Point","coordinates":[-76.578349,40.784825]}},{"type":"Feature","properties":{"stop_id":"138","stop_code":"138","stop_name":"SH Grant & Willow","stop_desc":"","zone_id":"","stop_url":"","location_type":"0","parent_station":"","wheelchair_boarding":"0","feed_id":"Pennsylvania__Lower_Anthracite_Transit_System__mdb_tld-7023","agency_name":"Lower Anthracite Transit Systems","route_count":1,"route_ids":"2","route_short_names":"2","route_types":"3","route_type_names":"Bus","routes_json":"[{\"route_id\":\"2\",\"route_short_name\":\"2\",\"route_long_name\":\"Shamokin\",\"route_type\":\"3\",\"route_type_name\":\"Bus\",\"route_color\":\"7B2FB1\",\"route_text_color\":\"FFFFFF\"}]"},"geometry":{"type":"Point","coordinates":[-76.554669,40.783325]}},{"type":"Feature","properties":{"stop_id":"139","stop_code":"139","stop_name":"SH Independence & 9th","stop_desc":"","zone_id":"","stop_url":"","location_type":"0","parent_station":"","wheelchair_boarding":"0","feed_id":"Pennsylvania__Lower_Anthracite_Transit_System__mdb_tld-7023","agency_name":"Lower Anthracite Transit Systems","route_count":1,"route_ids":"2","route_short_names":"2","route_types":"3","route_type_names":"Bus","routes_json":"[{\"route_id\":\"2\",\"route_short_name\":\"2\",\"route_long_name\":\"Shamokin\",\"route_type\":\"3\",\"route_type_name\":\"Bus\",\"route_color\":\"7B2FB1\",\"route_text_color\":\"FFFFFF\"}]"},"geometry":{"type":"Point","coordinates":[-76.555559,40.791824]}},{"type":"Feature","properties":{"stop_id":"140","stop_code":"140","stop_name":"SH 9th & Independence","stop_desc":"","zone_id":"","stop_url":"","location_type":"0","parent_station":"","wheelchair_boarding":"0","feed_id":"Pennsylvania__Lower_Anthracite_Transit_System__mdb_tld-7023","agency_name":"Lower Anthracite Transit Systems","route_count":1,"route_ids":"2","route_short_names":"2","route_types":"3","route_type_names":"Bus","routes_json":"[{\"route_id\":\"2\",\"route_short_name\":\"2\",\"route_long_name\":\"Shamokin\",\"route_type\":\"3\",\"route_type_name\":\"Bus\",\"route_color\":\"7B2FB1\",\"route_text_color\":\"FFFFFF\"}]"},"geometry":{"type":"Point","coordinates":[-76.55548,40.791925]}},{"type":"Feature","properties":{"stop_id":"141","stop_code":"141","stop_name":"SH Independence & Market St","stop_desc":"","zone_id":"","stop_url":"","location_type":"0","parent_station":"","wheelchair_boarding":"0","feed_id":"Pennsylvania__Lower_Anthracite_Transit_System__mdb_tld-7023","agency_name":"Lower Anthracite Transit Systems","route_count":1,"route_ids":"2","route_short_names":"2","route_types":"3","route_type_names":"Bus","routes_json":"[{\"route_id\":\"2\",\"route_short_name\":\"2\",\"route_long_name\":\"Shamokin\",\"route_type\":\"3\",\"route_type_name\":\"Bus\",\"route_color\":\"7B2FB1\",\"route_text_color\":\"FFFFFF\"}]"},"geometry":{"type":"Point","coordinates":[-76.558634,40.790665]}},{"type":"Feature","properties":{"stop_id":"142","stop_code":"142","stop_name":"Independence & Rock","stop_desc":"","zone_id":"","stop_url":"","location_type":"0","parent_station":"","wheelchair_boarding":"0","feed_id":"Pennsylvania__Lower_Anthracite_Transit_System__mdb_tld-7023","agency_name":"Lower Anthracite Transit Systems","route_count":1,"route_ids":"2","route_short_names":"2","route_types":"3","route_type_names":"Bus","routes_json":"[{\"route_id\":\"2\",\"route_short_name\":\"2\",\"route_long_name\":\"Shamokin\",\"route_type\":\"3\",\"route_type_name\":\"Bus\",\"route_color\":\"7B2FB1\",\"route_text_color\":\"FFFFFF\"}]"},"geometry":{"type":"Point","coordinates":[-76.552245,40.791863]}},{"type":"Feature","properties":{"stop_id":"143","stop_code":"143","stop_name":"SH Maple St.  Guardian Angel","stop_desc":"","zone_id":"","stop_url":"","location_type":"0","parent_station":"","wheelchair_boarding":"0","feed_id":"Pennsylvania__Lower_Anthracite_Transit_System__mdb_tld-7023","agency_name":"Lower Anthracite Transit Systems","route_count":1,"route_ids":"2","route_short_names":"2","route_types":"3","route_type_names":"Bus","routes_json":"[{\"route_id\":\"2\",\"route_short_name\":\"2\",\"route_long_name\":\"Shamokin\",\"route_type\":\"3\",\"route_type_name\":\"Bus\",\"route_color\":\"7B2FB1\",\"route_text_color\":\"FFFFFF\"}]"},"geometry":{"type":"Point","coordinates":[-76.535146,40.789556]}},{"type":"Feature","properties":{"stop_id":"144","stop_code":"144","stop_name":"SH Mulberry & Lincoln Towers","stop_desc":"","zone_id":"","stop_url":"","location_type":"0","parent_station":"","wheelchair_boarding":"0","feed_id":"Pennsylvania__Lower_Anthracite_Transit_System__mdb_tld-7023","agency_name":"Lower Anthracite Transit Systems","route_count":1,"route_ids":"2","route_short_names":"2","route_types":"3","route_type_names":"Bus","routes_json":"[{\"route_id\":\"2\",\"route_short_name\":\"2\",\"route_long_name\":\"Shamokin\",\"route_type\":\"3\",\"route_type_name\":\"Bus\",\"route_color\":\"7B2FB1\",\"route_text_color\":\"FFFFFF\"}]"},"geometry":{"type":"Point","coordinates":[-76.559106,40.784304]}},{"type":"Feature","properties":{"stop_id":"145","stop_code":"145","stop_name":"SH Mulberry & Poplar","stop_desc":"","zone_id":"","stop_url":"","location_type":"0","parent_station":"","wheelchair_boarding":"0","feed_id":"Pennsylvania__Lower_Anthracite_Transit_System__mdb_tld-7023","agency_name":"Lower Anthracite Transit Systems","route_count":1,"route_ids":"2","route_short_names":"2","route_types":"3","route_type_names":"Bus","routes_json":"[{\"route_id\":\"2\",\"route_short_name\":\"2\",\"route_long_name\":\"Shamokin\",\"route_type\":\"3\",\"route_type_name\":\"Bus\",\"route_color\":\"7B2FB1\",\"route_text_color\":\"FFFFFF\"}]"},"geometry":{"type":"Point","coordinates":[-76.569334,40.783961]}},{"type":"Feature","properties":{"stop_id":"146","stop_code":"146","stop_name":"SH N Ash Coal Twp High Rise","stop_desc":"","zone_id":"","stop_url":"","location_type":"0","parent_station":"","wheelchair_boarding":"0","feed_id":"Pennsylvania__Lower_Anthracite_Transit_System__mdb_tld-7023","agency_name":"Lower Anthracite Transit Systems","route_count":1,"route_ids":"2","route_short_names":"2","route_types":"3","route_type_names":"Bus","routes_json":"[{\"route_id\":\"2\",\"route_short_name\":\"2\",\"route_long_name\":\"Shamokin\",\"route_type\":\"3\",\"route_type_name\":\"Bus\",\"route_color\":\"7B2FB1\",\"route_text_color\":\"FFFFFF\"}]"},"geometry":{"type":"Point","coordinates":[-76.573791,40.787774]}},{"type":"Feature","properties":{"stop_id":"147","stop_code":"147","stop_name":"SH Pulaski & Sheridan","stop_desc":"","zone_id":"","stop_url":"","location_type":"0","parent_station":"","wheelchair_boarding":"0","feed_id":"Pennsylvania__Lower_Anthracite_Transit_System__mdb_tld-7023","agency_name":"Lower Anthracite Transit Systems","route_count":1,"route_ids":"2","route_short_names":"2","route_types":"3","route_type_names":"Bus","routes_json":"[{\"route_id\":\"2\",\"route_short_name\":\"2\",\"route_long_name\":\"Shamokin\",\"route_type\":\"3\",\"route_type_name\":\"Bus\",\"route_color\":\"7B2FB1\",\"route_text_color\":\"FFFFFF\"}]"},"geometry":{"type":"Point","coordinates":[-76.537348,40.787091]}},{"type":"Feature","properties":{"stop_id":"148","stop_code":"148","stop_name":"SH RT61, AutoZone","stop_desc":"","zone_id":"","stop_url":"","location_type":"0","parent_station":"","wheelchair_boarding":"0","feed_id":"Pennsylvania__Lower_Anthracite_Transit_System__mdb_tld-7023","agency_name":"Lower Anthracite Transit Systems","route_count":1,"route_ids":"2","route_short_names":"2","route_types":"3","route_type_names":"Bus","routes_json":"[{\"route_id\":\"2\",\"route_short_name\":\"2\",\"route_long_name\":\"Shamokin\",\"route_type\":\"3\",\"route_type_name\":\"Bus\",\"route_color\":\"7B2FB1\",\"route_text_color\":\"FFFFFF\"}]"},"geometry":{"type":"Point","coordinates":[-76.537189,40.790549]}},{"type":"Feature","properties":{"stop_id":"149","stop_code":"149","stop_name":"SH Shamokin St. & Race","stop_desc":"","zone_id":"","stop_url":"","location_type":"0","parent_station":"","wheelchair_boarding":"0","feed_id":"Pennsylvania__Lower_Anthracite_Transit_System__mdb_tld-7023","agency_name":"Lower Anthracite Transit Systems","route_count":1,"route_ids":"2","route_short_names":"2","route_types":"3","route_type_names":"Bus","routes_json":"[{\"route_id\":\"2\",\"route_short_name\":\"2\",\"route_long_name\":\"Shamokin\",\"route_type\":\"3\",\"route_type_name\":\"Bus\",\"route_color\":\"7B2FB1\",\"route_text_color\":\"FFFFFF\"}]"},"geometry":{"type":"Point","coordinates":[-76.551311,40.788644]}},{"type":"Feature","properties":{"stop_id":"150","stop_code":"150","stop_name":"SH Sunbury St. & Orange Harold Thomas","stop_desc":"","zone_id":"","stop_url":"","location_type":"0","parent_station":"","wheelchair_boarding":"0","feed_id":"Pennsylvania__Lower_Anthracite_Transit_System__mdb_tld-7023","agency_name":"Lower Anthracite Transit Systems","route_count":1,"route_ids":"2","route_short_names":"2","route_types":"3","route_type_names":"Bus","routes_json":"[{\"route_id\":\"2\",\"route_short_name\":\"2\",\"route_long_name\":\"Shamokin\",\"route_type\":\"3\",\"route_type_name\":\"Bus\",\"route_color\":\"7B2FB1\",\"route_text_color\":\"FFFFFF\"}]"},"geometry":{"type":"Point","coordinates":[-76.554502,40.793512]}},{"type":"Feature","properties":{"stop_id":"151","stop_code":"151","stop_name":"SH Thomas & Tioga St.","stop_desc":"","zone_id":"","stop_url":"","location_type":"0","parent_station":"","wheelchair_boarding":"0","feed_id":"Pennsylvania__Lower_Anthracite_Transit_System__mdb_tld-7023","agency_name":"Lower Anthracite Transit Systems","route_count":1,"route_ids":"2","route_short_names":"2","route_types":"3","route_type_names":"Bus","routes_json":"[{\"route_id\":\"2\",\"route_short_name\":\"2\",\"route_long_name\":\"Shamokin\",\"route_type\":\"3\",\"route_type_name\":\"Bus\",\"route_color\":\"7B2FB1\",\"route_text_color\":\"FFFFFF\"}]"},"geometry":{"type":"Point","coordinates":[-76.532679,40.788267]}},{"type":"Feature","properties":{"stop_id":"152","stop_code":"152","stop_name":"Shamokin Hospital Area","stop_desc":"","zone_id":"","stop_url":"","location_type":"0","parent_station":"","wheelchair_boarding":"0","feed_id":"Pennsylvania__Lower_Anthracite_Transit_System__mdb_tld-7023","agency_name":"Lower Anthracite Transit Systems","route_count":1,"route_ids":"2","route_short_names":"2","route_types":"3","route_type_names":"Bus","routes_json":"[{\"route_id\":\"2\",\"route_short_name\":\"2\",\"route_long_name\":\"Shamokin\",\"route_type\":\"3\",\"route_type_name\":\"Bus\",\"route_color\":\"7B2FB1\",\"route_text_color\":\"FFFFFF\"}]"},"geometry":{"type":"Point","coordinates":[-76.570989,40.805951]}},{"type":"Feature","properties":{"stop_id":"153","stop_code":"153","stop_name":"Tharptown Center St & 13th St","stop_desc":"","zone_id":"","stop_url":"","location_type":"0","parent_station":"","wheelchair_boarding":"0","feed_id":"Pennsylvania__Lower_Anthracite_Transit_System__mdb_tld-7023","agency_name":"Lower Anthracite Transit Systems","route_count":1,"route_ids":"2","route_short_names":"2","route_types":"3","route_type_names":"Bus","routes_json":"[{\"route_id\":\"2\",\"route_short_name\":\"2\",\"route_long_name\":\"Shamokin\",\"route_type\":\"3\",\"route_type_name\":\"Bus\",\"route_color\":\"7B2FB1\",\"route_text_color\":\"FFFFFF\"}]"},"geometry":{"type":"Point","coordinates":[-76.567647,40.801294]}},{"type":"Feature","properties":{"stop_id":"154","stop_code":"154","stop_name":"Madison Court","stop_desc":"","zone_id":"","stop_url":"","location_type":"0","parent_station":"","wheelchair_boarding":"0","feed_id":"Pennsylvania__Lower_Anthracite_Transit_System__mdb_tld-7023","agency_name":"Lower Anthracite Transit Systems","route_count":1,"route_ids":"2","route_short_names":"2","route_types":"3","route_type_names":"Bus","routes_json":"[{\"route_id\":\"2\",\"route_short_name\":\"2\",\"route_long_name\":\"Shamokin\",\"route_type\":\"3\",\"route_type_name\":\"Bus\",\"route_color\":\"7B2FB1\",\"route_text_color\":\"FFFFFF\"}]"},"geometry":{"type":"Point","coordinates":[-76.551193,40.792344]}},{"type":"Feature","properties":{"stop_id":"200","stop_code":"200","stop_name":"4th & Market St. / First National Bank","stop_desc":"","zone_id":"","stop_url":"","location_type":"0","parent_station":"","wheelchair_boarding":"0","feed_id":"Pennsylvania__Lower_Anthracite_Transit_System__mdb_tld-7023","agency_name":"Lower Anthracite Transit Systems","route_count":1,"route_ids":"3","route_short_names":"3","route_types":"3","route_type_names":"Bus","routes_json":"[{\"route_id\":\"3\",\"route_short_name\":\"3\",\"route_long_name\":\"Sunbury\",\"route_type\":\"3\",\"route_type_name\":\"Bus\",\"route_color\":\"1153EE\",\"route_text_color\":\"FFFFFF\"}]"},"geometry":{"type":"Point","coordinates":[-76.790923,40.861322]}},{"type":"Feature","properties":{"stop_id":"201","stop_code":"201","stop_name":"Sunbury Office Park / Probation / 2nd &","stop_desc":"","zone_id":"","stop_url":"","location_type":"0","parent_station":"","wheelchair_boarding":"0","feed_id":"Pennsylvania__Lower_Anthracite_Transit_System__mdb_tld-7023","agency_name":"Lower Anthracite Transit Systems","route_count":1,"route_ids":"3","route_short_names":"3","route_types":"3","route_type_names":"Bus","routes_json":"[{\"route_id\":\"3\",\"route_short_name\":\"3\",\"route_long_name\":\"Sunbury\",\"route_type\":\"3\",\"route_type_name\":\"Bus\",\"route_color\":\"1153EE\",\"route_text_color\":\"FFFFFF\"}]"},"geometry":{"type":"Point","coordinates":[-76.792578,40.866356]}},{"type":"Feature","properties":{"stop_id":"202","stop_code":"202","stop_name":"Edison & Packer St.","stop_desc":"","zone_id":"","stop_url":"","location_type":"0","parent_station":"","wheelchair_boarding":"0","feed_id":"Pennsylvania__Lower_Anthracite_Transit_System__mdb_tld-7023","agency_name":"Lower Anthracite Transit Systems","route_count":1,"route_ids":"3","route_short_names":"3","route_types":"3","route_type_names":"Bus","routes_json":"[{\"route_id\":\"3\",\"route_short_name\":\"3\",\"route_long_name\":\"Sunbury\",\"route_type\":\"3\",\"route_type_name\":\"Bus\",\"route_color\":\"1153EE\",\"route_text_color\":\"FFFFFF\"}]"},"geometry":{"type":"Point","coordinates":[-76.790994,40.870962]}},{"type":"Feature","properties":{"stop_id":"203","stop_code":"203","stop_name":"Weis (Arrival) / YMCA","stop_desc":"","zone_id":"","stop_url":"","location_type":"0","parent_station":"","wheelchair_boarding":"0","feed_id":"Pennsylvania__Lower_Anthracite_Transit_System__mdb_tld-7023","agency_name":"Lower Anthracite Transit Systems","route_count":1,"route_ids":"3","route_short_names":"3","route_types":"3","route_type_names":"Bus","routes_json":"[{\"route_id\":\"3\",\"route_short_name\":\"3\",\"route_long_name\":\"Sunbury\",\"route_type\":\"3\",\"route_type_name\":\"Bus\",\"route_color\":\"1153EE\",\"route_text_color\":\"FFFFFF\"}]"},"geometry":{"type":"Point","coordinates":[-76.783843,40.872867]}},{"type":"Feature","properties":{"stop_id":"204","stop_code":"204","stop_name":"Memorial Acres / Sunbury Community Pool","stop_desc":"","zone_id":"","stop_url":"","location_type":"0","parent_station":"","wheelchair_boarding":"0","feed_id":"Pennsylvania__Lower_Anthracite_Transit_System__mdb_tld-7023","agency_name":"Lower Anthracite Transit Systems","route_count":1,"route_ids":"3","route_short_names":"3","route_types":"3","route_type_names":"Bus","routes_json":"[{\"route_id\":\"3\",\"route_short_name\":\"3\",\"route_long_name\":\"Sunbury\",\"route_type\":\"3\",\"route_type_name\":\"Bus\",\"route_color\":\"1153EE\",\"route_text_color\":\"FFFFFF\"}]"},"geometry":{"type":"Point","coordinates":[-76.782164,40.871018]}},{"type":"Feature","properties":{"stop_id":"205","stop_code":"205","stop_name":"Packer St. & 9th","stop_desc":"","zone_id":"","stop_url":"","location_type":"0","parent_station":"","wheelchair_boarding":"0","feed_id":"Pennsylvania__Lower_Anthracite_Transit_System__mdb_tld-7023","agency_name":"Lower Anthracite Transit Systems","route_count":1,"route_ids":"3","route_short_names":"3","route_types":"3","route_type_names":"Bus","routes_json":"[{\"route_id\":\"3\",\"route_short_name\":\"3\",\"route_long_name\":\"Sunbury\",\"route_type\":\"3\",\"route_type_name\":\"Bus\",\"route_color\":\"1153EE\",\"route_text_color\":\"FFFFFF\"}]"},"geometry":{"type":"Point","coordinates":[-76.781656,40.868139]}},{"type":"Feature","properties":{"stop_id":"206","stop_code":"206","stop_name":"Catawissa & Race St. / Sunbury Hose Co.","stop_desc":"","zone_id":"","stop_url":"","location_type":"0","parent_station":"","wheelchair_boarding":"0","feed_id":"Pennsylvania__Lower_Anthracite_Transit_System__mdb_tld-7023","agency_name":"Lower Anthracite Transit Systems","route_count":1,"route_ids":"3","route_short_names":"3","route_types":"3","route_type_names":"Bus","routes_json":"[{\"route_id\":\"3\",\"route_short_name\":\"3\",\"route_long_name\":\"Sunbury\",\"route_type\":\"3\",\"route_type_name\":\"Bus\",\"route_color\":\"1153EE\",\"route_text_color\":\"FFFFFF\"}]"},"geometry":{"type":"Point","coordinates":[-76.783362,40.862198]}},{"type":"Feature","properties":{"stop_id":"207","stop_code":"207","stop_name":"River Front Apartments","stop_desc":"","zone_id":"","stop_url":"","location_type":"0","parent_station":"","wheelchair_boarding":"0","feed_id":"Pennsylvania__Lower_Anthracite_Transit_System__mdb_tld-7023","agency_name":"Lower Anthracite Transit Systems","route_count":1,"route_ids":"3","route_short_names":"3","route_types":"3","route_type_names":"Bus","routes_json":"[{\"route_id\":\"3\",\"route_short_name\":\"3\",\"route_long_name\":\"Sunbury\",\"route_type\":\"3\",\"route_type_name\":\"Bus\",\"route_color\":\"1153EE\",\"route_text_color\":\"FFFFFF\"}]"},"geometry":{"type":"Point","coordinates":[-76.79748,40.860745]}},{"type":"Feature","properties":{"stop_id":"208","stop_code":"208","stop_name":"Assistance Office","stop_desc":"","zone_id":"","stop_url":"","location_type":"0","parent_station":"","wheelchair_boarding":"0","feed_id":"Pennsylvania__Lower_Anthracite_Transit_System__mdb_tld-7023","agency_name":"Lower Anthracite Transit Systems","route_count":1,"route_ids":"3","route_short_names":"3","route_types":"3","route_type_names":"Bus","routes_json":"[{\"route_id\":\"3\",\"route_short_name\":\"3\",\"route_long_name\":\"Sunbury\",\"route_type\":\"3\",\"route_type_name\":\"Bus\",\"route_color\":\"1153EE\",\"route_text_color\":\"FFFFFF\"}]"},"geometry":{"type":"Point","coordinates":[-76.793405,40.860219]}},{"type":"Feature","properties":{"stop_id":"209","stop_code":"209","stop_name":"Chestnut Tower","stop_desc":"","zone_id":"","stop_url":"","location_type":"0","parent_station":"","wheelchair_boarding":"0","feed_id":"Pennsylvania__Lower_Anthracite_Transit_System__mdb_tld-7023","agency_name":"Lower Anthracite Transit Systems","route_count":1,"route_ids":"3","route_short_names":"3","route_types":"3","route_type_names":"Bus","routes_json":"[{\"route_id\":\"3\",\"route_short_name\":\"3\",\"route_long_name\":\"Sunbury\",\"route_type\":\"3\",\"route_type_name\":\"Bus\",\"route_color\":\"1153EE\",\"route_text_color\":\"FFFFFF\"}]"},"geometry":{"type":"Point","coordinates":[-76.7889,40.858819]}},{"type":"Feature","properties":{"stop_id":"210","stop_code":"210","stop_name":"Scott Tower / 7th & Market St.","stop_desc":"","zone_id":"","stop_url":"","location_type":"0","parent_station":"","wheelchair_boarding":"0","feed_id":"Pennsylvania__Lower_Anthracite_Transit_System__mdb_tld-7023","agency_name":"Lower Anthracite Transit Systems","route_count":1,"route_ids":"3","route_short_names":"3","route_types":"3","route_type_names":"Bus","routes_json":"[{\"route_id\":\"3\",\"route_short_name\":\"3\",\"route_long_name\":\"Sunbury\",\"route_type\":\"3\",\"route_type_name\":\"Bus\",\"route_color\":\"1153EE\",\"route_text_color\":\"FFFFFF\"}]"},"geometry":{"type":"Point","coordinates":[-76.7879,40.859878]}},{"type":"Feature","properties":{"stop_id":"211","stop_code":"211","stop_name":"Shikellamy School / Walnut St. & Stadium","stop_desc":"","zone_id":"","stop_url":"","location_type":"0","parent_station":"","wheelchair_boarding":"0","feed_id":"Pennsylvania__Lower_Anthracite_Transit_System__mdb_tld-7023","agency_name":"Lower Anthracite Transit Systems","route_count":1,"route_ids":"3","route_short_names":"3","route_types":"3","route_type_names":"Bus","routes_json":"[{\"route_id\":\"3\",\"route_short_name\":\"3\",\"route_long_name\":\"Sunbury\",\"route_type\":\"3\",\"route_type_name\":\"Bus\",\"route_color\":\"1153EE\",\"route_text_color\":\"FFFFFF\"}]"},"geometry":{"type":"Point","coordinates":[-76.791398,40.856492]}},{"type":"Feature","properties":{"stop_id":"212","stop_code":"212","stop_name":"Walnut & 2nd St.","stop_desc":"","zone_id":"","stop_url":"","location_type":"0","parent_station":"","wheelchair_boarding":"0","feed_id":"Pennsylvania__Lower_Anthracite_Transit_System__mdb_tld-7023","agency_name":"Lower Anthracite Transit Systems","route_count":1,"route_ids":"3","route_short_names":"3","route_types":"3","route_type_names":"Bus","routes_json":"[{\"route_id\":\"3\",\"route_short_name\":\"3\",\"route_long_name\":\"Sunbury\",\"route_type\":\"3\",\"route_type_name\":\"Bus\",\"route_color\":\"1153EE\",\"route_text_color\":\"FFFFFF\"}]"},"geometry":{"type":"Point","coordinates":[-76.796855,40.858182]}},{"type":"Feature","properties":{"stop_id":"213","stop_code":"213","stop_name":"2nd & Garringer St.","stop_desc":"","zone_id":"","stop_url":"","location_type":"0","parent_station":"","wheelchair_boarding":"0","feed_id":"Pennsylvania__Lower_Anthracite_Transit_System__mdb_tld-7023","agency_name":"Lower Anthracite Transit Systems","route_count":1,"route_ids":"3","route_short_names":"3","route_types":"3","route_type_names":"Bus","routes_json":"[{\"route_id\":\"3\",\"route_short_name\":\"3\",\"route_long_name\":\"Sunbury\",\"route_type\":\"3\",\"route_type_name\":\"Bus\",\"route_color\":\"1153EE\",\"route_text_color\":\"FFFFFF\"}]"},"geometry":{"type":"Point","coordinates":[-76.802772,40.849171]}},{"type":"Feature","properties":{"stop_id":"214","stop_code":"214","stop_name":"Planet Fitness / Tractor Supply","stop_desc":"","zone_id":"","stop_url":"","location_type":"0","parent_station":"","wheelchair_boarding":"0","feed_id":"Pennsylvania__Lower_Anthracite_Transit_System__mdb_tld-7023","agency_name":"Lower Anthracite Transit Systems","route_count":1,"route_ids":"3","route_short_names":"3","route_types":"3","route_type_names":"Bus","routes_json":"[{\"route_id\":\"3\",\"route_short_name\":\"3\",\"route_long_name\":\"Sunbury\",\"route_type\":\"3\",\"route_type_name\":\"Bus\",\"route_color\":\"1153EE\",\"route_text_color\":\"FFFFFF\"}]"},"geometry":{"type":"Point","coordinates":[-76.814575,40.854464]}},{"type":"Feature","properties":{"stop_id":"215","stop_code":"215","stop_name":"Giant, Dicks / Monroe Marketplace","stop_desc":"","zone_id":"","stop_url":"","location_type":"0","parent_station":"","wheelchair_boarding":"0","feed_id":"Pennsylvania__Lower_Anthracite_Transit_System__mdb_tld-7023","agency_name":"Lower Anthracite Transit Systems","route_count":1,"route_ids":"3","route_short_names":"3","route_types":"3","route_type_names":"Bus","routes_json":"[{\"route_id\":\"3\",\"route_short_name\":\"3\",\"route_long_name\":\"Sunbury\",\"route_type\":\"3\",\"route_type_name\":\"Bus\",\"route_color\":\"1153EE\",\"route_text_color\":\"FFFFFF\"}]"},"geometry":{"type":"Point","coordinates":[-76.834475,40.842178]}},{"type":"Feature","properties":{"stop_id":"216","stop_code":"216","stop_name":"Susquehanna Valley Mall / Main Entrance","stop_desc":"","zone_id":"","stop_url":"","location_type":"0","parent_station":"","wheelchair_boarding":"0","feed_id":"Pennsylvania__Lower_Anthracite_Transit_System__mdb_tld-7023","agency_name":"Lower Anthracite Transit Systems","route_count":1,"route_ids":"3","route_short_names":"3","route_types":"3","route_type_names":"Bus","routes_json":"[{\"route_id\":\"3\",\"route_short_name\":\"3\",\"route_long_name\":\"Sunbury\",\"route_type\":\"3\",\"route_type_name\":\"Bus\",\"route_color\":\"1153EE\",\"route_text_color\":\"FFFFFF\"}]"},"geometry":{"type":"Point","coordinates":[-76.848287,40.825006]}},{"type":"Feature","properties":{"stop_id":"217","stop_code":"217","stop_name":"Walmart / Community Aid Thrift Store","stop_desc":"","zone_id":"","stop_url":"","location_type":"0","parent_station":"","wheelchair_boarding":"0","feed_id":"Pennsylvania__Lower_Anthracite_Transit_System__mdb_tld-7023","agency_name":"Lower Anthracite Transit Systems","route_count":1,"route_ids":"3","route_short_names":"3","route_types":"3","route_type_names":"Bus","routes_json":"[{\"route_id\":\"3\",\"route_short_name\":\"3\",\"route_long_name\":\"Sunbury\",\"route_type\":\"3\",\"route_type_name\":\"Bus\",\"route_color\":\"1153EE\",\"route_text_color\":\"FFFFFF\"}]"},"geometry":{"type":"Point","coordinates":[-76.846027,40.822819]}}]}