{"type":"FeatureCollection","features":[{"type":"Feature","properties":{"stop_id":"STOP-be554e9d-f180-450f-902b-a772328ac4dd","stop_name":"Columbia","stop_desc":"Elmer's Discount","feed_id":"Maine__West's_Bus_Service__mdb_tld-7870","agency_name":"West's Transportation","route_count":1,"route_ids":"WCC","route_short_names":"WCC","route_types":"3","route_type_names":"Bus","routes_json":"[{\"route_id\":\"WCC\",\"route_short_name\":\"WCC\",\"route_long_name\":\"West's Coastal Connection\",\"route_type\":\"3\",\"route_type_name\":\"Bus\",\"route_color\":\"64748B\",\"route_text_color\":\"FFFFFF\"}]"},"geometry":{"type":"Point","coordinates":[-67.762998,44.642872]}},{"type":"Feature","properties":{"stop_id":"STOP-a8fb5add-97f2-4284-8533-1f2181fdc6f8","stop_name":"Columbia","stop_desc":"4 Corners","feed_id":"Maine__West's_Bus_Service__mdb_tld-7870","agency_name":"West's Transportation","route_count":2,"route_ids":"ELLS|MACH","route_short_names":"Ellsworth|Machias","route_types":"3","route_type_names":"Bus","routes_json":"[{\"route_id\":\"ELLS\",\"route_short_name\":\"Ellsworth\",\"route_long_name\":\"Monday Bus to Ellsworth\",\"route_type\":\"3\",\"route_type_name\":\"Bus\",\"route_color\":\"64748B\",\"route_text_color\":\"FFFFFF\"},{\"route_id\":\"MACH\",\"route_short_name\":\"Machias\",\"route_long_name\":\"Tuesday Bus to Machias\",\"route_type\":\"3\",\"route_type_name\":\"Bus\",\"route_color\":\"64748B\",\"route_text_color\":\"FFFFFF\"}]"},"geometry":{"type":"Point","coordinates":[-67.761947,44.643182]}},{"type":"Feature","properties":{"stop_id":"STOP-14ae1c74-7f7c-4204-be30-265e030a1c35","stop_name":"Ellsworth","stop_desc":"Town","feed_id":"Maine__West's_Bus_Service__mdb_tld-7870","agency_name":"West's Transportation","route_count":1,"route_ids":"ELLS","route_short_names":"Ellsworth","route_types":"3","route_type_names":"Bus","routes_json":"[{\"route_id\":\"ELLS\",\"route_short_name\":\"Ellsworth\",\"route_long_name\":\"Monday Bus to Ellsworth\",\"route_type\":\"3\",\"route_type_name\":\"Bus\",\"route_color\":\"64748B\",\"route_text_color\":\"FFFFFF\"}]"},"geometry":{"type":"Point","coordinates":[-68.420558,44.543301]}},{"type":"Feature","properties":{"stop_id":"STOP-a64ef87a-091d-47ea-9c17-8f1652e1d882","stop_name":"Harrington","stop_desc":"Housing Appartments","feed_id":"Maine__West's_Bus_Service__mdb_tld-7870","agency_name":"West's Transportation","route_count":2,"route_ids":"ELLS|MACH","route_short_names":"Ellsworth|Machias","route_types":"3","route_type_names":"Bus","routes_json":"[{\"route_id\":\"ELLS\",\"route_short_name\":\"Ellsworth\",\"route_long_name\":\"Monday Bus to Ellsworth\",\"route_type\":\"3\",\"route_type_name\":\"Bus\",\"route_color\":\"64748B\",\"route_text_color\":\"FFFFFF\"},{\"route_id\":\"MACH\",\"route_short_name\":\"Machias\",\"route_long_name\":\"Tuesday Bus to Machias\",\"route_type\":\"3\",\"route_type_name\":\"Bus\",\"route_color\":\"64748B\",\"route_text_color\":\"FFFFFF\"}]"},"geometry":{"type":"Point","coordinates":[-67.808225,44.620057]}},{"type":"Feature","properties":{"stop_id":"STOP-cce489d3-8d6c-4e48-813d-c2d1d2acb90b","stop_name":"Jonesport","stop_desc":"Post Office","feed_id":"Maine__West's_Bus_Service__mdb_tld-7870","agency_name":"West's Transportation","route_count":3,"route_ids":"WEEK|ELLS|MACH","route_short_names":"Ellsworth|Machias","route_types":"3","route_type_names":"Bus","routes_json":"[{\"route_id\":\"WEEK\",\"route_short_name\":\"\",\"route_long_name\":\"Steuben to Jonesport\",\"route_type\":\"3\",\"route_type_name\":\"Bus\",\"route_color\":\"64748B\",\"route_text_color\":\"FFFFFF\"},{\"route_id\":\"ELLS\",\"route_short_name\":\"Ellsworth\",\"route_long_name\":\"Monday Bus to Ellsworth\",\"route_type\":\"3\",\"route_type_name\":\"Bus\",\"route_color\":\"64748B\",\"route_text_color\":\"FFFFFF\"},{\"route_id\":\"MACH\",\"route_short_name\":\"Machias\",\"route_long_name\":\"Tuesday Bus to Machias\",\"route_type\":\"3\",\"route_type_name\":\"Bus\",\"route_color\":\"64748B\",\"route_text_color\":\"FFFFFF\"}]"},"geometry":{"type":"Point","coordinates":[-67.601361,44.531535]}},{"type":"Feature","properties":{"stop_id":"STOP-b11bb36f-65f5-4bfe-abb8-bdf1d76ac3b9","stop_name":"Beals Island","stop_desc":"Post Office","feed_id":"Maine__West's_Bus_Service__mdb_tld-7870","agency_name":"West's Transportation","route_count":1,"route_ids":"ELLS","route_short_names":"Ellsworth","route_types":"3","route_type_names":"Bus","routes_json":"[{\"route_id\":\"ELLS\",\"route_short_name\":\"Ellsworth\",\"route_long_name\":\"Monday Bus to Ellsworth\",\"route_type\":\"3\",\"route_type_name\":\"Bus\",\"route_color\":\"64748B\",\"route_text_color\":\"FFFFFF\"}]"},"geometry":{"type":"Point","coordinates":[-67.611679,44.519326]}},{"type":"Feature","properties":{"stop_id":"STOP-9034671c-e991-4439-9e71-a05a8599a56f","stop_name":"Calais","stop_desc":"Marden's Parking Lot","feed_id":"Maine__West's_Bus_Service__mdb_tld-7870","agency_name":"West's Transportation","route_count":1,"route_ids":"WCC","route_short_names":"WCC","route_types":"3","route_type_names":"Bus","routes_json":"[{\"route_id\":\"WCC\",\"route_short_name\":\"WCC\",\"route_long_name\":\"West's Coastal Connection\",\"route_type\":\"3\",\"route_type_name\":\"Bus\",\"route_color\":\"64748B\",\"route_text_color\":\"FFFFFF\"}]"},"geometry":{"type":"Point","coordinates":[-67.282208,45.188547]}},{"type":"Feature","properties":{"stop_id":"STOP-14ed8aff-0f08-4ac4-89fe-e9b172db07bb","stop_name":"Perry","stop_desc":"Wabanaki Mall","feed_id":"Maine__West's_Bus_Service__mdb_tld-7870","agency_name":"West's Transportation","route_count":1,"route_ids":"WCC","route_short_names":"WCC","route_types":"3","route_type_names":"Bus","routes_json":"[{\"route_id\":\"WCC\",\"route_short_name\":\"WCC\",\"route_long_name\":\"West's Coastal Connection\",\"route_type\":\"3\",\"route_type_name\":\"Bus\",\"route_color\":\"64748B\",\"route_text_color\":\"FFFFFF\"}]"},"geometry":{"type":"Point","coordinates":[-67.07493,44.972314]}},{"type":"Feature","properties":{"stop_id":"STOP-2ad237c0-4dfe-4a50-a8cd-cec8972e1922","stop_name":"Pembroke","stop_desc":"Corner of Rt. 214 & Rt. 1","feed_id":"Maine__West's_Bus_Service__mdb_tld-7870","agency_name":"West's Transportation","route_count":1,"route_ids":"WCC","route_short_names":"WCC","route_types":"3","route_type_names":"Bus","routes_json":"[{\"route_id\":\"WCC\",\"route_short_name\":\"WCC\",\"route_long_name\":\"West's Coastal Connection\",\"route_type\":\"3\",\"route_type_name\":\"Bus\",\"route_color\":\"64748B\",\"route_text_color\":\"FFFFFF\"}]"},"geometry":{"type":"Point","coordinates":[-67.178497,44.949657]}},{"type":"Feature","properties":{"stop_id":"STOP-c48d97aa-f7b1-4560-b697-048d4aca8f74","stop_name":"Dennysville","stop_desc":"Cobscook Bay Cafe","feed_id":"Maine__West's_Bus_Service__mdb_tld-7870","agency_name":"West's Transportation","route_count":1,"route_ids":"WCC","route_short_names":"WCC","route_types":"3","route_type_names":"Bus","routes_json":"[{\"route_id\":\"WCC\",\"route_short_name\":\"WCC\",\"route_long_name\":\"West's Coastal Connection\",\"route_type\":\"3\",\"route_type_name\":\"Bus\",\"route_color\":\"64748B\",\"route_text_color\":\"FFFFFF\"}]"},"geometry":{"type":"Point","coordinates":[-67.220508,44.903089]}},{"type":"Feature","properties":{"stop_id":"STOP-d530cc40-12bd-4071-95de-52fbaf1d7d23","stop_name":"Whiting","stop_desc":"Community Center/Store","feed_id":"Maine__West's_Bus_Service__mdb_tld-7870","agency_name":"West's Transportation","route_count":1,"route_ids":"WCC","route_short_names":"WCC","route_types":"3","route_type_names":"Bus","routes_json":"[{\"route_id\":\"WCC\",\"route_short_name\":\"WCC\",\"route_long_name\":\"West's Coastal Connection\",\"route_type\":\"3\",\"route_type_name\":\"Bus\",\"route_color\":\"64748B\",\"route_text_color\":\"FFFFFF\"}]"},"geometry":{"type":"Point","coordinates":[-67.174249,44.791234]}},{"type":"Feature","properties":{"stop_id":"STOP-477b3ace-4389-47e8-a4c7-cb32cd874a10","stop_name":"Machias","stop_desc":"Irving Mainway","feed_id":"Maine__West's_Bus_Service__mdb_tld-7870","agency_name":"West's Transportation","route_count":3,"route_ids":"LBC|MACH|WCC","route_short_names":"Lubec|Machias|WCC","route_types":"3","route_type_names":"Bus","routes_json":"[{\"route_id\":\"LBC\",\"route_short_name\":\"Lubec\",\"route_long_name\":\"Lubec to Machias\",\"route_type\":\"3\",\"route_type_name\":\"Bus\",\"route_color\":\"64748B\",\"route_text_color\":\"FFFFFF\"},{\"route_id\":\"MACH\",\"route_short_name\":\"Machias\",\"route_long_name\":\"Tuesday Bus to Machias\",\"route_type\":\"3\",\"route_type_name\":\"Bus\",\"route_color\":\"64748B\",\"route_text_color\":\"FFFFFF\"},{\"route_id\":\"WCC\",\"route_short_name\":\"WCC\",\"route_long_name\":\"West's Coastal Connection\",\"route_type\":\"3\",\"route_type_name\":\"Bus\",\"route_color\":\"64748B\",\"route_text_color\":\"FFFFFF\"}]"},"geometry":{"type":"Point","coordinates":[-67.453202,44.717474]}},{"type":"Feature","properties":{"stop_id":"STOP-3186da65-c835-47ae-9095-f3881148ffc9","stop_name":"Jonesboro","stop_desc":"Swamp Yankee BBQ","feed_id":"Maine__West's_Bus_Service__mdb_tld-7870","agency_name":"West's Transportation","route_count":1,"route_ids":"WCC","route_short_names":"WCC","route_types":"3","route_type_names":"Bus","routes_json":"[{\"route_id\":\"WCC\",\"route_short_name\":\"WCC\",\"route_long_name\":\"West's Coastal Connection\",\"route_type\":\"3\",\"route_type_name\":\"Bus\",\"route_color\":\"64748B\",\"route_text_color\":\"FFFFFF\"}]"},"geometry":{"type":"Point","coordinates":[-67.572941,44.662061]}},{"type":"Feature","properties":{"stop_id":"STOP-7a5a3410-4d73-4cbf-aea1-df3d4aa243f2","stop_name":"Milbridge","stop_desc":"44 North Rest.","feed_id":"Maine__West's_Bus_Service__mdb_tld-7870","agency_name":"West's Transportation","route_count":1,"route_ids":"WCC","route_short_names":"WCC","route_types":"3","route_type_names":"Bus","routes_json":"[{\"route_id\":\"WCC\",\"route_short_name\":\"WCC\",\"route_long_name\":\"West's Coastal Connection\",\"route_type\":\"3\",\"route_type_name\":\"Bus\",\"route_color\":\"64748B\",\"route_text_color\":\"FFFFFF\"}]"},"geometry":{"type":"Point","coordinates":[-67.881499,44.537812]}},{"type":"Feature","properties":{"stop_id":"STOP-e354cfda-7054-4ed6-b5c4-e7a4975cfdbd","stop_name":"Gouldsboro","stop_desc":"Young's Market","feed_id":"Maine__West's_Bus_Service__mdb_tld-7870","agency_name":"West's Transportation","route_count":1,"route_ids":"WCC","route_short_names":"WCC","route_types":"3","route_type_names":"Bus","routes_json":"[{\"route_id\":\"WCC\",\"route_short_name\":\"WCC\",\"route_long_name\":\"West's Coastal Connection\",\"route_type\":\"3\",\"route_type_name\":\"Bus\",\"route_color\":\"64748B\",\"route_text_color\":\"FFFFFF\"}]"},"geometry":{"type":"Point","coordinates":[-68.114997,44.484226]}},{"type":"Feature","properties":{"stop_id":"STOP-970a9e30-06d7-4ddb-98cc-49cdee5588cb","stop_name":"Sullivan","stop_desc":"Sullivan REC. Center","feed_id":"Maine__West's_Bus_Service__mdb_tld-7870","agency_name":"West's Transportation","route_count":1,"route_ids":"WCC","route_short_names":"WCC","route_types":"3","route_type_names":"Bus","routes_json":"[{\"route_id\":\"WCC\",\"route_short_name\":\"WCC\",\"route_long_name\":\"West's Coastal Connection\",\"route_type\":\"3\",\"route_type_name\":\"Bus\",\"route_color\":\"64748B\",\"route_text_color\":\"FFFFFF\"}]"},"geometry":{"type":"Point","coordinates":[-68.224766,44.530243]}},{"type":"Feature","properties":{"stop_id":"STOP-fc0ebfb0-a667-4382-88d3-d3f194bf26b6","stop_name":"Hancock","stop_desc":"Village Store","feed_id":"Maine__West's_Bus_Service__mdb_tld-7870","agency_name":"West's Transportation","route_count":1,"route_ids":"WCC","route_short_names":"WCC","route_types":"3","route_type_names":"Bus","routes_json":"[{\"route_id\":\"WCC\",\"route_short_name\":\"WCC\",\"route_long_name\":\"West's Coastal Connection\",\"route_type\":\"3\",\"route_type_name\":\"Bus\",\"route_color\":\"64748B\",\"route_text_color\":\"FFFFFF\"}]"},"geometry":{"type":"Point","coordinates":[-68.25859,44.530141]}},{"type":"Feature","properties":{"stop_id":"STOP-2cd4673a-e3d0-472f-9654-37a6c9233e4a","stop_name":"Ellsworth","stop_desc":"Main Entrance Mill Mall, Out Back","feed_id":"Maine__West's_Bus_Service__mdb_tld-7870","agency_name":"West's Transportation","route_count":1,"route_ids":"WCC","route_short_names":"WCC","route_types":"3","route_type_names":"Bus","routes_json":"[{\"route_id\":\"WCC\",\"route_short_name\":\"WCC\",\"route_long_name\":\"West's Coastal Connection\",\"route_type\":\"3\",\"route_type_name\":\"Bus\",\"route_color\":\"64748B\",\"route_text_color\":\"FFFFFF\"}]"},"geometry":{"type":"Point","coordinates":[-68.430006,44.551404]}},{"type":"Feature","properties":{"stop_id":"STOP-3012643a-132d-4c0d-974e-cdc8714f9368","stop_name":"Bangor (Concord Trailways)","stop_desc":"Concord Trailways","feed_id":"Maine__West's_Bus_Service__mdb_tld-7870","agency_name":"West's Transportation","route_count":1,"route_ids":"WCC","route_short_names":"WCC","route_types":"3","route_type_names":"Bus","routes_json":"[{\"route_id\":\"WCC\",\"route_short_name\":\"WCC\",\"route_long_name\":\"West's Coastal Connection\",\"route_type\":\"3\",\"route_type_name\":\"Bus\",\"route_color\":\"64748B\",\"route_text_color\":\"FFFFFF\"}]"},"geometry":{"type":"Point","coordinates":[-68.808764,44.816594]}},{"type":"Feature","properties":{"stop_id":"STOP-8f56e854-d898-49f8-aef1-f6420a0c6042","stop_name":"Bangor (Airport)","stop_desc":"Bangor Airport","feed_id":"Maine__West's_Bus_Service__mdb_tld-7870","agency_name":"West's Transportation","route_count":1,"route_ids":"WCC","route_short_names":"WCC","route_types":"3","route_type_names":"Bus","routes_json":"[{\"route_id\":\"WCC\",\"route_short_name\":\"WCC\",\"route_long_name\":\"West's Coastal Connection\",\"route_type\":\"3\",\"route_type_name\":\"Bus\",\"route_color\":\"64748B\",\"route_text_color\":\"FFFFFF\"}]"},"geometry":{"type":"Point","coordinates":[-68.817861,44.809052]}},{"type":"Feature","properties":{"stop_id":"STOP-709e5965-7b27-4c47-a1de-1eedbea4350e","stop_name":"Addison","stop_desc":"Town Office","feed_id":"Maine__West's_Bus_Service__mdb_tld-7870","agency_name":"West's Transportation","route_count":2,"route_ids":"ELLS|MACH","route_short_names":"Ellsworth|Machias","route_types":"3","route_type_names":"Bus","routes_json":"[{\"route_id\":\"ELLS\",\"route_short_name\":\"Ellsworth\",\"route_long_name\":\"Monday Bus to Ellsworth\",\"route_type\":\"3\",\"route_type_name\":\"Bus\",\"route_color\":\"64748B\",\"route_text_color\":\"FFFFFF\"},{\"route_id\":\"MACH\",\"route_short_name\":\"Machias\",\"route_long_name\":\"Tuesday Bus to Machias\",\"route_type\":\"3\",\"route_type_name\":\"Bus\",\"route_color\":\"64748B\",\"route_text_color\":\"FFFFFF\"}]"},"geometry":{"type":"Point","coordinates":[-67.728151,44.653278]}},{"type":"Feature","properties":{"stop_id":"STOP-fc77e641-ea79-4e44-b050-16cf14331355","stop_name":"Columbia Falls","stop_desc":"Pleasant View Appartments","feed_id":"Maine__West's_Bus_Service__mdb_tld-7870","agency_name":"West's Transportation","route_count":2,"route_ids":"ELLS|MACH","route_short_names":"Ellsworth|Machias","route_types":"3","route_type_names":"Bus","routes_json":"[{\"route_id\":\"ELLS\",\"route_short_name\":\"Ellsworth\",\"route_long_name\":\"Monday Bus to Ellsworth\",\"route_type\":\"3\",\"route_type_name\":\"Bus\",\"route_color\":\"64748B\",\"route_text_color\":\"FFFFFF\"},{\"route_id\":\"MACH\",\"route_short_name\":\"Machias\",\"route_long_name\":\"Tuesday Bus to Machias\",\"route_type\":\"3\",\"route_type_name\":\"Bus\",\"route_color\":\"64748B\",\"route_text_color\":\"FFFFFF\"}]"},"geometry":{"type":"Point","coordinates":[-67.733866,44.635818]}},{"type":"Feature","properties":{"stop_id":"STOP-fc06a983-3770-4ca9-882e-4b90cd0c3573","stop_name":"Cherryfield","stop_desc":"Narraguagus Estates","feed_id":"Maine__West's_Bus_Service__mdb_tld-7870","agency_name":"West's Transportation","route_count":2,"route_ids":"ELLS|MACH","route_short_names":"Ellsworth|Machias","route_types":"3","route_type_names":"Bus","routes_json":"[{\"route_id\":\"ELLS\",\"route_short_name\":\"Ellsworth\",\"route_long_name\":\"Monday Bus to Ellsworth\",\"route_type\":\"3\",\"route_type_name\":\"Bus\",\"route_color\":\"64748B\",\"route_text_color\":\"FFFFFF\"},{\"route_id\":\"MACH\",\"route_short_name\":\"Machias\",\"route_long_name\":\"Tuesday Bus to Machias\",\"route_type\":\"3\",\"route_type_name\":\"Bus\",\"route_color\":\"64748B\",\"route_text_color\":\"FFFFFF\"}]"},"geometry":{"type":"Point","coordinates":[-67.931835,44.596771]}},{"type":"Feature","properties":{"stop_id":"STOP-d6a9c3c6-72f3-47fb-9317-bd223cbd3764","stop_name":"Milbridge","stop_desc":"West Manor","feed_id":"Maine__West's_Bus_Service__mdb_tld-7870","agency_name":"West's Transportation","route_count":2,"route_ids":"ELLS|MACH","route_short_names":"Ellsworth|Machias","route_types":"3","route_type_names":"Bus","routes_json":"[{\"route_id\":\"ELLS\",\"route_short_name\":\"Ellsworth\",\"route_long_name\":\"Monday Bus to Ellsworth\",\"route_type\":\"3\",\"route_type_name\":\"Bus\",\"route_color\":\"64748B\",\"route_text_color\":\"FFFFFF\"},{\"route_id\":\"MACH\",\"route_short_name\":\"Machias\",\"route_long_name\":\"Tuesday Bus to Machias\",\"route_type\":\"3\",\"route_type_name\":\"Bus\",\"route_color\":\"64748B\",\"route_text_color\":\"FFFFFF\"}]"},"geometry":{"type":"Point","coordinates":[-67.879956,44.537544]}},{"type":"Feature","properties":{"stop_id":"STOP-e3f84be2-a7a6-43f9-8489-76cefb81d9c0","stop_name":"Steuben","stop_desc":"Town Office","feed_id":"Maine__West's_Bus_Service__mdb_tld-7870","agency_name":"West's Transportation","route_count":3,"route_ids":"WEEK|ELLS|MACH","route_short_names":"Ellsworth|Machias","route_types":"3","route_type_names":"Bus","routes_json":"[{\"route_id\":\"WEEK\",\"route_short_name\":\"\",\"route_long_name\":\"Steuben to Jonesport\",\"route_type\":\"3\",\"route_type_name\":\"Bus\",\"route_color\":\"64748B\",\"route_text_color\":\"FFFFFF\"},{\"route_id\":\"ELLS\",\"route_short_name\":\"Ellsworth\",\"route_long_name\":\"Monday Bus to Ellsworth\",\"route_type\":\"3\",\"route_type_name\":\"Bus\",\"route_color\":\"64748B\",\"route_text_color\":\"FFFFFF\"},{\"route_id\":\"MACH\",\"route_short_name\":\"Machias\",\"route_long_name\":\"Tuesday Bus to Machias\",\"route_type\":\"3\",\"route_type_name\":\"Bus\",\"route_color\":\"64748B\",\"route_text_color\":\"FFFFFF\"}]"},"geometry":{"type":"Point","coordinates":[-67.966253,44.513256]}},{"type":"Feature","properties":{"stop_id":"STOP-421bb314-1894-4c15-bb6f-0fec17fcb7d9","stop_name":"Lubec","stop_desc":"Town","feed_id":"Maine__West's_Bus_Service__mdb_tld-7870","agency_name":"West's Transportation","route_count":1,"route_ids":"LBC","route_short_names":"Lubec","route_types":"3","route_type_names":"Bus","routes_json":"[{\"route_id\":\"LBC\",\"route_short_name\":\"Lubec\",\"route_long_name\":\"Lubec to Machias\",\"route_type\":\"3\",\"route_type_name\":\"Bus\",\"route_color\":\"64748B\",\"route_text_color\":\"FFFFFF\"}]"},"geometry":{"type":"Point","coordinates":[-66.983364,44.858692]}},{"type":"Feature","properties":{"stop_id":"STOP-1332dd93-e6a0-45e1-b4fd-940d57659703","stop_name":"Franklin","stop_desc":"Franklin Trading Post","feed_id":"Maine__West's_Bus_Service__mdb_tld-7870","agency_name":"West's Transportation","route_count":1,"route_ids":"SCHL","route_short_names":"Winter Hbr","route_types":"3","route_type_names":"Bus","routes_json":"[{\"route_id\":\"SCHL\",\"route_short_name\":\"Winter Hbr\",\"route_long_name\":\"Franklin to Winter Harbor\",\"route_type\":\"3\",\"route_type_name\":\"Bus\",\"route_color\":\"64748B\",\"route_text_color\":\"FFFFFF\"}]"},"geometry":{"type":"Point","coordinates":[-68.223184,44.588902]}},{"type":"Feature","properties":{"stop_id":"STOP-1c531172-cfcf-4843-8de5-ca23289d30b5","stop_name":"Winter Harbor","stop_desc":"Winter Harbor Garage","feed_id":"Maine__West's_Bus_Service__mdb_tld-7870","agency_name":"West's Transportation","route_count":1,"route_ids":"SCHL","route_short_names":"Winter Hbr","route_types":"3","route_type_names":"Bus","routes_json":"[{\"route_id\":\"SCHL\",\"route_short_name\":\"Winter Hbr\",\"route_long_name\":\"Franklin to Winter Harbor\",\"route_type\":\"3\",\"route_type_name\":\"Bus\",\"route_color\":\"64748B\",\"route_text_color\":\"FFFFFF\"}]"},"geometry":{"type":"Point","coordinates":[-68.085167,44.394562]}}]}