{"type":"FeatureCollection","features":[{"type":"Feature","properties":{"stop_id":"113461","stop_code":"","stop_name":"10th Ave & Mississippi Ave","stop_desc":"","stop_url":"","location_type":"","stop_timezone":"","wheelchair_boarding":"0","platform_code":"","parent_station":"","feed_id":"Florida__Hendry_County_Transit_System__mdb_tld-7914","agency_name":"Hendry County Transit System","route_count":1,"route_ids":"3264","route_short_names":"","route_types":"3","route_type_names":"Bus","routes_json":"[{\"route_id\":\"3264\",\"route_short_name\":\"\",\"route_long_name\":\"Gold Line\",\"route_type\":\"3\",\"route_type_name\":\"Bus\",\"route_color\":\"BD9E39\",\"route_text_color\":\"FFFFFF\"}]"},"geometry":{"type":"Point","coordinates":[-80.949490226,26.732495789]}},{"type":"Feature","properties":{"stop_id":"62644","stop_code":"","stop_name":"Azteca Corner Store #5","stop_desc":"","stop_url":"","location_type":"","stop_timezone":"","wheelchair_boarding":"0","platform_code":"","parent_station":"","feed_id":"Florida__Hendry_County_Transit_System__mdb_tld-7914","agency_name":"Hendry County Transit System","route_count":1,"route_ids":"5066","route_short_names":"","route_types":"3","route_type_names":"Bus","routes_json":"[{\"route_id\":\"5066\",\"route_short_name\":\"\",\"route_long_name\":\"LaBelle Green Route\",\"route_type\":\"3\",\"route_type_name\":\"Bus\",\"route_color\":\"2CA02C\",\"route_text_color\":\"FFFFFF\"}]"},"geometry":{"type":"Point","coordinates":[-81.448679308,26.746811847]}},{"type":"Feature","properties":{"stop_id":"88215","stop_code":"","stop_name":"Barron Library","stop_desc":"","stop_url":"","location_type":"","stop_timezone":"","wheelchair_boarding":"0","platform_code":"","parent_station":"","feed_id":"Florida__Hendry_County_Transit_System__mdb_tld-7914","agency_name":"Hendry County Transit System","route_count":1,"route_ids":"5066","route_short_names":"","route_types":"3","route_type_names":"Bus","routes_json":"[{\"route_id\":\"5066\",\"route_short_name\":\"\",\"route_long_name\":\"LaBelle Green Route\",\"route_type\":\"3\",\"route_type_name\":\"Bus\",\"route_color\":\"2CA02C\",\"route_text_color\":\"FFFFFF\"}]"},"geometry":{"type":"Point","coordinates":[-81.438055433,26.768215973]}},{"type":"Feature","properties":{"stop_id":"69814","stop_code":"","stop_name":"Citgo Station/ Handy Food Store","stop_desc":"","stop_url":"","location_type":"","stop_timezone":"","wheelchair_boarding":"0","platform_code":"","parent_station":"","feed_id":"Florida__Hendry_County_Transit_System__mdb_tld-7914","agency_name":"Hendry County Transit System","route_count":1,"route_ids":"5066","route_short_names":"","route_types":"3","route_type_names":"Bus","routes_json":"[{\"route_id\":\"5066\",\"route_short_name\":\"\",\"route_long_name\":\"LaBelle Green Route\",\"route_type\":\"3\",\"route_type_name\":\"Bus\",\"route_color\":\"2CA02C\",\"route_text_color\":\"FFFFFF\"}]"},"geometry":{"type":"Point","coordinates":[-81.45743,26.76909]}},{"type":"Feature","properties":{"stop_id":"58477","stop_code":"","stop_name":"CL Brumback Health Center","stop_desc":"","stop_url":"","location_type":"","stop_timezone":"","wheelchair_boarding":"0","platform_code":"","parent_station":"","feed_id":"Florida__Hendry_County_Transit_System__mdb_tld-7914","agency_name":"Hendry County Transit System","route_count":1,"route_ids":"3264","route_short_names":"","route_types":"3","route_type_names":"Bus","routes_json":"[{\"route_id\":\"3264\",\"route_short_name\":\"\",\"route_long_name\":\"Gold Line\",\"route_type\":\"3\",\"route_type_name\":\"Bus\",\"route_color\":\"BD9E39\",\"route_text_color\":\"FFFFFF\"}]"},"geometry":{"type":"Point","coordinates":[-80.664265005,26.724746627]}},{"type":"Feature","properties":{"stop_id":"59918","stop_code":"","stop_name":"Clewiston High School (EB)","stop_desc":"","stop_url":"","location_type":"","stop_timezone":"","wheelchair_boarding":"0","platform_code":"","parent_station":"","feed_id":"Florida__Hendry_County_Transit_System__mdb_tld-7914","agency_name":"Hendry County Transit System","route_count":1,"route_ids":"3264","route_short_names":"","route_types":"3","route_type_names":"Bus","routes_json":"[{\"route_id\":\"3264\",\"route_short_name\":\"\",\"route_long_name\":\"Gold Line\",\"route_type\":\"3\",\"route_type_name\":\"Bus\",\"route_color\":\"BD9E39\",\"route_text_color\":\"FFFFFF\"}]"},"geometry":{"type":"Point","coordinates":[-80.926160123,26.73973679]}},{"type":"Feature","properties":{"stop_id":"58468","stop_code":"","stop_name":"Clewiston High School (WB)","stop_desc":"","stop_url":"","location_type":"","stop_timezone":"","wheelchair_boarding":"0","platform_code":"","parent_station":"","feed_id":"Florida__Hendry_County_Transit_System__mdb_tld-7914","agency_name":"Hendry County Transit System","route_count":1,"route_ids":"3264","route_short_names":"","route_types":"3","route_type_names":"Bus","routes_json":"[{\"route_id\":\"3264\",\"route_short_name\":\"\",\"route_long_name\":\"Gold Line\",\"route_type\":\"3\",\"route_type_name\":\"Bus\",\"route_color\":\"BD9E39\",\"route_text_color\":\"FFFFFF\"}]"},"geometry":{"type":"Point","coordinates":[-80.926193487,26.739980748]}},{"type":"Feature","properties":{"stop_id":"58471","stop_code":"","stop_name":"Clewiston Middle School","stop_desc":"","stop_url":"","location_type":"","stop_timezone":"","wheelchair_boarding":"0","platform_code":"","parent_station":"","feed_id":"Florida__Hendry_County_Transit_System__mdb_tld-7914","agency_name":"Hendry County Transit System","route_count":1,"route_ids":"3264","route_short_names":"","route_types":"3","route_type_names":"Bus","routes_json":"[{\"route_id\":\"3264\",\"route_short_name\":\"\",\"route_long_name\":\"Gold Line\",\"route_type\":\"3\",\"route_type_name\":\"Bus\",\"route_color\":\"BD9E39\",\"route_text_color\":\"FFFFFF\"}]"},"geometry":{"type":"Point","coordinates":[-80.940003916,26.755077564]}},{"type":"Feature","properties":{"stop_id":"145623","stop_code":"","stop_name":"Dollar General","stop_desc":"","stop_url":"","location_type":"","stop_timezone":"","wheelchair_boarding":"0","platform_code":"","parent_station":"","feed_id":"Florida__Hendry_County_Transit_System__mdb_tld-7914","agency_name":"Hendry County Transit System","route_count":1,"route_ids":"5066","route_short_names":"","route_types":"3","route_type_names":"Bus","routes_json":"[{\"route_id\":\"5066\",\"route_short_name\":\"\",\"route_long_name\":\"LaBelle Green Route\",\"route_type\":\"3\",\"route_type_name\":\"Bus\",\"route_color\":\"2CA02C\",\"route_text_color\":\"FFFFFF\"}]"},"geometry":{"type":"Point","coordinates":[-81.40652,26.74722]}},{"type":"Feature","properties":{"stop_id":"69815","stop_code":"","stop_name":"Dollar General Market","stop_desc":"","stop_url":"","location_type":"","stop_timezone":"","wheelchair_boarding":"0","platform_code":"","parent_station":"","feed_id":"Florida__Hendry_County_Transit_System__mdb_tld-7914","agency_name":"Hendry County Transit System","route_count":2,"route_ids":"3265|5066","route_short_names":"","route_types":"3","route_type_names":"Bus","routes_json":"[{\"route_id\":\"3265\",\"route_short_name\":\"\",\"route_long_name\":\"Express Route\",\"route_type\":\"3\",\"route_type_name\":\"Bus\",\"route_color\":\"D62728\",\"route_text_color\":\"FFFFFF\"},{\"route_id\":\"5066\",\"route_short_name\":\"\",\"route_long_name\":\"LaBelle Green Route\",\"route_type\":\"3\",\"route_type_name\":\"Bus\",\"route_color\":\"2CA02C\",\"route_text_color\":\"FFFFFF\"}]"},"geometry":{"type":"Point","coordinates":[-81.4377,26.76311]}},{"type":"Feature","properties":{"stop_id":"88222","stop_code":"","stop_name":"El Pueblo Market","stop_desc":"","stop_url":"","location_type":"","stop_timezone":"","wheelchair_boarding":"0","platform_code":"","parent_station":"","feed_id":"Florida__Hendry_County_Transit_System__mdb_tld-7914","agency_name":"Hendry County Transit System","route_count":1,"route_ids":"3264","route_short_names":"","route_types":"3","route_type_names":"Bus","routes_json":"[{\"route_id\":\"3264\",\"route_short_name\":\"\",\"route_long_name\":\"Gold Line\",\"route_type\":\"3\",\"route_type_name\":\"Bus\",\"route_color\":\"BD9E39\",\"route_text_color\":\"FFFFFF\"}]"},"geometry":{"type":"Point","coordinates":[-80.91766,26.74]}},{"type":"Feature","properties":{"stop_id":"145627","stop_code":"","stop_name":"Fiesta Food Mart (Favor Ave)","stop_desc":"","stop_url":"","location_type":"","stop_timezone":"","wheelchair_boarding":"0","platform_code":"","parent_station":"","feed_id":"Florida__Hendry_County_Transit_System__mdb_tld-7914","agency_name":"Hendry County Transit System","route_count":1,"route_ids":"5066","route_short_names":"","route_types":"3","route_type_names":"Bus","routes_json":"[{\"route_id\":\"5066\",\"route_short_name\":\"\",\"route_long_name\":\"LaBelle Green Route\",\"route_type\":\"3\",\"route_type_name\":\"Bus\",\"route_color\":\"2CA02C\",\"route_text_color\":\"FFFFFF\"}]"},"geometry":{"type":"Point","coordinates":[-81.43836,26.74306]}},{"type":"Feature","properties":{"stop_id":"145617","stop_code":"","stop_name":"Fiesta Food Mart (Nobles Rd)","stop_desc":"","stop_url":"","location_type":"","stop_timezone":"","wheelchair_boarding":"0","platform_code":"","parent_station":"","feed_id":"Florida__Hendry_County_Transit_System__mdb_tld-7914","agency_name":"Hendry County Transit System","route_count":1,"route_ids":"5066","route_short_names":"","route_types":"3","route_type_names":"Bus","routes_json":"[{\"route_id\":\"5066\",\"route_short_name\":\"\",\"route_long_name\":\"LaBelle Green Route\",\"route_type\":\"3\",\"route_type_name\":\"Bus\",\"route_color\":\"2CA02C\",\"route_text_color\":\"FFFFFF\"}]"},"geometry":{"type":"Point","coordinates":[-81.43811,26.77621]}},{"type":"Feature","properties":{"stop_id":"145281","stop_code":"","stop_name":"FL Dept of Health - Glades","stop_desc":"","stop_url":"","location_type":"","stop_timezone":"","wheelchair_boarding":"0","platform_code":"","parent_station":"","feed_id":"Florida__Hendry_County_Transit_System__mdb_tld-7914","agency_name":"Hendry County Transit System","route_count":1,"route_ids":"3265","route_short_names":"","route_types":"3","route_type_names":"Bus","routes_json":"[{\"route_id\":\"3265\",\"route_short_name\":\"\",\"route_long_name\":\"Express Route\",\"route_type\":\"3\",\"route_type_name\":\"Bus\",\"route_color\":\"D62728\",\"route_text_color\":\"FFFFFF\"}]"},"geometry":{"type":"Point","coordinates":[-81.124596119,26.840371667]}},{"type":"Feature","properties":{"stop_id":"62650","stop_code":"","stop_name":"Florida SW State College","stop_desc":"","stop_url":"","location_type":"","stop_timezone":"","wheelchair_boarding":"0","platform_code":"","parent_station":"","feed_id":"Florida__Hendry_County_Transit_System__mdb_tld-7914","agency_name":"Hendry County Transit System","route_count":1,"route_ids":"5066","route_short_names":"","route_types":"3","route_type_names":"Bus","routes_json":"[{\"route_id\":\"5066\",\"route_short_name\":\"\",\"route_long_name\":\"LaBelle Green Route\",\"route_type\":\"3\",\"route_type_name\":\"Bus\",\"route_color\":\"2CA02C\",\"route_text_color\":\"FFFFFF\"}]"},"geometry":{"type":"Point","coordinates":[-81.41894,26.74769]}},{"type":"Feature","properties":{"stop_id":"145280","stop_code":"","stop_name":"Glades County Courthouse","stop_desc":"","stop_url":"","location_type":"","stop_timezone":"","wheelchair_boarding":"0","platform_code":"","parent_station":"","feed_id":"Florida__Hendry_County_Transit_System__mdb_tld-7914","agency_name":"Hendry County Transit System","route_count":1,"route_ids":"3265","route_short_names":"","route_types":"3","route_type_names":"Bus","routes_json":"[{\"route_id\":\"3265\",\"route_short_name\":\"\",\"route_long_name\":\"Express Route\",\"route_type\":\"3\",\"route_type_name\":\"Bus\",\"route_color\":\"D62728\",\"route_text_color\":\"FFFFFF\"}]"},"geometry":{"type":"Point","coordinates":[-81.09783,26.83278]}},{"type":"Feature","properties":{"stop_id":"145629","stop_code":"","stop_name":"Greentree South Apts","stop_desc":"","stop_url":"","location_type":"","stop_timezone":"","wheelchair_boarding":"0","platform_code":"","parent_station":"","feed_id":"Florida__Hendry_County_Transit_System__mdb_tld-7914","agency_name":"Hendry County Transit System","route_count":1,"route_ids":"5066","route_short_names":"","route_types":"3","route_type_names":"Bus","routes_json":"[{\"route_id\":\"5066\",\"route_short_name\":\"\",\"route_long_name\":\"LaBelle Green Route\",\"route_type\":\"3\",\"route_type_name\":\"Bus\",\"route_color\":\"2CA02C\",\"route_text_color\":\"FFFFFF\"}]"},"geometry":{"type":"Point","coordinates":[-81.43958,26.72663]}},{"type":"Feature","properties":{"stop_id":"88214","stop_code":"","stop_name":"Handy Market","stop_desc":"","stop_url":"","location_type":"","stop_timezone":"","wheelchair_boarding":"0","platform_code":"","parent_station":"","feed_id":"Florida__Hendry_County_Transit_System__mdb_tld-7914","agency_name":"Hendry County Transit System","route_count":1,"route_ids":"5066","route_short_names":"","route_types":"3","route_type_names":"Bus","routes_json":"[{\"route_id\":\"5066\",\"route_short_name\":\"\",\"route_long_name\":\"LaBelle Green Route\",\"route_type\":\"3\",\"route_type_name\":\"Bus\",\"route_color\":\"2CA02C\",\"route_text_color\":\"FFFFFF\"}]"},"geometry":{"type":"Point","coordinates":[-81.43852,26.77103]}},{"type":"Feature","properties":{"stop_id":"88221","stop_code":"","stop_name":"Harlem Community Library","stop_desc":"","stop_url":"","location_type":"","stop_timezone":"","wheelchair_boarding":"0","platform_code":"","parent_station":"","feed_id":"Florida__Hendry_County_Transit_System__mdb_tld-7914","agency_name":"Hendry County Transit System","route_count":1,"route_ids":"3264","route_short_names":"","route_types":"3","route_type_names":"Bus","routes_json":"[{\"route_id\":\"3264\",\"route_short_name\":\"\",\"route_long_name\":\"Gold Line\",\"route_type\":\"3\",\"route_type_name\":\"Bus\",\"route_color\":\"BD9E39\",\"route_text_color\":\"FFFFFF\"}]"},"geometry":{"type":"Point","coordinates":[-80.95109,26.73711]}},{"type":"Feature","properties":{"stop_id":"58469","stop_code":"","stop_name":"Harlem Garden Apts","stop_desc":"","stop_url":"","location_type":"","stop_timezone":"","wheelchair_boarding":"0","platform_code":"","parent_station":"","feed_id":"Florida__Hendry_County_Transit_System__mdb_tld-7914","agency_name":"Hendry County Transit System","route_count":1,"route_ids":"3264","route_short_names":"","route_types":"3","route_type_names":"Bus","routes_json":"[{\"route_id\":\"3264\",\"route_short_name\":\"\",\"route_long_name\":\"Gold Line\",\"route_type\":\"3\",\"route_type_name\":\"Bus\",\"route_color\":\"BD9E39\",\"route_text_color\":\"FFFFFF\"}]"},"geometry":{"type":"Point","coordinates":[-80.94687239,26.735820729]}},{"type":"Feature","properties":{"stop_id":"62647","stop_code":"","stop_name":"Hendry County Courthouse Complex","stop_desc":"","stop_url":"","location_type":"","stop_timezone":"","wheelchair_boarding":"0","platform_code":"","parent_station":"","feed_id":"Florida__Hendry_County_Transit_System__mdb_tld-7914","agency_name":"Hendry County Transit System","route_count":2,"route_ids":"3265|5066","route_short_names":"","route_types":"3","route_type_names":"Bus","routes_json":"[{\"route_id\":\"3265\",\"route_short_name\":\"\",\"route_long_name\":\"Express Route\",\"route_type\":\"3\",\"route_type_name\":\"Bus\",\"route_color\":\"D62728\",\"route_text_color\":\"FFFFFF\"},{\"route_id\":\"5066\",\"route_short_name\":\"\",\"route_long_name\":\"LaBelle Green Route\",\"route_type\":\"3\",\"route_type_name\":\"Bus\",\"route_color\":\"2CA02C\",\"route_text_color\":\"FFFFFF\"}]"},"geometry":{"type":"Point","coordinates":[-81.437275914,26.760441893]}},{"type":"Feature","properties":{"stop_id":"62649","stop_code":"","stop_name":"Hendry County Health Dept (Olympia St)","stop_desc":"","stop_url":"","location_type":"","stop_timezone":"","wheelchair_boarding":"0","platform_code":"","parent_station":"","feed_id":"Florida__Hendry_County_Transit_System__mdb_tld-7914","agency_name":"Hendry County Transit System","route_count":1,"route_ids":"3264","route_short_names":"","route_types":"3","route_type_names":"Bus","routes_json":"[{\"route_id\":\"3264\",\"route_short_name\":\"\",\"route_long_name\":\"Gold Line\",\"route_type\":\"3\",\"route_type_name\":\"Bus\",\"route_color\":\"BD9E39\",\"route_text_color\":\"FFFFFF\"}]"},"geometry":{"type":"Point","coordinates":[-80.939489539,26.744030681]}},{"type":"Feature","properties":{"stop_id":"58470","stop_code":"","stop_name":"Hendry County Health Dept (Pratt Blvd)","stop_desc":"","stop_url":"","location_type":"","stop_timezone":"","wheelchair_boarding":"0","platform_code":"","parent_station":"","feed_id":"Florida__Hendry_County_Transit_System__mdb_tld-7914","agency_name":"Hendry County Transit System","route_count":1,"route_ids":"5066","route_short_names":"","route_types":"3","route_type_names":"Bus","routes_json":"[{\"route_id\":\"5066\",\"route_short_name\":\"\",\"route_long_name\":\"LaBelle Green Route\",\"route_type\":\"3\",\"route_type_name\":\"Bus\",\"route_color\":\"2CA02C\",\"route_text_color\":\"FFFFFF\"}]"},"geometry":{"type":"Point","coordinates":[-81.428728078,26.744641237]}},{"type":"Feature","properties":{"stop_id":"58474","stop_code":"","stop_name":"Hendry Regional Convenient Care","stop_desc":"","stop_url":"","location_type":"","stop_timezone":"","wheelchair_boarding":"0","platform_code":"","parent_station":"","feed_id":"Florida__Hendry_County_Transit_System__mdb_tld-7914","agency_name":"Hendry County Transit System","route_count":1,"route_ids":"5066","route_short_names":"","route_types":"3","route_type_names":"Bus","routes_json":"[{\"route_id\":\"5066\",\"route_short_name\":\"\",\"route_long_name\":\"LaBelle Green Route\",\"route_type\":\"3\",\"route_type_name\":\"Bus\",\"route_color\":\"2CA02C\",\"route_text_color\":\"FFFFFF\"}]"},"geometry":{"type":"Point","coordinates":[-81.438623318,26.755330066]}},{"type":"Feature","properties":{"stop_id":"88224","stop_code":"","stop_name":"Hendry Regional Medical Ctr","stop_desc":"","stop_url":"","location_type":"","stop_timezone":"","wheelchair_boarding":"0","platform_code":"","parent_station":"","feed_id":"Florida__Hendry_County_Transit_System__mdb_tld-7914","agency_name":"Hendry County Transit System","route_count":2,"route_ids":"3265|3264","route_short_names":"","route_types":"3","route_type_names":"Bus","routes_json":"[{\"route_id\":\"3265\",\"route_short_name\":\"\",\"route_long_name\":\"Express Route\",\"route_type\":\"3\",\"route_type_name\":\"Bus\",\"route_color\":\"D62728\",\"route_text_color\":\"FFFFFF\"},{\"route_id\":\"3264\",\"route_short_name\":\"\",\"route_long_name\":\"Gold Line\",\"route_type\":\"3\",\"route_type_name\":\"Bus\",\"route_color\":\"BD9E39\",\"route_text_color\":\"FFFFFF\"}]"},"geometry":{"type":"Point","coordinates":[-80.941219429,26.753168251]}},{"type":"Feature","properties":{"stop_id":"145282","stop_code":"","stop_name":"iTech Glades Campus","stop_desc":"","stop_url":"","location_type":"","stop_timezone":"","wheelchair_boarding":"0","platform_code":"","parent_station":"","feed_id":"Florida__Hendry_County_Transit_System__mdb_tld-7914","agency_name":"Hendry County Transit System","route_count":1,"route_ids":"3265","route_short_names":"","route_types":"3","route_type_names":"Bus","routes_json":"[{\"route_id\":\"3265\",\"route_short_name\":\"\",\"route_long_name\":\"Express Route\",\"route_type\":\"3\",\"route_type_name\":\"Bus\",\"route_color\":\"D62728\",\"route_text_color\":\"FFFFFF\"}]"},"geometry":{"type":"Point","coordinates":[-81.12440159,26.836414128]}},{"type":"Feature","properties":{"stop_id":"88218","stop_code":"","stop_name":"Kid Jones Park","stop_desc":"","stop_url":"","location_type":"","stop_timezone":"","wheelchair_boarding":"0","platform_code":"","parent_station":"","feed_id":"Florida__Hendry_County_Transit_System__mdb_tld-7914","agency_name":"Hendry County Transit System","route_count":1,"route_ids":"5066","route_short_names":"","route_types":"3","route_type_names":"Bus","routes_json":"[{\"route_id\":\"5066\",\"route_short_name\":\"\",\"route_long_name\":\"LaBelle Green Route\",\"route_type\":\"3\",\"route_type_name\":\"Bus\",\"route_color\":\"2CA02C\",\"route_text_color\":\"FFFFFF\"}]"},"geometry":{"type":"Point","coordinates":[-81.452389302,26.755584967]}},{"type":"Feature","properties":{"stop_id":"88216","stop_code":"","stop_name":"LaBelle Civic Center","stop_desc":"","stop_url":"","location_type":"","stop_timezone":"","wheelchair_boarding":"0","platform_code":"","parent_station":"","feed_id":"Florida__Hendry_County_Transit_System__mdb_tld-7914","agency_name":"Hendry County Transit System","route_count":1,"route_ids":"5066","route_short_names":"","route_types":"3","route_type_names":"Bus","routes_json":"[{\"route_id\":\"5066\",\"route_short_name\":\"\",\"route_long_name\":\"LaBelle Green Route\",\"route_type\":\"3\",\"route_type_name\":\"Bus\",\"route_color\":\"2CA02C\",\"route_text_color\":\"FFFFFF\"}]"},"geometry":{"type":"Point","coordinates":[-81.44611,26.76085]}},{"type":"Feature","properties":{"stop_id":"62651","stop_code":"","stop_name":"LaBelle High School","stop_desc":"","stop_url":"","location_type":"","stop_timezone":"","wheelchair_boarding":"0","platform_code":"","parent_station":"","feed_id":"Florida__Hendry_County_Transit_System__mdb_tld-7914","agency_name":"Hendry County Transit System","route_count":1,"route_ids":"5066","route_short_names":"","route_types":"3","route_type_names":"Bus","routes_json":"[{\"route_id\":\"5066\",\"route_short_name\":\"\",\"route_long_name\":\"LaBelle Green Route\",\"route_type\":\"3\",\"route_type_name\":\"Bus\",\"route_color\":\"2CA02C\",\"route_text_color\":\"FFFFFF\"}]"},"geometry":{"type":"Point","coordinates":[-81.39773,26.74729]}},{"type":"Feature","properties":{"stop_id":"145862","stop_code":"","stop_name":"Mary Lou's Gas Station (Montura)","stop_desc":"","stop_url":"","location_type":"","stop_timezone":"","wheelchair_boarding":"0","platform_code":"","parent_station":"","feed_id":"Florida__Hendry_County_Transit_System__mdb_tld-7914","agency_name":"Hendry County Transit System","route_count":1,"route_ids":"3264","route_short_names":"","route_types":"3","route_type_names":"Bus","routes_json":"[{\"route_id\":\"3264\",\"route_short_name\":\"\",\"route_long_name\":\"Gold Line\",\"route_type\":\"3\",\"route_type_name\":\"Bus\",\"route_color\":\"BD9E39\",\"route_text_color\":\"FFFFFF\"}]"},"geometry":{"type":"Point","coordinates":[-81.126664281,26.641789854]}},{"type":"Feature","properties":{"stop_id":"145625","stop_code":"","stop_name":"Mira Verde Apts","stop_desc":"","stop_url":"","location_type":"","stop_timezone":"","wheelchair_boarding":"0","platform_code":"","parent_station":"","feed_id":"Florida__Hendry_County_Transit_System__mdb_tld-7914","agency_name":"Hendry County Transit System","route_count":1,"route_ids":"5066","route_short_names":"","route_types":"3","route_type_names":"Bus","routes_json":"[{\"route_id\":\"5066\",\"route_short_name\":\"\",\"route_long_name\":\"LaBelle Green Route\",\"route_type\":\"3\",\"route_type_name\":\"Bus\",\"route_color\":\"2CA02C\",\"route_text_color\":\"FFFFFF\"}]"},"geometry":{"type":"Point","coordinates":[-81.37557,26.75152]}},{"type":"Feature","properties":{"stop_id":"145620","stop_code":"","stop_name":"MLK @ Collier Ave","stop_desc":"","stop_url":"","location_type":"","stop_timezone":"","wheelchair_boarding":"0","platform_code":"","parent_station":"","feed_id":"Florida__Hendry_County_Transit_System__mdb_tld-7914","agency_name":"Hendry County Transit System","route_count":1,"route_ids":"5066","route_short_names":"","route_types":"3","route_type_names":"Bus","routes_json":"[{\"route_id\":\"5066\",\"route_short_name\":\"\",\"route_long_name\":\"LaBelle Green Route\",\"route_type\":\"3\",\"route_type_name\":\"Bus\",\"route_color\":\"2CA02C\",\"route_text_color\":\"FFFFFF\"}]"},"geometry":{"type":"Point","coordinates":[-81.45034,26.75231]}},{"type":"Feature","properties":{"stop_id":"145873","stop_code":"","stop_name":"Montura Estates Club House","stop_desc":"","stop_url":"","location_type":"","stop_timezone":"","wheelchair_boarding":"0","platform_code":"","parent_station":"","feed_id":"Florida__Hendry_County_Transit_System__mdb_tld-7914","agency_name":"Hendry County Transit System","route_count":1,"route_ids":"3264","route_short_names":"","route_types":"3","route_type_names":"Bus","routes_json":"[{\"route_id\":\"3264\",\"route_short_name\":\"\",\"route_long_name\":\"Gold Line\",\"route_type\":\"3\",\"route_type_name\":\"Bus\",\"route_color\":\"BD9E39\",\"route_text_color\":\"FFFFFF\"}]"},"geometry":{"type":"Point","coordinates":[-81.11103,26.64187]}},{"type":"Feature","properties":{"stop_id":"145861","stop_code":"","stop_name":"Palm Beach State College","stop_desc":"","stop_url":"","location_type":"","stop_timezone":"","wheelchair_boarding":"0","platform_code":"","parent_station":"","feed_id":"Florida__Hendry_County_Transit_System__mdb_tld-7914","agency_name":"Hendry County Transit System","route_count":1,"route_ids":"3264","route_short_names":"","route_types":"3","route_type_names":"Bus","routes_json":"[{\"route_id\":\"3264\",\"route_short_name\":\"\",\"route_long_name\":\"Gold Line\",\"route_type\":\"3\",\"route_type_name\":\"Bus\",\"route_color\":\"BD9E39\",\"route_text_color\":\"FFFFFF\"}]"},"geometry":{"type":"Point","coordinates":[-80.687766515,26.67768146]}},{"type":"Feature","properties":{"stop_id":"88228","stop_code":"","stop_name":"Pioneer Shell Station","stop_desc":"","stop_url":"","location_type":"","stop_timezone":"","wheelchair_boarding":"0","platform_code":"","parent_station":"","feed_id":"Florida__Hendry_County_Transit_System__mdb_tld-7914","agency_name":"Hendry County Transit System","route_count":1,"route_ids":"3265","route_short_names":"","route_types":"3","route_type_names":"Bus","routes_json":"[{\"route_id\":\"3265\",\"route_short_name\":\"\",\"route_long_name\":\"Express Route\",\"route_type\":\"3\",\"route_type_name\":\"Bus\",\"route_color\":\"D62728\",\"route_text_color\":\"FFFFFF\"}]"},"geometry":{"type":"Point","coordinates":[-81.212292235,26.768023115]}},{"type":"Feature","properties":{"stop_id":"88219","stop_code":"","stop_name":"Port LaBelle Inn & Conference Center","stop_desc":"","stop_url":"","location_type":"","stop_timezone":"","wheelchair_boarding":"0","platform_code":"","parent_station":"","feed_id":"Florida__Hendry_County_Transit_System__mdb_tld-7914","agency_name":"Hendry County Transit System","route_count":1,"route_ids":"5066","route_short_names":"","route_types":"3","route_type_names":"Bus","routes_json":"[{\"route_id\":\"5066\",\"route_short_name\":\"\",\"route_long_name\":\"LaBelle Green Route\",\"route_type\":\"3\",\"route_type_name\":\"Bus\",\"route_color\":\"2CA02C\",\"route_text_color\":\"FFFFFF\"}]"},"geometry":{"type":"Point","coordinates":[-81.39108,26.7686]}},{"type":"Feature","properties":{"stop_id":"145663","stop_code":"","stop_name":"Save A Lot (Lee St)","stop_desc":"","stop_url":"","location_type":"","stop_timezone":"","wheelchair_boarding":"0","platform_code":"","parent_station":"","feed_id":"Florida__Hendry_County_Transit_System__mdb_tld-7914","agency_name":"Hendry County Transit System","route_count":1,"route_ids":"5066","route_short_names":"","route_types":"3","route_type_names":"Bus","routes_json":"[{\"route_id\":\"5066\",\"route_short_name\":\"\",\"route_long_name\":\"LaBelle Green Route\",\"route_type\":\"3\",\"route_type_name\":\"Bus\",\"route_color\":\"2CA02C\",\"route_text_color\":\"FFFFFF\"}]"},"geometry":{"type":"Point","coordinates":[-81.4355,26.76093]}},{"type":"Feature","properties":{"stop_id":"145860","stop_code":"","stop_name":"Save A Lot (Sugarland)","stop_desc":"","stop_url":"","location_type":"","stop_timezone":"","wheelchair_boarding":"0","platform_code":"","parent_station":"","feed_id":"Florida__Hendry_County_Transit_System__mdb_tld-7914","agency_name":"Hendry County Transit System","route_count":1,"route_ids":"3264","route_short_names":"","route_types":"3","route_type_names":"Bus","routes_json":"[{\"route_id\":\"3264\",\"route_short_name\":\"\",\"route_long_name\":\"Gold Line\",\"route_type\":\"3\",\"route_type_name\":\"Bus\",\"route_color\":\"BD9E39\",\"route_text_color\":\"FFFFFF\"}]"},"geometry":{"type":"Point","coordinates":[-80.946679589,26.753361778]}},{"type":"Feature","properties":{"stop_id":"88223","stop_code":"","stop_name":"Shamrock Store/Marathon Gas","stop_desc":"","stop_url":"","location_type":"","stop_timezone":"","wheelchair_boarding":"0","platform_code":"","parent_station":"","feed_id":"Florida__Hendry_County_Transit_System__mdb_tld-7914","agency_name":"Hendry County Transit System","route_count":1,"route_ids":"3264","route_short_names":"","route_types":"3","route_type_names":"Bus","routes_json":"[{\"route_id\":\"3264\",\"route_short_name\":\"\",\"route_long_name\":\"Gold Line\",\"route_type\":\"3\",\"route_type_name\":\"Bus\",\"route_color\":\"BD9E39\",\"route_text_color\":\"FFFFFF\"}]"},"geometry":{"type":"Point","coordinates":[-80.90304,26.74015]}},{"type":"Feature","properties":{"stop_id":"88212","stop_code":"","stop_name":"Tall Pines Apartments","stop_desc":"","stop_url":"","location_type":"","stop_timezone":"","wheelchair_boarding":"0","platform_code":"","parent_station":"","feed_id":"Florida__Hendry_County_Transit_System__mdb_tld-7914","agency_name":"Hendry County Transit System","route_count":1,"route_ids":"5066","route_short_names":"","route_types":"3","route_type_names":"Bus","routes_json":"[{\"route_id\":\"5066\",\"route_short_name\":\"\",\"route_long_name\":\"LaBelle Green Route\",\"route_type\":\"3\",\"route_type_name\":\"Bus\",\"route_color\":\"2CA02C\",\"route_text_color\":\"FFFFFF\"}]"},"geometry":{"type":"Point","coordinates":[-81.430413445,26.75197447]}},{"type":"Feature","properties":{"stop_id":"155360","stop_code":"","stop_name":"Tropical Village Market (EB)","stop_desc":"","stop_url":"","location_type":"","stop_timezone":"","wheelchair_boarding":"0","platform_code":"","parent_station":"","feed_id":"Florida__Hendry_County_Transit_System__mdb_tld-7914","agency_name":"Hendry County Transit System","route_count":1,"route_ids":"3264","route_short_names":"","route_types":"3","route_type_names":"Bus","routes_json":"[{\"route_id\":\"3264\",\"route_short_name\":\"\",\"route_long_name\":\"Gold Line\",\"route_type\":\"3\",\"route_type_name\":\"Bus\",\"route_color\":\"BD9E39\",\"route_text_color\":\"FFFFFF\"}]"},"geometry":{"type":"Point","coordinates":[-80.91007961,26.753443715]}},{"type":"Feature","properties":{"stop_id":"58467","stop_code":"","stop_name":"Tropical Village Market (WB)","stop_desc":"","stop_url":"","location_type":"","stop_timezone":"","wheelchair_boarding":"0","platform_code":"","parent_station":"","feed_id":"Florida__Hendry_County_Transit_System__mdb_tld-7914","agency_name":"Hendry County Transit System","route_count":1,"route_ids":"3264","route_short_names":"","route_types":"3","route_type_names":"Bus","routes_json":"[{\"route_id\":\"3264\",\"route_short_name\":\"\",\"route_long_name\":\"Gold Line\",\"route_type\":\"3\",\"route_type_name\":\"Bus\",\"route_color\":\"BD9E39\",\"route_text_color\":\"FFFFFF\"}]"},"geometry":{"type":"Point","coordinates":[-80.910223944,26.753419919]}},{"type":"Feature","properties":{"stop_id":"88213","stop_code":"","stop_name":"United Way House","stop_desc":"","stop_url":"","location_type":"","stop_timezone":"","wheelchair_boarding":"0","platform_code":"","parent_station":"","feed_id":"Florida__Hendry_County_Transit_System__mdb_tld-7914","agency_name":"Hendry County Transit System","route_count":1,"route_ids":"5066","route_short_names":"","route_types":"3","route_type_names":"Bus","routes_json":"[{\"route_id\":\"5066\",\"route_short_name\":\"\",\"route_long_name\":\"LaBelle Green Route\",\"route_type\":\"3\",\"route_type_name\":\"Bus\",\"route_color\":\"2CA02C\",\"route_text_color\":\"FFFFFF\"}]"},"geometry":{"type":"Point","coordinates":[-81.437290483,26.763445009]}},{"type":"Feature","properties":{"stop_id":"62646","stop_code":"","stop_name":"US Post Office Labelle","stop_desc":"","stop_url":"","location_type":"","stop_timezone":"","wheelchair_boarding":"0","platform_code":"","parent_station":"","feed_id":"Florida__Hendry_County_Transit_System__mdb_tld-7914","agency_name":"Hendry County Transit System","route_count":1,"route_ids":"5066","route_short_names":"","route_types":"3","route_type_names":"Bus","routes_json":"[{\"route_id\":\"5066\",\"route_short_name\":\"\",\"route_long_name\":\"LaBelle Green Route\",\"route_type\":\"3\",\"route_type_name\":\"Bus\",\"route_color\":\"2CA02C\",\"route_text_color\":\"FFFFFF\"}]"},"geometry":{"type":"Point","coordinates":[-81.4383,26.76444]}},{"type":"Feature","properties":{"stop_id":"58472","stop_code":"","stop_name":"Walmart Clewiston","stop_desc":"","stop_url":"","location_type":"","stop_timezone":"","wheelchair_boarding":"0","platform_code":"","parent_station":"","feed_id":"Florida__Hendry_County_Transit_System__mdb_tld-7914","agency_name":"Hendry County Transit System","route_count":2,"route_ids":"3265|3264","route_short_names":"","route_types":"3","route_type_names":"Bus","routes_json":"[{\"route_id\":\"3265\",\"route_short_name\":\"\",\"route_long_name\":\"Express Route\",\"route_type\":\"3\",\"route_type_name\":\"Bus\",\"route_color\":\"D62728\",\"route_text_color\":\"FFFFFF\"},{\"route_id\":\"3264\",\"route_short_name\":\"\",\"route_long_name\":\"Gold Line\",\"route_type\":\"3\",\"route_type_name\":\"Bus\",\"route_color\":\"BD9E39\",\"route_text_color\":\"FFFFFF\"}]"},"geometry":{"type":"Point","coordinates":[-80.949090007,26.755849625]}},{"type":"Feature","properties":{"stop_id":"62645","stop_code":"","stop_name":"Walmart Labelle","stop_desc":"","stop_url":"","location_type":"","stop_timezone":"","wheelchair_boarding":"0","platform_code":"","parent_station":"","feed_id":"Florida__Hendry_County_Transit_System__mdb_tld-7914","agency_name":"Hendry County Transit System","route_count":2,"route_ids":"3265|5066","route_short_names":"","route_types":"3","route_type_names":"Bus","routes_json":"[{\"route_id\":\"3265\",\"route_short_name\":\"\",\"route_long_name\":\"Express Route\",\"route_type\":\"3\",\"route_type_name\":\"Bus\",\"route_color\":\"D62728\",\"route_text_color\":\"FFFFFF\"},{\"route_id\":\"5066\",\"route_short_name\":\"\",\"route_long_name\":\"LaBelle Green Route\",\"route_type\":\"3\",\"route_type_name\":\"Bus\",\"route_color\":\"2CA02C\",\"route_text_color\":\"FFFFFF\"}]"},"geometry":{"type":"Point","coordinates":[-81.467841052,26.738132436]}},{"type":"Feature","properties":{"stop_id":"145619","stop_code":"","stop_name":"Wash Tub Laundromat","stop_desc":"","stop_url":"","location_type":"","stop_timezone":"","wheelchair_boarding":"0","platform_code":"","parent_station":"","feed_id":"Florida__Hendry_County_Transit_System__mdb_tld-7914","agency_name":"Hendry County Transit System","route_count":1,"route_ids":"5066","route_short_names":"","route_types":"3","route_type_names":"Bus","routes_json":"[{\"route_id\":\"5066\",\"route_short_name\":\"\",\"route_long_name\":\"LaBelle Green Route\",\"route_type\":\"3\",\"route_type_name\":\"Bus\",\"route_color\":\"2CA02C\",\"route_text_color\":\"FFFFFF\"}]"},"geometry":{"type":"Point","coordinates":[-81.44368,26.76143]}},{"type":"Feature","properties":{"stop_id":"58476","stop_code":"","stop_name":"West Technical Education Ctr","stop_desc":"","stop_url":"","location_type":"","stop_timezone":"","wheelchair_boarding":"0","platform_code":"","parent_station":"","feed_id":"Florida__Hendry_County_Transit_System__mdb_tld-7914","agency_name":"Hendry County Transit System","route_count":1,"route_ids":"3264","route_short_names":"","route_types":"3","route_type_names":"Bus","routes_json":"[{\"route_id\":\"3264\",\"route_short_name\":\"\",\"route_long_name\":\"Gold Line\",\"route_type\":\"3\",\"route_type_name\":\"Bus\",\"route_color\":\"BD9E39\",\"route_text_color\":\"FFFFFF\"}]"},"geometry":{"type":"Point","coordinates":[-80.683419411,26.720359594]}},{"type":"Feature","properties":{"stop_id":"62648","stop_code":"","stop_name":"Winn Dixie","stop_desc":"","stop_url":"","location_type":"","stop_timezone":"","wheelchair_boarding":"0","platform_code":"","parent_station":"","feed_id":"Florida__Hendry_County_Transit_System__mdb_tld-7914","agency_name":"Hendry County Transit System","route_count":1,"route_ids":"5066","route_short_names":"","route_types":"3","route_type_names":"Bus","routes_json":"[{\"route_id\":\"5066\",\"route_short_name\":\"\",\"route_long_name\":\"LaBelle Green Route\",\"route_type\":\"3\",\"route_type_name\":\"Bus\",\"route_color\":\"2CA02C\",\"route_text_color\":\"FFFFFF\"}]"},"geometry":{"type":"Point","coordinates":[-81.43896,26.74749]}}]}