{"type":"FeatureCollection","features":[{"type":"Feature","properties":{"stop_id":"1036","stop_code":"","stop_name":"Pittsburgh","stop_desc":"","zone_id":"","stop_url":"","location_type":"","parent_station":"","stop_timezone":"US/Eastern","wheelchair_boarding":"","platform_code":"","feed_id":"New_York__Fullington_Trailways__mdb_tld-5783","agency_name":"Fullington Trailways","route_count":4,"route_ids":"38271|38272|38277|38278","route_short_names":"FAB510|FAB530|FAB600|FAB605","route_types":"3","route_type_names":"Bus","routes_json":"[{\"route_id\":\"38271\",\"route_short_name\":\"FAB510\",\"route_long_name\":\"Pittsburgh -> Buffalo (Downtown Bus Terminal)\",\"route_type\":\"3\",\"route_type_name\":\"Bus\",\"route_color\":\"64748B\",\"route_text_color\":\"FFFFFF\"},{\"route_id\":\"38272\",\"route_short_name\":\"FAB530\",\"route_long_name\":\"Buffalo (Downtown Bus Terminal) -> Pittsburgh\",\"route_type\":\"3\",\"route_type_name\":\"Bus\",\"route_color\":\"64748B\",\"route_text_color\":\"FFFFFF\"},{\"route_id\":\"38277\",\"route_short_name\":\"FAB600\",\"route_long_name\":\"State College Airport -> Pittsburgh (Airport - PIT)\",\"route_type\":\"3\",\"route_type_name\":\"Bus\",\"route_color\":\"64748B\",\"route_text_color\":\"FFFFFF\"},{\"route_id\":\"38278\",\"route_short_name\":\"FAB605\",\"route_long_name\":\"Pittsburgh (Airport - PIT) -> State College Airport\",\"route_type\":\"3\",\"route_type_name\":\"Bus\",\"route_color\":\"64748B\",\"route_text_color\":\"FFFFFF\"}]"},"geometry":{"type":"Point","coordinates":[-79.993388,40.444409]}},{"type":"Feature","properties":{"stop_id":"4211","stop_code":"","stop_name":"Delmont","stop_desc":"","zone_id":"","stop_url":"","location_type":"","parent_station":"","stop_timezone":"US/Eastern","wheelchair_boarding":"","platform_code":"","feed_id":"New_York__Fullington_Trailways__mdb_tld-5783","agency_name":"Fullington Trailways","route_count":4,"route_ids":"38271|38272|38277|38278","route_short_names":"FAB510|FAB530|FAB600|FAB605","route_types":"3","route_type_names":"Bus","routes_json":"[{\"route_id\":\"38271\",\"route_short_name\":\"FAB510\",\"route_long_name\":\"Pittsburgh -> Buffalo (Downtown Bus Terminal)\",\"route_type\":\"3\",\"route_type_name\":\"Bus\",\"route_color\":\"64748B\",\"route_text_color\":\"FFFFFF\"},{\"route_id\":\"38272\",\"route_short_name\":\"FAB530\",\"route_long_name\":\"Buffalo (Downtown Bus Terminal) -> Pittsburgh\",\"route_type\":\"3\",\"route_type_name\":\"Bus\",\"route_color\":\"64748B\",\"route_text_color\":\"FFFFFF\"},{\"route_id\":\"38277\",\"route_short_name\":\"FAB600\",\"route_long_name\":\"State College Airport -> Pittsburgh (Airport - PIT)\",\"route_type\":\"3\",\"route_type_name\":\"Bus\",\"route_color\":\"64748B\",\"route_text_color\":\"FFFFFF\"},{\"route_id\":\"38278\",\"route_short_name\":\"FAB605\",\"route_long_name\":\"Pittsburgh (Airport - PIT) -> State College Airport\",\"route_type\":\"3\",\"route_type_name\":\"Bus\",\"route_color\":\"64748B\",\"route_text_color\":\"FFFFFF\"}]"},"geometry":{"type":"Point","coordinates":[-79.581174,40.399265]}},{"type":"Feature","properties":{"stop_id":"4210","stop_code":"","stop_name":"Blairsville","stop_desc":"","zone_id":"","stop_url":"","location_type":"","parent_station":"","stop_timezone":"US/Eastern","wheelchair_boarding":"","platform_code":"","feed_id":"New_York__Fullington_Trailways__mdb_tld-5783","agency_name":"Fullington Trailways","route_count":4,"route_ids":"38271|38272|38277|38278","route_short_names":"FAB510|FAB530|FAB600|FAB605","route_types":"3","route_type_names":"Bus","routes_json":"[{\"route_id\":\"38271\",\"route_short_name\":\"FAB510\",\"route_long_name\":\"Pittsburgh -> Buffalo (Downtown Bus Terminal)\",\"route_type\":\"3\",\"route_type_name\":\"Bus\",\"route_color\":\"64748B\",\"route_text_color\":\"FFFFFF\"},{\"route_id\":\"38272\",\"route_short_name\":\"FAB530\",\"route_long_name\":\"Buffalo (Downtown Bus Terminal) -> Pittsburgh\",\"route_type\":\"3\",\"route_type_name\":\"Bus\",\"route_color\":\"64748B\",\"route_text_color\":\"FFFFFF\"},{\"route_id\":\"38277\",\"route_short_name\":\"FAB600\",\"route_long_name\":\"State College Airport -> Pittsburgh (Airport - PIT)\",\"route_type\":\"3\",\"route_type_name\":\"Bus\",\"route_color\":\"64748B\",\"route_text_color\":\"FFFFFF\"},{\"route_id\":\"38278\",\"route_short_name\":\"FAB605\",\"route_long_name\":\"Pittsburgh (Airport - PIT) -> State College Airport\",\"route_type\":\"3\",\"route_type_name\":\"Bus\",\"route_color\":\"64748B\",\"route_text_color\":\"FFFFFF\"}]"},"geometry":{"type":"Point","coordinates":[-79.21998,40.44365]}},{"type":"Feature","properties":{"stop_id":"1032","stop_code":"","stop_name":"Indiana","stop_desc":"","zone_id":"","stop_url":"","location_type":"","parent_station":"","stop_timezone":"US/Eastern","wheelchair_boarding":"","platform_code":"","feed_id":"New_York__Fullington_Trailways__mdb_tld-5783","agency_name":"Fullington Trailways","route_count":4,"route_ids":"38271|38272|38277|38278","route_short_names":"FAB510|FAB530|FAB600|FAB605","route_types":"3","route_type_names":"Bus","routes_json":"[{\"route_id\":\"38271\",\"route_short_name\":\"FAB510\",\"route_long_name\":\"Pittsburgh -> Buffalo (Downtown Bus Terminal)\",\"route_type\":\"3\",\"route_type_name\":\"Bus\",\"route_color\":\"64748B\",\"route_text_color\":\"FFFFFF\"},{\"route_id\":\"38272\",\"route_short_name\":\"FAB530\",\"route_long_name\":\"Buffalo (Downtown Bus Terminal) -> Pittsburgh\",\"route_type\":\"3\",\"route_type_name\":\"Bus\",\"route_color\":\"64748B\",\"route_text_color\":\"FFFFFF\"},{\"route_id\":\"38277\",\"route_short_name\":\"FAB600\",\"route_long_name\":\"State College Airport -> Pittsburgh (Airport - PIT)\",\"route_type\":\"3\",\"route_type_name\":\"Bus\",\"route_color\":\"64748B\",\"route_text_color\":\"FFFFFF\"},{\"route_id\":\"38278\",\"route_short_name\":\"FAB605\",\"route_long_name\":\"Pittsburgh (Airport - PIT) -> State College Airport\",\"route_type\":\"3\",\"route_type_name\":\"Bus\",\"route_color\":\"64748B\",\"route_text_color\":\"FFFFFF\"}]"},"geometry":{"type":"Point","coordinates":[-79.160173,40.61178]}},{"type":"Feature","properties":{"stop_id":"1031","stop_code":"","stop_name":"Punxsutawney","stop_desc":"","zone_id":"","stop_url":"","location_type":"","parent_station":"","stop_timezone":"US/Eastern","wheelchair_boarding":"","platform_code":"","feed_id":"New_York__Fullington_Trailways__mdb_tld-5783","agency_name":"Fullington Trailways","route_count":4,"route_ids":"38271|38272|38277|38278","route_short_names":"FAB510|FAB530|FAB600|FAB605","route_types":"3","route_type_names":"Bus","routes_json":"[{\"route_id\":\"38271\",\"route_short_name\":\"FAB510\",\"route_long_name\":\"Pittsburgh -> Buffalo (Downtown Bus Terminal)\",\"route_type\":\"3\",\"route_type_name\":\"Bus\",\"route_color\":\"64748B\",\"route_text_color\":\"FFFFFF\"},{\"route_id\":\"38272\",\"route_short_name\":\"FAB530\",\"route_long_name\":\"Buffalo (Downtown Bus Terminal) -> Pittsburgh\",\"route_type\":\"3\",\"route_type_name\":\"Bus\",\"route_color\":\"64748B\",\"route_text_color\":\"FFFFFF\"},{\"route_id\":\"38277\",\"route_short_name\":\"FAB600\",\"route_long_name\":\"State College Airport -> Pittsburgh (Airport - PIT)\",\"route_type\":\"3\",\"route_type_name\":\"Bus\",\"route_color\":\"64748B\",\"route_text_color\":\"FFFFFF\"},{\"route_id\":\"38278\",\"route_short_name\":\"FAB605\",\"route_long_name\":\"Pittsburgh (Airport - PIT) -> State College Airport\",\"route_type\":\"3\",\"route_type_name\":\"Bus\",\"route_color\":\"64748B\",\"route_text_color\":\"FFFFFF\"}]"},"geometry":{"type":"Point","coordinates":[-78.968,40.947]}},{"type":"Feature","properties":{"stop_id":"1029","stop_code":"","stop_name":"Sykesville","stop_desc":"","zone_id":"","stop_url":"","location_type":"","parent_station":"","stop_timezone":"US/Eastern","wheelchair_boarding":"","platform_code":"","feed_id":"New_York__Fullington_Trailways__mdb_tld-5783","agency_name":"Fullington Trailways","route_count":4,"route_ids":"38271|38272|38277|38278","route_short_names":"FAB510|FAB530|FAB600|FAB605","route_types":"3","route_type_names":"Bus","routes_json":"[{\"route_id\":\"38271\",\"route_short_name\":\"FAB510\",\"route_long_name\":\"Pittsburgh -> Buffalo (Downtown Bus Terminal)\",\"route_type\":\"3\",\"route_type_name\":\"Bus\",\"route_color\":\"64748B\",\"route_text_color\":\"FFFFFF\"},{\"route_id\":\"38272\",\"route_short_name\":\"FAB530\",\"route_long_name\":\"Buffalo (Downtown Bus Terminal) -> Pittsburgh\",\"route_type\":\"3\",\"route_type_name\":\"Bus\",\"route_color\":\"64748B\",\"route_text_color\":\"FFFFFF\"},{\"route_id\":\"38277\",\"route_short_name\":\"FAB600\",\"route_long_name\":\"State College Airport -> Pittsburgh (Airport - PIT)\",\"route_type\":\"3\",\"route_type_name\":\"Bus\",\"route_color\":\"64748B\",\"route_text_color\":\"FFFFFF\"},{\"route_id\":\"38278\",\"route_short_name\":\"FAB605\",\"route_long_name\":\"Pittsburgh (Airport - PIT) -> State College Airport\",\"route_type\":\"3\",\"route_type_name\":\"Bus\",\"route_color\":\"64748B\",\"route_text_color\":\"FFFFFF\"}]"},"geometry":{"type":"Point","coordinates":[-78.82289,41.05023]}},{"type":"Feature","properties":{"stop_id":"957","stop_code":"","stop_name":"DuBois","stop_desc":"","zone_id":"","stop_url":"","location_type":"","parent_station":"","stop_timezone":"US/Eastern","wheelchair_boarding":"","platform_code":"","feed_id":"New_York__Fullington_Trailways__mdb_tld-5783","agency_name":"Fullington Trailways","route_count":6,"route_ids":"38271|38272|38277|38278|4728|4727","route_short_names":"FAB510|FAB530|FAB600|FAB605|FAB610|FAB615","route_types":"3","route_type_names":"Bus","routes_json":"[{\"route_id\":\"38271\",\"route_short_name\":\"FAB510\",\"route_long_name\":\"Pittsburgh -> Buffalo (Downtown Bus Terminal)\",\"route_type\":\"3\",\"route_type_name\":\"Bus\",\"route_color\":\"64748B\",\"route_text_color\":\"FFFFFF\"},{\"route_id\":\"38272\",\"route_short_name\":\"FAB530\",\"route_long_name\":\"Buffalo (Downtown Bus Terminal) -> Pittsburgh\",\"route_type\":\"3\",\"route_type_name\":\"Bus\",\"route_color\":\"64748B\",\"route_text_color\":\"FFFFFF\"},{\"route_id\":\"38277\",\"route_short_name\":\"FAB600\",\"route_long_name\":\"State College Airport -> Pittsburgh (Airport - PIT)\",\"route_type\":\"3\",\"route_type_name\":\"Bus\",\"route_color\":\"64748B\",\"route_text_color\":\"FFFFFF\"},{\"route_id\":\"38278\",\"route_short_name\":\"FAB605\",\"route_long_name\":\"Pittsburgh (Airport - PIT) -> State College Airport\",\"route_type\":\"3\",\"route_type_name\":\"Bus\",\"route_color\":\"64748B\",\"route_text_color\":\"FFFFFF\"},{\"route_id\":\"4728\",\"route_short_name\":\"FAB610\",\"route_long_name\":\"State College (Bus Terminal) -> DuBois\",\"route_type\":\"3\",\"route_type_name\":\"Bus\",\"route_color\":\"64748B\",\"route_text_color\":\"FFFFFF\"},{\"route_id\":\"4727\",\"route_short_name\":\"FAB615\",\"route_long_name\":\"DuBois -> State College (Bus Terminal)\",\"route_type\":\"3\",\"route_type_name\":\"Bus\",\"route_color\":\"64748B\",\"route_text_color\":\"FFFFFF\"}]"},"geometry":{"type":"Point","coordinates":[-78.72306,41.11136]}},{"type":"Feature","properties":{"stop_id":"1632","stop_code":"","stop_name":"St. Marys","stop_desc":"","zone_id":"","stop_url":"","location_type":"","parent_station":"","stop_timezone":"US/Eastern","wheelchair_boarding":"","platform_code":"","feed_id":"New_York__Fullington_Trailways__mdb_tld-5783","agency_name":"Fullington Trailways","route_count":2,"route_ids":"38271|38272","route_short_names":"FAB510|FAB530","route_types":"3","route_type_names":"Bus","routes_json":"[{\"route_id\":\"38271\",\"route_short_name\":\"FAB510\",\"route_long_name\":\"Pittsburgh -> Buffalo (Downtown Bus Terminal)\",\"route_type\":\"3\",\"route_type_name\":\"Bus\",\"route_color\":\"64748B\",\"route_text_color\":\"FFFFFF\"},{\"route_id\":\"38272\",\"route_short_name\":\"FAB530\",\"route_long_name\":\"Buffalo (Downtown Bus Terminal) -> Pittsburgh\",\"route_type\":\"3\",\"route_type_name\":\"Bus\",\"route_color\":\"64748B\",\"route_text_color\":\"FFFFFF\"}]"},"geometry":{"type":"Point","coordinates":[-78.5562,41.4301]}},{"type":"Feature","properties":{"stop_id":"1063","stop_code":"","stop_name":"Johnsonburg","stop_desc":"","zone_id":"","stop_url":"","location_type":"","parent_station":"","stop_timezone":"US/Eastern","wheelchair_boarding":"","platform_code":"","feed_id":"New_York__Fullington_Trailways__mdb_tld-5783","agency_name":"Fullington Trailways","route_count":2,"route_ids":"38271|38272","route_short_names":"FAB510|FAB530","route_types":"3","route_type_names":"Bus","routes_json":"[{\"route_id\":\"38271\",\"route_short_name\":\"FAB510\",\"route_long_name\":\"Pittsburgh -> Buffalo (Downtown Bus Terminal)\",\"route_type\":\"3\",\"route_type_name\":\"Bus\",\"route_color\":\"64748B\",\"route_text_color\":\"FFFFFF\"},{\"route_id\":\"38272\",\"route_short_name\":\"FAB530\",\"route_long_name\":\"Buffalo (Downtown Bus Terminal) -> Pittsburgh\",\"route_type\":\"3\",\"route_type_name\":\"Bus\",\"route_color\":\"64748B\",\"route_text_color\":\"FFFFFF\"}]"},"geometry":{"type":"Point","coordinates":[-78.67434,41.48925]}},{"type":"Feature","properties":{"stop_id":"1061","stop_code":"","stop_name":"Kane","stop_desc":"","zone_id":"","stop_url":"","location_type":"","parent_station":"","stop_timezone":"US/Eastern","wheelchair_boarding":"","platform_code":"","feed_id":"New_York__Fullington_Trailways__mdb_tld-5783","agency_name":"Fullington Trailways","route_count":2,"route_ids":"38271|38272","route_short_names":"FAB510|FAB530","route_types":"3","route_type_names":"Bus","routes_json":"[{\"route_id\":\"38271\",\"route_short_name\":\"FAB510\",\"route_long_name\":\"Pittsburgh -> Buffalo (Downtown Bus Terminal)\",\"route_type\":\"3\",\"route_type_name\":\"Bus\",\"route_color\":\"64748B\",\"route_text_color\":\"FFFFFF\"},{\"route_id\":\"38272\",\"route_short_name\":\"FAB530\",\"route_long_name\":\"Buffalo (Downtown Bus Terminal) -> Pittsburgh\",\"route_type\":\"3\",\"route_type_name\":\"Bus\",\"route_color\":\"64748B\",\"route_text_color\":\"FFFFFF\"}]"},"geometry":{"type":"Point","coordinates":[-78.80587,41.65912]}},{"type":"Feature","properties":{"stop_id":"1059","stop_code":"","stop_name":"Bradford","stop_desc":"","zone_id":"","stop_url":"","location_type":"","parent_station":"","stop_timezone":"US/Eastern","wheelchair_boarding":"","platform_code":"","feed_id":"New_York__Fullington_Trailways__mdb_tld-5783","agency_name":"Fullington Trailways","route_count":2,"route_ids":"38271|38272","route_short_names":"FAB510|FAB530","route_types":"3","route_type_names":"Bus","routes_json":"[{\"route_id\":\"38271\",\"route_short_name\":\"FAB510\",\"route_long_name\":\"Pittsburgh -> Buffalo (Downtown Bus Terminal)\",\"route_type\":\"3\",\"route_type_name\":\"Bus\",\"route_color\":\"64748B\",\"route_text_color\":\"FFFFFF\"},{\"route_id\":\"38272\",\"route_short_name\":\"FAB530\",\"route_long_name\":\"Buffalo (Downtown Bus Terminal) -> Pittsburgh\",\"route_type\":\"3\",\"route_type_name\":\"Bus\",\"route_color\":\"64748B\",\"route_text_color\":\"FFFFFF\"}]"},"geometry":{"type":"Point","coordinates":[-78.65293,41.93014]}},{"type":"Feature","properties":{"stop_id":"1057","stop_code":"","stop_name":"Olean","stop_desc":"","zone_id":"","stop_url":"","location_type":"","parent_station":"","stop_timezone":"US/Eastern","wheelchair_boarding":"","platform_code":"","feed_id":"New_York__Fullington_Trailways__mdb_tld-5783","agency_name":"Fullington Trailways","route_count":2,"route_ids":"38271|38272","route_short_names":"FAB510|FAB530","route_types":"3","route_type_names":"Bus","routes_json":"[{\"route_id\":\"38271\",\"route_short_name\":\"FAB510\",\"route_long_name\":\"Pittsburgh -> Buffalo (Downtown Bus Terminal)\",\"route_type\":\"3\",\"route_type_name\":\"Bus\",\"route_color\":\"64748B\",\"route_text_color\":\"FFFFFF\"},{\"route_id\":\"38272\",\"route_short_name\":\"FAB530\",\"route_long_name\":\"Buffalo (Downtown Bus Terminal) -> Pittsburgh\",\"route_type\":\"3\",\"route_type_name\":\"Bus\",\"route_color\":\"64748B\",\"route_text_color\":\"FFFFFF\"}]"},"geometry":{"type":"Point","coordinates":[-78.4295,42.0745]}},{"type":"Feature","properties":{"stop_id":"5516","stop_code":"","stop_name":"Salamanca (Seneca Allegany Casino)","stop_desc":"","zone_id":"","stop_url":"","location_type":"","parent_station":"","stop_timezone":"US/Eastern","wheelchair_boarding":"","platform_code":"","feed_id":"New_York__Fullington_Trailways__mdb_tld-5783","agency_name":"Fullington Trailways","route_count":2,"route_ids":"38271|38272","route_short_names":"FAB510|FAB530","route_types":"3","route_type_names":"Bus","routes_json":"[{\"route_id\":\"38271\",\"route_short_name\":\"FAB510\",\"route_long_name\":\"Pittsburgh -> Buffalo (Downtown Bus Terminal)\",\"route_type\":\"3\",\"route_type_name\":\"Bus\",\"route_color\":\"64748B\",\"route_text_color\":\"FFFFFF\"},{\"route_id\":\"38272\",\"route_short_name\":\"FAB530\",\"route_long_name\":\"Buffalo (Downtown Bus Terminal) -> Pittsburgh\",\"route_type\":\"3\",\"route_type_name\":\"Bus\",\"route_color\":\"64748B\",\"route_text_color\":\"FFFFFF\"}]"},"geometry":{"type":"Point","coordinates":[-78.750278,42.152222]}},{"type":"Feature","properties":{"stop_id":"1056","stop_code":"","stop_name":"Salamanca (Dudley Hotel)","stop_desc":"","zone_id":"","stop_url":"","location_type":"","parent_station":"","stop_timezone":"US/Eastern","wheelchair_boarding":"","platform_code":"","feed_id":"New_York__Fullington_Trailways__mdb_tld-5783","agency_name":"Fullington Trailways","route_count":2,"route_ids":"38271|38272","route_short_names":"FAB510|FAB530","route_types":"3","route_type_names":"Bus","routes_json":"[{\"route_id\":\"38271\",\"route_short_name\":\"FAB510\",\"route_long_name\":\"Pittsburgh -> Buffalo (Downtown Bus Terminal)\",\"route_type\":\"3\",\"route_type_name\":\"Bus\",\"route_color\":\"64748B\",\"route_text_color\":\"FFFFFF\"},{\"route_id\":\"38272\",\"route_short_name\":\"FAB530\",\"route_long_name\":\"Buffalo (Downtown Bus Terminal) -> Pittsburgh\",\"route_type\":\"3\",\"route_type_name\":\"Bus\",\"route_color\":\"64748B\",\"route_text_color\":\"FFFFFF\"}]"},"geometry":{"type":"Point","coordinates":[-78.716676,42.151474]}},{"type":"Feature","properties":{"stop_id":"1055","stop_code":"","stop_name":"Ellicottville","stop_desc":"","zone_id":"","stop_url":"","location_type":"","parent_station":"","stop_timezone":"US/Eastern","wheelchair_boarding":"","platform_code":"","feed_id":"New_York__Fullington_Trailways__mdb_tld-5783","agency_name":"Fullington Trailways","route_count":2,"route_ids":"38271|38272","route_short_names":"FAB510|FAB530","route_types":"3","route_type_names":"Bus","routes_json":"[{\"route_id\":\"38271\",\"route_short_name\":\"FAB510\",\"route_long_name\":\"Pittsburgh -> Buffalo (Downtown Bus Terminal)\",\"route_type\":\"3\",\"route_type_name\":\"Bus\",\"route_color\":\"64748B\",\"route_text_color\":\"FFFFFF\"},{\"route_id\":\"38272\",\"route_short_name\":\"FAB530\",\"route_long_name\":\"Buffalo (Downtown Bus Terminal) -> Pittsburgh\",\"route_type\":\"3\",\"route_type_name\":\"Bus\",\"route_color\":\"64748B\",\"route_text_color\":\"FFFFFF\"}]"},"geometry":{"type":"Point","coordinates":[-78.67183,42.27546]}},{"type":"Feature","properties":{"stop_id":"1054","stop_code":"","stop_name":"Springville","stop_desc":"","zone_id":"","stop_url":"","location_type":"","parent_station":"","stop_timezone":"US/Eastern","wheelchair_boarding":"","platform_code":"","feed_id":"New_York__Fullington_Trailways__mdb_tld-5783","agency_name":"Fullington Trailways","route_count":2,"route_ids":"38271|38272","route_short_names":"FAB510|FAB530","route_types":"3","route_type_names":"Bus","routes_json":"[{\"route_id\":\"38271\",\"route_short_name\":\"FAB510\",\"route_long_name\":\"Pittsburgh -> Buffalo (Downtown Bus Terminal)\",\"route_type\":\"3\",\"route_type_name\":\"Bus\",\"route_color\":\"64748B\",\"route_text_color\":\"FFFFFF\"},{\"route_id\":\"38272\",\"route_short_name\":\"FAB530\",\"route_long_name\":\"Buffalo (Downtown Bus Terminal) -> Pittsburgh\",\"route_type\":\"3\",\"route_type_name\":\"Bus\",\"route_color\":\"64748B\",\"route_text_color\":\"FFFFFF\"}]"},"geometry":{"type":"Point","coordinates":[-78.68933,42.50936]}},{"type":"Feature","properties":{"stop_id":"1053","stop_code":"","stop_name":"Buffalo","stop_desc":"","zone_id":"","stop_url":"","location_type":"","parent_station":"","stop_timezone":"US/Eastern","wheelchair_boarding":"","platform_code":"","feed_id":"New_York__Fullington_Trailways__mdb_tld-5783","agency_name":"Fullington Trailways","route_count":2,"route_ids":"38271|38272","route_short_names":"FAB510|FAB530","route_types":"3","route_type_names":"Bus","routes_json":"[{\"route_id\":\"38271\",\"route_short_name\":\"FAB510\",\"route_long_name\":\"Pittsburgh -> Buffalo (Downtown Bus Terminal)\",\"route_type\":\"3\",\"route_type_name\":\"Bus\",\"route_color\":\"64748B\",\"route_text_color\":\"FFFFFF\"},{\"route_id\":\"38272\",\"route_short_name\":\"FAB530\",\"route_long_name\":\"Buffalo (Downtown Bus Terminal) -> Pittsburgh\",\"route_type\":\"3\",\"route_type_name\":\"Bus\",\"route_color\":\"64748B\",\"route_text_color\":\"FFFFFF\"}]"},"geometry":{"type":"Point","coordinates":[-78.872546,42.883058]}},{"type":"Feature","properties":{"stop_id":"1019","stop_code":"","stop_name":"Harrisburg","stop_desc":"","zone_id":"","stop_url":"","location_type":"","parent_station":"","stop_timezone":"US/Eastern","wheelchair_boarding":"","platform_code":"","feed_id":"New_York__Fullington_Trailways__mdb_tld-5783","agency_name":"Fullington Trailways","route_count":4,"route_ids":"38275|38276|908|907","route_short_names":"FAB26|FAB29|FAB770|FAB771","route_types":"3","route_type_names":"Bus","routes_json":"[{\"route_id\":\"38275\",\"route_short_name\":\"FAB26\",\"route_long_name\":\"Williamsport -> Harrisburg\",\"route_type\":\"3\",\"route_type_name\":\"Bus\",\"route_color\":\"64748B\",\"route_text_color\":\"FFFFFF\"},{\"route_id\":\"38276\",\"route_short_name\":\"FAB29\",\"route_long_name\":\"Harrisburg -> Williamsport\",\"route_type\":\"3\",\"route_type_name\":\"Bus\",\"route_color\":\"64748B\",\"route_text_color\":\"FFFFFF\"},{\"route_id\":\"908\",\"route_short_name\":\"FAB770\",\"route_long_name\":\"Harrisburg -> Scranton\",\"route_type\":\"3\",\"route_type_name\":\"Bus\",\"route_color\":\"64748B\",\"route_text_color\":\"FFFFFF\"},{\"route_id\":\"907\",\"route_short_name\":\"FAB771\",\"route_long_name\":\"Scranton -> Harrisburg\",\"route_type\":\"3\",\"route_type_name\":\"Bus\",\"route_color\":\"64748B\",\"route_text_color\":\"FFFFFF\"}]"},"geometry":{"type":"Point","coordinates":[-76.833046,40.25114]}},{"type":"Feature","properties":{"stop_id":"5521","stop_code":"","stop_name":"Selinsgrove (Amtrak)","stop_desc":"","zone_id":"","stop_url":"","location_type":"","parent_station":"","stop_timezone":"US/Eastern","wheelchair_boarding":"","platform_code":"","feed_id":"New_York__Fullington_Trailways__mdb_tld-5783","agency_name":"Fullington Trailways","route_count":2,"route_ids":"38275|38276","route_short_names":"FAB26|FAB29","route_types":"3","route_type_names":"Bus","routes_json":"[{\"route_id\":\"38275\",\"route_short_name\":\"FAB26\",\"route_long_name\":\"Williamsport -> Harrisburg\",\"route_type\":\"3\",\"route_type_name\":\"Bus\",\"route_color\":\"64748B\",\"route_text_color\":\"FFFFFF\"},{\"route_id\":\"38276\",\"route_short_name\":\"FAB29\",\"route_long_name\":\"Harrisburg -> Williamsport\",\"route_type\":\"3\",\"route_type_name\":\"Bus\",\"route_color\":\"64748B\",\"route_text_color\":\"FFFFFF\"}]"},"geometry":{"type":"Point","coordinates":[-76.862104,40.798099]}},{"type":"Feature","properties":{"stop_id":"5522","stop_code":"","stop_name":"Shamokin Dam","stop_desc":"","zone_id":"","stop_url":"","location_type":"","parent_station":"","stop_timezone":"US/Eastern","wheelchair_boarding":"","platform_code":"","feed_id":"New_York__Fullington_Trailways__mdb_tld-5783","agency_name":"Fullington Trailways","route_count":2,"route_ids":"38275|38276","route_short_names":"FAB26|FAB29","route_types":"3","route_type_names":"Bus","routes_json":"[{\"route_id\":\"38275\",\"route_short_name\":\"FAB26\",\"route_long_name\":\"Williamsport -> Harrisburg\",\"route_type\":\"3\",\"route_type_name\":\"Bus\",\"route_color\":\"64748B\",\"route_text_color\":\"FFFFFF\"},{\"route_id\":\"38276\",\"route_short_name\":\"FAB29\",\"route_long_name\":\"Harrisburg -> Williamsport\",\"route_type\":\"3\",\"route_type_name\":\"Bus\",\"route_color\":\"64748B\",\"route_text_color\":\"FFFFFF\"}]"},"geometry":{"type":"Point","coordinates":[-76.820783,40.84844]}},{"type":"Feature","properties":{"stop_id":"5524","stop_code":"","stop_name":"Sunbury","stop_desc":"","zone_id":"","stop_url":"","location_type":"","parent_station":"","stop_timezone":"US/Eastern","wheelchair_boarding":"","platform_code":"","feed_id":"New_York__Fullington_Trailways__mdb_tld-5783","agency_name":"Fullington Trailways","route_count":2,"route_ids":"38275|38276","route_short_names":"FAB26|FAB29","route_types":"3","route_type_names":"Bus","routes_json":"[{\"route_id\":\"38275\",\"route_short_name\":\"FAB26\",\"route_long_name\":\"Williamsport -> Harrisburg\",\"route_type\":\"3\",\"route_type_name\":\"Bus\",\"route_color\":\"64748B\",\"route_text_color\":\"FFFFFF\"},{\"route_id\":\"38276\",\"route_short_name\":\"FAB29\",\"route_long_name\":\"Harrisburg -> Williamsport\",\"route_type\":\"3\",\"route_type_name\":\"Bus\",\"route_color\":\"64748B\",\"route_text_color\":\"FFFFFF\"}]"},"geometry":{"type":"Point","coordinates":[-76.785312,40.875219]}},{"type":"Feature","properties":{"stop_id":"5526","stop_code":"","stop_name":"Lewisburg","stop_desc":"","zone_id":"","stop_url":"","location_type":"","parent_station":"","stop_timezone":"US/Eastern","wheelchair_boarding":"","platform_code":"","feed_id":"New_York__Fullington_Trailways__mdb_tld-5783","agency_name":"Fullington Trailways","route_count":6,"route_ids":"38267|38268|39479|39480|38275|38276","route_short_names":"FAB10|FAB11|FAB20|FAB21|FAB26|FAB29","route_types":"3","route_type_names":"Bus","routes_json":"[{\"route_id\":\"38267\",\"route_short_name\":\"FAB10\",\"route_long_name\":\"Williamsport -> New York (P.A.B.T.)\",\"route_type\":\"3\",\"route_type_name\":\"Bus\",\"route_color\":\"64748B\",\"route_text_color\":\"FFFFFF\"},{\"route_id\":\"38268\",\"route_short_name\":\"FAB11\",\"route_long_name\":\"New York (P.A.B.T.) -> Williamsport\",\"route_type\":\"3\",\"route_type_name\":\"Bus\",\"route_color\":\"64748B\",\"route_text_color\":\"FFFFFF\"},{\"route_id\":\"39479\",\"route_short_name\":\"FAB20\",\"route_long_name\":\"Williamsport -> Philadelphia Express\",\"route_type\":\"3\",\"route_type_name\":\"Bus\",\"route_color\":\"64748B\",\"route_text_color\":\"FFFFFF\"},{\"route_id\":\"39480\",\"route_short_name\":\"FAB21\",\"route_long_name\":\"Philadelphia Express -> Williamsport\",\"route_type\":\"3\",\"route_type_name\":\"Bus\",\"route_color\":\"64748B\",\"route_text_color\":\"FFFFFF\"},{\"route_id\":\"38275\",\"route_short_name\":\"FAB26\",\"route_long_name\":\"Williamsport -> Harrisburg\",\"route_type\":\"3\",\"route_type_name\":\"Bus\",\"route_color\":\"64748B\",\"route_text_color\":\"FFFFFF\"},{\"route_id\":\"38276\",\"route_short_name\":\"FAB29\",\"route_long_name\":\"Harrisburg -> Williamsport\",\"route_type\":\"3\",\"route_type_name\":\"Bus\",\"route_color\":\"64748B\",\"route_text_color\":\"FFFFFF\"}]"},"geometry":{"type":"Point","coordinates":[-76.889613,40.962949]}},{"type":"Feature","properties":{"stop_id":"1050","stop_code":"","stop_name":"Williamsport","stop_desc":"","zone_id":"","stop_url":"","location_type":"","parent_station":"","stop_timezone":"US/Eastern","wheelchair_boarding":"","platform_code":"","feed_id":"New_York__Fullington_Trailways__mdb_tld-5783","agency_name":"Fullington Trailways","route_count":8,"route_ids":"38267|38268|39479|39480|38275|38276|38273|38274","route_short_names":"FAB10|FAB11|FAB20|FAB21|FAB26|FAB29|FAB805|FAB815","route_types":"3","route_type_names":"Bus","routes_json":"[{\"route_id\":\"38267\",\"route_short_name\":\"FAB10\",\"route_long_name\":\"Williamsport -> New York (P.A.B.T.)\",\"route_type\":\"3\",\"route_type_name\":\"Bus\",\"route_color\":\"64748B\",\"route_text_color\":\"FFFFFF\"},{\"route_id\":\"38268\",\"route_short_name\":\"FAB11\",\"route_long_name\":\"New York (P.A.B.T.) -> Williamsport\",\"route_type\":\"3\",\"route_type_name\":\"Bus\",\"route_color\":\"64748B\",\"route_text_color\":\"FFFFFF\"},{\"route_id\":\"39479\",\"route_short_name\":\"FAB20\",\"route_long_name\":\"Williamsport -> Philadelphia Express\",\"route_type\":\"3\",\"route_type_name\":\"Bus\",\"route_color\":\"64748B\",\"route_text_color\":\"FFFFFF\"},{\"route_id\":\"39480\",\"route_short_name\":\"FAB21\",\"route_long_name\":\"Philadelphia Express -> Williamsport\",\"route_type\":\"3\",\"route_type_name\":\"Bus\",\"route_color\":\"64748B\",\"route_text_color\":\"FFFFFF\"},{\"route_id\":\"38275\",\"route_short_name\":\"FAB26\",\"route_long_name\":\"Williamsport -> Harrisburg\",\"route_type\":\"3\",\"route_type_name\":\"Bus\",\"route_color\":\"64748B\",\"route_text_color\":\"FFFFFF\"},{\"route_id\":\"38276\",\"route_short_name\":\"FAB29\",\"route_long_name\":\"Harrisburg -> Williamsport\",\"route_type\":\"3\",\"route_type_name\":\"Bus\",\"route_color\":\"64748B\",\"route_text_color\":\"FFFFFF\"},{\"route_id\":\"38273\",\"route_short_name\":\"FAB805\",\"route_long_name\":\"State College Airport -> Wilkes-Barre\",\"route_type\":\"3\",\"route_type_name\":\"Bus\",\"route_color\":\"64748B\",\"route_text_color\":\"FFFFFF\"},{\"route_id\":\"38274\",\"route_short_name\":\"FAB815\",\"route_long_name\":\"Wilkes-Barre -> State College (Bus Terminal)\",\"route_type\":\"3\",\"route_type_name\":\"Bus\",\"route_color\":\"64748B\",\"route_text_color\":\"FFFFFF\"}]"},"geometry":{"type":"Point","coordinates":[-77.0006,41.2403]}},{"type":"Feature","properties":{"stop_id":"4675","stop_code":"","stop_name":"Scranton","stop_desc":"","zone_id":"","stop_url":"","location_type":"","parent_station":"","stop_timezone":"US/Eastern","wheelchair_boarding":"","platform_code":"","feed_id":"New_York__Fullington_Trailways__mdb_tld-5783","agency_name":"Fullington Trailways","route_count":2,"route_ids":"908|907","route_short_names":"FAB770|FAB771","route_types":"3","route_type_names":"Bus","routes_json":"[{\"route_id\":\"908\",\"route_short_name\":\"FAB770\",\"route_long_name\":\"Harrisburg -> Scranton\",\"route_type\":\"3\",\"route_type_name\":\"Bus\",\"route_color\":\"64748B\",\"route_text_color\":\"FFFFFF\"},{\"route_id\":\"907\",\"route_short_name\":\"FAB771\",\"route_long_name\":\"Scranton -> Harrisburg\",\"route_type\":\"3\",\"route_type_name\":\"Bus\",\"route_color\":\"64748B\",\"route_text_color\":\"FFFFFF\"}]"},"geometry":{"type":"Point","coordinates":[-75.671,41.41]}},{"type":"Feature","properties":{"stop_id":"4674","stop_code":"","stop_name":"Hazleton","stop_desc":"","zone_id":"","stop_url":"","location_type":"","parent_station":"","stop_timezone":"US/Eastern","wheelchair_boarding":"","platform_code":"","feed_id":"New_York__Fullington_Trailways__mdb_tld-5783","agency_name":"Fullington Trailways","route_count":6,"route_ids":"38267|38268|39479|39480|908|907","route_short_names":"FAB10|FAB11|FAB20|FAB21|FAB770|FAB771","route_types":"3","route_type_names":"Bus","routes_json":"[{\"route_id\":\"38267\",\"route_short_name\":\"FAB10\",\"route_long_name\":\"Williamsport -> New York (P.A.B.T.)\",\"route_type\":\"3\",\"route_type_name\":\"Bus\",\"route_color\":\"64748B\",\"route_text_color\":\"FFFFFF\"},{\"route_id\":\"38268\",\"route_short_name\":\"FAB11\",\"route_long_name\":\"New York (P.A.B.T.) -> Williamsport\",\"route_type\":\"3\",\"route_type_name\":\"Bus\",\"route_color\":\"64748B\",\"route_text_color\":\"FFFFFF\"},{\"route_id\":\"39479\",\"route_short_name\":\"FAB20\",\"route_long_name\":\"Williamsport -> Philadelphia Express\",\"route_type\":\"3\",\"route_type_name\":\"Bus\",\"route_color\":\"64748B\",\"route_text_color\":\"FFFFFF\"},{\"route_id\":\"39480\",\"route_short_name\":\"FAB21\",\"route_long_name\":\"Philadelphia Express -> Williamsport\",\"route_type\":\"3\",\"route_type_name\":\"Bus\",\"route_color\":\"64748B\",\"route_text_color\":\"FFFFFF\"},{\"route_id\":\"908\",\"route_short_name\":\"FAB770\",\"route_long_name\":\"Harrisburg -> Scranton\",\"route_type\":\"3\",\"route_type_name\":\"Bus\",\"route_color\":\"64748B\",\"route_text_color\":\"FFFFFF\"},{\"route_id\":\"907\",\"route_short_name\":\"FAB771\",\"route_long_name\":\"Scranton -> Harrisburg\",\"route_type\":\"3\",\"route_type_name\":\"Bus\",\"route_color\":\"64748B\",\"route_text_color\":\"FFFFFF\"}]"},"geometry":{"type":"Point","coordinates":[-75.976,40.954]}},{"type":"Feature","properties":{"stop_id":"4673","stop_code":"","stop_name":"Pottsville","stop_desc":"","zone_id":"","stop_url":"","location_type":"","parent_station":"","stop_timezone":"US/Eastern","wheelchair_boarding":"","platform_code":"","feed_id":"New_York__Fullington_Trailways__mdb_tld-5783","agency_name":"Fullington Trailways","route_count":2,"route_ids":"908|907","route_short_names":"FAB770|FAB771","route_types":"3","route_type_names":"Bus","routes_json":"[{\"route_id\":\"908\",\"route_short_name\":\"FAB770\",\"route_long_name\":\"Harrisburg -> Scranton\",\"route_type\":\"3\",\"route_type_name\":\"Bus\",\"route_color\":\"64748B\",\"route_text_color\":\"FFFFFF\"},{\"route_id\":\"907\",\"route_short_name\":\"FAB771\",\"route_long_name\":\"Scranton -> Harrisburg\",\"route_type\":\"3\",\"route_type_name\":\"Bus\",\"route_color\":\"64748B\",\"route_text_color\":\"FFFFFF\"}]"},"geometry":{"type":"Point","coordinates":[-76.19327,40.683113]}},{"type":"Feature","properties":{"stop_id":"1046","stop_code":"","stop_name":"Wilkes-Barre","stop_desc":"","zone_id":"","stop_url":"","location_type":"","parent_station":"","stop_timezone":"US/Eastern","wheelchair_boarding":"","platform_code":"","feed_id":"New_York__Fullington_Trailways__mdb_tld-5783","agency_name":"Fullington Trailways","route_count":4,"route_ids":"908|907|38273|38274","route_short_names":"FAB770|FAB771|FAB805|FAB815","route_types":"3","route_type_names":"Bus","routes_json":"[{\"route_id\":\"908\",\"route_short_name\":\"FAB770\",\"route_long_name\":\"Harrisburg -> Scranton\",\"route_type\":\"3\",\"route_type_name\":\"Bus\",\"route_color\":\"64748B\",\"route_text_color\":\"FFFFFF\"},{\"route_id\":\"907\",\"route_short_name\":\"FAB771\",\"route_long_name\":\"Scranton -> Harrisburg\",\"route_type\":\"3\",\"route_type_name\":\"Bus\",\"route_color\":\"64748B\",\"route_text_color\":\"FFFFFF\"},{\"route_id\":\"38273\",\"route_short_name\":\"FAB805\",\"route_long_name\":\"State College Airport -> Wilkes-Barre\",\"route_type\":\"3\",\"route_type_name\":\"Bus\",\"route_color\":\"64748B\",\"route_text_color\":\"FFFFFF\"},{\"route_id\":\"38274\",\"route_short_name\":\"FAB815\",\"route_long_name\":\"Wilkes-Barre -> State College (Bus Terminal)\",\"route_type\":\"3\",\"route_type_name\":\"Bus\",\"route_color\":\"64748B\",\"route_text_color\":\"FFFFFF\"}]"},"geometry":{"type":"Point","coordinates":[-75.885693,41.241978]}},{"type":"Feature","properties":{"stop_id":"5537","stop_code":"","stop_name":"New York (P.A.B.T.)","stop_desc":"","zone_id":"","stop_url":"","location_type":"","parent_station":"","stop_timezone":"US/Eastern","wheelchair_boarding":"","platform_code":"","feed_id":"New_York__Fullington_Trailways__mdb_tld-5783","agency_name":"Fullington Trailways","route_count":2,"route_ids":"38267|38268","route_short_names":"FAB10|FAB11","route_types":"3","route_type_names":"Bus","routes_json":"[{\"route_id\":\"38267\",\"route_short_name\":\"FAB10\",\"route_long_name\":\"Williamsport -> New York (P.A.B.T.)\",\"route_type\":\"3\",\"route_type_name\":\"Bus\",\"route_color\":\"64748B\",\"route_text_color\":\"FFFFFF\"},{\"route_id\":\"38268\",\"route_short_name\":\"FAB11\",\"route_long_name\":\"New York (P.A.B.T.) -> Williamsport\",\"route_type\":\"3\",\"route_type_name\":\"Bus\",\"route_color\":\"64748B\",\"route_text_color\":\"FFFFFF\"}]"},"geometry":{"type":"Point","coordinates":[-73.990313,40.756547]}},{"type":"Feature","properties":{"stop_id":"5539","stop_code":"","stop_name":"Easton","stop_desc":"","zone_id":"","stop_url":"","location_type":"","parent_station":"","stop_timezone":"US/Eastern","wheelchair_boarding":"","platform_code":"","feed_id":"New_York__Fullington_Trailways__mdb_tld-5783","agency_name":"Fullington Trailways","route_count":2,"route_ids":"38267|38268","route_short_names":"FAB10|FAB11","route_types":"3","route_type_names":"Bus","routes_json":"[{\"route_id\":\"38267\",\"route_short_name\":\"FAB10\",\"route_long_name\":\"Williamsport -> New York (P.A.B.T.)\",\"route_type\":\"3\",\"route_type_name\":\"Bus\",\"route_color\":\"64748B\",\"route_text_color\":\"FFFFFF\"},{\"route_id\":\"38268\",\"route_short_name\":\"FAB11\",\"route_long_name\":\"New York (P.A.B.T.) -> Williamsport\",\"route_type\":\"3\",\"route_type_name\":\"Bus\",\"route_color\":\"64748B\",\"route_text_color\":\"FFFFFF\"}]"},"geometry":{"type":"Point","coordinates":[-75.209139,40.688519]}},{"type":"Feature","properties":{"stop_id":"5540","stop_code":"","stop_name":"Bath","stop_desc":"","zone_id":"","stop_url":"","location_type":"","parent_station":"","stop_timezone":"US/Eastern","wheelchair_boarding":"","platform_code":"","feed_id":"New_York__Fullington_Trailways__mdb_tld-5783","agency_name":"Fullington Trailways","route_count":2,"route_ids":"38267|38268","route_short_names":"FAB10|FAB11","route_types":"3","route_type_names":"Bus","routes_json":"[{\"route_id\":\"38267\",\"route_short_name\":\"FAB10\",\"route_long_name\":\"Williamsport -> New York (P.A.B.T.)\",\"route_type\":\"3\",\"route_type_name\":\"Bus\",\"route_color\":\"64748B\",\"route_text_color\":\"FFFFFF\"},{\"route_id\":\"38268\",\"route_short_name\":\"FAB11\",\"route_long_name\":\"New York (P.A.B.T.) -> Williamsport\",\"route_type\":\"3\",\"route_type_name\":\"Bus\",\"route_color\":\"64748B\",\"route_text_color\":\"FFFFFF\"}]"},"geometry":{"type":"Point","coordinates":[-75.395094,40.72547]}},{"type":"Feature","properties":{"stop_id":"5542","stop_code":"","stop_name":"Jim Thorpe","stop_desc":"","zone_id":"","stop_url":"","location_type":"","parent_station":"","stop_timezone":"US/Eastern","wheelchair_boarding":"","platform_code":"","feed_id":"New_York__Fullington_Trailways__mdb_tld-5783","agency_name":"Fullington Trailways","route_count":4,"route_ids":"38267|38268|39479|39480","route_short_names":"FAB10|FAB11|FAB20|FAB21","route_types":"3","route_type_names":"Bus","routes_json":"[{\"route_id\":\"38267\",\"route_short_name\":\"FAB10\",\"route_long_name\":\"Williamsport -> New York (P.A.B.T.)\",\"route_type\":\"3\",\"route_type_name\":\"Bus\",\"route_color\":\"64748B\",\"route_text_color\":\"FFFFFF\"},{\"route_id\":\"38268\",\"route_short_name\":\"FAB11\",\"route_long_name\":\"New York (P.A.B.T.) -> Williamsport\",\"route_type\":\"3\",\"route_type_name\":\"Bus\",\"route_color\":\"64748B\",\"route_text_color\":\"FFFFFF\"},{\"route_id\":\"39479\",\"route_short_name\":\"FAB20\",\"route_long_name\":\"Williamsport -> Philadelphia Express\",\"route_type\":\"3\",\"route_type_name\":\"Bus\",\"route_color\":\"64748B\",\"route_text_color\":\"FFFFFF\"},{\"route_id\":\"39480\",\"route_short_name\":\"FAB21\",\"route_long_name\":\"Philadelphia Express -> Williamsport\",\"route_type\":\"3\",\"route_type_name\":\"Bus\",\"route_color\":\"64748B\",\"route_text_color\":\"FFFFFF\"}]"},"geometry":{"type":"Point","coordinates":[-75.739042,40.864426]}},{"type":"Feature","properties":{"stop_id":"5544","stop_code":"","stop_name":"Berwick","stop_desc":"","zone_id":"","stop_url":"","location_type":"","parent_station":"","stop_timezone":"US/Eastern","wheelchair_boarding":"","platform_code":"","feed_id":"New_York__Fullington_Trailways__mdb_tld-5783","agency_name":"Fullington Trailways","route_count":2,"route_ids":"38267|38268","route_short_names":"FAB10|FAB11","route_types":"3","route_type_names":"Bus","routes_json":"[{\"route_id\":\"38267\",\"route_short_name\":\"FAB10\",\"route_long_name\":\"Williamsport -> New York (P.A.B.T.)\",\"route_type\":\"3\",\"route_type_name\":\"Bus\",\"route_color\":\"64748B\",\"route_text_color\":\"FFFFFF\"},{\"route_id\":\"38268\",\"route_short_name\":\"FAB11\",\"route_long_name\":\"New York (P.A.B.T.) -> Williamsport\",\"route_type\":\"3\",\"route_type_name\":\"Bus\",\"route_color\":\"64748B\",\"route_text_color\":\"FFFFFF\"}]"},"geometry":{"type":"Point","coordinates":[-76.237484,41.054143]}},{"type":"Feature","properties":{"stop_id":"5545","stop_code":"","stop_name":"Bloomsburg","stop_desc":"","zone_id":"","stop_url":"","location_type":"","parent_station":"","stop_timezone":"US/Eastern","wheelchair_boarding":"","platform_code":"","feed_id":"New_York__Fullington_Trailways__mdb_tld-5783","agency_name":"Fullington Trailways","route_count":4,"route_ids":"38267|38268|39479|39480","route_short_names":"FAB10|FAB11|FAB20|FAB21","route_types":"3","route_type_names":"Bus","routes_json":"[{\"route_id\":\"38267\",\"route_short_name\":\"FAB10\",\"route_long_name\":\"Williamsport -> New York (P.A.B.T.)\",\"route_type\":\"3\",\"route_type_name\":\"Bus\",\"route_color\":\"64748B\",\"route_text_color\":\"FFFFFF\"},{\"route_id\":\"38268\",\"route_short_name\":\"FAB11\",\"route_long_name\":\"New York (P.A.B.T.) -> Williamsport\",\"route_type\":\"3\",\"route_type_name\":\"Bus\",\"route_color\":\"64748B\",\"route_text_color\":\"FFFFFF\"},{\"route_id\":\"39479\",\"route_short_name\":\"FAB20\",\"route_long_name\":\"Williamsport -> Philadelphia Express\",\"route_type\":\"3\",\"route_type_name\":\"Bus\",\"route_color\":\"64748B\",\"route_text_color\":\"FFFFFF\"},{\"route_id\":\"39480\",\"route_short_name\":\"FAB21\",\"route_long_name\":\"Philadelphia Express -> Williamsport\",\"route_type\":\"3\",\"route_type_name\":\"Bus\",\"route_color\":\"64748B\",\"route_text_color\":\"FFFFFF\"}]"},"geometry":{"type":"Point","coordinates":[-76.454385,41.00743]}},{"type":"Feature","properties":{"stop_id":"5546","stop_code":"","stop_name":"Danville","stop_desc":"","zone_id":"","stop_url":"","location_type":"","parent_station":"","stop_timezone":"US/Eastern","wheelchair_boarding":"","platform_code":"","feed_id":"New_York__Fullington_Trailways__mdb_tld-5783","agency_name":"Fullington Trailways","route_count":4,"route_ids":"38267|38268|39479|39480","route_short_names":"FAB10|FAB11|FAB20|FAB21","route_types":"3","route_type_names":"Bus","routes_json":"[{\"route_id\":\"38267\",\"route_short_name\":\"FAB10\",\"route_long_name\":\"Williamsport -> New York (P.A.B.T.)\",\"route_type\":\"3\",\"route_type_name\":\"Bus\",\"route_color\":\"64748B\",\"route_text_color\":\"FFFFFF\"},{\"route_id\":\"38268\",\"route_short_name\":\"FAB11\",\"route_long_name\":\"New York (P.A.B.T.) -> Williamsport\",\"route_type\":\"3\",\"route_type_name\":\"Bus\",\"route_color\":\"64748B\",\"route_text_color\":\"FFFFFF\"},{\"route_id\":\"39479\",\"route_short_name\":\"FAB20\",\"route_long_name\":\"Williamsport -> Philadelphia Express\",\"route_type\":\"3\",\"route_type_name\":\"Bus\",\"route_color\":\"64748B\",\"route_text_color\":\"FFFFFF\"},{\"route_id\":\"39480\",\"route_short_name\":\"FAB21\",\"route_long_name\":\"Philadelphia Express -> Williamsport\",\"route_type\":\"3\",\"route_type_name\":\"Bus\",\"route_color\":\"64748B\",\"route_text_color\":\"FFFFFF\"}]"},"geometry":{"type":"Point","coordinates":[-76.61882,40.965465]}},{"type":"Feature","properties":{"stop_id":"5547","stop_code":"","stop_name":"Watsontown","stop_desc":"","zone_id":"","stop_url":"","location_type":"","parent_station":"","stop_timezone":"US/Eastern","wheelchair_boarding":"","platform_code":"","feed_id":"New_York__Fullington_Trailways__mdb_tld-5783","agency_name":"Fullington Trailways","route_count":2,"route_ids":"38267|38268","route_short_names":"FAB10|FAB11","route_types":"3","route_type_names":"Bus","routes_json":"[{\"route_id\":\"38267\",\"route_short_name\":\"FAB10\",\"route_long_name\":\"Williamsport -> New York (P.A.B.T.)\",\"route_type\":\"3\",\"route_type_name\":\"Bus\",\"route_color\":\"64748B\",\"route_text_color\":\"FFFFFF\"},{\"route_id\":\"38268\",\"route_short_name\":\"FAB11\",\"route_long_name\":\"New York (P.A.B.T.) -> Williamsport\",\"route_type\":\"3\",\"route_type_name\":\"Bus\",\"route_color\":\"64748B\",\"route_text_color\":\"FFFFFF\"}]"},"geometry":{"type":"Point","coordinates":[-76.863573,41.082628]}},{"type":"Feature","properties":{"stop_id":"8493","stop_code":"","stop_name":"State College (SCE - Airport)","stop_desc":"","zone_id":"","stop_url":"","location_type":"","parent_station":"","stop_timezone":"US/Eastern","wheelchair_boarding":"","platform_code":"","feed_id":"New_York__Fullington_Trailways__mdb_tld-5783","agency_name":"Fullington Trailways","route_count":4,"route_ids":"38277|38278|38273|38274","route_short_names":"FAB600|FAB605|FAB805|FAB815","route_types":"3","route_type_names":"Bus","routes_json":"[{\"route_id\":\"38277\",\"route_short_name\":\"FAB600\",\"route_long_name\":\"State College Airport -> Pittsburgh (Airport - PIT)\",\"route_type\":\"3\",\"route_type_name\":\"Bus\",\"route_color\":\"64748B\",\"route_text_color\":\"FFFFFF\"},{\"route_id\":\"38278\",\"route_short_name\":\"FAB605\",\"route_long_name\":\"Pittsburgh (Airport - PIT) -> State College Airport\",\"route_type\":\"3\",\"route_type_name\":\"Bus\",\"route_color\":\"64748B\",\"route_text_color\":\"FFFFFF\"},{\"route_id\":\"38273\",\"route_short_name\":\"FAB805\",\"route_long_name\":\"State College Airport -> Wilkes-Barre\",\"route_type\":\"3\",\"route_type_name\":\"Bus\",\"route_color\":\"64748B\",\"route_text_color\":\"FFFFFF\"},{\"route_id\":\"38274\",\"route_short_name\":\"FAB815\",\"route_long_name\":\"Wilkes-Barre -> State College (Bus Terminal)\",\"route_type\":\"3\",\"route_type_name\":\"Bus\",\"route_color\":\"64748B\",\"route_text_color\":\"FFFFFF\"}]"},"geometry":{"type":"Point","coordinates":[-77.852826,40.85149]}},{"type":"Feature","properties":{"stop_id":"1027","stop_code":"","stop_name":"Philipsburg","stop_desc":"","zone_id":"","stop_url":"","location_type":"","parent_station":"","stop_timezone":"US/Eastern","wheelchair_boarding":"","platform_code":"","feed_id":"New_York__Fullington_Trailways__mdb_tld-5783","agency_name":"Fullington Trailways","route_count":4,"route_ids":"38277|38278|4728|4727","route_short_names":"FAB600|FAB605|FAB610|FAB615","route_types":"3","route_type_names":"Bus","routes_json":"[{\"route_id\":\"38277\",\"route_short_name\":\"FAB600\",\"route_long_name\":\"State College Airport -> Pittsburgh (Airport - PIT)\",\"route_type\":\"3\",\"route_type_name\":\"Bus\",\"route_color\":\"64748B\",\"route_text_color\":\"FFFFFF\"},{\"route_id\":\"38278\",\"route_short_name\":\"FAB605\",\"route_long_name\":\"Pittsburgh (Airport - PIT) -> State College Airport\",\"route_type\":\"3\",\"route_type_name\":\"Bus\",\"route_color\":\"64748B\",\"route_text_color\":\"FFFFFF\"},{\"route_id\":\"4728\",\"route_short_name\":\"FAB610\",\"route_long_name\":\"State College (Bus Terminal) -> DuBois\",\"route_type\":\"3\",\"route_type_name\":\"Bus\",\"route_color\":\"64748B\",\"route_text_color\":\"FFFFFF\"},{\"route_id\":\"4727\",\"route_short_name\":\"FAB615\",\"route_long_name\":\"DuBois -> State College (Bus Terminal)\",\"route_type\":\"3\",\"route_type_name\":\"Bus\",\"route_color\":\"64748B\",\"route_text_color\":\"FFFFFF\"}]"},"geometry":{"type":"Point","coordinates":[-78.223463,40.901032]}},{"type":"Feature","properties":{"stop_id":"1028","stop_code":"","stop_name":"Clearfield","stop_desc":"","zone_id":"","stop_url":"","location_type":"","parent_station":"","stop_timezone":"US/Eastern","wheelchair_boarding":"","platform_code":"","feed_id":"New_York__Fullington_Trailways__mdb_tld-5783","agency_name":"Fullington Trailways","route_count":4,"route_ids":"38277|38278|4728|4727","route_short_names":"FAB600|FAB605|FAB610|FAB615","route_types":"3","route_type_names":"Bus","routes_json":"[{\"route_id\":\"38277\",\"route_short_name\":\"FAB600\",\"route_long_name\":\"State College Airport -> Pittsburgh (Airport - PIT)\",\"route_type\":\"3\",\"route_type_name\":\"Bus\",\"route_color\":\"64748B\",\"route_text_color\":\"FFFFFF\"},{\"route_id\":\"38278\",\"route_short_name\":\"FAB605\",\"route_long_name\":\"Pittsburgh (Airport - PIT) -> State College Airport\",\"route_type\":\"3\",\"route_type_name\":\"Bus\",\"route_color\":\"64748B\",\"route_text_color\":\"FFFFFF\"},{\"route_id\":\"4728\",\"route_short_name\":\"FAB610\",\"route_long_name\":\"State College (Bus Terminal) -> DuBois\",\"route_type\":\"3\",\"route_type_name\":\"Bus\",\"route_color\":\"64748B\",\"route_text_color\":\"FFFFFF\"},{\"route_id\":\"4727\",\"route_short_name\":\"FAB615\",\"route_long_name\":\"DuBois -> State College (Bus Terminal)\",\"route_type\":\"3\",\"route_type_name\":\"Bus\",\"route_color\":\"64748B\",\"route_text_color\":\"FFFFFF\"}]"},"geometry":{"type":"Point","coordinates":[-78.43536,41.02098]}},{"type":"Feature","properties":{"stop_id":"1035","stop_code":"","stop_name":"Monroeville","stop_desc":"","zone_id":"","stop_url":"","location_type":"","parent_station":"","stop_timezone":"US/Eastern","wheelchair_boarding":"","platform_code":"","feed_id":"New_York__Fullington_Trailways__mdb_tld-5783","agency_name":"Fullington Trailways","route_count":4,"route_ids":"38271|38272|38277|38278","route_short_names":"FAB510|FAB530|FAB600|FAB605","route_types":"3","route_type_names":"Bus","routes_json":"[{\"route_id\":\"38271\",\"route_short_name\":\"FAB510\",\"route_long_name\":\"Pittsburgh -> Buffalo (Downtown Bus Terminal)\",\"route_type\":\"3\",\"route_type_name\":\"Bus\",\"route_color\":\"64748B\",\"route_text_color\":\"FFFFFF\"},{\"route_id\":\"38272\",\"route_short_name\":\"FAB530\",\"route_long_name\":\"Buffalo (Downtown Bus Terminal) -> Pittsburgh\",\"route_type\":\"3\",\"route_type_name\":\"Bus\",\"route_color\":\"64748B\",\"route_text_color\":\"FFFFFF\"},{\"route_id\":\"38277\",\"route_short_name\":\"FAB600\",\"route_long_name\":\"State College Airport -> Pittsburgh (Airport - PIT)\",\"route_type\":\"3\",\"route_type_name\":\"Bus\",\"route_color\":\"64748B\",\"route_text_color\":\"FFFFFF\"},{\"route_id\":\"38278\",\"route_short_name\":\"FAB605\",\"route_long_name\":\"Pittsburgh (Airport - PIT) -> State College Airport\",\"route_type\":\"3\",\"route_type_name\":\"Bus\",\"route_color\":\"64748B\",\"route_text_color\":\"FFFFFF\"}]"},"geometry":{"type":"Point","coordinates":[-79.7614,40.4379]}},{"type":"Feature","properties":{"stop_id":"1037","stop_code":"","stop_name":"Pittsburgh (Airport)","stop_desc":"","zone_id":"","stop_url":"","location_type":"","parent_station":"","stop_timezone":"US/Eastern","wheelchair_boarding":"","platform_code":"","feed_id":"New_York__Fullington_Trailways__mdb_tld-5783","agency_name":"Fullington Trailways","route_count":2,"route_ids":"38277|38278","route_short_names":"FAB600|FAB605","route_types":"3","route_type_names":"Bus","routes_json":"[{\"route_id\":\"38277\",\"route_short_name\":\"FAB600\",\"route_long_name\":\"State College Airport -> Pittsburgh (Airport - PIT)\",\"route_type\":\"3\",\"route_type_name\":\"Bus\",\"route_color\":\"64748B\",\"route_text_color\":\"FFFFFF\"},{\"route_id\":\"38278\",\"route_short_name\":\"FAB605\",\"route_long_name\":\"Pittsburgh (Airport - PIT) -> State College Airport\",\"route_type\":\"3\",\"route_type_name\":\"Bus\",\"route_color\":\"64748B\",\"route_text_color\":\"FFFFFF\"}]"},"geometry":{"type":"Point","coordinates":[-79.9959,40.4406]}},{"type":"Feature","properties":{"stop_id":"1026","stop_code":"","stop_name":"State College (Bus Terminal)","stop_desc":"","zone_id":"","stop_url":"","location_type":"","parent_station":"","stop_timezone":"US/Eastern","wheelchair_boarding":"","platform_code":"","feed_id":"New_York__Fullington_Trailways__mdb_tld-5783","agency_name":"Fullington Trailways","route_count":6,"route_ids":"38277|38278|4728|4727|38273|38274","route_short_names":"FAB600|FAB605|FAB610|FAB615|FAB805|FAB815","route_types":"3","route_type_names":"Bus","routes_json":"[{\"route_id\":\"38277\",\"route_short_name\":\"FAB600\",\"route_long_name\":\"State College Airport -> Pittsburgh (Airport - PIT)\",\"route_type\":\"3\",\"route_type_name\":\"Bus\",\"route_color\":\"64748B\",\"route_text_color\":\"FFFFFF\"},{\"route_id\":\"38278\",\"route_short_name\":\"FAB605\",\"route_long_name\":\"Pittsburgh (Airport - PIT) -> State College Airport\",\"route_type\":\"3\",\"route_type_name\":\"Bus\",\"route_color\":\"64748B\",\"route_text_color\":\"FFFFFF\"},{\"route_id\":\"4728\",\"route_short_name\":\"FAB610\",\"route_long_name\":\"State College (Bus Terminal) -> DuBois\",\"route_type\":\"3\",\"route_type_name\":\"Bus\",\"route_color\":\"64748B\",\"route_text_color\":\"FFFFFF\"},{\"route_id\":\"4727\",\"route_short_name\":\"FAB615\",\"route_long_name\":\"DuBois -> State College (Bus Terminal)\",\"route_type\":\"3\",\"route_type_name\":\"Bus\",\"route_color\":\"64748B\",\"route_text_color\":\"FFFFFF\"},{\"route_id\":\"38273\",\"route_short_name\":\"FAB805\",\"route_long_name\":\"State College Airport -> Wilkes-Barre\",\"route_type\":\"3\",\"route_type_name\":\"Bus\",\"route_color\":\"64748B\",\"route_text_color\":\"FFFFFF\"},{\"route_id\":\"38274\",\"route_short_name\":\"FAB815\",\"route_long_name\":\"Wilkes-Barre -> State College (Bus Terminal)\",\"route_type\":\"3\",\"route_type_name\":\"Bus\",\"route_color\":\"64748B\",\"route_text_color\":\"FFFFFF\"}]"},"geometry":{"type":"Point","coordinates":[-77.866,40.7921]}},{"type":"Feature","properties":{"stop_id":"1052","stop_code":"","stop_name":"Bellefonte","stop_desc":"","zone_id":"","stop_url":"","location_type":"","parent_station":"","stop_timezone":"US/Eastern","wheelchair_boarding":"","platform_code":"","feed_id":"New_York__Fullington_Trailways__mdb_tld-5783","agency_name":"Fullington Trailways","route_count":2,"route_ids":"38273|38274","route_short_names":"FAB805|FAB815","route_types":"3","route_type_names":"Bus","routes_json":"[{\"route_id\":\"38273\",\"route_short_name\":\"FAB805\",\"route_long_name\":\"State College Airport -> Wilkes-Barre\",\"route_type\":\"3\",\"route_type_name\":\"Bus\",\"route_color\":\"64748B\",\"route_text_color\":\"FFFFFF\"},{\"route_id\":\"38274\",\"route_short_name\":\"FAB815\",\"route_long_name\":\"Wilkes-Barre -> State College (Bus Terminal)\",\"route_type\":\"3\",\"route_type_name\":\"Bus\",\"route_color\":\"64748B\",\"route_text_color\":\"FFFFFF\"}]"},"geometry":{"type":"Point","coordinates":[-77.7783,40.9134]}},{"type":"Feature","properties":{"stop_id":"1051","stop_code":"","stop_name":"Lock Haven","stop_desc":"","zone_id":"","stop_url":"","location_type":"","parent_station":"","stop_timezone":"US/Eastern","wheelchair_boarding":"","platform_code":"","feed_id":"New_York__Fullington_Trailways__mdb_tld-5783","agency_name":"Fullington Trailways","route_count":2,"route_ids":"38273|38274","route_short_names":"FAB805|FAB815","route_types":"3","route_type_names":"Bus","routes_json":"[{\"route_id\":\"38273\",\"route_short_name\":\"FAB805\",\"route_long_name\":\"State College Airport -> Wilkes-Barre\",\"route_type\":\"3\",\"route_type_name\":\"Bus\",\"route_color\":\"64748B\",\"route_text_color\":\"FFFFFF\"},{\"route_id\":\"38274\",\"route_short_name\":\"FAB815\",\"route_long_name\":\"Wilkes-Barre -> State College (Bus Terminal)\",\"route_type\":\"3\",\"route_type_name\":\"Bus\",\"route_color\":\"64748B\",\"route_text_color\":\"FFFFFF\"}]"},"geometry":{"type":"Point","coordinates":[-77.445682,41.130843]}},{"type":"Feature","properties":{"stop_id":"8542","stop_code":"","stop_name":"Williamsport Regional Airport","stop_desc":"","zone_id":"","stop_url":"","location_type":"","parent_station":"","stop_timezone":"US/Eastern","wheelchair_boarding":"","platform_code":"","feed_id":"New_York__Fullington_Trailways__mdb_tld-5783","agency_name":"Fullington Trailways","route_count":2,"route_ids":"38273|38274","route_short_names":"FAB805|FAB815","route_types":"3","route_type_names":"Bus","routes_json":"[{\"route_id\":\"38273\",\"route_short_name\":\"FAB805\",\"route_long_name\":\"State College Airport -> Wilkes-Barre\",\"route_type\":\"3\",\"route_type_name\":\"Bus\",\"route_color\":\"64748B\",\"route_text_color\":\"FFFFFF\"},{\"route_id\":\"38274\",\"route_short_name\":\"FAB815\",\"route_long_name\":\"Wilkes-Barre -> State College (Bus Terminal)\",\"route_type\":\"3\",\"route_type_name\":\"Bus\",\"route_color\":\"64748B\",\"route_text_color\":\"FFFFFF\"}]"},"geometry":{"type":"Point","coordinates":[-76.92192,41.2456]}},{"type":"Feature","properties":{"stop_id":"5549","stop_code":"","stop_name":"Hughesville","stop_desc":"","zone_id":"","stop_url":"","location_type":"","parent_station":"","stop_timezone":"US/Eastern","wheelchair_boarding":"","platform_code":"","feed_id":"New_York__Fullington_Trailways__mdb_tld-5783","agency_name":"Fullington Trailways","route_count":2,"route_ids":"38273|38274","route_short_names":"FAB805|FAB815","route_types":"3","route_type_names":"Bus","routes_json":"[{\"route_id\":\"38273\",\"route_short_name\":\"FAB805\",\"route_long_name\":\"State College Airport -> Wilkes-Barre\",\"route_type\":\"3\",\"route_type_name\":\"Bus\",\"route_color\":\"64748B\",\"route_text_color\":\"FFFFFF\"},{\"route_id\":\"38274\",\"route_short_name\":\"FAB815\",\"route_long_name\":\"Wilkes-Barre -> State College (Bus Terminal)\",\"route_type\":\"3\",\"route_type_name\":\"Bus\",\"route_color\":\"64748B\",\"route_text_color\":\"FFFFFF\"}]"},"geometry":{"type":"Point","coordinates":[-76.724427,41.241432]}},{"type":"Feature","properties":{"stop_id":"5551","stop_code":"","stop_name":"Dallas","stop_desc":"","zone_id":"","stop_url":"","location_type":"","parent_station":"","stop_timezone":"US/Eastern","wheelchair_boarding":"","platform_code":"","feed_id":"New_York__Fullington_Trailways__mdb_tld-5783","agency_name":"Fullington Trailways","route_count":2,"route_ids":"38273|38274","route_short_names":"FAB805|FAB815","route_types":"3","route_type_names":"Bus","routes_json":"[{\"route_id\":\"38273\",\"route_short_name\":\"FAB805\",\"route_long_name\":\"State College Airport -> Wilkes-Barre\",\"route_type\":\"3\",\"route_type_name\":\"Bus\",\"route_color\":\"64748B\",\"route_text_color\":\"FFFFFF\"},{\"route_id\":\"38274\",\"route_short_name\":\"FAB815\",\"route_long_name\":\"Wilkes-Barre -> State College (Bus Terminal)\",\"route_type\":\"3\",\"route_type_name\":\"Bus\",\"route_color\":\"64748B\",\"route_text_color\":\"FFFFFF\"}]"},"geometry":{"type":"Point","coordinates":[-75.970873,41.338519]}},{"type":"Feature","properties":{"stop_id":"5527","stop_code":"","stop_name":"New Buffalo (Amtrak)","stop_desc":"","zone_id":"","stop_url":"","location_type":"","parent_station":"","stop_timezone":"US/Eastern","wheelchair_boarding":"","platform_code":"","feed_id":"New_York__Fullington_Trailways__mdb_tld-5783","agency_name":"Fullington Trailways","route_count":2,"route_ids":"38275|38276","route_short_names":"FAB26|FAB29","route_types":"3","route_type_names":"Bus","routes_json":"[{\"route_id\":\"38275\",\"route_short_name\":\"FAB26\",\"route_long_name\":\"Williamsport -> Harrisburg\",\"route_type\":\"3\",\"route_type_name\":\"Bus\",\"route_color\":\"64748B\",\"route_text_color\":\"FFFFFF\"},{\"route_id\":\"38276\",\"route_short_name\":\"FAB29\",\"route_long_name\":\"Harrisburg -> Williamsport\",\"route_type\":\"3\",\"route_type_name\":\"Bus\",\"route_color\":\"64748B\",\"route_text_color\":\"FFFFFF\"}]"},"geometry":{"type":"Point","coordinates":[-76.98243,40.447646]}},{"type":"Feature","properties":{"stop_id":"5553","stop_code":"","stop_name":"Allentown","stop_desc":"","zone_id":"","stop_url":"","location_type":"","parent_station":"","stop_timezone":"US/Eastern","wheelchair_boarding":"","platform_code":"","feed_id":"New_York__Fullington_Trailways__mdb_tld-5783","agency_name":"Fullington Trailways","route_count":2,"route_ids":"39479|39480","route_short_names":"FAB20|FAB21","route_types":"3","route_type_names":"Bus","routes_json":"[{\"route_id\":\"39479\",\"route_short_name\":\"FAB20\",\"route_long_name\":\"Williamsport -> Philadelphia Express\",\"route_type\":\"3\",\"route_type_name\":\"Bus\",\"route_color\":\"64748B\",\"route_text_color\":\"FFFFFF\"},{\"route_id\":\"39480\",\"route_short_name\":\"FAB21\",\"route_long_name\":\"Philadelphia Express -> Williamsport\",\"route_type\":\"3\",\"route_type_name\":\"Bus\",\"route_color\":\"64748B\",\"route_text_color\":\"FFFFFF\"}]"},"geometry":{"type":"Point","coordinates":[-75.471536,40.604036]}},{"type":"Feature","properties":{"stop_id":"5554","stop_code":"","stop_name":"Quakertown","stop_desc":"","zone_id":"","stop_url":"","location_type":"","parent_station":"","stop_timezone":"US/Eastern","wheelchair_boarding":"","platform_code":"","feed_id":"New_York__Fullington_Trailways__mdb_tld-5783","agency_name":"Fullington Trailways","route_count":2,"route_ids":"39479|39480","route_short_names":"FAB20|FAB21","route_types":"3","route_type_names":"Bus","routes_json":"[{\"route_id\":\"39479\",\"route_short_name\":\"FAB20\",\"route_long_name\":\"Williamsport -> Philadelphia Express\",\"route_type\":\"3\",\"route_type_name\":\"Bus\",\"route_color\":\"64748B\",\"route_text_color\":\"FFFFFF\"},{\"route_id\":\"39480\",\"route_short_name\":\"FAB21\",\"route_long_name\":\"Philadelphia Express -> Williamsport\",\"route_type\":\"3\",\"route_type_name\":\"Bus\",\"route_color\":\"64748B\",\"route_text_color\":\"FFFFFF\"}]"},"geometry":{"type":"Point","coordinates":[-75.420579,40.433667]}},{"type":"Feature","properties":{"stop_id":"5552","stop_code":"","stop_name":"Philadelphia","stop_desc":"","zone_id":"","stop_url":"","location_type":"","parent_station":"","stop_timezone":"US/Eastern","wheelchair_boarding":"","platform_code":"","feed_id":"New_York__Fullington_Trailways__mdb_tld-5783","agency_name":"Fullington Trailways","route_count":2,"route_ids":"39479|39480","route_short_names":"FAB20|FAB21","route_types":"3","route_type_names":"Bus","routes_json":"[{\"route_id\":\"39479\",\"route_short_name\":\"FAB20\",\"route_long_name\":\"Williamsport -> Philadelphia Express\",\"route_type\":\"3\",\"route_type_name\":\"Bus\",\"route_color\":\"64748B\",\"route_text_color\":\"FFFFFF\"},{\"route_id\":\"39480\",\"route_short_name\":\"FAB21\",\"route_long_name\":\"Philadelphia Express -> Williamsport\",\"route_type\":\"3\",\"route_type_name\":\"Bus\",\"route_color\":\"64748B\",\"route_text_color\":\"FFFFFF\"}]"},"geometry":{"type":"Point","coordinates":[-75.15074,39.9507]}},{"type":"Feature","properties":{"stop_id":"5817","stop_code":"","stop_name":"Philadelphia (JFK & N 30th)","stop_desc":"","zone_id":"","stop_url":"","location_type":"","parent_station":"","stop_timezone":"US/Eastern","wheelchair_boarding":"","platform_code":"","feed_id":"New_York__Fullington_Trailways__mdb_tld-5783","agency_name":"Fullington Trailways","route_count":2,"route_ids":"39479|39480","route_short_names":"FAB20|FAB21","route_types":"3","route_type_names":"Bus","routes_json":"[{\"route_id\":\"39479\",\"route_short_name\":\"FAB20\",\"route_long_name\":\"Williamsport -> Philadelphia Express\",\"route_type\":\"3\",\"route_type_name\":\"Bus\",\"route_color\":\"64748B\",\"route_text_color\":\"FFFFFF\"},{\"route_id\":\"39480\",\"route_short_name\":\"FAB21\",\"route_long_name\":\"Philadelphia Express -> Williamsport\",\"route_type\":\"3\",\"route_type_name\":\"Bus\",\"route_color\":\"64748B\",\"route_text_color\":\"FFFFFF\"}]"},"geometry":{"type":"Point","coordinates":[-75.185632,39.956154]}},{"type":"Feature","properties":{"stop_id":"5538","stop_code":"","stop_name":"Newark (Amtrak)","stop_desc":"","zone_id":"","stop_url":"","location_type":"","parent_station":"","stop_timezone":"US/Eastern","wheelchair_boarding":"","platform_code":"","feed_id":"New_York__Fullington_Trailways__mdb_tld-5783","agency_name":"Fullington Trailways","route_count":2,"route_ids":"38267|38268","route_short_names":"FAB10|FAB11","route_types":"3","route_type_names":"Bus","routes_json":"[{\"route_id\":\"38267\",\"route_short_name\":\"FAB10\",\"route_long_name\":\"Williamsport -> New York (P.A.B.T.)\",\"route_type\":\"3\",\"route_type_name\":\"Bus\",\"route_color\":\"64748B\",\"route_text_color\":\"FFFFFF\"},{\"route_id\":\"38268\",\"route_short_name\":\"FAB11\",\"route_long_name\":\"New York (P.A.B.T.) -> Williamsport\",\"route_type\":\"3\",\"route_type_name\":\"Bus\",\"route_color\":\"64748B\",\"route_text_color\":\"FFFFFF\"}]"},"geometry":{"type":"Point","coordinates":[-74.164213,40.734467]}}]}