{"type":"FeatureCollection","features":[{"type":"Feature","properties":{"stop_id":"1","stop_code":"","stop_name":"Patriot's Point","stop_desc":"","zone_id":"","stop_url":"","location_type":"","parent_station":"","stop_timezone":"","wheelchair_boarding":"1","feed_id":"South_Carolina__Fort_Sumter_and_Fort_Moultrie_National_Historical_Park__mdb_tld-6906","agency_name":"National Park Service","route_count":1,"route_ids":"Patriot's Point-Fort Sumter","route_short_names":"","route_types":"4","route_type_names":"Ferry","routes_json":"[{\"route_id\":\"Patriot's Point-Fort Sumter\",\"route_short_name\":\"\",\"route_long_name\":\"Patriot's Point-Fort Sumter\",\"route_type\":\"4\",\"route_type_name\":\"Ferry\",\"route_color\":\"64748B\",\"route_text_color\":\"FFFFFF\"}]"},"geometry":{"type":"Point","coordinates":[-79.90626,32.79055]}},{"type":"Feature","properties":{"stop_id":"2","stop_code":"","stop_name":"Fort Sumter Visitor Center (Liberty Square)","stop_desc":"","zone_id":"","stop_url":"","location_type":"","parent_station":"","stop_timezone":"","wheelchair_boarding":"1","feed_id":"South_Carolina__Fort_Sumter_and_Fort_Moultrie_National_Historical_Park__mdb_tld-6906","agency_name":"National Park Service","route_count":1,"route_ids":"Liberty Square-Fort Sumter","route_short_names":"","route_types":"4","route_type_names":"Ferry","routes_json":"[{\"route_id\":\"Liberty Square-Fort Sumter\",\"route_short_name\":\"\",\"route_long_name\":\"Fort Sumter Visitor Center-Fort Sumter\",\"route_type\":\"4\",\"route_type_name\":\"Ferry\",\"route_color\":\"64748B\",\"route_text_color\":\"FFFFFF\"}]"},"geometry":{"type":"Point","coordinates":[-79.92477,32.79078]}},{"type":"Feature","properties":{"stop_id":"3","stop_code":"","stop_name":"Fort Sumter","stop_desc":"","zone_id":"","stop_url":"","location_type":"","parent_station":"","stop_timezone":"","wheelchair_boarding":"1","feed_id":"South_Carolina__Fort_Sumter_and_Fort_Moultrie_National_Historical_Park__mdb_tld-6906","agency_name":"National Park Service","route_count":2,"route_ids":"Liberty Square-Fort Sumter|Patriot's Point-Fort Sumter","route_short_names":"","route_types":"4","route_type_names":"Ferry","routes_json":"[{\"route_id\":\"Liberty Square-Fort Sumter\",\"route_short_name\":\"\",\"route_long_name\":\"Fort Sumter Visitor Center-Fort Sumter\",\"route_type\":\"4\",\"route_type_name\":\"Ferry\",\"route_color\":\"64748B\",\"route_text_color\":\"FFFFFF\"},{\"route_id\":\"Patriot's Point-Fort Sumter\",\"route_short_name\":\"\",\"route_long_name\":\"Patriot's Point-Fort Sumter\",\"route_type\":\"4\",\"route_type_name\":\"Ferry\",\"route_color\":\"64748B\",\"route_text_color\":\"FFFFFF\"}]"},"geometry":{"type":"Point","coordinates":[-79.87539,32.75348]}}]}