{"type":"FeatureCollection","features":[{"type":"Feature","properties":{"stop_id":"2755044","stop_code":"","platform_code":"","stop_name":"Chewelah Safeway","stop_desc":"","zone_id":"","stop_url":"","location_type":"0","parent_station":"","stop_timezone":"America/Los_Angeles","position":"","direction":"","wheelchair_boarding":"0","tts_stop_name":"","feed_id":"Washington__Rural_Resources_Community_Action__mdb_tld-5751","agency_name":"Rural Resources Community Action","route_count":1,"route_ids":"19755","route_short_names":"","route_types":"3","route_type_names":"Bus","routes_json":"[{\"route_id\":\"19755\",\"route_short_name\":\"\",\"route_long_name\":\"CoIviIIe - Chewelah\",\"route_type\":\"3\",\"route_type_name\":\"Bus\",\"route_color\":\"005521\",\"route_text_color\":\"FFFFFF\"}]"},"geometry":{"type":"Point","coordinates":[-117.7156492263591,48.279176285660384]}},{"type":"Feature","properties":{"stop_id":"2755045","stop_code":"","platform_code":"","stop_name":"Colville Walmart","stop_desc":"","zone_id":"","stop_url":"","location_type":"0","parent_station":"","stop_timezone":"America/Los_Angeles","position":"","direction":"","wheelchair_boarding":"0","tts_stop_name":"","feed_id":"Washington__Rural_Resources_Community_Action__mdb_tld-5751","agency_name":"Rural Resources Community Action","route_count":1,"route_ids":"19754","route_short_names":"","route_types":"3","route_type_names":"Bus","routes_json":"[{\"route_id\":\"19754\",\"route_short_name\":\"\",\"route_long_name\":\"Colville - Kettle Falls\",\"route_type\":\"3\",\"route_type_name\":\"Bus\",\"route_color\":\"005521\",\"route_text_color\":\"FFFFFF\"}]"},"geometry":{"type":"Point","coordinates":[-117.915837942,48.553385406]}},{"type":"Feature","properties":{"stop_id":"2755046","stop_code":"","platform_code":"","stop_name":"Kettle Falls Harvest Foods","stop_desc":"","zone_id":"","stop_url":"","location_type":"0","parent_station":"","stop_timezone":"America/Los_Angeles","position":"","direction":"","wheelchair_boarding":"0","tts_stop_name":"","feed_id":"Washington__Rural_Resources_Community_Action__mdb_tld-5751","agency_name":"Rural Resources Community Action","route_count":1,"route_ids":"19754","route_short_names":"","route_types":"3","route_type_names":"Bus","routes_json":"[{\"route_id\":\"19754\",\"route_short_name\":\"\",\"route_long_name\":\"Colville - Kettle Falls\",\"route_type\":\"3\",\"route_type_name\":\"Bus\",\"route_color\":\"005521\",\"route_text_color\":\"FFFFFF\"}]"},"geometry":{"type":"Point","coordinates":[-118.058291054,48.611346938]}},{"type":"Feature","properties":{"stop_id":"2755047","stop_code":"","platform_code":"","stop_name":"Kettle Falls Chevron","stop_desc":"","zone_id":"","stop_url":"","location_type":"0","parent_station":"","stop_timezone":"America/Los_Angeles","position":"","direction":"","wheelchair_boarding":"0","tts_stop_name":"","feed_id":"Washington__Rural_Resources_Community_Action__mdb_tld-5751","agency_name":"Rural Resources Community Action","route_count":1,"route_ids":"19754","route_short_names":"","route_types":"3","route_type_names":"Bus","routes_json":"[{\"route_id\":\"19754\",\"route_short_name\":\"\",\"route_long_name\":\"Colville - Kettle Falls\",\"route_type\":\"3\",\"route_type_name\":\"Bus\",\"route_color\":\"005521\",\"route_text_color\":\"FFFFFF\"}]"},"geometry":{"type":"Point","coordinates":[-118.07231113944071,48.6079143060075]}},{"type":"Feature","properties":{"stop_id":"2755048","stop_code":"","platform_code":"","stop_name":"Three Rivers Ranger Station","stop_desc":"","zone_id":"","stop_url":"","location_type":"0","parent_station":"","stop_timezone":"America/Los_Angeles","position":"","direction":"","wheelchair_boarding":"0","tts_stop_name":"","feed_id":"Washington__Rural_Resources_Community_Action__mdb_tld-5751","agency_name":"Rural Resources Community Action","route_count":1,"route_ids":"19754","route_short_names":"","route_types":"3","route_type_names":"Bus","routes_json":"[{\"route_id\":\"19754\",\"route_short_name\":\"\",\"route_long_name\":\"Colville - Kettle Falls\",\"route_type\":\"3\",\"route_type_name\":\"Bus\",\"route_color\":\"005521\",\"route_text_color\":\"FFFFFF\"}]"},"geometry":{"type":"Point","coordinates":[-118.058223559,48.602568428]}},{"type":"Feature","properties":{"stop_id":"2755049","stop_code":"","platform_code":"","stop_name":"Spokane Community College - Colville","stop_desc":"","zone_id":"","stop_url":"","location_type":"0","parent_station":"","stop_timezone":"America/Los_Angeles","position":"","direction":"","wheelchair_boarding":"0","tts_stop_name":"","feed_id":"Washington__Rural_Resources_Community_Action__mdb_tld-5751","agency_name":"Rural Resources Community Action","route_count":2,"route_ids":"19755|19754","route_short_names":"","route_types":"3","route_type_names":"Bus","routes_json":"[{\"route_id\":\"19755\",\"route_short_name\":\"\",\"route_long_name\":\"CoIviIIe - Chewelah\",\"route_type\":\"3\",\"route_type_name\":\"Bus\",\"route_color\":\"005521\",\"route_text_color\":\"FFFFFF\"},{\"route_id\":\"19754\",\"route_short_name\":\"\",\"route_long_name\":\"Colville - Kettle Falls\",\"route_type\":\"3\",\"route_type_name\":\"Bus\",\"route_color\":\"005521\",\"route_text_color\":\"FFFFFF\"}]"},"geometry":{"type":"Point","coordinates":[-117.901344366,48.53568155]}},{"type":"Feature","properties":{"stop_id":"2755050","stop_code":"","platform_code":"","stop_name":"Rural Resources Office (South Town Plaza)","stop_desc":"","zone_id":"","stop_url":"","location_type":"0","parent_station":"","stop_timezone":"America/Los_Angeles","position":"","direction":"","wheelchair_boarding":"0","tts_stop_name":"","feed_id":"Washington__Rural_Resources_Community_Action__mdb_tld-5751","agency_name":"Rural Resources Community Action","route_count":2,"route_ids":"19755|19754","route_short_names":"","route_types":"3","route_type_names":"Bus","routes_json":"[{\"route_id\":\"19755\",\"route_short_name\":\"\",\"route_long_name\":\"CoIviIIe - Chewelah\",\"route_type\":\"3\",\"route_type_name\":\"Bus\",\"route_color\":\"005521\",\"route_text_color\":\"FFFFFF\"},{\"route_id\":\"19754\",\"route_short_name\":\"\",\"route_long_name\":\"Colville - Kettle Falls\",\"route_type\":\"3\",\"route_type_name\":\"Bus\",\"route_color\":\"005521\",\"route_text_color\":\"FFFFFF\"}]"},"geometry":{"type":"Point","coordinates":[-117.908520974,48.536030351]}},{"type":"Feature","properties":{"stop_id":"2755051","stop_code":"","platform_code":"","stop_name":"Stevens County District Court","stop_desc":"","zone_id":"","stop_url":"","location_type":"0","parent_station":"","stop_timezone":"America/Los_Angeles","position":"","direction":"","wheelchair_boarding":"0","tts_stop_name":"","feed_id":"Washington__Rural_Resources_Community_Action__mdb_tld-5751","agency_name":"Rural Resources Community Action","route_count":1,"route_ids":"19754","route_short_names":"","route_types":"3","route_type_names":"Bus","routes_json":"[{\"route_id\":\"19754\",\"route_short_name\":\"\",\"route_long_name\":\"Colville - Kettle Falls\",\"route_type\":\"3\",\"route_type_name\":\"Bus\",\"route_color\":\"005521\",\"route_text_color\":\"FFFFFF\"}]"},"geometry":{"type":"Point","coordinates":[-117.904244891,48.54309276]}},{"type":"Feature","properties":{"stop_id":"2755052","stop_code":"","platform_code":"","stop_name":"Kettle Falls Columbia River Christian Academy","stop_desc":"","zone_id":"","stop_url":"","location_type":"0","parent_station":"","stop_timezone":"America/Los_Angeles","position":"","direction":"","wheelchair_boarding":"0","tts_stop_name":"","feed_id":"Washington__Rural_Resources_Community_Action__mdb_tld-5751","agency_name":"Rural Resources Community Action","route_count":1,"route_ids":"19754","route_short_names":"","route_types":"3","route_type_names":"Bus","routes_json":"[{\"route_id\":\"19754\",\"route_short_name\":\"\",\"route_long_name\":\"Colville - Kettle Falls\",\"route_type\":\"3\",\"route_type_name\":\"Bus\",\"route_color\":\"005521\",\"route_text_color\":\"FFFFFF\"}]"},"geometry":{"type":"Point","coordinates":[-118.0962216,48.613958966]}},{"type":"Feature","properties":{"stop_id":"2755053","stop_code":"","platform_code":"","stop_name":"Mistequa Casino & Hotel","stop_desc":"","zone_id":"","stop_url":"","location_type":"0","parent_station":"","stop_timezone":"America/Los_Angeles","position":"","direction":"","wheelchair_boarding":"0","tts_stop_name":"","feed_id":"Washington__Rural_Resources_Community_Action__mdb_tld-5751","agency_name":"Rural Resources Community Action","route_count":1,"route_ids":"19755","route_short_names":"","route_types":"3","route_type_names":"Bus","routes_json":"[{\"route_id\":\"19755\",\"route_short_name\":\"\",\"route_long_name\":\"CoIviIIe - Chewelah\",\"route_type\":\"3\",\"route_type_name\":\"Bus\",\"route_color\":\"005521\",\"route_text_color\":\"FFFFFF\"}]"},"geometry":{"type":"Point","coordinates":[-117.710822529,48.237788418]}},{"type":"Feature","properties":{"stop_id":"2755054","stop_code":"","platform_code":"","stop_name":"Blue Creek Mercantile","stop_desc":"","zone_id":"","stop_url":"","location_type":"0","parent_station":"","stop_timezone":"America/Los_Angeles","position":"","direction":"","wheelchair_boarding":"0","tts_stop_name":"","feed_id":"Washington__Rural_Resources_Community_Action__mdb_tld-5751","agency_name":"Rural Resources Community Action","route_count":1,"route_ids":"19755","route_short_names":"","route_types":"3","route_type_names":"Bus","routes_json":"[{\"route_id\":\"19755\",\"route_short_name\":\"\",\"route_long_name\":\"CoIviIIe - Chewelah\",\"route_type\":\"3\",\"route_type_name\":\"Bus\",\"route_color\":\"005521\",\"route_text_color\":\"FFFFFF\"}]"},"geometry":{"type":"Point","coordinates":[-117.8216750091472,48.31848017817481]}},{"type":"Feature","properties":{"stop_id":"2755055","stop_code":"","platform_code":"","stop_name":"Addy Thrift Store","stop_desc":"","zone_id":"","stop_url":"","location_type":"0","parent_station":"","stop_timezone":"America/Los_Angeles","position":"","direction":"","wheelchair_boarding":"0","tts_stop_name":"","feed_id":"Washington__Rural_Resources_Community_Action__mdb_tld-5751","agency_name":"Rural Resources Community Action","route_count":1,"route_ids":"19755","route_short_names":"","route_types":"3","route_type_names":"Bus","routes_json":"[{\"route_id\":\"19755\",\"route_short_name\":\"\",\"route_long_name\":\"CoIviIIe - Chewelah\",\"route_type\":\"3\",\"route_type_name\":\"Bus\",\"route_color\":\"005521\",\"route_text_color\":\"FFFFFF\"}]"},"geometry":{"type":"Point","coordinates":[-117.834458651138,48.35695508420315]}},{"type":"Feature","properties":{"stop_id":"2755056","stop_code":"","platform_code":"","stop_name":"Colville Safeway","stop_desc":"","zone_id":"","stop_url":"","location_type":"0","parent_station":"","stop_timezone":"America/Los_Angeles","position":"","direction":"","wheelchair_boarding":"0","tts_stop_name":"","feed_id":"Washington__Rural_Resources_Community_Action__mdb_tld-5751","agency_name":"Rural Resources Community Action","route_count":1,"route_ids":"19754","route_short_names":"","route_types":"3","route_type_names":"Bus","routes_json":"[{\"route_id\":\"19754\",\"route_short_name\":\"\",\"route_long_name\":\"Colville - Kettle Falls\",\"route_type\":\"3\",\"route_type_name\":\"Bus\",\"route_color\":\"005521\",\"route_text_color\":\"FFFFFF\"}]"},"geometry":{"type":"Point","coordinates":[-117.907095254,48.547810162]}},{"type":"Feature","properties":{"stop_id":"2755057","stop_code":"","platform_code":"","stop_name":"Colville - S Main St & E Astor Ave","stop_desc":"","zone_id":"","stop_url":"","location_type":"0","parent_station":"","stop_timezone":"America/Los_Angeles","position":"","direction":"","wheelchair_boarding":"0","tts_stop_name":"","feed_id":"Washington__Rural_Resources_Community_Action__mdb_tld-5751","agency_name":"Rural Resources Community Action","route_count":1,"route_ids":"19754","route_short_names":"","route_types":"3","route_type_names":"Bus","routes_json":"[{\"route_id\":\"19754\",\"route_short_name\":\"\",\"route_long_name\":\"Colville - Kettle Falls\",\"route_type\":\"3\",\"route_type_name\":\"Bus\",\"route_color\":\"005521\",\"route_text_color\":\"FFFFFF\"}]"},"geometry":{"type":"Point","coordinates":[-117.905996519,48.543457717]}}]}