{"type":"FeatureCollection","features":[{"type":"Feature","properties":{"stop_id":"Bashas","stop_code":"","stop_name":"Bashas","stop_desc":"","zone_id":"","stop_url":"","location_type":"","parent_station":"","stop_timezone":"","wheelchair_boarding":"","platform_code":"","feed_id":"Arizona__Maricopa_Express_Transit__mdb_tld-6743","agency_name":"Maricopa Express Transit","route_count":1,"route_ids":"Rt1","route_short_names":"","route_types":"3","route_type_names":"Bus","routes_json":"[{\"route_id\":\"Rt1\",\"route_short_name\":\"\",\"route_long_name\":\"Maricopa Local Circulator\",\"route_type\":\"3\",\"route_type_name\":\"Bus\",\"route_color\":\"990033\",\"route_text_color\":\"FFFFFF\"}]"},"geometry":{"type":"Point","coordinates":[-112.046366,33.070914]}},{"type":"Feature","properties":{"stop_id":"copper","stop_code":"","stop_name":"Copper Sky","stop_desc":"","zone_id":"","stop_url":"","location_type":"","parent_station":"","stop_timezone":"","wheelchair_boarding":"","platform_code":"","feed_id":"Arizona__Maricopa_Express_Transit__mdb_tld-6743","agency_name":"Maricopa Express Transit","route_count":1,"route_ids":"Rt1","route_short_names":"","route_types":"3","route_type_names":"Bus","routes_json":"[{\"route_id\":\"Rt1\",\"route_short_name\":\"\",\"route_long_name\":\"Maricopa Local Circulator\",\"route_type\":\"3\",\"route_type_name\":\"Bus\",\"route_color\":\"990033\",\"route_text_color\":\"FFFFFF\"}]"},"geometry":{"type":"Point","coordinates":[-112.043879,33.041546]}},{"type":"Feature","properties":{"stop_id":"sun","stop_code":"","stop_name":"Sun Life","stop_desc":"","zone_id":"","stop_url":"","location_type":"","parent_station":"","stop_timezone":"","wheelchair_boarding":"","platform_code":"","feed_id":"Arizona__Maricopa_Express_Transit__mdb_tld-6743","agency_name":"Maricopa Express Transit","route_count":1,"route_ids":"Rt1","route_short_names":"","route_types":"3","route_type_names":"Bus","routes_json":"[{\"route_id\":\"Rt1\",\"route_short_name\":\"\",\"route_long_name\":\"Maricopa Local Circulator\",\"route_type\":\"3\",\"route_type_name\":\"Bus\",\"route_color\":\"990033\",\"route_text_color\":\"FFFFFF\"}]"},"geometry":{"type":"Point","coordinates":[-112.046706,33.044412]}},{"type":"Feature","properties":{"stop_id":"Copa Flats","stop_code":"","stop_name":"Copa Flats","stop_desc":"","zone_id":"","stop_url":"","location_type":"","parent_station":"","stop_timezone":"","wheelchair_boarding":"","platform_code":"","feed_id":"Arizona__Maricopa_Express_Transit__mdb_tld-6743","agency_name":"Maricopa Express Transit","route_count":1,"route_ids":"Rt1","route_short_names":"","route_types":"3","route_type_names":"Bus","routes_json":"[{\"route_id\":\"Rt1\",\"route_short_name\":\"\",\"route_long_name\":\"Maricopa Local Circulator\",\"route_type\":\"3\",\"route_type_name\":\"Bus\",\"route_color\":\"990033\",\"route_text_color\":\"FFFFFF\"}]"},"geometry":{"type":"Point","coordinates":[-112.012407,33.037293]}},{"type":"Feature","properties":{"stop_id":"Shea Way","stop_code":"","stop_name":"Shea Way","stop_desc":"","zone_id":"","stop_url":"","location_type":"","parent_station":"","stop_timezone":"","wheelchair_boarding":"","platform_code":"","feed_id":"Arizona__Maricopa_Express_Transit__mdb_tld-6743","agency_name":"Maricopa Express Transit","route_count":1,"route_ids":"Rt1","route_short_names":"","route_types":"3","route_type_names":"Bus","routes_json":"[{\"route_id\":\"Rt1\",\"route_short_name\":\"\",\"route_long_name\":\"Maricopa Local Circulator\",\"route_type\":\"3\",\"route_type_name\":\"Bus\",\"route_color\":\"990033\",\"route_text_color\":\"FFFFFF\"}]"},"geometry":{"type":"Point","coordinates":[-112.013626,33.041177]}},{"type":"Feature","properties":{"stop_id":"cac","stop_code":"","stop_name":"CAC","stop_desc":"","zone_id":"","stop_url":"","location_type":"","parent_station":"","stop_timezone":"","wheelchair_boarding":"","platform_code":"","feed_id":"Arizona__Maricopa_Express_Transit__mdb_tld-6743","agency_name":"Maricopa Express Transit","route_count":1,"route_ids":"Rt1","route_short_names":"","route_types":"3","route_type_names":"Bus","routes_json":"[{\"route_id\":\"Rt1\",\"route_short_name\":\"\",\"route_long_name\":\"Maricopa Local Circulator\",\"route_type\":\"3\",\"route_type_name\":\"Bus\",\"route_color\":\"990033\",\"route_text_color\":\"FFFFFF\"}]"},"geometry":{"type":"Point","coordinates":[-112.003629,33.041902]}},{"type":"Feature","properties":{"stop_id":"Library","stop_code":"","stop_name":"Maricopa Library","stop_desc":"","zone_id":"","stop_url":"","location_type":"","parent_station":"","stop_timezone":"","wheelchair_boarding":"","platform_code":"","feed_id":"Arizona__Maricopa_Express_Transit__mdb_tld-6743","agency_name":"Maricopa Express Transit","route_count":1,"route_ids":"Rt1","route_short_names":"","route_types":"3","route_type_names":"Bus","routes_json":"[{\"route_id\":\"Rt1\",\"route_short_name\":\"\",\"route_long_name\":\"Maricopa Local Circulator\",\"route_type\":\"3\",\"route_type_name\":\"Bus\",\"route_color\":\"990033\",\"route_text_color\":\"FFFFFF\"}]"},"geometry":{"type":"Point","coordinates":[-111.994399,33.044808]}},{"type":"Feature","properties":{"stop_id":"Community Center","stop_code":"","stop_name":"Community Center","stop_desc":"","zone_id":"","stop_url":"","location_type":"","parent_station":"","stop_timezone":"","wheelchair_boarding":"","platform_code":"","feed_id":"Arizona__Maricopa_Express_Transit__mdb_tld-6743","agency_name":"Maricopa Express Transit","route_count":1,"route_ids":"Rt1","route_short_names":"","route_types":"3","route_type_names":"Bus","routes_json":"[{\"route_id\":\"Rt1\",\"route_short_name\":\"\",\"route_long_name\":\"Maricopa Local Circulator\",\"route_type\":\"3\",\"route_type_name\":\"Bus\",\"route_color\":\"990033\",\"route_text_color\":\"FFFFFF\"}]"},"geometry":{"type":"Point","coordinates":[-112.014896,33.074093]}},{"type":"Feature","properties":{"stop_id":"Planet Fitness","stop_code":"","stop_name":"Planet Fitness","stop_desc":"","zone_id":"","stop_url":"","location_type":"","parent_station":"","stop_timezone":"","wheelchair_boarding":"","platform_code":"","feed_id":"Arizona__Maricopa_Express_Transit__mdb_tld-6743","agency_name":"Maricopa Express Transit","route_count":1,"route_ids":"Rt1","route_short_names":"","route_types":"3","route_type_names":"Bus","routes_json":"[{\"route_id\":\"Rt1\",\"route_short_name\":\"\",\"route_long_name\":\"Maricopa Local Circulator\",\"route_type\":\"3\",\"route_type_name\":\"Bus\",\"route_color\":\"990033\",\"route_text_color\":\"FFFFFF\"}]"},"geometry":{"type":"Point","coordinates":[-112.044778,33.06697]}},{"type":"Feature","properties":{"stop_id":"PP","stop_code":"","stop_name":"Pacana Park","stop_desc":"","zone_id":"","stop_url":"","location_type":"","parent_station":"","stop_timezone":"","wheelchair_boarding":"","platform_code":"","feed_id":"Arizona__Maricopa_Express_Transit__mdb_tld-6743","agency_name":"Maricopa Express Transit","route_count":1,"route_ids":"Rt1","route_short_names":"","route_types":"3","route_type_names":"Bus","routes_json":"[{\"route_id\":\"Rt1\",\"route_short_name\":\"\",\"route_long_name\":\"Maricopa Local Circulator\",\"route_type\":\"3\",\"route_type_name\":\"Bus\",\"route_color\":\"990033\",\"route_text_color\":\"FFFFFF\"}]"},"geometry":{"type":"Point","coordinates":[-112.015,33.05266]}}]}