{"type":"FeatureCollection","features":[{"type":"Feature","properties":{"stop_id":"1","stop_code":"1","stop_name":"Lindenwold","stop_desc":"","zone_id":"1","stop_url":"https://www.ridepatco.org/stations/lindenwold.asp","location_type":"0","parent_station":"","stop_timezone":"","wheelchair_boarding":"1","platform_code":"","feed_id":"Pennsylvania__PATCO_Speedline__mdb_mdb-3035","agency_name":"Port Authority Transit Corporation","route_count":1,"route_ids":"2","route_short_names":"PATCO","route_types":"1","route_type_names":"Subway/Metro","routes_json":"[{\"route_id\":\"2\",\"route_short_name\":\"PATCO\",\"route_long_name\":\"High Speed Line\",\"route_type\":\"1\",\"route_type_name\":\"Subway/Metro\",\"route_color\":\"BC0035\",\"route_text_color\":\"FFFFFF\"}]","metadata_feed_id":"Pennsylvania__PATCO_Speedline__mdb_mdb-3035","metadata_agency_names":"Port Authority Transit Corporation","metadata_ntd_id":"31041","metadata_ntd_match_method":"manual_override","metadata_ntd_agency":"County of Butler, dba: Butler Area Rural Transit","metadata_ntd_city":"Butler","metadata_ntd_state":"PA","metadata_gtfs_route_count":1,"metadata_gtfs_trip_count":799,"metadata_gtfs_shape_count":2,"metadata_gtfs_stop_count":14,"metadata_ntd_agency_voms":18,"metadata_ntd_total_facilities":0,"metadata_ntd_maintenance_facilities":0,"metadata_ntd_passenger_stations":0,"metadata_tam_tier":"Tier II","metadata_route_types_json":"{\"1\":1}","metadata_ntd_facilities_json":"{\"maintenance_facilities\":0,\"administrative_and_other_non_passenger_facilities\":0,\"passenger_stations_and_terminals\":0,\"parking_and_other_passenger_facilities\":0,\"total_facilities\":0,\"bus_transfer_centers\":null,\"elevated_fixed_guideway_stations\":null,\"at_grade_fixed_guideway_stations\":null,\"underground_fixed_guideway_stations\":null,\"simple_at_grade_platform_stations\":null,\"exclusive_grade_separated_platform_stations\":null,\"ferryboat_terminals\":null,\"surface_parking_lots\":null,\"parking_structures\":null}","metadata_tam_modes_json":"{\"DR\":{\"total_units_2024\":20,\"units_under_threshold_2024\":12,\"voms_2024\":36,\"total_modal_vrm_2024\":269546,\"total_modal_upt_2024\":43906}}"},"geometry":{"type":"Point","coordinates":[-75.000664,39.833962]}},{"type":"Feature","properties":{"stop_id":"2","stop_code":"2","stop_name":"Ashland","stop_desc":"","zone_id":"1","stop_url":"https://www.ridepatco.org/stations/ashland.asp","location_type":"0","parent_station":"","stop_timezone":"","wheelchair_boarding":"1","platform_code":"","feed_id":"Pennsylvania__PATCO_Speedline__mdb_mdb-3035","agency_name":"Port Authority Transit Corporation","route_count":1,"route_ids":"2","route_short_names":"PATCO","route_types":"1","route_type_names":"Subway/Metro","routes_json":"[{\"route_id\":\"2\",\"route_short_name\":\"PATCO\",\"route_long_name\":\"High Speed Line\",\"route_type\":\"1\",\"route_type_name\":\"Subway/Metro\",\"route_color\":\"BC0035\",\"route_text_color\":\"FFFFFF\"}]","metadata_feed_id":"Pennsylvania__PATCO_Speedline__mdb_mdb-3035","metadata_agency_names":"Port Authority Transit Corporation","metadata_ntd_id":"31041","metadata_ntd_match_method":"manual_override","metadata_ntd_agency":"County of Butler, dba: Butler Area Rural Transit","metadata_ntd_city":"Butler","metadata_ntd_state":"PA","metadata_gtfs_route_count":1,"metadata_gtfs_trip_count":799,"metadata_gtfs_shape_count":2,"metadata_gtfs_stop_count":14,"metadata_ntd_agency_voms":18,"metadata_ntd_total_facilities":0,"metadata_ntd_maintenance_facilities":0,"metadata_ntd_passenger_stations":0,"metadata_tam_tier":"Tier II","metadata_route_types_json":"{\"1\":1}","metadata_ntd_facilities_json":"{\"maintenance_facilities\":0,\"administrative_and_other_non_passenger_facilities\":0,\"passenger_stations_and_terminals\":0,\"parking_and_other_passenger_facilities\":0,\"total_facilities\":0,\"bus_transfer_centers\":null,\"elevated_fixed_guideway_stations\":null,\"at_grade_fixed_guideway_stations\":null,\"underground_fixed_guideway_stations\":null,\"simple_at_grade_platform_stations\":null,\"exclusive_grade_separated_platform_stations\":null,\"ferryboat_terminals\":null,\"surface_parking_lots\":null,\"parking_structures\":null}","metadata_tam_modes_json":"{\"DR\":{\"total_units_2024\":20,\"units_under_threshold_2024\":12,\"voms_2024\":36,\"total_modal_vrm_2024\":269546,\"total_modal_upt_2024\":43906}}"},"geometry":{"type":"Point","coordinates":[-75.00921,39.858705]}},{"type":"Feature","properties":{"stop_id":"3","stop_code":"3","stop_name":"Woodcrest","stop_desc":"","zone_id":"1","stop_url":"https://www.ridepatco.org/stations/woodcrest.asp","location_type":"0","parent_station":"","stop_timezone":"","wheelchair_boarding":"1","platform_code":"","feed_id":"Pennsylvania__PATCO_Speedline__mdb_mdb-3035","agency_name":"Port Authority Transit Corporation","route_count":1,"route_ids":"2","route_short_names":"PATCO","route_types":"1","route_type_names":"Subway/Metro","routes_json":"[{\"route_id\":\"2\",\"route_short_name\":\"PATCO\",\"route_long_name\":\"High Speed Line\",\"route_type\":\"1\",\"route_type_name\":\"Subway/Metro\",\"route_color\":\"BC0035\",\"route_text_color\":\"FFFFFF\"}]","metadata_feed_id":"Pennsylvania__PATCO_Speedline__mdb_mdb-3035","metadata_agency_names":"Port Authority Transit Corporation","metadata_ntd_id":"31041","metadata_ntd_match_method":"manual_override","metadata_ntd_agency":"County of Butler, dba: Butler Area Rural Transit","metadata_ntd_city":"Butler","metadata_ntd_state":"PA","metadata_gtfs_route_count":1,"metadata_gtfs_trip_count":799,"metadata_gtfs_shape_count":2,"metadata_gtfs_stop_count":14,"metadata_ntd_agency_voms":18,"metadata_ntd_total_facilities":0,"metadata_ntd_maintenance_facilities":0,"metadata_ntd_passenger_stations":0,"metadata_tam_tier":"Tier II","metadata_route_types_json":"{\"1\":1}","metadata_ntd_facilities_json":"{\"maintenance_facilities\":0,\"administrative_and_other_non_passenger_facilities\":0,\"passenger_stations_and_terminals\":0,\"parking_and_other_passenger_facilities\":0,\"total_facilities\":0,\"bus_transfer_centers\":null,\"elevated_fixed_guideway_stations\":null,\"at_grade_fixed_guideway_stations\":null,\"underground_fixed_guideway_stations\":null,\"simple_at_grade_platform_stations\":null,\"exclusive_grade_separated_platform_stations\":null,\"ferryboat_terminals\":null,\"surface_parking_lots\":null,\"parking_structures\":null}","metadata_tam_modes_json":"{\"DR\":{\"total_units_2024\":20,\"units_under_threshold_2024\":12,\"voms_2024\":36,\"total_modal_vrm_2024\":269546,\"total_modal_upt_2024\":43906}}"},"geometry":{"type":"Point","coordinates":[-75.011242,39.870263]}},{"type":"Feature","properties":{"stop_id":"4","stop_code":"4","stop_name":"Haddonfield","stop_desc":"","zone_id":"2","stop_url":"https://www.ridepatco.org/stations/haddonfield.asp","location_type":"0","parent_station":"","stop_timezone":"","wheelchair_boarding":"1","platform_code":"","feed_id":"Pennsylvania__PATCO_Speedline__mdb_mdb-3035","agency_name":"Port Authority Transit Corporation","route_count":1,"route_ids":"2","route_short_names":"PATCO","route_types":"1","route_type_names":"Subway/Metro","routes_json":"[{\"route_id\":\"2\",\"route_short_name\":\"PATCO\",\"route_long_name\":\"High Speed Line\",\"route_type\":\"1\",\"route_type_name\":\"Subway/Metro\",\"route_color\":\"BC0035\",\"route_text_color\":\"FFFFFF\"}]","metadata_feed_id":"Pennsylvania__PATCO_Speedline__mdb_mdb-3035","metadata_agency_names":"Port Authority Transit Corporation","metadata_ntd_id":"31041","metadata_ntd_match_method":"manual_override","metadata_ntd_agency":"County of Butler, dba: Butler Area Rural Transit","metadata_ntd_city":"Butler","metadata_ntd_state":"PA","metadata_gtfs_route_count":1,"metadata_gtfs_trip_count":799,"metadata_gtfs_shape_count":2,"metadata_gtfs_stop_count":14,"metadata_ntd_agency_voms":18,"metadata_ntd_total_facilities":0,"metadata_ntd_maintenance_facilities":0,"metadata_ntd_passenger_stations":0,"metadata_tam_tier":"Tier II","metadata_route_types_json":"{\"1\":1}","metadata_ntd_facilities_json":"{\"maintenance_facilities\":0,\"administrative_and_other_non_passenger_facilities\":0,\"passenger_stations_and_terminals\":0,\"parking_and_other_passenger_facilities\":0,\"total_facilities\":0,\"bus_transfer_centers\":null,\"elevated_fixed_guideway_stations\":null,\"at_grade_fixed_guideway_stations\":null,\"underground_fixed_guideway_stations\":null,\"simple_at_grade_platform_stations\":null,\"exclusive_grade_separated_platform_stations\":null,\"ferryboat_terminals\":null,\"surface_parking_lots\":null,\"parking_structures\":null}","metadata_tam_modes_json":"{\"DR\":{\"total_units_2024\":20,\"units_under_threshold_2024\":12,\"voms_2024\":36,\"total_modal_vrm_2024\":269546,\"total_modal_upt_2024\":43906}}"},"geometry":{"type":"Point","coordinates":[-75.037141,39.89764]}},{"type":"Feature","properties":{"stop_id":"5","stop_code":"5","stop_name":"Westmont","stop_desc":"","zone_id":"2","stop_url":"https://www.ridepatco.org/stations/westmont.asp","location_type":"0","parent_station":"","stop_timezone":"","wheelchair_boarding":"1","platform_code":"","feed_id":"Pennsylvania__PATCO_Speedline__mdb_mdb-3035","agency_name":"Port Authority Transit Corporation","route_count":1,"route_ids":"2","route_short_names":"PATCO","route_types":"1","route_type_names":"Subway/Metro","routes_json":"[{\"route_id\":\"2\",\"route_short_name\":\"PATCO\",\"route_long_name\":\"High Speed Line\",\"route_type\":\"1\",\"route_type_name\":\"Subway/Metro\",\"route_color\":\"BC0035\",\"route_text_color\":\"FFFFFF\"}]","metadata_feed_id":"Pennsylvania__PATCO_Speedline__mdb_mdb-3035","metadata_agency_names":"Port Authority Transit Corporation","metadata_ntd_id":"31041","metadata_ntd_match_method":"manual_override","metadata_ntd_agency":"County of Butler, dba: Butler Area Rural Transit","metadata_ntd_city":"Butler","metadata_ntd_state":"PA","metadata_gtfs_route_count":1,"metadata_gtfs_trip_count":799,"metadata_gtfs_shape_count":2,"metadata_gtfs_stop_count":14,"metadata_ntd_agency_voms":18,"metadata_ntd_total_facilities":0,"metadata_ntd_maintenance_facilities":0,"metadata_ntd_passenger_stations":0,"metadata_tam_tier":"Tier II","metadata_route_types_json":"{\"1\":1}","metadata_ntd_facilities_json":"{\"maintenance_facilities\":0,\"administrative_and_other_non_passenger_facilities\":0,\"passenger_stations_and_terminals\":0,\"parking_and_other_passenger_facilities\":0,\"total_facilities\":0,\"bus_transfer_centers\":null,\"elevated_fixed_guideway_stations\":null,\"at_grade_fixed_guideway_stations\":null,\"underground_fixed_guideway_stations\":null,\"simple_at_grade_platform_stations\":null,\"exclusive_grade_separated_platform_stations\":null,\"ferryboat_terminals\":null,\"surface_parking_lots\":null,\"parking_structures\":null}","metadata_tam_modes_json":"{\"DR\":{\"total_units_2024\":20,\"units_under_threshold_2024\":12,\"voms_2024\":36,\"total_modal_vrm_2024\":269546,\"total_modal_upt_2024\":43906}}"},"geometry":{"type":"Point","coordinates":[-75.046553,39.90706]}},{"type":"Feature","properties":{"stop_id":"6","stop_code":"6","stop_name":"Collingswood","stop_desc":"","zone_id":"2","stop_url":"https://www.ridepatco.org/stations/collingswood.asp","location_type":"0","parent_station":"","stop_timezone":"","wheelchair_boarding":"1","platform_code":"","feed_id":"Pennsylvania__PATCO_Speedline__mdb_mdb-3035","agency_name":"Port Authority Transit Corporation","route_count":1,"route_ids":"2","route_short_names":"PATCO","route_types":"1","route_type_names":"Subway/Metro","routes_json":"[{\"route_id\":\"2\",\"route_short_name\":\"PATCO\",\"route_long_name\":\"High Speed Line\",\"route_type\":\"1\",\"route_type_name\":\"Subway/Metro\",\"route_color\":\"BC0035\",\"route_text_color\":\"FFFFFF\"}]","metadata_feed_id":"Pennsylvania__PATCO_Speedline__mdb_mdb-3035","metadata_agency_names":"Port Authority Transit Corporation","metadata_ntd_id":"31041","metadata_ntd_match_method":"manual_override","metadata_ntd_agency":"County of Butler, dba: Butler Area Rural Transit","metadata_ntd_city":"Butler","metadata_ntd_state":"PA","metadata_gtfs_route_count":1,"metadata_gtfs_trip_count":799,"metadata_gtfs_shape_count":2,"metadata_gtfs_stop_count":14,"metadata_ntd_agency_voms":18,"metadata_ntd_total_facilities":0,"metadata_ntd_maintenance_facilities":0,"metadata_ntd_passenger_stations":0,"metadata_tam_tier":"Tier II","metadata_route_types_json":"{\"1\":1}","metadata_ntd_facilities_json":"{\"maintenance_facilities\":0,\"administrative_and_other_non_passenger_facilities\":0,\"passenger_stations_and_terminals\":0,\"parking_and_other_passenger_facilities\":0,\"total_facilities\":0,\"bus_transfer_centers\":null,\"elevated_fixed_guideway_stations\":null,\"at_grade_fixed_guideway_stations\":null,\"underground_fixed_guideway_stations\":null,\"simple_at_grade_platform_stations\":null,\"exclusive_grade_separated_platform_stations\":null,\"ferryboat_terminals\":null,\"surface_parking_lots\":null,\"parking_structures\":null}","metadata_tam_modes_json":"{\"DR\":{\"total_units_2024\":20,\"units_under_threshold_2024\":12,\"voms_2024\":36,\"total_modal_vrm_2024\":269546,\"total_modal_upt_2024\":43906}}"},"geometry":{"type":"Point","coordinates":[-75.06456,39.91359]}},{"type":"Feature","properties":{"stop_id":"7","stop_code":"7","stop_name":"Ferry Avenue","stop_desc":"","zone_id":"3","stop_url":"https://www.ridepatco.org/stations/ferryave.asp","location_type":"0","parent_station":"","stop_timezone":"","wheelchair_boarding":"1","platform_code":"","feed_id":"Pennsylvania__PATCO_Speedline__mdb_mdb-3035","agency_name":"Port Authority Transit Corporation","route_count":1,"route_ids":"2","route_short_names":"PATCO","route_types":"1","route_type_names":"Subway/Metro","routes_json":"[{\"route_id\":\"2\",\"route_short_name\":\"PATCO\",\"route_long_name\":\"High Speed Line\",\"route_type\":\"1\",\"route_type_name\":\"Subway/Metro\",\"route_color\":\"BC0035\",\"route_text_color\":\"FFFFFF\"}]","metadata_feed_id":"Pennsylvania__PATCO_Speedline__mdb_mdb-3035","metadata_agency_names":"Port Authority Transit Corporation","metadata_ntd_id":"31041","metadata_ntd_match_method":"manual_override","metadata_ntd_agency":"County of Butler, dba: Butler Area Rural Transit","metadata_ntd_city":"Butler","metadata_ntd_state":"PA","metadata_gtfs_route_count":1,"metadata_gtfs_trip_count":799,"metadata_gtfs_shape_count":2,"metadata_gtfs_stop_count":14,"metadata_ntd_agency_voms":18,"metadata_ntd_total_facilities":0,"metadata_ntd_maintenance_facilities":0,"metadata_ntd_passenger_stations":0,"metadata_tam_tier":"Tier II","metadata_route_types_json":"{\"1\":1}","metadata_ntd_facilities_json":"{\"maintenance_facilities\":0,\"administrative_and_other_non_passenger_facilities\":0,\"passenger_stations_and_terminals\":0,\"parking_and_other_passenger_facilities\":0,\"total_facilities\":0,\"bus_transfer_centers\":null,\"elevated_fixed_guideway_stations\":null,\"at_grade_fixed_guideway_stations\":null,\"underground_fixed_guideway_stations\":null,\"simple_at_grade_platform_stations\":null,\"exclusive_grade_separated_platform_stations\":null,\"ferryboat_terminals\":null,\"surface_parking_lots\":null,\"parking_structures\":null}","metadata_tam_modes_json":"{\"DR\":{\"total_units_2024\":20,\"units_under_threshold_2024\":12,\"voms_2024\":36,\"total_modal_vrm_2024\":269546,\"total_modal_upt_2024\":43906}}"},"geometry":{"type":"Point","coordinates":[-75.091805,39.922572]}},{"type":"Feature","properties":{"stop_id":"8","stop_code":"8","stop_name":"Broadway","stop_desc":"","zone_id":"4","stop_url":"https://www.ridepatco.org/stations/broadway.asp","location_type":"0","parent_station":"","stop_timezone":"","wheelchair_boarding":"1","platform_code":"","feed_id":"Pennsylvania__PATCO_Speedline__mdb_mdb-3035","agency_name":"Port Authority Transit Corporation","route_count":1,"route_ids":"2","route_short_names":"PATCO","route_types":"1","route_type_names":"Subway/Metro","routes_json":"[{\"route_id\":\"2\",\"route_short_name\":\"PATCO\",\"route_long_name\":\"High Speed Line\",\"route_type\":\"1\",\"route_type_name\":\"Subway/Metro\",\"route_color\":\"BC0035\",\"route_text_color\":\"FFFFFF\"}]","metadata_feed_id":"Pennsylvania__PATCO_Speedline__mdb_mdb-3035","metadata_agency_names":"Port Authority Transit Corporation","metadata_ntd_id":"31041","metadata_ntd_match_method":"manual_override","metadata_ntd_agency":"County of Butler, dba: Butler Area Rural Transit","metadata_ntd_city":"Butler","metadata_ntd_state":"PA","metadata_gtfs_route_count":1,"metadata_gtfs_trip_count":799,"metadata_gtfs_shape_count":2,"metadata_gtfs_stop_count":14,"metadata_ntd_agency_voms":18,"metadata_ntd_total_facilities":0,"metadata_ntd_maintenance_facilities":0,"metadata_ntd_passenger_stations":0,"metadata_tam_tier":"Tier II","metadata_route_types_json":"{\"1\":1}","metadata_ntd_facilities_json":"{\"maintenance_facilities\":0,\"administrative_and_other_non_passenger_facilities\":0,\"passenger_stations_and_terminals\":0,\"parking_and_other_passenger_facilities\":0,\"total_facilities\":0,\"bus_transfer_centers\":null,\"elevated_fixed_guideway_stations\":null,\"at_grade_fixed_guideway_stations\":null,\"underground_fixed_guideway_stations\":null,\"simple_at_grade_platform_stations\":null,\"exclusive_grade_separated_platform_stations\":null,\"ferryboat_terminals\":null,\"surface_parking_lots\":null,\"parking_structures\":null}","metadata_tam_modes_json":"{\"DR\":{\"total_units_2024\":20,\"units_under_threshold_2024\":12,\"voms_2024\":36,\"total_modal_vrm_2024\":269546,\"total_modal_upt_2024\":43906}}"},"geometry":{"type":"Point","coordinates":[-75.120364,39.943135]}},{"type":"Feature","properties":{"stop_id":"9","stop_code":"9","stop_name":"City Hall","stop_desc":"","zone_id":"5","stop_url":"https://www.ridepatco.org/stations/cityhall.asp","location_type":"0","parent_station":"","stop_timezone":"","wheelchair_boarding":"1","platform_code":"","feed_id":"Pennsylvania__PATCO_Speedline__mdb_mdb-3035","agency_name":"Port Authority Transit Corporation","route_count":1,"route_ids":"2","route_short_names":"PATCO","route_types":"1","route_type_names":"Subway/Metro","routes_json":"[{\"route_id\":\"2\",\"route_short_name\":\"PATCO\",\"route_long_name\":\"High Speed Line\",\"route_type\":\"1\",\"route_type_name\":\"Subway/Metro\",\"route_color\":\"BC0035\",\"route_text_color\":\"FFFFFF\"}]","metadata_feed_id":"Pennsylvania__PATCO_Speedline__mdb_mdb-3035","metadata_agency_names":"Port Authority Transit Corporation","metadata_ntd_id":"31041","metadata_ntd_match_method":"manual_override","metadata_ntd_agency":"County of Butler, dba: Butler Area Rural Transit","metadata_ntd_city":"Butler","metadata_ntd_state":"PA","metadata_gtfs_route_count":1,"metadata_gtfs_trip_count":799,"metadata_gtfs_shape_count":2,"metadata_gtfs_stop_count":14,"metadata_ntd_agency_voms":18,"metadata_ntd_total_facilities":0,"metadata_ntd_maintenance_facilities":0,"metadata_ntd_passenger_stations":0,"metadata_tam_tier":"Tier II","metadata_route_types_json":"{\"1\":1}","metadata_ntd_facilities_json":"{\"maintenance_facilities\":0,\"administrative_and_other_non_passenger_facilities\":0,\"passenger_stations_and_terminals\":0,\"parking_and_other_passenger_facilities\":0,\"total_facilities\":0,\"bus_transfer_centers\":null,\"elevated_fixed_guideway_stations\":null,\"at_grade_fixed_guideway_stations\":null,\"underground_fixed_guideway_stations\":null,\"simple_at_grade_platform_stations\":null,\"exclusive_grade_separated_platform_stations\":null,\"ferryboat_terminals\":null,\"surface_parking_lots\":null,\"parking_structures\":null}","metadata_tam_modes_json":"{\"DR\":{\"total_units_2024\":20,\"units_under_threshold_2024\":12,\"voms_2024\":36,\"total_modal_vrm_2024\":269546,\"total_modal_upt_2024\":43906}}"},"geometry":{"type":"Point","coordinates":[-75.121242,39.945469]}},{"type":"Feature","properties":{"stop_id":"10","stop_code":"10","stop_name":"Franklin Square","stop_desc":"","zone_id":"6","stop_url":"https://www.ridepatco.org/stations/franklinsquare.asp","location_type":"0","parent_station":"","stop_timezone":"America/New_York","wheelchair_boarding":"1","platform_code":"","feed_id":"Pennsylvania__PATCO_Speedline__mdb_mdb-3035","agency_name":"Port Authority Transit Corporation","route_count":1,"route_ids":"2","route_short_names":"PATCO","route_types":"1","route_type_names":"Subway/Metro","routes_json":"[{\"route_id\":\"2\",\"route_short_name\":\"PATCO\",\"route_long_name\":\"High Speed Line\",\"route_type\":\"1\",\"route_type_name\":\"Subway/Metro\",\"route_color\":\"BC0035\",\"route_text_color\":\"FFFFFF\"}]","metadata_feed_id":"Pennsylvania__PATCO_Speedline__mdb_mdb-3035","metadata_agency_names":"Port Authority Transit Corporation","metadata_ntd_id":"31041","metadata_ntd_match_method":"manual_override","metadata_ntd_agency":"County of Butler, dba: Butler Area Rural Transit","metadata_ntd_city":"Butler","metadata_ntd_state":"PA","metadata_gtfs_route_count":1,"metadata_gtfs_trip_count":799,"metadata_gtfs_shape_count":2,"metadata_gtfs_stop_count":14,"metadata_ntd_agency_voms":18,"metadata_ntd_total_facilities":0,"metadata_ntd_maintenance_facilities":0,"metadata_ntd_passenger_stations":0,"metadata_tam_tier":"Tier II","metadata_route_types_json":"{\"1\":1}","metadata_ntd_facilities_json":"{\"maintenance_facilities\":0,\"administrative_and_other_non_passenger_facilities\":0,\"passenger_stations_and_terminals\":0,\"parking_and_other_passenger_facilities\":0,\"total_facilities\":0,\"bus_transfer_centers\":null,\"elevated_fixed_guideway_stations\":null,\"at_grade_fixed_guideway_stations\":null,\"underground_fixed_guideway_stations\":null,\"simple_at_grade_platform_stations\":null,\"exclusive_grade_separated_platform_stations\":null,\"ferryboat_terminals\":null,\"surface_parking_lots\":null,\"parking_structures\":null}","metadata_tam_modes_json":"{\"DR\":{\"total_units_2024\":20,\"units_under_threshold_2024\":12,\"voms_2024\":36,\"total_modal_vrm_2024\":269546,\"total_modal_upt_2024\":43906}}"},"geometry":{"type":"Point","coordinates":[-75.151157,39.955298]}},{"type":"Feature","properties":{"stop_id":"11","stop_code":"11","stop_name":"8th and Market","stop_desc":"","zone_id":"6","stop_url":"https://www.ridepatco.org/stations/8th.asp","location_type":"0","parent_station":"","stop_timezone":"","wheelchair_boarding":"1","platform_code":"","feed_id":"Pennsylvania__PATCO_Speedline__mdb_mdb-3035","agency_name":"Port Authority Transit Corporation","route_count":1,"route_ids":"2","route_short_names":"PATCO","route_types":"1","route_type_names":"Subway/Metro","routes_json":"[{\"route_id\":\"2\",\"route_short_name\":\"PATCO\",\"route_long_name\":\"High Speed Line\",\"route_type\":\"1\",\"route_type_name\":\"Subway/Metro\",\"route_color\":\"BC0035\",\"route_text_color\":\"FFFFFF\"}]","metadata_feed_id":"Pennsylvania__PATCO_Speedline__mdb_mdb-3035","metadata_agency_names":"Port Authority Transit Corporation","metadata_ntd_id":"31041","metadata_ntd_match_method":"manual_override","metadata_ntd_agency":"County of Butler, dba: Butler Area Rural Transit","metadata_ntd_city":"Butler","metadata_ntd_state":"PA","metadata_gtfs_route_count":1,"metadata_gtfs_trip_count":799,"metadata_gtfs_shape_count":2,"metadata_gtfs_stop_count":14,"metadata_ntd_agency_voms":18,"metadata_ntd_total_facilities":0,"metadata_ntd_maintenance_facilities":0,"metadata_ntd_passenger_stations":0,"metadata_tam_tier":"Tier II","metadata_route_types_json":"{\"1\":1}","metadata_ntd_facilities_json":"{\"maintenance_facilities\":0,\"administrative_and_other_non_passenger_facilities\":0,\"passenger_stations_and_terminals\":0,\"parking_and_other_passenger_facilities\":0,\"total_facilities\":0,\"bus_transfer_centers\":null,\"elevated_fixed_guideway_stations\":null,\"at_grade_fixed_guideway_stations\":null,\"underground_fixed_guideway_stations\":null,\"simple_at_grade_platform_stations\":null,\"exclusive_grade_separated_platform_stations\":null,\"ferryboat_terminals\":null,\"surface_parking_lots\":null,\"parking_structures\":null}","metadata_tam_modes_json":"{\"DR\":{\"total_units_2024\":20,\"units_under_threshold_2024\":12,\"voms_2024\":36,\"total_modal_vrm_2024\":269546,\"total_modal_upt_2024\":43906}}"},"geometry":{"type":"Point","coordinates":[-75.153515,39.950979]}},{"type":"Feature","properties":{"stop_id":"12","stop_code":"12","stop_name":"9-10th and Locust","stop_desc":"","zone_id":"6","stop_url":"https://www.ridepatco.org/stations/9th.asp","location_type":"0","parent_station":"","stop_timezone":"","wheelchair_boarding":"1","platform_code":"","feed_id":"Pennsylvania__PATCO_Speedline__mdb_mdb-3035","agency_name":"Port Authority Transit Corporation","route_count":1,"route_ids":"2","route_short_names":"PATCO","route_types":"1","route_type_names":"Subway/Metro","routes_json":"[{\"route_id\":\"2\",\"route_short_name\":\"PATCO\",\"route_long_name\":\"High Speed Line\",\"route_type\":\"1\",\"route_type_name\":\"Subway/Metro\",\"route_color\":\"BC0035\",\"route_text_color\":\"FFFFFF\"}]","metadata_feed_id":"Pennsylvania__PATCO_Speedline__mdb_mdb-3035","metadata_agency_names":"Port Authority Transit Corporation","metadata_ntd_id":"31041","metadata_ntd_match_method":"manual_override","metadata_ntd_agency":"County of Butler, dba: Butler Area Rural Transit","metadata_ntd_city":"Butler","metadata_ntd_state":"PA","metadata_gtfs_route_count":1,"metadata_gtfs_trip_count":799,"metadata_gtfs_shape_count":2,"metadata_gtfs_stop_count":14,"metadata_ntd_agency_voms":18,"metadata_ntd_total_facilities":0,"metadata_ntd_maintenance_facilities":0,"metadata_ntd_passenger_stations":0,"metadata_tam_tier":"Tier II","metadata_route_types_json":"{\"1\":1}","metadata_ntd_facilities_json":"{\"maintenance_facilities\":0,\"administrative_and_other_non_passenger_facilities\":0,\"passenger_stations_and_terminals\":0,\"parking_and_other_passenger_facilities\":0,\"total_facilities\":0,\"bus_transfer_centers\":null,\"elevated_fixed_guideway_stations\":null,\"at_grade_fixed_guideway_stations\":null,\"underground_fixed_guideway_stations\":null,\"simple_at_grade_platform_stations\":null,\"exclusive_grade_separated_platform_stations\":null,\"ferryboat_terminals\":null,\"surface_parking_lots\":null,\"parking_structures\":null}","metadata_tam_modes_json":"{\"DR\":{\"total_units_2024\":20,\"units_under_threshold_2024\":12,\"voms_2024\":36,\"total_modal_vrm_2024\":269546,\"total_modal_upt_2024\":43906}}"},"geometry":{"type":"Point","coordinates":[-75.15751,39.947345]}},{"type":"Feature","properties":{"stop_id":"13","stop_code":"13","stop_name":"12-13th and Locust","stop_desc":"","zone_id":"6","stop_url":"https://www.ridepatco.org/stations/12th.asp","location_type":"0","parent_station":"","stop_timezone":"","wheelchair_boarding":"1","platform_code":"","feed_id":"Pennsylvania__PATCO_Speedline__mdb_mdb-3035","agency_name":"Port Authority Transit Corporation","route_count":1,"route_ids":"2","route_short_names":"PATCO","route_types":"1","route_type_names":"Subway/Metro","routes_json":"[{\"route_id\":\"2\",\"route_short_name\":\"PATCO\",\"route_long_name\":\"High Speed Line\",\"route_type\":\"1\",\"route_type_name\":\"Subway/Metro\",\"route_color\":\"BC0035\",\"route_text_color\":\"FFFFFF\"}]","metadata_feed_id":"Pennsylvania__PATCO_Speedline__mdb_mdb-3035","metadata_agency_names":"Port Authority Transit Corporation","metadata_ntd_id":"31041","metadata_ntd_match_method":"manual_override","metadata_ntd_agency":"County of Butler, dba: Butler Area Rural Transit","metadata_ntd_city":"Butler","metadata_ntd_state":"PA","metadata_gtfs_route_count":1,"metadata_gtfs_trip_count":799,"metadata_gtfs_shape_count":2,"metadata_gtfs_stop_count":14,"metadata_ntd_agency_voms":18,"metadata_ntd_total_facilities":0,"metadata_ntd_maintenance_facilities":0,"metadata_ntd_passenger_stations":0,"metadata_tam_tier":"Tier II","metadata_route_types_json":"{\"1\":1}","metadata_ntd_facilities_json":"{\"maintenance_facilities\":0,\"administrative_and_other_non_passenger_facilities\":0,\"passenger_stations_and_terminals\":0,\"parking_and_other_passenger_facilities\":0,\"total_facilities\":0,\"bus_transfer_centers\":null,\"elevated_fixed_guideway_stations\":null,\"at_grade_fixed_guideway_stations\":null,\"underground_fixed_guideway_stations\":null,\"simple_at_grade_platform_stations\":null,\"exclusive_grade_separated_platform_stations\":null,\"ferryboat_terminals\":null,\"surface_parking_lots\":null,\"parking_structures\":null}","metadata_tam_modes_json":"{\"DR\":{\"total_units_2024\":20,\"units_under_threshold_2024\":12,\"voms_2024\":36,\"total_modal_vrm_2024\":269546,\"total_modal_upt_2024\":43906}}"},"geometry":{"type":"Point","coordinates":[-75.162365,39.947944]}},{"type":"Feature","properties":{"stop_id":"14","stop_code":"14","stop_name":"15-16th and Locust","stop_desc":"","zone_id":"6","stop_url":"https://www.ridepatco.org/stations/15th.asp","location_type":"0","parent_station":"","stop_timezone":"","wheelchair_boarding":"1","platform_code":"","feed_id":"Pennsylvania__PATCO_Speedline__mdb_mdb-3035","agency_name":"Port Authority Transit Corporation","route_count":1,"route_ids":"2","route_short_names":"PATCO","route_types":"1","route_type_names":"Subway/Metro","routes_json":"[{\"route_id\":\"2\",\"route_short_name\":\"PATCO\",\"route_long_name\":\"High Speed Line\",\"route_type\":\"1\",\"route_type_name\":\"Subway/Metro\",\"route_color\":\"BC0035\",\"route_text_color\":\"FFFFFF\"}]","metadata_feed_id":"Pennsylvania__PATCO_Speedline__mdb_mdb-3035","metadata_agency_names":"Port Authority Transit Corporation","metadata_ntd_id":"31041","metadata_ntd_match_method":"manual_override","metadata_ntd_agency":"County of Butler, dba: Butler Area Rural Transit","metadata_ntd_city":"Butler","metadata_ntd_state":"PA","metadata_gtfs_route_count":1,"metadata_gtfs_trip_count":799,"metadata_gtfs_shape_count":2,"metadata_gtfs_stop_count":14,"metadata_ntd_agency_voms":18,"metadata_ntd_total_facilities":0,"metadata_ntd_maintenance_facilities":0,"metadata_ntd_passenger_stations":0,"metadata_tam_tier":"Tier II","metadata_route_types_json":"{\"1\":1}","metadata_ntd_facilities_json":"{\"maintenance_facilities\":0,\"administrative_and_other_non_passenger_facilities\":0,\"passenger_stations_and_terminals\":0,\"parking_and_other_passenger_facilities\":0,\"total_facilities\":0,\"bus_transfer_centers\":null,\"elevated_fixed_guideway_stations\":null,\"at_grade_fixed_guideway_stations\":null,\"underground_fixed_guideway_stations\":null,\"simple_at_grade_platform_stations\":null,\"exclusive_grade_separated_platform_stations\":null,\"ferryboat_terminals\":null,\"surface_parking_lots\":null,\"parking_structures\":null}","metadata_tam_modes_json":"{\"DR\":{\"total_units_2024\":20,\"units_under_threshold_2024\":12,\"voms_2024\":36,\"total_modal_vrm_2024\":269546,\"total_modal_upt_2024\":43906}}"},"geometry":{"type":"Point","coordinates":[-75.167792,39.948634]}}],"metadata":{"feed_id":"Pennsylvania__PATCO_Speedline__mdb_mdb-3035","ntd_id":"31041","feature_metadata_embedded":true}}