{"type":"FeatureCollection","features":[{"type":"Feature","properties":{"stop_id":"2696096","stop_code":"","platform_code":"","stop_name":"Yorba St","stop_desc":"","zone_id":"","stop_url":"","location_type":"0","parent_station":"","stop_timezone":"America/Los_Angeles","position":"","direction":"","wheelchair_boarding":"0","tts_stop_name":"","feed_id":"California__San_Juan_Capistrano_Free_Weekend_Trolley__mdb_mdb-2235","agency_name":"San Juan Capistrano","route_count":1,"route_ids":"18168","route_short_names":"","route_types":"3","route_type_names":"Bus","routes_json":"[{\"route_id\":\"18168\",\"route_short_name\":\"\",\"route_long_name\":\"Weekend\",\"route_type\":\"3\",\"route_type_name\":\"Bus\",\"route_color\":\"831B19\",\"route_text_color\":\"FFFFFF\"}]","metadata_feed_id":"California__San_Juan_Capistrano_Free_Weekend_Trolley__mdb_mdb-2235","metadata_agency_names":"San Juan Capistrano","metadata_ntd_id":"99470","metadata_ntd_match_method":"manual_override","metadata_ntd_agency":"Travelers' Aid Society Of San Diego","metadata_ntd_city":"San Diego","metadata_ntd_state":"CA","metadata_gtfs_route_count":3,"metadata_gtfs_trip_count":69,"metadata_gtfs_shape_count":1,"metadata_gtfs_stop_count":19,"metadata_ntd_total_facilities":0,"metadata_ntd_maintenance_facilities":0,"metadata_ntd_passenger_stations":0,"metadata_route_types_json":"{\"3\":3}","metadata_ntd_facilities_json":"{\"maintenance_facilities\":0,\"administrative_and_other_non_passenger_facilities\":0,\"passenger_stations_and_terminals\":0,\"parking_and_other_passenger_facilities\":0,\"total_facilities\":0,\"bus_transfer_centers\":null,\"elevated_fixed_guideway_stations\":null,\"at_grade_fixed_guideway_stations\":null,\"underground_fixed_guideway_stations\":null,\"simple_at_grade_platform_stations\":null,\"exclusive_grade_separated_platform_stations\":null,\"ferryboat_terminals\":null,\"surface_parking_lots\":null,\"parking_structures\":null}","metadata_tam_modes_json":"{}"},"geometry":{"type":"Point","coordinates":[-117.66247625573,33.5004709863741]}},{"type":"Feature","properties":{"stop_id":"2696097","stop_code":"","platform_code":"","stop_name":"Blue Fin Drive","stop_desc":"","zone_id":"","stop_url":"","location_type":"0","parent_station":"","stop_timezone":"America/Los_Angeles","position":"","direction":"","wheelchair_boarding":"0","tts_stop_name":"","feed_id":"California__San_Juan_Capistrano_Free_Weekend_Trolley__mdb_mdb-2235","agency_name":"San Juan Capistrano","route_count":1,"route_ids":"18168","route_short_names":"","route_types":"3","route_type_names":"Bus","routes_json":"[{\"route_id\":\"18168\",\"route_short_name\":\"\",\"route_long_name\":\"Weekend\",\"route_type\":\"3\",\"route_type_name\":\"Bus\",\"route_color\":\"831B19\",\"route_text_color\":\"FFFFFF\"}]","metadata_feed_id":"California__San_Juan_Capistrano_Free_Weekend_Trolley__mdb_mdb-2235","metadata_agency_names":"San Juan Capistrano","metadata_ntd_id":"99470","metadata_ntd_match_method":"manual_override","metadata_ntd_agency":"Travelers' Aid Society Of San Diego","metadata_ntd_city":"San Diego","metadata_ntd_state":"CA","metadata_gtfs_route_count":3,"metadata_gtfs_trip_count":69,"metadata_gtfs_shape_count":1,"metadata_gtfs_stop_count":19,"metadata_ntd_total_facilities":0,"metadata_ntd_maintenance_facilities":0,"metadata_ntd_passenger_stations":0,"metadata_route_types_json":"{\"3\":3}","metadata_ntd_facilities_json":"{\"maintenance_facilities\":0,\"administrative_and_other_non_passenger_facilities\":0,\"passenger_stations_and_terminals\":0,\"parking_and_other_passenger_facilities\":0,\"total_facilities\":0,\"bus_transfer_centers\":null,\"elevated_fixed_guideway_stations\":null,\"at_grade_fixed_guideway_stations\":null,\"underground_fixed_guideway_stations\":null,\"simple_at_grade_platform_stations\":null,\"exclusive_grade_separated_platform_stations\":null,\"ferryboat_terminals\":null,\"surface_parking_lots\":null,\"parking_structures\":null}","metadata_tam_modes_json":"{}"},"geometry":{"type":"Point","coordinates":[-117.685329157228,33.4814473565515]}},{"type":"Feature","properties":{"stop_id":"2696098","stop_code":"","platform_code":"","stop_name":"Westborne Drive","stop_desc":"","zone_id":"","stop_url":"","location_type":"0","parent_station":"","stop_timezone":"America/Los_Angeles","position":"","direction":"","wheelchair_boarding":"0","tts_stop_name":"","feed_id":"California__San_Juan_Capistrano_Free_Weekend_Trolley__mdb_mdb-2235","agency_name":"San Juan Capistrano","route_count":1,"route_ids":"18168","route_short_names":"","route_types":"3","route_type_names":"Bus","routes_json":"[{\"route_id\":\"18168\",\"route_short_name\":\"\",\"route_long_name\":\"Weekend\",\"route_type\":\"3\",\"route_type_name\":\"Bus\",\"route_color\":\"831B19\",\"route_text_color\":\"FFFFFF\"}]","metadata_feed_id":"California__San_Juan_Capistrano_Free_Weekend_Trolley__mdb_mdb-2235","metadata_agency_names":"San Juan Capistrano","metadata_ntd_id":"99470","metadata_ntd_match_method":"manual_override","metadata_ntd_agency":"Travelers' Aid Society Of San Diego","metadata_ntd_city":"San Diego","metadata_ntd_state":"CA","metadata_gtfs_route_count":3,"metadata_gtfs_trip_count":69,"metadata_gtfs_shape_count":1,"metadata_gtfs_stop_count":19,"metadata_ntd_total_facilities":0,"metadata_ntd_maintenance_facilities":0,"metadata_ntd_passenger_stations":0,"metadata_route_types_json":"{\"3\":3}","metadata_ntd_facilities_json":"{\"maintenance_facilities\":0,\"administrative_and_other_non_passenger_facilities\":0,\"passenger_stations_and_terminals\":0,\"parking_and_other_passenger_facilities\":0,\"total_facilities\":0,\"bus_transfer_centers\":null,\"elevated_fixed_guideway_stations\":null,\"at_grade_fixed_guideway_stations\":null,\"underground_fixed_guideway_stations\":null,\"simple_at_grade_platform_stations\":null,\"exclusive_grade_separated_platform_stations\":null,\"ferryboat_terminals\":null,\"surface_parking_lots\":null,\"parking_structures\":null}","metadata_tam_modes_json":"{}"},"geometry":{"type":"Point","coordinates":[-117.684280097,33.4847095877]}},{"type":"Feature","properties":{"stop_id":"2696099","stop_code":"","platform_code":"","stop_name":"Via Positiva North","stop_desc":"","zone_id":"","stop_url":"","location_type":"0","parent_station":"","stop_timezone":"America/Los_Angeles","position":"","direction":"","wheelchair_boarding":"0","tts_stop_name":"","feed_id":"California__San_Juan_Capistrano_Free_Weekend_Trolley__mdb_mdb-2235","agency_name":"San Juan Capistrano","route_count":1,"route_ids":"18168","route_short_names":"","route_types":"3","route_type_names":"Bus","routes_json":"[{\"route_id\":\"18168\",\"route_short_name\":\"\",\"route_long_name\":\"Weekend\",\"route_type\":\"3\",\"route_type_name\":\"Bus\",\"route_color\":\"831B19\",\"route_text_color\":\"FFFFFF\"}]","metadata_feed_id":"California__San_Juan_Capistrano_Free_Weekend_Trolley__mdb_mdb-2235","metadata_agency_names":"San Juan Capistrano","metadata_ntd_id":"99470","metadata_ntd_match_method":"manual_override","metadata_ntd_agency":"Travelers' Aid Society Of San Diego","metadata_ntd_city":"San Diego","metadata_ntd_state":"CA","metadata_gtfs_route_count":3,"metadata_gtfs_trip_count":69,"metadata_gtfs_shape_count":1,"metadata_gtfs_stop_count":19,"metadata_ntd_total_facilities":0,"metadata_ntd_maintenance_facilities":0,"metadata_ntd_passenger_stations":0,"metadata_route_types_json":"{\"3\":3}","metadata_ntd_facilities_json":"{\"maintenance_facilities\":0,\"administrative_and_other_non_passenger_facilities\":0,\"passenger_stations_and_terminals\":0,\"parking_and_other_passenger_facilities\":0,\"total_facilities\":0,\"bus_transfer_centers\":null,\"elevated_fixed_guideway_stations\":null,\"at_grade_fixed_guideway_stations\":null,\"underground_fixed_guideway_stations\":null,\"simple_at_grade_platform_stations\":null,\"exclusive_grade_separated_platform_stations\":null,\"ferryboat_terminals\":null,\"surface_parking_lots\":null,\"parking_structures\":null}","metadata_tam_modes_json":"{}"},"geometry":{"type":"Point","coordinates":[-117.6722507264,33.4906173735]}},{"type":"Feature","properties":{"stop_id":"2696100","stop_code":"","platform_code":"","stop_name":"Via Positiva South","stop_desc":"","zone_id":"","stop_url":"","location_type":"0","parent_station":"","stop_timezone":"America/Los_Angeles","position":"","direction":"","wheelchair_boarding":"0","tts_stop_name":"","feed_id":"California__San_Juan_Capistrano_Free_Weekend_Trolley__mdb_mdb-2235","agency_name":"San Juan Capistrano","route_count":1,"route_ids":"18168","route_short_names":"","route_types":"3","route_type_names":"Bus","routes_json":"[{\"route_id\":\"18168\",\"route_short_name\":\"\",\"route_long_name\":\"Weekend\",\"route_type\":\"3\",\"route_type_name\":\"Bus\",\"route_color\":\"831B19\",\"route_text_color\":\"FFFFFF\"}]","metadata_feed_id":"California__San_Juan_Capistrano_Free_Weekend_Trolley__mdb_mdb-2235","metadata_agency_names":"San Juan Capistrano","metadata_ntd_id":"99470","metadata_ntd_match_method":"manual_override","metadata_ntd_agency":"Travelers' Aid Society Of San Diego","metadata_ntd_city":"San Diego","metadata_ntd_state":"CA","metadata_gtfs_route_count":3,"metadata_gtfs_trip_count":69,"metadata_gtfs_shape_count":1,"metadata_gtfs_stop_count":19,"metadata_ntd_total_facilities":0,"metadata_ntd_maintenance_facilities":0,"metadata_ntd_passenger_stations":0,"metadata_route_types_json":"{\"3\":3}","metadata_ntd_facilities_json":"{\"maintenance_facilities\":0,\"administrative_and_other_non_passenger_facilities\":0,\"passenger_stations_and_terminals\":0,\"parking_and_other_passenger_facilities\":0,\"total_facilities\":0,\"bus_transfer_centers\":null,\"elevated_fixed_guideway_stations\":null,\"at_grade_fixed_guideway_stations\":null,\"underground_fixed_guideway_stations\":null,\"simple_at_grade_platform_stations\":null,\"exclusive_grade_separated_platform_stations\":null,\"ferryboat_terminals\":null,\"surface_parking_lots\":null,\"parking_structures\":null}","metadata_tam_modes_json":"{}"},"geometry":{"type":"Point","coordinates":[-117.677924,33.487267]}},{"type":"Feature","properties":{"stop_id":"2696101","stop_code":"","platform_code":"","stop_name":"Rancho Alipaz","stop_desc":"","zone_id":"","stop_url":"","location_type":"0","parent_station":"","stop_timezone":"America/Los_Angeles","position":"","direction":"","wheelchair_boarding":"0","tts_stop_name":"","feed_id":"California__San_Juan_Capistrano_Free_Weekend_Trolley__mdb_mdb-2235","agency_name":"San Juan Capistrano","route_count":1,"route_ids":"18168","route_short_names":"","route_types":"3","route_type_names":"Bus","routes_json":"[{\"route_id\":\"18168\",\"route_short_name\":\"\",\"route_long_name\":\"Weekend\",\"route_type\":\"3\",\"route_type_name\":\"Bus\",\"route_color\":\"831B19\",\"route_text_color\":\"FFFFFF\"}]","metadata_feed_id":"California__San_Juan_Capistrano_Free_Weekend_Trolley__mdb_mdb-2235","metadata_agency_names":"San Juan Capistrano","metadata_ntd_id":"99470","metadata_ntd_match_method":"manual_override","metadata_ntd_agency":"Travelers' Aid Society Of San Diego","metadata_ntd_city":"San Diego","metadata_ntd_state":"CA","metadata_gtfs_route_count":3,"metadata_gtfs_trip_count":69,"metadata_gtfs_shape_count":1,"metadata_gtfs_stop_count":19,"metadata_ntd_total_facilities":0,"metadata_ntd_maintenance_facilities":0,"metadata_ntd_passenger_stations":0,"metadata_route_types_json":"{\"3\":3}","metadata_ntd_facilities_json":"{\"maintenance_facilities\":0,\"administrative_and_other_non_passenger_facilities\":0,\"passenger_stations_and_terminals\":0,\"parking_and_other_passenger_facilities\":0,\"total_facilities\":0,\"bus_transfer_centers\":null,\"elevated_fixed_guideway_stations\":null,\"at_grade_fixed_guideway_stations\":null,\"underground_fixed_guideway_stations\":null,\"simple_at_grade_platform_stations\":null,\"exclusive_grade_separated_platform_stations\":null,\"ferryboat_terminals\":null,\"surface_parking_lots\":null,\"parking_structures\":null}","metadata_tam_modes_json":"{}"},"geometry":{"type":"Point","coordinates":[-117.670766016732,33.4927531317618]}},{"type":"Feature","properties":{"stop_id":"2696102","stop_code":"","platform_code":"","stop_name":"Casitas de Alipaz","stop_desc":"","zone_id":"","stop_url":"","location_type":"0","parent_station":"","stop_timezone":"America/Los_Angeles","position":"","direction":"","wheelchair_boarding":"0","tts_stop_name":"","feed_id":"California__San_Juan_Capistrano_Free_Weekend_Trolley__mdb_mdb-2235","agency_name":"San Juan Capistrano","route_count":1,"route_ids":"18168","route_short_names":"","route_types":"3","route_type_names":"Bus","routes_json":"[{\"route_id\":\"18168\",\"route_short_name\":\"\",\"route_long_name\":\"Weekend\",\"route_type\":\"3\",\"route_type_name\":\"Bus\",\"route_color\":\"831B19\",\"route_text_color\":\"FFFFFF\"}]","metadata_feed_id":"California__San_Juan_Capistrano_Free_Weekend_Trolley__mdb_mdb-2235","metadata_agency_names":"San Juan Capistrano","metadata_ntd_id":"99470","metadata_ntd_match_method":"manual_override","metadata_ntd_agency":"Travelers' Aid Society Of San Diego","metadata_ntd_city":"San Diego","metadata_ntd_state":"CA","metadata_gtfs_route_count":3,"metadata_gtfs_trip_count":69,"metadata_gtfs_shape_count":1,"metadata_gtfs_stop_count":19,"metadata_ntd_total_facilities":0,"metadata_ntd_maintenance_facilities":0,"metadata_ntd_passenger_stations":0,"metadata_route_types_json":"{\"3\":3}","metadata_ntd_facilities_json":"{\"maintenance_facilities\":0,\"administrative_and_other_non_passenger_facilities\":0,\"passenger_stations_and_terminals\":0,\"parking_and_other_passenger_facilities\":0,\"total_facilities\":0,\"bus_transfer_centers\":null,\"elevated_fixed_guideway_stations\":null,\"at_grade_fixed_guideway_stations\":null,\"underground_fixed_guideway_stations\":null,\"simple_at_grade_platform_stations\":null,\"exclusive_grade_separated_platform_stations\":null,\"ferryboat_terminals\":null,\"surface_parking_lots\":null,\"parking_structures\":null}","metadata_tam_modes_json":"{}"},"geometry":{"type":"Point","coordinates":[-117.669328998281,33.4941729963545]}},{"type":"Feature","properties":{"stop_id":"2696103","stop_code":"","platform_code":"","stop_name":"Los Rios Plaza","stop_desc":"","zone_id":"","stop_url":"","location_type":"0","parent_station":"","stop_timezone":"America/Los_Angeles","position":"","direction":"","wheelchair_boarding":"0","tts_stop_name":"","feed_id":"California__San_Juan_Capistrano_Free_Weekend_Trolley__mdb_mdb-2235","agency_name":"San Juan Capistrano","route_count":1,"route_ids":"18168","route_short_names":"","route_types":"3","route_type_names":"Bus","routes_json":"[{\"route_id\":\"18168\",\"route_short_name\":\"\",\"route_long_name\":\"Weekend\",\"route_type\":\"3\",\"route_type_name\":\"Bus\",\"route_color\":\"831B19\",\"route_text_color\":\"FFFFFF\"}]","metadata_feed_id":"California__San_Juan_Capistrano_Free_Weekend_Trolley__mdb_mdb-2235","metadata_agency_names":"San Juan Capistrano","metadata_ntd_id":"99470","metadata_ntd_match_method":"manual_override","metadata_ntd_agency":"Travelers' Aid Society Of San Diego","metadata_ntd_city":"San Diego","metadata_ntd_state":"CA","metadata_gtfs_route_count":3,"metadata_gtfs_trip_count":69,"metadata_gtfs_shape_count":1,"metadata_gtfs_stop_count":19,"metadata_ntd_total_facilities":0,"metadata_ntd_maintenance_facilities":0,"metadata_ntd_passenger_stations":0,"metadata_route_types_json":"{\"3\":3}","metadata_ntd_facilities_json":"{\"maintenance_facilities\":0,\"administrative_and_other_non_passenger_facilities\":0,\"passenger_stations_and_terminals\":0,\"parking_and_other_passenger_facilities\":0,\"total_facilities\":0,\"bus_transfer_centers\":null,\"elevated_fixed_guideway_stations\":null,\"at_grade_fixed_guideway_stations\":null,\"underground_fixed_guideway_stations\":null,\"simple_at_grade_platform_stations\":null,\"exclusive_grade_separated_platform_stations\":null,\"ferryboat_terminals\":null,\"surface_parking_lots\":null,\"parking_structures\":null}","metadata_tam_modes_json":"{}"},"geometry":{"type":"Point","coordinates":[-117.664802596684,33.4981864593707]}},{"type":"Feature","properties":{"stop_id":"2696104","stop_code":"","platform_code":"","stop_name":"El Adobe Plaza","stop_desc":"","zone_id":"","stop_url":"","location_type":"0","parent_station":"","stop_timezone":"America/Los_Angeles","position":"","direction":"","wheelchair_boarding":"0","tts_stop_name":"","feed_id":"California__San_Juan_Capistrano_Free_Weekend_Trolley__mdb_mdb-2235","agency_name":"San Juan Capistrano","route_count":1,"route_ids":"18168","route_short_names":"","route_types":"3","route_type_names":"Bus","routes_json":"[{\"route_id\":\"18168\",\"route_short_name\":\"\",\"route_long_name\":\"Weekend\",\"route_type\":\"3\",\"route_type_name\":\"Bus\",\"route_color\":\"831B19\",\"route_text_color\":\"FFFFFF\"}]","metadata_feed_id":"California__San_Juan_Capistrano_Free_Weekend_Trolley__mdb_mdb-2235","metadata_agency_names":"San Juan Capistrano","metadata_ntd_id":"99470","metadata_ntd_match_method":"manual_override","metadata_ntd_agency":"Travelers' Aid Society Of San Diego","metadata_ntd_city":"San Diego","metadata_ntd_state":"CA","metadata_gtfs_route_count":3,"metadata_gtfs_trip_count":69,"metadata_gtfs_shape_count":1,"metadata_gtfs_stop_count":19,"metadata_ntd_total_facilities":0,"metadata_ntd_maintenance_facilities":0,"metadata_ntd_passenger_stations":0,"metadata_route_types_json":"{\"3\":3}","metadata_ntd_facilities_json":"{\"maintenance_facilities\":0,\"administrative_and_other_non_passenger_facilities\":0,\"passenger_stations_and_terminals\":0,\"parking_and_other_passenger_facilities\":0,\"total_facilities\":0,\"bus_transfer_centers\":null,\"elevated_fixed_guideway_stations\":null,\"at_grade_fixed_guideway_stations\":null,\"underground_fixed_guideway_stations\":null,\"simple_at_grade_platform_stations\":null,\"exclusive_grade_separated_platform_stations\":null,\"ferryboat_terminals\":null,\"surface_parking_lots\":null,\"parking_structures\":null}","metadata_tam_modes_json":"{}"},"geometry":{"type":"Point","coordinates":[-117.662609,33.499774]}},{"type":"Feature","properties":{"stop_id":"2696105","stop_code":"","platform_code":"","stop_name":"Metrolink Station","stop_desc":"","zone_id":"","stop_url":"","location_type":"0","parent_station":"","stop_timezone":"America/Los_Angeles","position":"","direction":"","wheelchair_boarding":"0","tts_stop_name":"","feed_id":"California__San_Juan_Capistrano_Free_Weekend_Trolley__mdb_mdb-2235","agency_name":"San Juan Capistrano","route_count":1,"route_ids":"18168","route_short_names":"","route_types":"3","route_type_names":"Bus","routes_json":"[{\"route_id\":\"18168\",\"route_short_name\":\"\",\"route_long_name\":\"Weekend\",\"route_type\":\"3\",\"route_type_name\":\"Bus\",\"route_color\":\"831B19\",\"route_text_color\":\"FFFFFF\"}]","metadata_feed_id":"California__San_Juan_Capistrano_Free_Weekend_Trolley__mdb_mdb-2235","metadata_agency_names":"San Juan Capistrano","metadata_ntd_id":"99470","metadata_ntd_match_method":"manual_override","metadata_ntd_agency":"Travelers' Aid Society Of San Diego","metadata_ntd_city":"San Diego","metadata_ntd_state":"CA","metadata_gtfs_route_count":3,"metadata_gtfs_trip_count":69,"metadata_gtfs_shape_count":1,"metadata_gtfs_stop_count":19,"metadata_ntd_total_facilities":0,"metadata_ntd_maintenance_facilities":0,"metadata_ntd_passenger_stations":0,"metadata_route_types_json":"{\"3\":3}","metadata_ntd_facilities_json":"{\"maintenance_facilities\":0,\"administrative_and_other_non_passenger_facilities\":0,\"passenger_stations_and_terminals\":0,\"parking_and_other_passenger_facilities\":0,\"total_facilities\":0,\"bus_transfer_centers\":null,\"elevated_fixed_guideway_stations\":null,\"at_grade_fixed_guideway_stations\":null,\"underground_fixed_guideway_stations\":null,\"simple_at_grade_platform_stations\":null,\"exclusive_grade_separated_platform_stations\":null,\"ferryboat_terminals\":null,\"surface_parking_lots\":null,\"parking_structures\":null}","metadata_tam_modes_json":"{}"},"geometry":{"type":"Point","coordinates":[-117.663832262178,33.5012654164326]}},{"type":"Feature","properties":{"stop_id":"2696106","stop_code":"","platform_code":"","stop_name":"Camino Capistrano & Acjachema (SB)","stop_desc":"","zone_id":"","stop_url":"","location_type":"0","parent_station":"","stop_timezone":"America/Los_Angeles","position":"","direction":"","wheelchair_boarding":"0","tts_stop_name":"","feed_id":"California__San_Juan_Capistrano_Free_Weekend_Trolley__mdb_mdb-2235","agency_name":"San Juan Capistrano","route_count":1,"route_ids":"18168","route_short_names":"","route_types":"3","route_type_names":"Bus","routes_json":"[{\"route_id\":\"18168\",\"route_short_name\":\"\",\"route_long_name\":\"Weekend\",\"route_type\":\"3\",\"route_type_name\":\"Bus\",\"route_color\":\"831B19\",\"route_text_color\":\"FFFFFF\"}]","metadata_feed_id":"California__San_Juan_Capistrano_Free_Weekend_Trolley__mdb_mdb-2235","metadata_agency_names":"San Juan Capistrano","metadata_ntd_id":"99470","metadata_ntd_match_method":"manual_override","metadata_ntd_agency":"Travelers' Aid Society Of San Diego","metadata_ntd_city":"San Diego","metadata_ntd_state":"CA","metadata_gtfs_route_count":3,"metadata_gtfs_trip_count":69,"metadata_gtfs_shape_count":1,"metadata_gtfs_stop_count":19,"metadata_ntd_total_facilities":0,"metadata_ntd_maintenance_facilities":0,"metadata_ntd_passenger_stations":0,"metadata_route_types_json":"{\"3\":3}","metadata_ntd_facilities_json":"{\"maintenance_facilities\":0,\"administrative_and_other_non_passenger_facilities\":0,\"passenger_stations_and_terminals\":0,\"parking_and_other_passenger_facilities\":0,\"total_facilities\":0,\"bus_transfer_centers\":null,\"elevated_fixed_guideway_stations\":null,\"at_grade_fixed_guideway_stations\":null,\"underground_fixed_guideway_stations\":null,\"simple_at_grade_platform_stations\":null,\"exclusive_grade_separated_platform_stations\":null,\"ferryboat_terminals\":null,\"surface_parking_lots\":null,\"parking_structures\":null}","metadata_tam_modes_json":"{}"},"geometry":{"type":"Point","coordinates":[-117.662987881843,33.5050783030429]}},{"type":"Feature","properties":{"stop_id":"2696107","stop_code":"","platform_code":"","stop_name":"Camino Capistrano & La Zanja","stop_desc":"","zone_id":"","stop_url":"","location_type":"0","parent_station":"","stop_timezone":"America/Los_Angeles","position":"","direction":"","wheelchair_boarding":"0","tts_stop_name":"","feed_id":"California__San_Juan_Capistrano_Free_Weekend_Trolley__mdb_mdb-2235","agency_name":"San Juan Capistrano","route_count":1,"route_ids":"18168","route_short_names":"","route_types":"3","route_type_names":"Bus","routes_json":"[{\"route_id\":\"18168\",\"route_short_name\":\"\",\"route_long_name\":\"Weekend\",\"route_type\":\"3\",\"route_type_name\":\"Bus\",\"route_color\":\"831B19\",\"route_text_color\":\"FFFFFF\"}]","metadata_feed_id":"California__San_Juan_Capistrano_Free_Weekend_Trolley__mdb_mdb-2235","metadata_agency_names":"San Juan Capistrano","metadata_ntd_id":"99470","metadata_ntd_match_method":"manual_override","metadata_ntd_agency":"Travelers' Aid Society Of San Diego","metadata_ntd_city":"San Diego","metadata_ntd_state":"CA","metadata_gtfs_route_count":3,"metadata_gtfs_trip_count":69,"metadata_gtfs_shape_count":1,"metadata_gtfs_stop_count":19,"metadata_ntd_total_facilities":0,"metadata_ntd_maintenance_facilities":0,"metadata_ntd_passenger_stations":0,"metadata_route_types_json":"{\"3\":3}","metadata_ntd_facilities_json":"{\"maintenance_facilities\":0,\"administrative_and_other_non_passenger_facilities\":0,\"passenger_stations_and_terminals\":0,\"parking_and_other_passenger_facilities\":0,\"total_facilities\":0,\"bus_transfer_centers\":null,\"elevated_fixed_guideway_stations\":null,\"at_grade_fixed_guideway_stations\":null,\"underground_fixed_guideway_stations\":null,\"simple_at_grade_platform_stations\":null,\"exclusive_grade_separated_platform_stations\":null,\"ferryboat_terminals\":null,\"surface_parking_lots\":null,\"parking_structures\":null}","metadata_tam_modes_json":"{}"},"geometry":{"type":"Point","coordinates":[-117.665416,33.507589]}},{"type":"Feature","properties":{"stop_id":"2696108","stop_code":"","platform_code":"","stop_name":"Camino Capistrano & Acjachema (NB)","stop_desc":"","zone_id":"","stop_url":"","location_type":"0","parent_station":"","stop_timezone":"America/Los_Angeles","position":"","direction":"","wheelchair_boarding":"0","tts_stop_name":"","feed_id":"California__San_Juan_Capistrano_Free_Weekend_Trolley__mdb_mdb-2235","agency_name":"San Juan Capistrano","route_count":1,"route_ids":"18168","route_short_names":"","route_types":"3","route_type_names":"Bus","routes_json":"[{\"route_id\":\"18168\",\"route_short_name\":\"\",\"route_long_name\":\"Weekend\",\"route_type\":\"3\",\"route_type_name\":\"Bus\",\"route_color\":\"831B19\",\"route_text_color\":\"FFFFFF\"}]","metadata_feed_id":"California__San_Juan_Capistrano_Free_Weekend_Trolley__mdb_mdb-2235","metadata_agency_names":"San Juan Capistrano","metadata_ntd_id":"99470","metadata_ntd_match_method":"manual_override","metadata_ntd_agency":"Travelers' Aid Society Of San Diego","metadata_ntd_city":"San Diego","metadata_ntd_state":"CA","metadata_gtfs_route_count":3,"metadata_gtfs_trip_count":69,"metadata_gtfs_shape_count":1,"metadata_gtfs_stop_count":19,"metadata_ntd_total_facilities":0,"metadata_ntd_maintenance_facilities":0,"metadata_ntd_passenger_stations":0,"metadata_route_types_json":"{\"3\":3}","metadata_ntd_facilities_json":"{\"maintenance_facilities\":0,\"administrative_and_other_non_passenger_facilities\":0,\"passenger_stations_and_terminals\":0,\"parking_and_other_passenger_facilities\":0,\"total_facilities\":0,\"bus_transfer_centers\":null,\"elevated_fixed_guideway_stations\":null,\"at_grade_fixed_guideway_stations\":null,\"underground_fixed_guideway_stations\":null,\"simple_at_grade_platform_stations\":null,\"exclusive_grade_separated_platform_stations\":null,\"ferryboat_terminals\":null,\"surface_parking_lots\":null,\"parking_structures\":null}","metadata_tam_modes_json":"{}"},"geometry":{"type":"Point","coordinates":[-117.6642,33.504914]}},{"type":"Feature","properties":{"stop_id":"2696109","stop_code":"","platform_code":"","stop_name":"Mission San Juan Capistrano","stop_desc":"","zone_id":"","stop_url":"","location_type":"0","parent_station":"","stop_timezone":"America/Los_Angeles","position":"","direction":"","wheelchair_boarding":"0","tts_stop_name":"","feed_id":"California__San_Juan_Capistrano_Free_Weekend_Trolley__mdb_mdb-2235","agency_name":"San Juan Capistrano","route_count":1,"route_ids":"18168","route_short_names":"","route_types":"3","route_type_names":"Bus","routes_json":"[{\"route_id\":\"18168\",\"route_short_name\":\"\",\"route_long_name\":\"Weekend\",\"route_type\":\"3\",\"route_type_name\":\"Bus\",\"route_color\":\"831B19\",\"route_text_color\":\"FFFFFF\"}]","metadata_feed_id":"California__San_Juan_Capistrano_Free_Weekend_Trolley__mdb_mdb-2235","metadata_agency_names":"San Juan Capistrano","metadata_ntd_id":"99470","metadata_ntd_match_method":"manual_override","metadata_ntd_agency":"Travelers' Aid Society Of San Diego","metadata_ntd_city":"San Diego","metadata_ntd_state":"CA","metadata_gtfs_route_count":3,"metadata_gtfs_trip_count":69,"metadata_gtfs_shape_count":1,"metadata_gtfs_stop_count":19,"metadata_ntd_total_facilities":0,"metadata_ntd_maintenance_facilities":0,"metadata_ntd_passenger_stations":0,"metadata_route_types_json":"{\"3\":3}","metadata_ntd_facilities_json":"{\"maintenance_facilities\":0,\"administrative_and_other_non_passenger_facilities\":0,\"passenger_stations_and_terminals\":0,\"parking_and_other_passenger_facilities\":0,\"total_facilities\":0,\"bus_transfer_centers\":null,\"elevated_fixed_guideway_stations\":null,\"at_grade_fixed_guideway_stations\":null,\"underground_fixed_guideway_stations\":null,\"simple_at_grade_platform_stations\":null,\"exclusive_grade_separated_platform_stations\":null,\"ferryboat_terminals\":null,\"surface_parking_lots\":null,\"parking_structures\":null}","metadata_tam_modes_json":"{}"},"geometry":{"type":"Point","coordinates":[-117.66301758707,33.5021487511109]}},{"type":"Feature","properties":{"stop_id":"2696110","stop_code":"","platform_code":"","stop_name":"Chase Bank","stop_desc":"","zone_id":"","stop_url":"","location_type":"0","parent_station":"","stop_timezone":"America/Los_Angeles","position":"","direction":"","wheelchair_boarding":"0","tts_stop_name":"","feed_id":"California__San_Juan_Capistrano_Free_Weekend_Trolley__mdb_mdb-2235","agency_name":"San Juan Capistrano","route_count":1,"route_ids":"18168","route_short_names":"","route_types":"3","route_type_names":"Bus","routes_json":"[{\"route_id\":\"18168\",\"route_short_name\":\"\",\"route_long_name\":\"Weekend\",\"route_type\":\"3\",\"route_type_name\":\"Bus\",\"route_color\":\"831B19\",\"route_text_color\":\"FFFFFF\"}]","metadata_feed_id":"California__San_Juan_Capistrano_Free_Weekend_Trolley__mdb_mdb-2235","metadata_agency_names":"San Juan Capistrano","metadata_ntd_id":"99470","metadata_ntd_match_method":"manual_override","metadata_ntd_agency":"Travelers' Aid Society Of San Diego","metadata_ntd_city":"San Diego","metadata_ntd_state":"CA","metadata_gtfs_route_count":3,"metadata_gtfs_trip_count":69,"metadata_gtfs_shape_count":1,"metadata_gtfs_stop_count":19,"metadata_ntd_total_facilities":0,"metadata_ntd_maintenance_facilities":0,"metadata_ntd_passenger_stations":0,"metadata_route_types_json":"{\"3\":3}","metadata_ntd_facilities_json":"{\"maintenance_facilities\":0,\"administrative_and_other_non_passenger_facilities\":0,\"passenger_stations_and_terminals\":0,\"parking_and_other_passenger_facilities\":0,\"total_facilities\":0,\"bus_transfer_centers\":null,\"elevated_fixed_guideway_stations\":null,\"at_grade_fixed_guideway_stations\":null,\"underground_fixed_guideway_stations\":null,\"simple_at_grade_platform_stations\":null,\"exclusive_grade_separated_platform_stations\":null,\"ferryboat_terminals\":null,\"surface_parking_lots\":null,\"parking_structures\":null}","metadata_tam_modes_json":"{}"},"geometry":{"type":"Point","coordinates":[-117.662424646365,33.4984988588744]}},{"type":"Feature","properties":{"stop_id":"2696111","stop_code":"","platform_code":"","stop_name":"Avenida Padre","stop_desc":"","zone_id":"","stop_url":"","location_type":"0","parent_station":"","stop_timezone":"America/Los_Angeles","position":"","direction":"","wheelchair_boarding":"0","tts_stop_name":"","feed_id":"California__San_Juan_Capistrano_Free_Weekend_Trolley__mdb_mdb-2235","agency_name":"San Juan Capistrano","route_count":1,"route_ids":"18168","route_short_names":"","route_types":"3","route_type_names":"Bus","routes_json":"[{\"route_id\":\"18168\",\"route_short_name\":\"\",\"route_long_name\":\"Weekend\",\"route_type\":\"3\",\"route_type_name\":\"Bus\",\"route_color\":\"831B19\",\"route_text_color\":\"FFFFFF\"}]","metadata_feed_id":"California__San_Juan_Capistrano_Free_Weekend_Trolley__mdb_mdb-2235","metadata_agency_names":"San Juan Capistrano","metadata_ntd_id":"99470","metadata_ntd_match_method":"manual_override","metadata_ntd_agency":"Travelers' Aid Society Of San Diego","metadata_ntd_city":"San Diego","metadata_ntd_state":"CA","metadata_gtfs_route_count":3,"metadata_gtfs_trip_count":69,"metadata_gtfs_shape_count":1,"metadata_gtfs_stop_count":19,"metadata_ntd_total_facilities":0,"metadata_ntd_maintenance_facilities":0,"metadata_ntd_passenger_stations":0,"metadata_route_types_json":"{\"3\":3}","metadata_ntd_facilities_json":"{\"maintenance_facilities\":0,\"administrative_and_other_non_passenger_facilities\":0,\"passenger_stations_and_terminals\":0,\"parking_and_other_passenger_facilities\":0,\"total_facilities\":0,\"bus_transfer_centers\":null,\"elevated_fixed_guideway_stations\":null,\"at_grade_fixed_guideway_stations\":null,\"underground_fixed_guideway_stations\":null,\"simple_at_grade_platform_stations\":null,\"exclusive_grade_separated_platform_stations\":null,\"ferryboat_terminals\":null,\"surface_parking_lots\":null,\"parking_structures\":null}","metadata_tam_modes_json":"{}"},"geometry":{"type":"Point","coordinates":[-117.6625351065,33.4929356347]}},{"type":"Feature","properties":{"stop_id":"2696112","stop_code":"","platform_code":"","stop_name":"Avenida Aeropuerto","stop_desc":"","zone_id":"","stop_url":"","location_type":"0","parent_station":"","stop_timezone":"America/Los_Angeles","position":"","direction":"","wheelchair_boarding":"0","tts_stop_name":"","feed_id":"California__San_Juan_Capistrano_Free_Weekend_Trolley__mdb_mdb-2235","agency_name":"San Juan Capistrano","route_count":1,"route_ids":"18168","route_short_names":"","route_types":"3","route_type_names":"Bus","routes_json":"[{\"route_id\":\"18168\",\"route_short_name\":\"\",\"route_long_name\":\"Weekend\",\"route_type\":\"3\",\"route_type_name\":\"Bus\",\"route_color\":\"831B19\",\"route_text_color\":\"FFFFFF\"}]","metadata_feed_id":"California__San_Juan_Capistrano_Free_Weekend_Trolley__mdb_mdb-2235","metadata_agency_names":"San Juan Capistrano","metadata_ntd_id":"99470","metadata_ntd_match_method":"manual_override","metadata_ntd_agency":"Travelers' Aid Society Of San Diego","metadata_ntd_city":"San Diego","metadata_ntd_state":"CA","metadata_gtfs_route_count":3,"metadata_gtfs_trip_count":69,"metadata_gtfs_shape_count":1,"metadata_gtfs_stop_count":19,"metadata_ntd_total_facilities":0,"metadata_ntd_maintenance_facilities":0,"metadata_ntd_passenger_stations":0,"metadata_route_types_json":"{\"3\":3}","metadata_ntd_facilities_json":"{\"maintenance_facilities\":0,\"administrative_and_other_non_passenger_facilities\":0,\"passenger_stations_and_terminals\":0,\"parking_and_other_passenger_facilities\":0,\"total_facilities\":0,\"bus_transfer_centers\":null,\"elevated_fixed_guideway_stations\":null,\"at_grade_fixed_guideway_stations\":null,\"underground_fixed_guideway_stations\":null,\"simple_at_grade_platform_stations\":null,\"exclusive_grade_separated_platform_stations\":null,\"ferryboat_terminals\":null,\"surface_parking_lots\":null,\"parking_structures\":null}","metadata_tam_modes_json":"{}"},"geometry":{"type":"Point","coordinates":[-117.670784321431,33.4809671403571]}},{"type":"Feature","properties":{"stop_id":"2696113","stop_code":"","platform_code":"","stop_name":"Marriott Residence Inn","stop_desc":"","zone_id":"","stop_url":"","location_type":"0","parent_station":"","stop_timezone":"America/Los_Angeles","position":"","direction":"","wheelchair_boarding":"0","tts_stop_name":"","feed_id":"California__San_Juan_Capistrano_Free_Weekend_Trolley__mdb_mdb-2235","agency_name":"San Juan Capistrano","route_count":1,"route_ids":"18168","route_short_names":"","route_types":"3","route_type_names":"Bus","routes_json":"[{\"route_id\":\"18168\",\"route_short_name\":\"\",\"route_long_name\":\"Weekend\",\"route_type\":\"3\",\"route_type_name\":\"Bus\",\"route_color\":\"831B19\",\"route_text_color\":\"FFFFFF\"}]","metadata_feed_id":"California__San_Juan_Capistrano_Free_Weekend_Trolley__mdb_mdb-2235","metadata_agency_names":"San Juan Capistrano","metadata_ntd_id":"99470","metadata_ntd_match_method":"manual_override","metadata_ntd_agency":"Travelers' Aid Society Of San Diego","metadata_ntd_city":"San Diego","metadata_ntd_state":"CA","metadata_gtfs_route_count":3,"metadata_gtfs_trip_count":69,"metadata_gtfs_shape_count":1,"metadata_gtfs_stop_count":19,"metadata_ntd_total_facilities":0,"metadata_ntd_maintenance_facilities":0,"metadata_ntd_passenger_stations":0,"metadata_route_types_json":"{\"3\":3}","metadata_ntd_facilities_json":"{\"maintenance_facilities\":0,\"administrative_and_other_non_passenger_facilities\":0,\"passenger_stations_and_terminals\":0,\"parking_and_other_passenger_facilities\":0,\"total_facilities\":0,\"bus_transfer_centers\":null,\"elevated_fixed_guideway_stations\":null,\"at_grade_fixed_guideway_stations\":null,\"underground_fixed_guideway_stations\":null,\"simple_at_grade_platform_stations\":null,\"exclusive_grade_separated_platform_stations\":null,\"ferryboat_terminals\":null,\"surface_parking_lots\":null,\"parking_structures\":null}","metadata_tam_modes_json":"{}"},"geometry":{"type":"Point","coordinates":[-117.676519,33.473604]}},{"type":"Feature","properties":{"stop_id":"2696114","stop_code":"","platform_code":"","stop_name":"Dana Point Trolley Service Transfer Point","stop_desc":"","zone_id":"","stop_url":"","location_type":"0","parent_station":"","stop_timezone":"America/Los_Angeles","position":"","direction":"","wheelchair_boarding":"0","tts_stop_name":"","feed_id":"California__San_Juan_Capistrano_Free_Weekend_Trolley__mdb_mdb-2235","agency_name":"San Juan Capistrano","route_count":1,"route_ids":"18168","route_short_names":"","route_types":"3","route_type_names":"Bus","routes_json":"[{\"route_id\":\"18168\",\"route_short_name\":\"\",\"route_long_name\":\"Weekend\",\"route_type\":\"3\",\"route_type_name\":\"Bus\",\"route_color\":\"831B19\",\"route_text_color\":\"FFFFFF\"}]","metadata_feed_id":"California__San_Juan_Capistrano_Free_Weekend_Trolley__mdb_mdb-2235","metadata_agency_names":"San Juan Capistrano","metadata_ntd_id":"99470","metadata_ntd_match_method":"manual_override","metadata_ntd_agency":"Travelers' Aid Society Of San Diego","metadata_ntd_city":"San Diego","metadata_ntd_state":"CA","metadata_gtfs_route_count":3,"metadata_gtfs_trip_count":69,"metadata_gtfs_shape_count":1,"metadata_gtfs_stop_count":19,"metadata_ntd_total_facilities":0,"metadata_ntd_maintenance_facilities":0,"metadata_ntd_passenger_stations":0,"metadata_route_types_json":"{\"3\":3}","metadata_ntd_facilities_json":"{\"maintenance_facilities\":0,\"administrative_and_other_non_passenger_facilities\":0,\"passenger_stations_and_terminals\":0,\"parking_and_other_passenger_facilities\":0,\"total_facilities\":0,\"bus_transfer_centers\":null,\"elevated_fixed_guideway_stations\":null,\"at_grade_fixed_guideway_stations\":null,\"underground_fixed_guideway_stations\":null,\"simple_at_grade_platform_stations\":null,\"exclusive_grade_separated_platform_stations\":null,\"ferryboat_terminals\":null,\"surface_parking_lots\":null,\"parking_structures\":null}","metadata_tam_modes_json":"{}"},"geometry":{"type":"Point","coordinates":[-117.684513,33.475304]}}],"metadata":{"feed_id":"California__San_Juan_Capistrano_Free_Weekend_Trolley__mdb_mdb-2235","ntd_id":"99470","feature_metadata_embedded":true}}