{"type":"FeatureCollection","features":[{"type":"Feature","properties":{"stop_id":"4149479","stop_code":"","stop_name":"Tribal Center","stop_desc":"","zone_id":"","stop_url":"","location_type":"0","parent_station":"","stop_timezone":"America/Los_Angeles","wheelchair_boarding":"0","platform_code":"","tts_stop_name":"","feed_id":"Washington__Elwha_Transit__mdb_mdb-2307","agency_name":"Elwha Transit","route_count":1,"route_ids":"74509","route_short_names":"","route_types":"3","route_type_names":"Bus","routes_json":"[{\"route_id\":\"74509\",\"route_short_name\":\"\",\"route_long_name\":\"Elwha Transit\",\"route_type\":\"3\",\"route_type_name\":\"Bus\",\"route_color\":\"00B5F9\",\"route_text_color\":\"000000\"}]","metadata_feed_id":"Washington__Elwha_Transit__mdb_mdb-2307","metadata_agency_names":"Elwha Transit","metadata_ntd_id":"00405","metadata_ntd_match_method":"manual_override","metadata_ntd_agency":"Okanogan County Transit Authority, dba: TranGO","metadata_ntd_city":"Okanogan","metadata_ntd_state":"WA","metadata_gtfs_route_count":1,"metadata_gtfs_trip_count":3,"metadata_gtfs_shape_count":2,"metadata_gtfs_stop_count":9,"metadata_ntd_agency_voms":16,"metadata_ntd_total_facilities":0,"metadata_ntd_maintenance_facilities":0,"metadata_ntd_passenger_stations":0,"metadata_tam_tier":"Tier II","metadata_route_types_json":"{\"3\":1}","metadata_ntd_facilities_json":"{\"maintenance_facilities\":0,\"administrative_and_other_non_passenger_facilities\":0,\"passenger_stations_and_terminals\":0,\"parking_and_other_passenger_facilities\":0,\"total_facilities\":0,\"bus_transfer_centers\":null,\"elevated_fixed_guideway_stations\":null,\"at_grade_fixed_guideway_stations\":null,\"underground_fixed_guideway_stations\":null,\"simple_at_grade_platform_stations\":null,\"exclusive_grade_separated_platform_stations\":null,\"ferryboat_terminals\":null,\"surface_parking_lots\":null,\"parking_structures\":null}","metadata_tam_modes_json":"{\"MB\":{\"total_units_2024\":19,\"units_under_threshold_2024\":7,\"voms_2024\":22,\"total_modal_vrm_2024\":1131724,\"total_modal_upt_2024\":109558},\"VP\":{\"total_units_2024\":8,\"units_under_threshold_2024\":8,\"voms_2024\":5,\"total_modal_vrm_2024\":90543,\"total_modal_upt_2024\":10622}}"},"geometry":{"type":"Point","coordinates":[-123.54895461395998,48.144065966683314]}},{"type":"Feature","properties":{"stop_id":"4149480","stop_code":"","stop_name":"Middle Housing","stop_desc":"","zone_id":"","stop_url":"","location_type":"0","parent_station":"","stop_timezone":"America/Los_Angeles","wheelchair_boarding":"0","platform_code":"","tts_stop_name":"","feed_id":"Washington__Elwha_Transit__mdb_mdb-2307","agency_name":"Elwha Transit","route_count":1,"route_ids":"74509","route_short_names":"","route_types":"3","route_type_names":"Bus","routes_json":"[{\"route_id\":\"74509\",\"route_short_name\":\"\",\"route_long_name\":\"Elwha Transit\",\"route_type\":\"3\",\"route_type_name\":\"Bus\",\"route_color\":\"00B5F9\",\"route_text_color\":\"000000\"}]","metadata_feed_id":"Washington__Elwha_Transit__mdb_mdb-2307","metadata_agency_names":"Elwha Transit","metadata_ntd_id":"00405","metadata_ntd_match_method":"manual_override","metadata_ntd_agency":"Okanogan County Transit Authority, dba: TranGO","metadata_ntd_city":"Okanogan","metadata_ntd_state":"WA","metadata_gtfs_route_count":1,"metadata_gtfs_trip_count":3,"metadata_gtfs_shape_count":2,"metadata_gtfs_stop_count":9,"metadata_ntd_agency_voms":16,"metadata_ntd_total_facilities":0,"metadata_ntd_maintenance_facilities":0,"metadata_ntd_passenger_stations":0,"metadata_tam_tier":"Tier II","metadata_route_types_json":"{\"3\":1}","metadata_ntd_facilities_json":"{\"maintenance_facilities\":0,\"administrative_and_other_non_passenger_facilities\":0,\"passenger_stations_and_terminals\":0,\"parking_and_other_passenger_facilities\":0,\"total_facilities\":0,\"bus_transfer_centers\":null,\"elevated_fixed_guideway_stations\":null,\"at_grade_fixed_guideway_stations\":null,\"underground_fixed_guideway_stations\":null,\"simple_at_grade_platform_stations\":null,\"exclusive_grade_separated_platform_stations\":null,\"ferryboat_terminals\":null,\"surface_parking_lots\":null,\"parking_structures\":null}","metadata_tam_modes_json":"{\"MB\":{\"total_units_2024\":19,\"units_under_threshold_2024\":7,\"voms_2024\":22,\"total_modal_vrm_2024\":1131724,\"total_modal_upt_2024\":109558},\"VP\":{\"total_units_2024\":8,\"units_under_threshold_2024\":8,\"voms_2024\":5,\"total_modal_vrm_2024\":90543,\"total_modal_upt_2024\":10622}}"},"geometry":{"type":"Point","coordinates":[-123.53923589,48.142472945]}},{"type":"Feature","properties":{"stop_id":"4149481","stop_code":"","stop_name":"Social Services","stop_desc":"","zone_id":"","stop_url":"","location_type":"0","parent_station":"","stop_timezone":"America/Los_Angeles","wheelchair_boarding":"0","platform_code":"","tts_stop_name":"","feed_id":"Washington__Elwha_Transit__mdb_mdb-2307","agency_name":"Elwha Transit","route_count":1,"route_ids":"74509","route_short_names":"","route_types":"3","route_type_names":"Bus","routes_json":"[{\"route_id\":\"74509\",\"route_short_name\":\"\",\"route_long_name\":\"Elwha Transit\",\"route_type\":\"3\",\"route_type_name\":\"Bus\",\"route_color\":\"00B5F9\",\"route_text_color\":\"000000\"}]","metadata_feed_id":"Washington__Elwha_Transit__mdb_mdb-2307","metadata_agency_names":"Elwha Transit","metadata_ntd_id":"00405","metadata_ntd_match_method":"manual_override","metadata_ntd_agency":"Okanogan County Transit Authority, dba: TranGO","metadata_ntd_city":"Okanogan","metadata_ntd_state":"WA","metadata_gtfs_route_count":1,"metadata_gtfs_trip_count":3,"metadata_gtfs_shape_count":2,"metadata_gtfs_stop_count":9,"metadata_ntd_agency_voms":16,"metadata_ntd_total_facilities":0,"metadata_ntd_maintenance_facilities":0,"metadata_ntd_passenger_stations":0,"metadata_tam_tier":"Tier II","metadata_route_types_json":"{\"3\":1}","metadata_ntd_facilities_json":"{\"maintenance_facilities\":0,\"administrative_and_other_non_passenger_facilities\":0,\"passenger_stations_and_terminals\":0,\"parking_and_other_passenger_facilities\":0,\"total_facilities\":0,\"bus_transfer_centers\":null,\"elevated_fixed_guideway_stations\":null,\"at_grade_fixed_guideway_stations\":null,\"underground_fixed_guideway_stations\":null,\"simple_at_grade_platform_stations\":null,\"exclusive_grade_separated_platform_stations\":null,\"ferryboat_terminals\":null,\"surface_parking_lots\":null,\"parking_structures\":null}","metadata_tam_modes_json":"{\"MB\":{\"total_units_2024\":19,\"units_under_threshold_2024\":7,\"voms_2024\":22,\"total_modal_vrm_2024\":1131724,\"total_modal_upt_2024\":109558},\"VP\":{\"total_units_2024\":8,\"units_under_threshold_2024\":8,\"voms_2024\":5,\"total_modal_vrm_2024\":90543,\"total_modal_upt_2024\":10622}}"},"geometry":{"type":"Point","coordinates":[-123.553705999767,48.14447746198766]}},{"type":"Feature","properties":{"stop_id":"4149482","stop_code":"","stop_name":"Culture and Language Department Building","stop_desc":"","zone_id":"","stop_url":"","location_type":"0","parent_station":"","stop_timezone":"America/Los_Angeles","wheelchair_boarding":"0","platform_code":"","tts_stop_name":"","feed_id":"Washington__Elwha_Transit__mdb_mdb-2307","agency_name":"Elwha Transit","route_count":1,"route_ids":"74509","route_short_names":"","route_types":"3","route_type_names":"Bus","routes_json":"[{\"route_id\":\"74509\",\"route_short_name\":\"\",\"route_long_name\":\"Elwha Transit\",\"route_type\":\"3\",\"route_type_name\":\"Bus\",\"route_color\":\"00B5F9\",\"route_text_color\":\"000000\"}]","metadata_feed_id":"Washington__Elwha_Transit__mdb_mdb-2307","metadata_agency_names":"Elwha Transit","metadata_ntd_id":"00405","metadata_ntd_match_method":"manual_override","metadata_ntd_agency":"Okanogan County Transit Authority, dba: TranGO","metadata_ntd_city":"Okanogan","metadata_ntd_state":"WA","metadata_gtfs_route_count":1,"metadata_gtfs_trip_count":3,"metadata_gtfs_shape_count":2,"metadata_gtfs_stop_count":9,"metadata_ntd_agency_voms":16,"metadata_ntd_total_facilities":0,"metadata_ntd_maintenance_facilities":0,"metadata_ntd_passenger_stations":0,"metadata_tam_tier":"Tier II","metadata_route_types_json":"{\"3\":1}","metadata_ntd_facilities_json":"{\"maintenance_facilities\":0,\"administrative_and_other_non_passenger_facilities\":0,\"passenger_stations_and_terminals\":0,\"parking_and_other_passenger_facilities\":0,\"total_facilities\":0,\"bus_transfer_centers\":null,\"elevated_fixed_guideway_stations\":null,\"at_grade_fixed_guideway_stations\":null,\"underground_fixed_guideway_stations\":null,\"simple_at_grade_platform_stations\":null,\"exclusive_grade_separated_platform_stations\":null,\"ferryboat_terminals\":null,\"surface_parking_lots\":null,\"parking_structures\":null}","metadata_tam_modes_json":"{\"MB\":{\"total_units_2024\":19,\"units_under_threshold_2024\":7,\"voms_2024\":22,\"total_modal_vrm_2024\":1131724,\"total_modal_upt_2024\":109558},\"VP\":{\"total_units_2024\":8,\"units_under_threshold_2024\":8,\"voms_2024\":5,\"total_modal_vrm_2024\":90543,\"total_modal_upt_2024\":10622}}"},"geometry":{"type":"Point","coordinates":[-123.547015268,48.139526284]}},{"type":"Feature","properties":{"stop_id":"4149483","stop_code":"","stop_name":"Elwha Food & Fuel","stop_desc":"","zone_id":"","stop_url":"","location_type":"0","parent_station":"","stop_timezone":"America/Los_Angeles","wheelchair_boarding":"0","platform_code":"","tts_stop_name":"","feed_id":"Washington__Elwha_Transit__mdb_mdb-2307","agency_name":"Elwha Transit","route_count":1,"route_ids":"74509","route_short_names":"","route_types":"3","route_type_names":"Bus","routes_json":"[{\"route_id\":\"74509\",\"route_short_name\":\"\",\"route_long_name\":\"Elwha Transit\",\"route_type\":\"3\",\"route_type_name\":\"Bus\",\"route_color\":\"00B5F9\",\"route_text_color\":\"000000\"}]","metadata_feed_id":"Washington__Elwha_Transit__mdb_mdb-2307","metadata_agency_names":"Elwha Transit","metadata_ntd_id":"00405","metadata_ntd_match_method":"manual_override","metadata_ntd_agency":"Okanogan County Transit Authority, dba: TranGO","metadata_ntd_city":"Okanogan","metadata_ntd_state":"WA","metadata_gtfs_route_count":1,"metadata_gtfs_trip_count":3,"metadata_gtfs_shape_count":2,"metadata_gtfs_stop_count":9,"metadata_ntd_agency_voms":16,"metadata_ntd_total_facilities":0,"metadata_ntd_maintenance_facilities":0,"metadata_ntd_passenger_stations":0,"metadata_tam_tier":"Tier II","metadata_route_types_json":"{\"3\":1}","metadata_ntd_facilities_json":"{\"maintenance_facilities\":0,\"administrative_and_other_non_passenger_facilities\":0,\"passenger_stations_and_terminals\":0,\"parking_and_other_passenger_facilities\":0,\"total_facilities\":0,\"bus_transfer_centers\":null,\"elevated_fixed_guideway_stations\":null,\"at_grade_fixed_guideway_stations\":null,\"underground_fixed_guideway_stations\":null,\"simple_at_grade_platform_stations\":null,\"exclusive_grade_separated_platform_stations\":null,\"ferryboat_terminals\":null,\"surface_parking_lots\":null,\"parking_structures\":null}","metadata_tam_modes_json":"{\"MB\":{\"total_units_2024\":19,\"units_under_threshold_2024\":7,\"voms_2024\":22,\"total_modal_vrm_2024\":1131724,\"total_modal_upt_2024\":109558},\"VP\":{\"total_units_2024\":8,\"units_under_threshold_2024\":8,\"voms_2024\":5,\"total_modal_vrm_2024\":90543,\"total_modal_upt_2024\":10622}}"},"geometry":{"type":"Point","coordinates":[-123.51450446327934,48.10233477687743]}},{"type":"Feature","properties":{"stop_id":"4149484","stop_code":"","stop_name":"Health Clinic","stop_desc":"","zone_id":"","stop_url":"","location_type":"0","parent_station":"","stop_timezone":"America/Los_Angeles","wheelchair_boarding":"0","platform_code":"","tts_stop_name":"","feed_id":"Washington__Elwha_Transit__mdb_mdb-2307","agency_name":"Elwha Transit","route_count":1,"route_ids":"74509","route_short_names":"","route_types":"3","route_type_names":"Bus","routes_json":"[{\"route_id\":\"74509\",\"route_short_name\":\"\",\"route_long_name\":\"Elwha Transit\",\"route_type\":\"3\",\"route_type_name\":\"Bus\",\"route_color\":\"00B5F9\",\"route_text_color\":\"000000\"}]","metadata_feed_id":"Washington__Elwha_Transit__mdb_mdb-2307","metadata_agency_names":"Elwha Transit","metadata_ntd_id":"00405","metadata_ntd_match_method":"manual_override","metadata_ntd_agency":"Okanogan County Transit Authority, dba: TranGO","metadata_ntd_city":"Okanogan","metadata_ntd_state":"WA","metadata_gtfs_route_count":1,"metadata_gtfs_trip_count":3,"metadata_gtfs_shape_count":2,"metadata_gtfs_stop_count":9,"metadata_ntd_agency_voms":16,"metadata_ntd_total_facilities":0,"metadata_ntd_maintenance_facilities":0,"metadata_ntd_passenger_stations":0,"metadata_tam_tier":"Tier II","metadata_route_types_json":"{\"3\":1}","metadata_ntd_facilities_json":"{\"maintenance_facilities\":0,\"administrative_and_other_non_passenger_facilities\":0,\"passenger_stations_and_terminals\":0,\"parking_and_other_passenger_facilities\":0,\"total_facilities\":0,\"bus_transfer_centers\":null,\"elevated_fixed_guideway_stations\":null,\"at_grade_fixed_guideway_stations\":null,\"underground_fixed_guideway_stations\":null,\"simple_at_grade_platform_stations\":null,\"exclusive_grade_separated_platform_stations\":null,\"ferryboat_terminals\":null,\"surface_parking_lots\":null,\"parking_structures\":null}","metadata_tam_modes_json":"{\"MB\":{\"total_units_2024\":19,\"units_under_threshold_2024\":7,\"voms_2024\":22,\"total_modal_vrm_2024\":1131724,\"total_modal_upt_2024\":109558},\"VP\":{\"total_units_2024\":8,\"units_under_threshold_2024\":8,\"voms_2024\":5,\"total_modal_vrm_2024\":90543,\"total_modal_upt_2024\":10622}}"},"geometry":{"type":"Point","coordinates":[-123.5210066969674,48.10147746641772]}},{"type":"Feature","properties":{"stop_id":"4149486","stop_code":"","stop_name":"Upper Housing","stop_desc":"","zone_id":"","stop_url":"","location_type":"0","parent_station":"","stop_timezone":"America/Los_Angeles","wheelchair_boarding":"0","platform_code":"","tts_stop_name":"","feed_id":"Washington__Elwha_Transit__mdb_mdb-2307","agency_name":"Elwha Transit","route_count":1,"route_ids":"74509","route_short_names":"","route_types":"3","route_type_names":"Bus","routes_json":"[{\"route_id\":\"74509\",\"route_short_name\":\"\",\"route_long_name\":\"Elwha Transit\",\"route_type\":\"3\",\"route_type_name\":\"Bus\",\"route_color\":\"00B5F9\",\"route_text_color\":\"000000\"}]","metadata_feed_id":"Washington__Elwha_Transit__mdb_mdb-2307","metadata_agency_names":"Elwha Transit","metadata_ntd_id":"00405","metadata_ntd_match_method":"manual_override","metadata_ntd_agency":"Okanogan County Transit Authority, dba: TranGO","metadata_ntd_city":"Okanogan","metadata_ntd_state":"WA","metadata_gtfs_route_count":1,"metadata_gtfs_trip_count":3,"metadata_gtfs_shape_count":2,"metadata_gtfs_stop_count":9,"metadata_ntd_agency_voms":16,"metadata_ntd_total_facilities":0,"metadata_ntd_maintenance_facilities":0,"metadata_ntd_passenger_stations":0,"metadata_tam_tier":"Tier II","metadata_route_types_json":"{\"3\":1}","metadata_ntd_facilities_json":"{\"maintenance_facilities\":0,\"administrative_and_other_non_passenger_facilities\":0,\"passenger_stations_and_terminals\":0,\"parking_and_other_passenger_facilities\":0,\"total_facilities\":0,\"bus_transfer_centers\":null,\"elevated_fixed_guideway_stations\":null,\"at_grade_fixed_guideway_stations\":null,\"underground_fixed_guideway_stations\":null,\"simple_at_grade_platform_stations\":null,\"exclusive_grade_separated_platform_stations\":null,\"ferryboat_terminals\":null,\"surface_parking_lots\":null,\"parking_structures\":null}","metadata_tam_modes_json":"{\"MB\":{\"total_units_2024\":19,\"units_under_threshold_2024\":7,\"voms_2024\":22,\"total_modal_vrm_2024\":1131724,\"total_modal_upt_2024\":109558},\"VP\":{\"total_units_2024\":8,\"units_under_threshold_2024\":8,\"voms_2024\":5,\"total_modal_vrm_2024\":90543,\"total_modal_upt_2024\":10622}}"},"geometry":{"type":"Point","coordinates":[-123.57781482527407,48.12893647176784]}},{"type":"Feature","properties":{"stop_id":"4149487","stop_code":"","stop_name":"Laird's Corner","stop_desc":"","zone_id":"","stop_url":"","location_type":"0","parent_station":"","stop_timezone":"America/Los_Angeles","wheelchair_boarding":"0","platform_code":"","tts_stop_name":"","feed_id":"Washington__Elwha_Transit__mdb_mdb-2307","agency_name":"Elwha Transit","route_count":1,"route_ids":"74509","route_short_names":"","route_types":"3","route_type_names":"Bus","routes_json":"[{\"route_id\":\"74509\",\"route_short_name\":\"\",\"route_long_name\":\"Elwha Transit\",\"route_type\":\"3\",\"route_type_name\":\"Bus\",\"route_color\":\"00B5F9\",\"route_text_color\":\"000000\"}]","metadata_feed_id":"Washington__Elwha_Transit__mdb_mdb-2307","metadata_agency_names":"Elwha Transit","metadata_ntd_id":"00405","metadata_ntd_match_method":"manual_override","metadata_ntd_agency":"Okanogan County Transit Authority, dba: TranGO","metadata_ntd_city":"Okanogan","metadata_ntd_state":"WA","metadata_gtfs_route_count":1,"metadata_gtfs_trip_count":3,"metadata_gtfs_shape_count":2,"metadata_gtfs_stop_count":9,"metadata_ntd_agency_voms":16,"metadata_ntd_total_facilities":0,"metadata_ntd_maintenance_facilities":0,"metadata_ntd_passenger_stations":0,"metadata_tam_tier":"Tier II","metadata_route_types_json":"{\"3\":1}","metadata_ntd_facilities_json":"{\"maintenance_facilities\":0,\"administrative_and_other_non_passenger_facilities\":0,\"passenger_stations_and_terminals\":0,\"parking_and_other_passenger_facilities\":0,\"total_facilities\":0,\"bus_transfer_centers\":null,\"elevated_fixed_guideway_stations\":null,\"at_grade_fixed_guideway_stations\":null,\"underground_fixed_guideway_stations\":null,\"simple_at_grade_platform_stations\":null,\"exclusive_grade_separated_platform_stations\":null,\"ferryboat_terminals\":null,\"surface_parking_lots\":null,\"parking_structures\":null}","metadata_tam_modes_json":"{\"MB\":{\"total_units_2024\":19,\"units_under_threshold_2024\":7,\"voms_2024\":22,\"total_modal_vrm_2024\":1131724,\"total_modal_upt_2024\":109558},\"VP\":{\"total_units_2024\":8,\"units_under_threshold_2024\":8,\"voms_2024\":5,\"total_modal_vrm_2024\":90543,\"total_modal_upt_2024\":10622}}"},"geometry":{"type":"Point","coordinates":[-123.53660501477508,48.09868716794318]}},{"type":"Feature","properties":{"stop_id":"4248572","stop_code":"","stop_name":"Food Bank","stop_desc":"","zone_id":"","stop_url":"","location_type":"0","parent_station":"","stop_timezone":"America/Los_Angeles","wheelchair_boarding":"0","platform_code":"","tts_stop_name":"","feed_id":"Washington__Elwha_Transit__mdb_mdb-2307","agency_name":"Elwha Transit","route_count":1,"route_ids":"74509","route_short_names":"","route_types":"3","route_type_names":"Bus","routes_json":"[{\"route_id\":\"74509\",\"route_short_name\":\"\",\"route_long_name\":\"Elwha Transit\",\"route_type\":\"3\",\"route_type_name\":\"Bus\",\"route_color\":\"00B5F9\",\"route_text_color\":\"000000\"}]","metadata_feed_id":"Washington__Elwha_Transit__mdb_mdb-2307","metadata_agency_names":"Elwha Transit","metadata_ntd_id":"00405","metadata_ntd_match_method":"manual_override","metadata_ntd_agency":"Okanogan County Transit Authority, dba: TranGO","metadata_ntd_city":"Okanogan","metadata_ntd_state":"WA","metadata_gtfs_route_count":1,"metadata_gtfs_trip_count":3,"metadata_gtfs_shape_count":2,"metadata_gtfs_stop_count":9,"metadata_ntd_agency_voms":16,"metadata_ntd_total_facilities":0,"metadata_ntd_maintenance_facilities":0,"metadata_ntd_passenger_stations":0,"metadata_tam_tier":"Tier II","metadata_route_types_json":"{\"3\":1}","metadata_ntd_facilities_json":"{\"maintenance_facilities\":0,\"administrative_and_other_non_passenger_facilities\":0,\"passenger_stations_and_terminals\":0,\"parking_and_other_passenger_facilities\":0,\"total_facilities\":0,\"bus_transfer_centers\":null,\"elevated_fixed_guideway_stations\":null,\"at_grade_fixed_guideway_stations\":null,\"underground_fixed_guideway_stations\":null,\"simple_at_grade_platform_stations\":null,\"exclusive_grade_separated_platform_stations\":null,\"ferryboat_terminals\":null,\"surface_parking_lots\":null,\"parking_structures\":null}","metadata_tam_modes_json":"{\"MB\":{\"total_units_2024\":19,\"units_under_threshold_2024\":7,\"voms_2024\":22,\"total_modal_vrm_2024\":1131724,\"total_modal_upt_2024\":109558},\"VP\":{\"total_units_2024\":8,\"units_under_threshold_2024\":8,\"voms_2024\":5,\"total_modal_vrm_2024\":90543,\"total_modal_upt_2024\":10622}}"},"geometry":{"type":"Point","coordinates":[-123.53725915898616,48.1381827007032]}}],"metadata":{"feed_id":"Washington__Elwha_Transit__mdb_mdb-2307","ntd_id":"00405","feature_metadata_embedded":true}}