{"type":"FeatureCollection","features":[{"type":"Feature","properties":{"stop_id":"2332428","stop_code":"","stop_name":"Ketchikan","stop_desc":"","zone_id":"","stop_url":"","location_type":"0","parent_station":"","stop_timezone":"America/Sitka","wheelchair_boarding":"0","platform_code":"","tts_stop_name":"","feed_id":"Alaska__Inter-Island_Ferry__mdb_mdb-243","agency_name":"Inter-Island Ferry Authority","route_count":1,"route_ids":"6177","route_short_names":"","route_types":"4","route_type_names":"Ferry","routes_json":"[{\"route_id\":\"6177\",\"route_short_name\":\"\",\"route_long_name\":\"Ketchikan to Hollis\",\"route_type\":\"4\",\"route_type_name\":\"Ferry\",\"route_color\":\"4CD975\",\"route_text_color\":\"FFFFFF\"}]","metadata_feed_id":"Alaska__Inter-Island_Ferry__mdb_mdb-243","metadata_agency_names":"Inter-Island Ferry Authority","metadata_ntd_id":"00382","metadata_ntd_match_method":"manual_override","metadata_ntd_agency":"Inter-Island Ferry Authority","metadata_ntd_city":"Craig","metadata_ntd_state":"AK","metadata_gtfs_route_count":1,"metadata_gtfs_trip_count":2,"metadata_gtfs_shape_count":2,"metadata_gtfs_stop_count":2,"metadata_ntd_agency_voms":1,"metadata_ntd_total_facilities":3,"metadata_ntd_maintenance_facilities":0,"metadata_ntd_passenger_stations":2,"metadata_tam_tier":"Tier II","metadata_route_types_json":"{\"4\":1}","metadata_ntd_facilities_json":"{\"maintenance_facilities\":0,\"administrative_and_other_non_passenger_facilities\":1,\"passenger_stations_and_terminals\":2,\"parking_and_other_passenger_facilities\":0,\"total_facilities\":3,\"bus_transfer_centers\":0,\"elevated_fixed_guideway_stations\":0,\"at_grade_fixed_guideway_stations\":0,\"underground_fixed_guideway_stations\":0,\"simple_at_grade_platform_stations\":0,\"exclusive_grade_separated_platform_stations\":0,\"ferryboat_terminals\":2,\"surface_parking_lots\":0,\"parking_structures\":0}","metadata_tam_modes_json":"{\"FB\":{\"total_units_2024\":9,\"units_under_threshold_2024\":4,\"voms_2024\":1,\"total_modal_vrm_2024\":25344,\"total_modal_upt_2024\":48554}}"},"geometry":{"type":"Point","coordinates":[-131.69223241328,55.353869265831]}},{"type":"Feature","properties":{"stop_id":"2332427","stop_code":"","stop_name":"Hollis","stop_desc":"","zone_id":"","stop_url":"","location_type":"0","parent_station":"","stop_timezone":"America/Sitka","wheelchair_boarding":"0","platform_code":"","tts_stop_name":"","feed_id":"Alaska__Inter-Island_Ferry__mdb_mdb-243","agency_name":"Inter-Island Ferry Authority","route_count":1,"route_ids":"6177","route_short_names":"","route_types":"4","route_type_names":"Ferry","routes_json":"[{\"route_id\":\"6177\",\"route_short_name\":\"\",\"route_long_name\":\"Ketchikan to Hollis\",\"route_type\":\"4\",\"route_type_name\":\"Ferry\",\"route_color\":\"4CD975\",\"route_text_color\":\"FFFFFF\"}]","metadata_feed_id":"Alaska__Inter-Island_Ferry__mdb_mdb-243","metadata_agency_names":"Inter-Island Ferry Authority","metadata_ntd_id":"00382","metadata_ntd_match_method":"manual_override","metadata_ntd_agency":"Inter-Island Ferry Authority","metadata_ntd_city":"Craig","metadata_ntd_state":"AK","metadata_gtfs_route_count":1,"metadata_gtfs_trip_count":2,"metadata_gtfs_shape_count":2,"metadata_gtfs_stop_count":2,"metadata_ntd_agency_voms":1,"metadata_ntd_total_facilities":3,"metadata_ntd_maintenance_facilities":0,"metadata_ntd_passenger_stations":2,"metadata_tam_tier":"Tier II","metadata_route_types_json":"{\"4\":1}","metadata_ntd_facilities_json":"{\"maintenance_facilities\":0,\"administrative_and_other_non_passenger_facilities\":1,\"passenger_stations_and_terminals\":2,\"parking_and_other_passenger_facilities\":0,\"total_facilities\":3,\"bus_transfer_centers\":0,\"elevated_fixed_guideway_stations\":0,\"at_grade_fixed_guideway_stations\":0,\"underground_fixed_guideway_stations\":0,\"simple_at_grade_platform_stations\":0,\"exclusive_grade_separated_platform_stations\":0,\"ferryboat_terminals\":2,\"surface_parking_lots\":0,\"parking_structures\":0}","metadata_tam_modes_json":"{\"FB\":{\"total_units_2024\":9,\"units_under_threshold_2024\":4,\"voms_2024\":1,\"total_modal_vrm_2024\":25344,\"total_modal_upt_2024\":48554}}"},"geometry":{"type":"Point","coordinates":[-132.62209827778,55.4904042]}}],"metadata":{"feed_id":"Alaska__Inter-Island_Ferry__mdb_mdb-243","ntd_id":"00382","feature_metadata_embedded":true}}