{"type":"FeatureCollection","features":[{"type":"Feature","properties":{"stop_id":"758954","stop_code":"","stop_name":"E/S of Hills N of Hwy 58","stop_desc":"","zone_id":"","stop_url":"","location_type":"0","parent_station":"","stop_timezone":"America/Los_Angeles","wheelchair_boarding":"0","platform_code":"","tts_stop_name":"","feed_id":"Oregon__Diamond_Express__mdb_mdb-130","agency_name":"Diamond Express","route_count":1,"route_ids":"1107","route_short_names":"","route_types":"3","route_type_names":"Bus","routes_json":"[{\"route_id\":\"1107\",\"route_short_name\":\"\",\"route_long_name\":\"Diamond Express\",\"route_type\":\"3\",\"route_type_name\":\"Bus\",\"route_color\":\"009966\",\"route_text_color\":\"08088A\"}]","metadata_feed_id":"Oregon__Diamond_Express__mdb_mdb-130","metadata_agency_names":"Diamond Express","metadata_ntd_id":"00377","metadata_ntd_match_method":"manual_override","metadata_ntd_agency":"City of Lebanon, dba: Lebanon Interneighborhood Express","metadata_ntd_city":"Lebanon","metadata_ntd_state":"OR","metadata_gtfs_route_count":1,"metadata_gtfs_trip_count":12,"metadata_gtfs_shape_count":4,"metadata_gtfs_stop_count":13,"metadata_ntd_agency_voms":9,"metadata_ntd_total_facilities":0,"metadata_ntd_maintenance_facilities":0,"metadata_ntd_passenger_stations":0,"metadata_tam_tier":"Tier II","metadata_route_types_json":"{\"3\":1}","metadata_ntd_facilities_json":"{\"maintenance_facilities\":0,\"administrative_and_other_non_passenger_facilities\":0,\"passenger_stations_and_terminals\":0,\"parking_and_other_passenger_facilities\":0,\"total_facilities\":0,\"bus_transfer_centers\":null,\"elevated_fixed_guideway_stations\":null,\"at_grade_fixed_guideway_stations\":null,\"underground_fixed_guideway_stations\":null,\"simple_at_grade_platform_stations\":null,\"exclusive_grade_separated_platform_stations\":null,\"ferryboat_terminals\":null,\"surface_parking_lots\":null,\"parking_structures\":null}","metadata_tam_modes_json":"{\"CB\":{\"total_units_2024\":1,\"units_under_threshold_2024\":0,\"voms_2024\":1,\"total_modal_vrm_2024\":18113,\"total_modal_upt_2024\":2409},\"DR\":{\"total_units_2024\":7,\"units_under_threshold_2024\":1,\"voms_2024\":14,\"total_modal_vrm_2024\":218664,\"total_modal_upt_2024\":93908},\"MB\":{\"total_units_2024\":1,\"units_under_threshold_2024\":0,\"voms_2024\":1,\"total_modal_vrm_2024\":24110,\"total_modal_upt_2024\":14585}}"},"geometry":{"type":"Point","coordinates":[-122.460348,43.742044]}},{"type":"Feature","properties":{"stop_id":"758955","stop_code":"","stop_name":"W/S of Crestview N of Hwy 58","stop_desc":"","zone_id":"","stop_url":"","location_type":"0","parent_station":"","stop_timezone":"America/Los_Angeles","wheelchair_boarding":"0","platform_code":"","tts_stop_name":"","feed_id":"Oregon__Diamond_Express__mdb_mdb-130","agency_name":"Diamond Express","route_count":1,"route_ids":"1107","route_short_names":"","route_types":"3","route_type_names":"Bus","routes_json":"[{\"route_id\":\"1107\",\"route_short_name\":\"\",\"route_long_name\":\"Diamond Express\",\"route_type\":\"3\",\"route_type_name\":\"Bus\",\"route_color\":\"009966\",\"route_text_color\":\"08088A\"}]","metadata_feed_id":"Oregon__Diamond_Express__mdb_mdb-130","metadata_agency_names":"Diamond Express","metadata_ntd_id":"00377","metadata_ntd_match_method":"manual_override","metadata_ntd_agency":"City of Lebanon, dba: Lebanon Interneighborhood Express","metadata_ntd_city":"Lebanon","metadata_ntd_state":"OR","metadata_gtfs_route_count":1,"metadata_gtfs_trip_count":12,"metadata_gtfs_shape_count":4,"metadata_gtfs_stop_count":13,"metadata_ntd_agency_voms":9,"metadata_ntd_total_facilities":0,"metadata_ntd_maintenance_facilities":0,"metadata_ntd_passenger_stations":0,"metadata_tam_tier":"Tier II","metadata_route_types_json":"{\"3\":1}","metadata_ntd_facilities_json":"{\"maintenance_facilities\":0,\"administrative_and_other_non_passenger_facilities\":0,\"passenger_stations_and_terminals\":0,\"parking_and_other_passenger_facilities\":0,\"total_facilities\":0,\"bus_transfer_centers\":null,\"elevated_fixed_guideway_stations\":null,\"at_grade_fixed_guideway_stations\":null,\"underground_fixed_guideway_stations\":null,\"simple_at_grade_platform_stations\":null,\"exclusive_grade_separated_platform_stations\":null,\"ferryboat_terminals\":null,\"surface_parking_lots\":null,\"parking_structures\":null}","metadata_tam_modes_json":"{\"CB\":{\"total_units_2024\":1,\"units_under_threshold_2024\":0,\"voms_2024\":1,\"total_modal_vrm_2024\":18113,\"total_modal_upt_2024\":2409},\"DR\":{\"total_units_2024\":7,\"units_under_threshold_2024\":1,\"voms_2024\":14,\"total_modal_vrm_2024\":218664,\"total_modal_upt_2024\":93908},\"MB\":{\"total_units_2024\":1,\"units_under_threshold_2024\":0,\"voms_2024\":1,\"total_modal_vrm_2024\":24110,\"total_modal_upt_2024\":14585}}"},"geometry":{"type":"Point","coordinates":[-122.467237,43.745008]}},{"type":"Feature","properties":{"stop_id":"848103","stop_code":"","stop_name":"Westfir Office Bridge","stop_desc":"","zone_id":"","stop_url":"","location_type":"0","parent_station":"","stop_timezone":"America/Los_Angeles","wheelchair_boarding":"0","platform_code":"","tts_stop_name":"","feed_id":"Oregon__Diamond_Express__mdb_mdb-130","agency_name":"Diamond Express","route_count":1,"route_ids":"1107","route_short_names":"","route_types":"3","route_type_names":"Bus","routes_json":"[{\"route_id\":\"1107\",\"route_short_name\":\"\",\"route_long_name\":\"Diamond Express\",\"route_type\":\"3\",\"route_type_name\":\"Bus\",\"route_color\":\"009966\",\"route_text_color\":\"08088A\"}]","metadata_feed_id":"Oregon__Diamond_Express__mdb_mdb-130","metadata_agency_names":"Diamond Express","metadata_ntd_id":"00377","metadata_ntd_match_method":"manual_override","metadata_ntd_agency":"City of Lebanon, dba: Lebanon Interneighborhood Express","metadata_ntd_city":"Lebanon","metadata_ntd_state":"OR","metadata_gtfs_route_count":1,"metadata_gtfs_trip_count":12,"metadata_gtfs_shape_count":4,"metadata_gtfs_stop_count":13,"metadata_ntd_agency_voms":9,"metadata_ntd_total_facilities":0,"metadata_ntd_maintenance_facilities":0,"metadata_ntd_passenger_stations":0,"metadata_tam_tier":"Tier II","metadata_route_types_json":"{\"3\":1}","metadata_ntd_facilities_json":"{\"maintenance_facilities\":0,\"administrative_and_other_non_passenger_facilities\":0,\"passenger_stations_and_terminals\":0,\"parking_and_other_passenger_facilities\":0,\"total_facilities\":0,\"bus_transfer_centers\":null,\"elevated_fixed_guideway_stations\":null,\"at_grade_fixed_guideway_stations\":null,\"underground_fixed_guideway_stations\":null,\"simple_at_grade_platform_stations\":null,\"exclusive_grade_separated_platform_stations\":null,\"ferryboat_terminals\":null,\"surface_parking_lots\":null,\"parking_structures\":null}","metadata_tam_modes_json":"{\"CB\":{\"total_units_2024\":1,\"units_under_threshold_2024\":0,\"voms_2024\":1,\"total_modal_vrm_2024\":18113,\"total_modal_upt_2024\":2409},\"DR\":{\"total_units_2024\":7,\"units_under_threshold_2024\":1,\"voms_2024\":14,\"total_modal_vrm_2024\":218664,\"total_modal_upt_2024\":93908},\"MB\":{\"total_units_2024\":1,\"units_under_threshold_2024\":0,\"voms_2024\":1,\"total_modal_vrm_2024\":24110,\"total_modal_upt_2024\":14585}}"},"geometry":{"type":"Point","coordinates":[-122.495692,43.758437]}},{"type":"Feature","properties":{"stop_id":"758953","stop_code":"","stop_name":"N of Westfir in School Driveway","stop_desc":"","zone_id":"","stop_url":"","location_type":"0","parent_station":"","stop_timezone":"America/Los_Angeles","wheelchair_boarding":"0","platform_code":"","tts_stop_name":"","feed_id":"Oregon__Diamond_Express__mdb_mdb-130","agency_name":"Diamond Express","route_count":1,"route_ids":"1107","route_short_names":"","route_types":"3","route_type_names":"Bus","routes_json":"[{\"route_id\":\"1107\",\"route_short_name\":\"\",\"route_long_name\":\"Diamond Express\",\"route_type\":\"3\",\"route_type_name\":\"Bus\",\"route_color\":\"009966\",\"route_text_color\":\"08088A\"}]","metadata_feed_id":"Oregon__Diamond_Express__mdb_mdb-130","metadata_agency_names":"Diamond Express","metadata_ntd_id":"00377","metadata_ntd_match_method":"manual_override","metadata_ntd_agency":"City of Lebanon, dba: Lebanon Interneighborhood Express","metadata_ntd_city":"Lebanon","metadata_ntd_state":"OR","metadata_gtfs_route_count":1,"metadata_gtfs_trip_count":12,"metadata_gtfs_shape_count":4,"metadata_gtfs_stop_count":13,"metadata_ntd_agency_voms":9,"metadata_ntd_total_facilities":0,"metadata_ntd_maintenance_facilities":0,"metadata_ntd_passenger_stations":0,"metadata_tam_tier":"Tier II","metadata_route_types_json":"{\"3\":1}","metadata_ntd_facilities_json":"{\"maintenance_facilities\":0,\"administrative_and_other_non_passenger_facilities\":0,\"passenger_stations_and_terminals\":0,\"parking_and_other_passenger_facilities\":0,\"total_facilities\":0,\"bus_transfer_centers\":null,\"elevated_fixed_guideway_stations\":null,\"at_grade_fixed_guideway_stations\":null,\"underground_fixed_guideway_stations\":null,\"simple_at_grade_platform_stations\":null,\"exclusive_grade_separated_platform_stations\":null,\"ferryboat_terminals\":null,\"surface_parking_lots\":null,\"parking_structures\":null}","metadata_tam_modes_json":"{\"CB\":{\"total_units_2024\":1,\"units_under_threshold_2024\":0,\"voms_2024\":1,\"total_modal_vrm_2024\":18113,\"total_modal_upt_2024\":2409},\"DR\":{\"total_units_2024\":7,\"units_under_threshold_2024\":1,\"voms_2024\":14,\"total_modal_vrm_2024\":218664,\"total_modal_upt_2024\":93908},\"MB\":{\"total_units_2024\":1,\"units_under_threshold_2024\":0,\"voms_2024\":1,\"total_modal_vrm_2024\":24110,\"total_modal_upt_2024\":14585}}"},"geometry":{"type":"Point","coordinates":[-122.529506,43.757389]}},{"type":"Feature","properties":{"stop_id":"758950","stop_code":"","stop_name":"N/S of Franklin Blvd W of Walnut","stop_desc":"","zone_id":"","stop_url":"","location_type":"0","parent_station":"","stop_timezone":"America/Los_Angeles","wheelchair_boarding":"0","platform_code":"","tts_stop_name":"","feed_id":"Oregon__Diamond_Express__mdb_mdb-130","agency_name":"Diamond Express","route_count":1,"route_ids":"1107","route_short_names":"","route_types":"3","route_type_names":"Bus","routes_json":"[{\"route_id\":\"1107\",\"route_short_name\":\"\",\"route_long_name\":\"Diamond Express\",\"route_type\":\"3\",\"route_type_name\":\"Bus\",\"route_color\":\"009966\",\"route_text_color\":\"08088A\"}]","metadata_feed_id":"Oregon__Diamond_Express__mdb_mdb-130","metadata_agency_names":"Diamond Express","metadata_ntd_id":"00377","metadata_ntd_match_method":"manual_override","metadata_ntd_agency":"City of Lebanon, dba: Lebanon Interneighborhood Express","metadata_ntd_city":"Lebanon","metadata_ntd_state":"OR","metadata_gtfs_route_count":1,"metadata_gtfs_trip_count":12,"metadata_gtfs_shape_count":4,"metadata_gtfs_stop_count":13,"metadata_ntd_agency_voms":9,"metadata_ntd_total_facilities":0,"metadata_ntd_maintenance_facilities":0,"metadata_ntd_passenger_stations":0,"metadata_tam_tier":"Tier II","metadata_route_types_json":"{\"3\":1}","metadata_ntd_facilities_json":"{\"maintenance_facilities\":0,\"administrative_and_other_non_passenger_facilities\":0,\"passenger_stations_and_terminals\":0,\"parking_and_other_passenger_facilities\":0,\"total_facilities\":0,\"bus_transfer_centers\":null,\"elevated_fixed_guideway_stations\":null,\"at_grade_fixed_guideway_stations\":null,\"underground_fixed_guideway_stations\":null,\"simple_at_grade_platform_stations\":null,\"exclusive_grade_separated_platform_stations\":null,\"ferryboat_terminals\":null,\"surface_parking_lots\":null,\"parking_structures\":null}","metadata_tam_modes_json":"{\"CB\":{\"total_units_2024\":1,\"units_under_threshold_2024\":0,\"voms_2024\":1,\"total_modal_vrm_2024\":18113,\"total_modal_upt_2024\":2409},\"DR\":{\"total_units_2024\":7,\"units_under_threshold_2024\":1,\"voms_2024\":14,\"total_modal_vrm_2024\":218664,\"total_modal_upt_2024\":93908},\"MB\":{\"total_units_2024\":1,\"units_under_threshold_2024\":0,\"voms_2024\":1,\"total_modal_vrm_2024\":24110,\"total_modal_upt_2024\":14585}}"},"geometry":{"type":"Point","coordinates":[-123.062145,44.045058]}},{"type":"Feature","properties":{"stop_id":"758949","stop_code":"","stop_name":"N/S of Franklin Blvd W of Agate","stop_desc":"","zone_id":"","stop_url":"","location_type":"0","parent_station":"","stop_timezone":"America/Los_Angeles","wheelchair_boarding":"0","platform_code":"","tts_stop_name":"","feed_id":"Oregon__Diamond_Express__mdb_mdb-130","agency_name":"Diamond Express","route_count":1,"route_ids":"1107","route_short_names":"","route_types":"3","route_type_names":"Bus","routes_json":"[{\"route_id\":\"1107\",\"route_short_name\":\"\",\"route_long_name\":\"Diamond Express\",\"route_type\":\"3\",\"route_type_name\":\"Bus\",\"route_color\":\"009966\",\"route_text_color\":\"08088A\"}]","metadata_feed_id":"Oregon__Diamond_Express__mdb_mdb-130","metadata_agency_names":"Diamond Express","metadata_ntd_id":"00377","metadata_ntd_match_method":"manual_override","metadata_ntd_agency":"City of Lebanon, dba: Lebanon Interneighborhood Express","metadata_ntd_city":"Lebanon","metadata_ntd_state":"OR","metadata_gtfs_route_count":1,"metadata_gtfs_trip_count":12,"metadata_gtfs_shape_count":4,"metadata_gtfs_stop_count":13,"metadata_ntd_agency_voms":9,"metadata_ntd_total_facilities":0,"metadata_ntd_maintenance_facilities":0,"metadata_ntd_passenger_stations":0,"metadata_tam_tier":"Tier II","metadata_route_types_json":"{\"3\":1}","metadata_ntd_facilities_json":"{\"maintenance_facilities\":0,\"administrative_and_other_non_passenger_facilities\":0,\"passenger_stations_and_terminals\":0,\"parking_and_other_passenger_facilities\":0,\"total_facilities\":0,\"bus_transfer_centers\":null,\"elevated_fixed_guideway_stations\":null,\"at_grade_fixed_guideway_stations\":null,\"underground_fixed_guideway_stations\":null,\"simple_at_grade_platform_stations\":null,\"exclusive_grade_separated_platform_stations\":null,\"ferryboat_terminals\":null,\"surface_parking_lots\":null,\"parking_structures\":null}","metadata_tam_modes_json":"{\"CB\":{\"total_units_2024\":1,\"units_under_threshold_2024\":0,\"voms_2024\":1,\"total_modal_vrm_2024\":18113,\"total_modal_upt_2024\":2409},\"DR\":{\"total_units_2024\":7,\"units_under_threshold_2024\":1,\"voms_2024\":14,\"total_modal_vrm_2024\":218664,\"total_modal_upt_2024\":93908},\"MB\":{\"total_units_2024\":1,\"units_under_threshold_2024\":0,\"voms_2024\":1,\"total_modal_vrm_2024\":24110,\"total_modal_upt_2024\":14585}}"},"geometry":{"type":"Point","coordinates":[-123.070456,44.046811]}},{"type":"Feature","properties":{"stop_id":"758947","stop_code":"","stop_name":"N/S of 11th W of Alder","stop_desc":"","zone_id":"","stop_url":"","location_type":"0","parent_station":"","stop_timezone":"America/Los_Angeles","wheelchair_boarding":"0","platform_code":"","tts_stop_name":"","feed_id":"Oregon__Diamond_Express__mdb_mdb-130","agency_name":"Diamond Express","route_count":1,"route_ids":"1107","route_short_names":"","route_types":"3","route_type_names":"Bus","routes_json":"[{\"route_id\":\"1107\",\"route_short_name\":\"\",\"route_long_name\":\"Diamond Express\",\"route_type\":\"3\",\"route_type_name\":\"Bus\",\"route_color\":\"009966\",\"route_text_color\":\"08088A\"}]","metadata_feed_id":"Oregon__Diamond_Express__mdb_mdb-130","metadata_agency_names":"Diamond Express","metadata_ntd_id":"00377","metadata_ntd_match_method":"manual_override","metadata_ntd_agency":"City of Lebanon, dba: Lebanon Interneighborhood Express","metadata_ntd_city":"Lebanon","metadata_ntd_state":"OR","metadata_gtfs_route_count":1,"metadata_gtfs_trip_count":12,"metadata_gtfs_shape_count":4,"metadata_gtfs_stop_count":13,"metadata_ntd_agency_voms":9,"metadata_ntd_total_facilities":0,"metadata_ntd_maintenance_facilities":0,"metadata_ntd_passenger_stations":0,"metadata_tam_tier":"Tier II","metadata_route_types_json":"{\"3\":1}","metadata_ntd_facilities_json":"{\"maintenance_facilities\":0,\"administrative_and_other_non_passenger_facilities\":0,\"passenger_stations_and_terminals\":0,\"parking_and_other_passenger_facilities\":0,\"total_facilities\":0,\"bus_transfer_centers\":null,\"elevated_fixed_guideway_stations\":null,\"at_grade_fixed_guideway_stations\":null,\"underground_fixed_guideway_stations\":null,\"simple_at_grade_platform_stations\":null,\"exclusive_grade_separated_platform_stations\":null,\"ferryboat_terminals\":null,\"surface_parking_lots\":null,\"parking_structures\":null}","metadata_tam_modes_json":"{\"CB\":{\"total_units_2024\":1,\"units_under_threshold_2024\":0,\"voms_2024\":1,\"total_modal_vrm_2024\":18113,\"total_modal_upt_2024\":2409},\"DR\":{\"total_units_2024\":7,\"units_under_threshold_2024\":1,\"voms_2024\":14,\"total_modal_vrm_2024\":218664,\"total_modal_upt_2024\":93908},\"MB\":{\"total_units_2024\":1,\"units_under_threshold_2024\":0,\"voms_2024\":1,\"total_modal_vrm_2024\":24110,\"total_modal_upt_2024\":14585}}"},"geometry":{"type":"Point","coordinates":[-123.081313,44.047765]}},{"type":"Feature","properties":{"stop_id":"839429","stop_code":"","stop_name":"E/S of Olive S of 10th","stop_desc":"","zone_id":"","stop_url":"","location_type":"0","parent_station":"","stop_timezone":"America/Los_Angeles","wheelchair_boarding":"0","platform_code":"","tts_stop_name":"","feed_id":"Oregon__Diamond_Express__mdb_mdb-130","agency_name":"Diamond Express","route_count":1,"route_ids":"1107","route_short_names":"","route_types":"3","route_type_names":"Bus","routes_json":"[{\"route_id\":\"1107\",\"route_short_name\":\"\",\"route_long_name\":\"Diamond Express\",\"route_type\":\"3\",\"route_type_name\":\"Bus\",\"route_color\":\"009966\",\"route_text_color\":\"08088A\"}]","metadata_feed_id":"Oregon__Diamond_Express__mdb_mdb-130","metadata_agency_names":"Diamond Express","metadata_ntd_id":"00377","metadata_ntd_match_method":"manual_override","metadata_ntd_agency":"City of Lebanon, dba: Lebanon Interneighborhood Express","metadata_ntd_city":"Lebanon","metadata_ntd_state":"OR","metadata_gtfs_route_count":1,"metadata_gtfs_trip_count":12,"metadata_gtfs_shape_count":4,"metadata_gtfs_stop_count":13,"metadata_ntd_agency_voms":9,"metadata_ntd_total_facilities":0,"metadata_ntd_maintenance_facilities":0,"metadata_ntd_passenger_stations":0,"metadata_tam_tier":"Tier II","metadata_route_types_json":"{\"3\":1}","metadata_ntd_facilities_json":"{\"maintenance_facilities\":0,\"administrative_and_other_non_passenger_facilities\":0,\"passenger_stations_and_terminals\":0,\"parking_and_other_passenger_facilities\":0,\"total_facilities\":0,\"bus_transfer_centers\":null,\"elevated_fixed_guideway_stations\":null,\"at_grade_fixed_guideway_stations\":null,\"underground_fixed_guideway_stations\":null,\"simple_at_grade_platform_stations\":null,\"exclusive_grade_separated_platform_stations\":null,\"ferryboat_terminals\":null,\"surface_parking_lots\":null,\"parking_structures\":null}","metadata_tam_modes_json":"{\"CB\":{\"total_units_2024\":1,\"units_under_threshold_2024\":0,\"voms_2024\":1,\"total_modal_vrm_2024\":18113,\"total_modal_upt_2024\":2409},\"DR\":{\"total_units_2024\":7,\"units_under_threshold_2024\":1,\"voms_2024\":14,\"total_modal_vrm_2024\":218664,\"total_modal_upt_2024\":93908},\"MB\":{\"total_units_2024\":1,\"units_under_threshold_2024\":0,\"voms_2024\":1,\"total_modal_vrm_2024\":24110,\"total_modal_upt_2024\":14585}}"},"geometry":{"type":"Point","coordinates":[-123.09421966296816,44.04852120283388]}},{"type":"Feature","properties":{"stop_id":"848095","stop_code":"","stop_name":"Eugene Amtrak Bus Platform","stop_desc":"","zone_id":"","stop_url":"","location_type":"0","parent_station":"","stop_timezone":"America/Los_Angeles","wheelchair_boarding":"0","platform_code":"","tts_stop_name":"","feed_id":"Oregon__Diamond_Express__mdb_mdb-130","agency_name":"Diamond Express","route_count":1,"route_ids":"1107","route_short_names":"","route_types":"3","route_type_names":"Bus","routes_json":"[{\"route_id\":\"1107\",\"route_short_name\":\"\",\"route_long_name\":\"Diamond Express\",\"route_type\":\"3\",\"route_type_name\":\"Bus\",\"route_color\":\"009966\",\"route_text_color\":\"08088A\"}]","metadata_feed_id":"Oregon__Diamond_Express__mdb_mdb-130","metadata_agency_names":"Diamond Express","metadata_ntd_id":"00377","metadata_ntd_match_method":"manual_override","metadata_ntd_agency":"City of Lebanon, dba: Lebanon Interneighborhood Express","metadata_ntd_city":"Lebanon","metadata_ntd_state":"OR","metadata_gtfs_route_count":1,"metadata_gtfs_trip_count":12,"metadata_gtfs_shape_count":4,"metadata_gtfs_stop_count":13,"metadata_ntd_agency_voms":9,"metadata_ntd_total_facilities":0,"metadata_ntd_maintenance_facilities":0,"metadata_ntd_passenger_stations":0,"metadata_tam_tier":"Tier II","metadata_route_types_json":"{\"3\":1}","metadata_ntd_facilities_json":"{\"maintenance_facilities\":0,\"administrative_and_other_non_passenger_facilities\":0,\"passenger_stations_and_terminals\":0,\"parking_and_other_passenger_facilities\":0,\"total_facilities\":0,\"bus_transfer_centers\":null,\"elevated_fixed_guideway_stations\":null,\"at_grade_fixed_guideway_stations\":null,\"underground_fixed_guideway_stations\":null,\"simple_at_grade_platform_stations\":null,\"exclusive_grade_separated_platform_stations\":null,\"ferryboat_terminals\":null,\"surface_parking_lots\":null,\"parking_structures\":null}","metadata_tam_modes_json":"{\"CB\":{\"total_units_2024\":1,\"units_under_threshold_2024\":0,\"voms_2024\":1,\"total_modal_vrm_2024\":18113,\"total_modal_upt_2024\":2409},\"DR\":{\"total_units_2024\":7,\"units_under_threshold_2024\":1,\"voms_2024\":14,\"total_modal_vrm_2024\":218664,\"total_modal_upt_2024\":93908},\"MB\":{\"total_units_2024\":1,\"units_under_threshold_2024\":0,\"voms_2024\":1,\"total_modal_vrm_2024\":24110,\"total_modal_upt_2024\":14585}}"},"geometry":{"type":"Point","coordinates":[-123.092082960156,44.0550662811831]}},{"type":"Feature","properties":{"stop_id":"758952","stop_code":"","stop_name":"W/S Willamette south of 11th","stop_desc":"","zone_id":"","stop_url":"","location_type":"0","parent_station":"","stop_timezone":"America/Los_Angeles","wheelchair_boarding":"0","platform_code":"","tts_stop_name":"","feed_id":"Oregon__Diamond_Express__mdb_mdb-130","agency_name":"Diamond Express","route_count":1,"route_ids":"1107","route_short_names":"","route_types":"3","route_type_names":"Bus","routes_json":"[{\"route_id\":\"1107\",\"route_short_name\":\"\",\"route_long_name\":\"Diamond Express\",\"route_type\":\"3\",\"route_type_name\":\"Bus\",\"route_color\":\"009966\",\"route_text_color\":\"08088A\"}]","metadata_feed_id":"Oregon__Diamond_Express__mdb_mdb-130","metadata_agency_names":"Diamond Express","metadata_ntd_id":"00377","metadata_ntd_match_method":"manual_override","metadata_ntd_agency":"City of Lebanon, dba: Lebanon Interneighborhood Express","metadata_ntd_city":"Lebanon","metadata_ntd_state":"OR","metadata_gtfs_route_count":1,"metadata_gtfs_trip_count":12,"metadata_gtfs_shape_count":4,"metadata_gtfs_stop_count":13,"metadata_ntd_agency_voms":9,"metadata_ntd_total_facilities":0,"metadata_ntd_maintenance_facilities":0,"metadata_ntd_passenger_stations":0,"metadata_tam_tier":"Tier II","metadata_route_types_json":"{\"3\":1}","metadata_ntd_facilities_json":"{\"maintenance_facilities\":0,\"administrative_and_other_non_passenger_facilities\":0,\"passenger_stations_and_terminals\":0,\"parking_and_other_passenger_facilities\":0,\"total_facilities\":0,\"bus_transfer_centers\":null,\"elevated_fixed_guideway_stations\":null,\"at_grade_fixed_guideway_stations\":null,\"underground_fixed_guideway_stations\":null,\"simple_at_grade_platform_stations\":null,\"exclusive_grade_separated_platform_stations\":null,\"ferryboat_terminals\":null,\"surface_parking_lots\":null,\"parking_structures\":null}","metadata_tam_modes_json":"{\"CB\":{\"total_units_2024\":1,\"units_under_threshold_2024\":0,\"voms_2024\":1,\"total_modal_vrm_2024\":18113,\"total_modal_upt_2024\":2409},\"DR\":{\"total_units_2024\":7,\"units_under_threshold_2024\":1,\"voms_2024\":14,\"total_modal_vrm_2024\":218664,\"total_modal_upt_2024\":93908},\"MB\":{\"total_units_2024\":1,\"units_under_threshold_2024\":0,\"voms_2024\":1,\"total_modal_vrm_2024\":24110,\"total_modal_upt_2024\":14585}}"},"geometry":{"type":"Point","coordinates":[-123.092793,44.047157]}},{"type":"Feature","properties":{"stop_id":"758946","stop_code":"","stop_name":"E/S of Hilyard S of 12th","stop_desc":"","zone_id":"","stop_url":"","location_type":"0","parent_station":"","stop_timezone":"America/Los_Angeles","wheelchair_boarding":"0","platform_code":"","tts_stop_name":"","feed_id":"Oregon__Diamond_Express__mdb_mdb-130","agency_name":"Diamond Express","route_count":1,"route_ids":"1107","route_short_names":"","route_types":"3","route_type_names":"Bus","routes_json":"[{\"route_id\":\"1107\",\"route_short_name\":\"\",\"route_long_name\":\"Diamond Express\",\"route_type\":\"3\",\"route_type_name\":\"Bus\",\"route_color\":\"009966\",\"route_text_color\":\"08088A\"}]","metadata_feed_id":"Oregon__Diamond_Express__mdb_mdb-130","metadata_agency_names":"Diamond Express","metadata_ntd_id":"00377","metadata_ntd_match_method":"manual_override","metadata_ntd_agency":"City of Lebanon, dba: Lebanon Interneighborhood Express","metadata_ntd_city":"Lebanon","metadata_ntd_state":"OR","metadata_gtfs_route_count":1,"metadata_gtfs_trip_count":12,"metadata_gtfs_shape_count":4,"metadata_gtfs_stop_count":13,"metadata_ntd_agency_voms":9,"metadata_ntd_total_facilities":0,"metadata_ntd_maintenance_facilities":0,"metadata_ntd_passenger_stations":0,"metadata_tam_tier":"Tier II","metadata_route_types_json":"{\"3\":1}","metadata_ntd_facilities_json":"{\"maintenance_facilities\":0,\"administrative_and_other_non_passenger_facilities\":0,\"passenger_stations_and_terminals\":0,\"parking_and_other_passenger_facilities\":0,\"total_facilities\":0,\"bus_transfer_centers\":null,\"elevated_fixed_guideway_stations\":null,\"at_grade_fixed_guideway_stations\":null,\"underground_fixed_guideway_stations\":null,\"simple_at_grade_platform_stations\":null,\"exclusive_grade_separated_platform_stations\":null,\"ferryboat_terminals\":null,\"surface_parking_lots\":null,\"parking_structures\":null}","metadata_tam_modes_json":"{\"CB\":{\"total_units_2024\":1,\"units_under_threshold_2024\":0,\"voms_2024\":1,\"total_modal_vrm_2024\":18113,\"total_modal_upt_2024\":2409},\"DR\":{\"total_units_2024\":7,\"units_under_threshold_2024\":1,\"voms_2024\":14,\"total_modal_vrm_2024\":218664,\"total_modal_upt_2024\":93908},\"MB\":{\"total_units_2024\":1,\"units_under_threshold_2024\":0,\"voms_2024\":1,\"total_modal_vrm_2024\":24110,\"total_modal_upt_2024\":14585}}"},"geometry":{"type":"Point","coordinates":[-123.082145,44.046388]}},{"type":"Feature","properties":{"stop_id":"758948","stop_code":"","stop_name":"S/S of Franklin Blvd E of Onyx","stop_desc":"","zone_id":"","stop_url":"","location_type":"0","parent_station":"","stop_timezone":"America/Los_Angeles","wheelchair_boarding":"0","platform_code":"","tts_stop_name":"","feed_id":"Oregon__Diamond_Express__mdb_mdb-130","agency_name":"Diamond Express","route_count":1,"route_ids":"1107","route_short_names":"","route_types":"3","route_type_names":"Bus","routes_json":"[{\"route_id\":\"1107\",\"route_short_name\":\"\",\"route_long_name\":\"Diamond Express\",\"route_type\":\"3\",\"route_type_name\":\"Bus\",\"route_color\":\"009966\",\"route_text_color\":\"08088A\"}]","metadata_feed_id":"Oregon__Diamond_Express__mdb_mdb-130","metadata_agency_names":"Diamond Express","metadata_ntd_id":"00377","metadata_ntd_match_method":"manual_override","metadata_ntd_agency":"City of Lebanon, dba: Lebanon Interneighborhood Express","metadata_ntd_city":"Lebanon","metadata_ntd_state":"OR","metadata_gtfs_route_count":1,"metadata_gtfs_trip_count":12,"metadata_gtfs_shape_count":4,"metadata_gtfs_stop_count":13,"metadata_ntd_agency_voms":9,"metadata_ntd_total_facilities":0,"metadata_ntd_maintenance_facilities":0,"metadata_ntd_passenger_stations":0,"metadata_tam_tier":"Tier II","metadata_route_types_json":"{\"3\":1}","metadata_ntd_facilities_json":"{\"maintenance_facilities\":0,\"administrative_and_other_non_passenger_facilities\":0,\"passenger_stations_and_terminals\":0,\"parking_and_other_passenger_facilities\":0,\"total_facilities\":0,\"bus_transfer_centers\":null,\"elevated_fixed_guideway_stations\":null,\"at_grade_fixed_guideway_stations\":null,\"underground_fixed_guideway_stations\":null,\"simple_at_grade_platform_stations\":null,\"exclusive_grade_separated_platform_stations\":null,\"ferryboat_terminals\":null,\"surface_parking_lots\":null,\"parking_structures\":null}","metadata_tam_modes_json":"{\"CB\":{\"total_units_2024\":1,\"units_under_threshold_2024\":0,\"voms_2024\":1,\"total_modal_vrm_2024\":18113,\"total_modal_upt_2024\":2409},\"DR\":{\"total_units_2024\":7,\"units_under_threshold_2024\":1,\"voms_2024\":14,\"total_modal_vrm_2024\":218664,\"total_modal_upt_2024\":93908},\"MB\":{\"total_units_2024\":1,\"units_under_threshold_2024\":0,\"voms_2024\":1,\"total_modal_vrm_2024\":24110,\"total_modal_upt_2024\":14585}}"},"geometry":{"type":"Point","coordinates":[-123.072793,44.046989]}},{"type":"Feature","properties":{"stop_id":"758951","stop_code":"","stop_name":"S/S of Franklin Blvd E of Walnut","stop_desc":"","zone_id":"","stop_url":"","location_type":"0","parent_station":"","stop_timezone":"America/Los_Angeles","wheelchair_boarding":"0","platform_code":"","tts_stop_name":"","feed_id":"Oregon__Diamond_Express__mdb_mdb-130","agency_name":"Diamond Express","route_count":1,"route_ids":"1107","route_short_names":"","route_types":"3","route_type_names":"Bus","routes_json":"[{\"route_id\":\"1107\",\"route_short_name\":\"\",\"route_long_name\":\"Diamond Express\",\"route_type\":\"3\",\"route_type_name\":\"Bus\",\"route_color\":\"009966\",\"route_text_color\":\"08088A\"}]","metadata_feed_id":"Oregon__Diamond_Express__mdb_mdb-130","metadata_agency_names":"Diamond Express","metadata_ntd_id":"00377","metadata_ntd_match_method":"manual_override","metadata_ntd_agency":"City of Lebanon, dba: Lebanon Interneighborhood Express","metadata_ntd_city":"Lebanon","metadata_ntd_state":"OR","metadata_gtfs_route_count":1,"metadata_gtfs_trip_count":12,"metadata_gtfs_shape_count":4,"metadata_gtfs_stop_count":13,"metadata_ntd_agency_voms":9,"metadata_ntd_total_facilities":0,"metadata_ntd_maintenance_facilities":0,"metadata_ntd_passenger_stations":0,"metadata_tam_tier":"Tier II","metadata_route_types_json":"{\"3\":1}","metadata_ntd_facilities_json":"{\"maintenance_facilities\":0,\"administrative_and_other_non_passenger_facilities\":0,\"passenger_stations_and_terminals\":0,\"parking_and_other_passenger_facilities\":0,\"total_facilities\":0,\"bus_transfer_centers\":null,\"elevated_fixed_guideway_stations\":null,\"at_grade_fixed_guideway_stations\":null,\"underground_fixed_guideway_stations\":null,\"simple_at_grade_platform_stations\":null,\"exclusive_grade_separated_platform_stations\":null,\"ferryboat_terminals\":null,\"surface_parking_lots\":null,\"parking_structures\":null}","metadata_tam_modes_json":"{\"CB\":{\"total_units_2024\":1,\"units_under_threshold_2024\":0,\"voms_2024\":1,\"total_modal_vrm_2024\":18113,\"total_modal_upt_2024\":2409},\"DR\":{\"total_units_2024\":7,\"units_under_threshold_2024\":1,\"voms_2024\":14,\"total_modal_vrm_2024\":218664,\"total_modal_upt_2024\":93908},\"MB\":{\"total_units_2024\":1,\"units_under_threshold_2024\":0,\"voms_2024\":1,\"total_modal_vrm_2024\":24110,\"total_modal_upt_2024\":14585}}"},"geometry":{"type":"Point","coordinates":[-123.061168,44.044627]}}],"metadata":{"feed_id":"Oregon__Diamond_Express__mdb_mdb-130","ntd_id":"00377","feature_metadata_embedded":true}}