{"type":"FeatureCollection","features":[{"type":"Feature","properties":{"stop_id":"787485","stop_code":"","stop_name":"Straight Wharf, Nantucket, MA","stop_desc":"","zone_id":"","stop_url":"","location_type":"0","parent_station":"","stop_timezone":"America/New_York","wheelchair_boarding":"0","platform_code":"","tts_stop_name":"","feed_id":"Massachusetts__Hy-Line_Cruises__mdb_mdb-427","agency_name":"Hy-Line Cruises","route_count":2,"route_ids":"2112|2115","route_short_names":"","route_types":"4","route_type_names":"Ferry","routes_json":"[{\"route_id\":\"2112\",\"route_short_name\":\"\",\"route_long_name\":\"Inter-Island\",\"route_type\":\"4\",\"route_type_name\":\"Ferry\",\"route_color\":\"64748B\",\"route_text_color\":\"000000\"},{\"route_id\":\"2115\",\"route_short_name\":\"\",\"route_long_name\":\"Nantucket High-Speed\",\"route_type\":\"4\",\"route_type_name\":\"Ferry\",\"route_color\":\"64748B\",\"route_text_color\":\"000000\"}]","metadata_feed_id":"Massachusetts__Hy-Line_Cruises__mdb_mdb-427","metadata_agency_names":"Hy-Line Cruises","metadata_ntd_id":"11239","metadata_ntd_match_method":"manual_override","metadata_ntd_agency":"Hyannis Harbor Tours, Inc., dba: Hy-Line Cruises","metadata_ntd_city":"Hyannis","metadata_ntd_state":"MA","metadata_gtfs_route_count":3,"metadata_gtfs_trip_count":82,"metadata_gtfs_shape_count":6,"metadata_gtfs_stop_count":3,"metadata_ntd_agency_voms":4,"metadata_ntd_total_facilities":4,"metadata_ntd_maintenance_facilities":0,"metadata_ntd_passenger_stations":3,"metadata_tam_tier":"Tier II","metadata_service_area_sq_miles":394,"metadata_service_area_population":210049,"metadata_route_types_json":"{\"4\":3}","metadata_ntd_facilities_json":"{\"maintenance_facilities\":0,\"administrative_and_other_non_passenger_facilities\":1,\"passenger_stations_and_terminals\":3,\"parking_and_other_passenger_facilities\":0,\"total_facilities\":4,\"bus_transfer_centers\":0,\"elevated_fixed_guideway_stations\":0,\"at_grade_fixed_guideway_stations\":0,\"underground_fixed_guideway_stations\":0,\"simple_at_grade_platform_stations\":0,\"exclusive_grade_separated_platform_stations\":0,\"ferryboat_terminals\":3,\"surface_parking_lots\":0,\"parking_structures\":0}","metadata_tam_modes_json":"{\"FB\":{\"total_units_2024\":6,\"units_under_threshold_2024\":0,\"voms_2024\":4,\"total_modal_vrm_2024\":191630,\"total_modal_upt_2024\":928922}}"},"geometry":{"type":"Point","coordinates":[-70.09479684796906,41.28467680914491]}},{"type":"Feature","properties":{"stop_id":"787486","stop_code":"","stop_name":"Ocean Street Terminal, Hyannis, MA","stop_desc":"","zone_id":"","stop_url":"","location_type":"0","parent_station":"","stop_timezone":"America/New_York","wheelchair_boarding":"0","platform_code":"","tts_stop_name":"","feed_id":"Massachusetts__Hy-Line_Cruises__mdb_mdb-427","agency_name":"Hy-Line Cruises","route_count":2,"route_ids":"2113|2115","route_short_names":"","route_types":"4","route_type_names":"Ferry","routes_json":"[{\"route_id\":\"2113\",\"route_short_name\":\"\",\"route_long_name\":\"Martha's Vineyard High-Speed\",\"route_type\":\"4\",\"route_type_name\":\"Ferry\",\"route_color\":\"64748B\",\"route_text_color\":\"000000\"},{\"route_id\":\"2115\",\"route_short_name\":\"\",\"route_long_name\":\"Nantucket High-Speed\",\"route_type\":\"4\",\"route_type_name\":\"Ferry\",\"route_color\":\"64748B\",\"route_text_color\":\"000000\"}]","metadata_feed_id":"Massachusetts__Hy-Line_Cruises__mdb_mdb-427","metadata_agency_names":"Hy-Line Cruises","metadata_ntd_id":"11239","metadata_ntd_match_method":"manual_override","metadata_ntd_agency":"Hyannis Harbor Tours, Inc., dba: Hy-Line Cruises","metadata_ntd_city":"Hyannis","metadata_ntd_state":"MA","metadata_gtfs_route_count":3,"metadata_gtfs_trip_count":82,"metadata_gtfs_shape_count":6,"metadata_gtfs_stop_count":3,"metadata_ntd_agency_voms":4,"metadata_ntd_total_facilities":4,"metadata_ntd_maintenance_facilities":0,"metadata_ntd_passenger_stations":3,"metadata_tam_tier":"Tier II","metadata_service_area_sq_miles":394,"metadata_service_area_population":210049,"metadata_route_types_json":"{\"4\":3}","metadata_ntd_facilities_json":"{\"maintenance_facilities\":0,\"administrative_and_other_non_passenger_facilities\":1,\"passenger_stations_and_terminals\":3,\"parking_and_other_passenger_facilities\":0,\"total_facilities\":4,\"bus_transfer_centers\":0,\"elevated_fixed_guideway_stations\":0,\"at_grade_fixed_guideway_stations\":0,\"underground_fixed_guideway_stations\":0,\"simple_at_grade_platform_stations\":0,\"exclusive_grade_separated_platform_stations\":0,\"ferryboat_terminals\":3,\"surface_parking_lots\":0,\"parking_structures\":0}","metadata_tam_modes_json":"{\"FB\":{\"total_units_2024\":6,\"units_under_threshold_2024\":0,\"voms_2024\":4,\"total_modal_vrm_2024\":191630,\"total_modal_upt_2024\":928922}}"},"geometry":{"type":"Point","coordinates":[-70.2791410502491,41.6482986856447]}},{"type":"Feature","properties":{"stop_id":"787487","stop_code":"","stop_name":"Dockside Marina - Oak Bluffs, Martha's Vineyard, MA","stop_desc":"","zone_id":"","stop_url":"","location_type":"0","parent_station":"","stop_timezone":"America/New_York","wheelchair_boarding":"0","platform_code":"","tts_stop_name":"","feed_id":"Massachusetts__Hy-Line_Cruises__mdb_mdb-427","agency_name":"Hy-Line Cruises","route_count":2,"route_ids":"2112|2113","route_short_names":"","route_types":"4","route_type_names":"Ferry","routes_json":"[{\"route_id\":\"2112\",\"route_short_name\":\"\",\"route_long_name\":\"Inter-Island\",\"route_type\":\"4\",\"route_type_name\":\"Ferry\",\"route_color\":\"64748B\",\"route_text_color\":\"000000\"},{\"route_id\":\"2113\",\"route_short_name\":\"\",\"route_long_name\":\"Martha's Vineyard High-Speed\",\"route_type\":\"4\",\"route_type_name\":\"Ferry\",\"route_color\":\"64748B\",\"route_text_color\":\"000000\"}]","metadata_feed_id":"Massachusetts__Hy-Line_Cruises__mdb_mdb-427","metadata_agency_names":"Hy-Line Cruises","metadata_ntd_id":"11239","metadata_ntd_match_method":"manual_override","metadata_ntd_agency":"Hyannis Harbor Tours, Inc., dba: Hy-Line Cruises","metadata_ntd_city":"Hyannis","metadata_ntd_state":"MA","metadata_gtfs_route_count":3,"metadata_gtfs_trip_count":82,"metadata_gtfs_shape_count":6,"metadata_gtfs_stop_count":3,"metadata_ntd_agency_voms":4,"metadata_ntd_total_facilities":4,"metadata_ntd_maintenance_facilities":0,"metadata_ntd_passenger_stations":3,"metadata_tam_tier":"Tier II","metadata_service_area_sq_miles":394,"metadata_service_area_population":210049,"metadata_route_types_json":"{\"4\":3}","metadata_ntd_facilities_json":"{\"maintenance_facilities\":0,\"administrative_and_other_non_passenger_facilities\":1,\"passenger_stations_and_terminals\":3,\"parking_and_other_passenger_facilities\":0,\"total_facilities\":4,\"bus_transfer_centers\":0,\"elevated_fixed_guideway_stations\":0,\"at_grade_fixed_guideway_stations\":0,\"underground_fixed_guideway_stations\":0,\"simple_at_grade_platform_stations\":0,\"exclusive_grade_separated_platform_stations\":0,\"ferryboat_terminals\":3,\"surface_parking_lots\":0,\"parking_structures\":0}","metadata_tam_modes_json":"{\"FB\":{\"total_units_2024\":6,\"units_under_threshold_2024\":0,\"voms_2024\":4,\"total_modal_vrm_2024\":191630,\"total_modal_upt_2024\":928922}}"},"geometry":{"type":"Point","coordinates":[-70.5587982204256,41.4584386853012]}}],"metadata":{"feed_id":"Massachusetts__Hy-Line_Cruises__mdb_mdb-427","ntd_id":"11239","feature_metadata_embedded":true}}