{"type":"FeatureCollection","features":[{"type":"Feature","properties":{"stop_id":"4249561","stop_code":"","platform_code":"","stop_name":"Upper Bus Stop","stop_desc":"","zone_id":"","stop_url":"","location_type":"0","parent_station":"","stop_timezone":"America/Los_Angeles","position":"","direction":"","wheelchair_boarding":"0","tts_stop_name":"","feed_id":"Oregon__Burns_Paiute_Tribal_Transit__mdb_mdb-2621","agency_name":"Burns Paiute Tribal Transit","route_count":1,"route_ids":"77236","route_short_names":"","route_types":"3","route_type_names":"Bus","routes_json":"[{\"route_id\":\"77236\",\"route_short_name\":\"\",\"route_long_name\":\"BPT Tribal Transit\",\"route_type\":\"3\",\"route_type_name\":\"Bus\",\"route_color\":\"3E5BC6\",\"route_text_color\":\"FFFFFF\"}]","metadata_feed_id":"Oregon__Burns_Paiute_Tribal_Transit__mdb_mdb-2621","metadata_agency_names":"Burns Paiute Tribal Transit","metadata_ntd_id":"00421","metadata_ntd_match_method":"manual_override","metadata_ntd_agency":"Burns Paiute Tribe, dba: Burns Paiute Tribal Transit","metadata_ntd_city":"Burns","metadata_ntd_state":"OR","metadata_gtfs_route_count":1,"metadata_gtfs_trip_count":7,"metadata_gtfs_shape_count":1,"metadata_gtfs_stop_count":8,"metadata_ntd_total_facilities":0,"metadata_ntd_maintenance_facilities":0,"metadata_ntd_passenger_stations":0,"metadata_tam_tier":"Tier II","metadata_route_types_json":"{\"3\":1}","metadata_ntd_facilities_json":"{\"maintenance_facilities\":0,\"administrative_and_other_non_passenger_facilities\":0,\"passenger_stations_and_terminals\":0,\"parking_and_other_passenger_facilities\":0,\"total_facilities\":0,\"bus_transfer_centers\":null,\"elevated_fixed_guideway_stations\":null,\"at_grade_fixed_guideway_stations\":null,\"underground_fixed_guideway_stations\":null,\"simple_at_grade_platform_stations\":null,\"exclusive_grade_separated_platform_stations\":null,\"ferryboat_terminals\":null,\"surface_parking_lots\":null,\"parking_structures\":null}","metadata_tam_modes_json":"{\"DR\":{\"total_units_2024\":3,\"units_under_threshold_2024\":1,\"voms_2024\":0,\"total_modal_vrm_2024\":0,\"total_modal_upt_2024\":0}}"},"geometry":{"type":"Point","coordinates":[-119.07488,43.60984]}},{"type":"Feature","properties":{"stop_id":"4249562","stop_code":"","platform_code":"","stop_name":"Lower Bus Stop","stop_desc":"","zone_id":"","stop_url":"","location_type":"0","parent_station":"","stop_timezone":"America/Los_Angeles","position":"","direction":"","wheelchair_boarding":"0","tts_stop_name":"","feed_id":"Oregon__Burns_Paiute_Tribal_Transit__mdb_mdb-2621","agency_name":"Burns Paiute Tribal Transit","route_count":1,"route_ids":"77236","route_short_names":"","route_types":"3","route_type_names":"Bus","routes_json":"[{\"route_id\":\"77236\",\"route_short_name\":\"\",\"route_long_name\":\"BPT Tribal Transit\",\"route_type\":\"3\",\"route_type_name\":\"Bus\",\"route_color\":\"3E5BC6\",\"route_text_color\":\"FFFFFF\"}]","metadata_feed_id":"Oregon__Burns_Paiute_Tribal_Transit__mdb_mdb-2621","metadata_agency_names":"Burns Paiute Tribal Transit","metadata_ntd_id":"00421","metadata_ntd_match_method":"manual_override","metadata_ntd_agency":"Burns Paiute Tribe, dba: Burns Paiute Tribal Transit","metadata_ntd_city":"Burns","metadata_ntd_state":"OR","metadata_gtfs_route_count":1,"metadata_gtfs_trip_count":7,"metadata_gtfs_shape_count":1,"metadata_gtfs_stop_count":8,"metadata_ntd_total_facilities":0,"metadata_ntd_maintenance_facilities":0,"metadata_ntd_passenger_stations":0,"metadata_tam_tier":"Tier II","metadata_route_types_json":"{\"3\":1}","metadata_ntd_facilities_json":"{\"maintenance_facilities\":0,\"administrative_and_other_non_passenger_facilities\":0,\"passenger_stations_and_terminals\":0,\"parking_and_other_passenger_facilities\":0,\"total_facilities\":0,\"bus_transfer_centers\":null,\"elevated_fixed_guideway_stations\":null,\"at_grade_fixed_guideway_stations\":null,\"underground_fixed_guideway_stations\":null,\"simple_at_grade_platform_stations\":null,\"exclusive_grade_separated_platform_stations\":null,\"ferryboat_terminals\":null,\"surface_parking_lots\":null,\"parking_structures\":null}","metadata_tam_modes_json":"{\"DR\":{\"total_units_2024\":3,\"units_under_threshold_2024\":1,\"voms_2024\":0,\"total_modal_vrm_2024\":0,\"total_modal_upt_2024\":0}}"},"geometry":{"type":"Point","coordinates":[-119.06184,43.61194]}},{"type":"Feature","properties":{"stop_id":"4249563","stop_code":"","platform_code":"","stop_name":"Safeway (246 W Monroe St)","stop_desc":"","zone_id":"","stop_url":"","location_type":"0","parent_station":"","stop_timezone":"America/Los_Angeles","position":"","direction":"","wheelchair_boarding":"0","tts_stop_name":"","feed_id":"Oregon__Burns_Paiute_Tribal_Transit__mdb_mdb-2621","agency_name":"Burns Paiute Tribal Transit","route_count":1,"route_ids":"77236","route_short_names":"","route_types":"3","route_type_names":"Bus","routes_json":"[{\"route_id\":\"77236\",\"route_short_name\":\"\",\"route_long_name\":\"BPT Tribal Transit\",\"route_type\":\"3\",\"route_type_name\":\"Bus\",\"route_color\":\"3E5BC6\",\"route_text_color\":\"FFFFFF\"}]","metadata_feed_id":"Oregon__Burns_Paiute_Tribal_Transit__mdb_mdb-2621","metadata_agency_names":"Burns Paiute Tribal Transit","metadata_ntd_id":"00421","metadata_ntd_match_method":"manual_override","metadata_ntd_agency":"Burns Paiute Tribe, dba: Burns Paiute Tribal Transit","metadata_ntd_city":"Burns","metadata_ntd_state":"OR","metadata_gtfs_route_count":1,"metadata_gtfs_trip_count":7,"metadata_gtfs_shape_count":1,"metadata_gtfs_stop_count":8,"metadata_ntd_total_facilities":0,"metadata_ntd_maintenance_facilities":0,"metadata_ntd_passenger_stations":0,"metadata_tam_tier":"Tier II","metadata_route_types_json":"{\"3\":1}","metadata_ntd_facilities_json":"{\"maintenance_facilities\":0,\"administrative_and_other_non_passenger_facilities\":0,\"passenger_stations_and_terminals\":0,\"parking_and_other_passenger_facilities\":0,\"total_facilities\":0,\"bus_transfer_centers\":null,\"elevated_fixed_guideway_stations\":null,\"at_grade_fixed_guideway_stations\":null,\"underground_fixed_guideway_stations\":null,\"simple_at_grade_platform_stations\":null,\"exclusive_grade_separated_platform_stations\":null,\"ferryboat_terminals\":null,\"surface_parking_lots\":null,\"parking_structures\":null}","metadata_tam_modes_json":"{\"DR\":{\"total_units_2024\":3,\"units_under_threshold_2024\":1,\"voms_2024\":0,\"total_modal_vrm_2024\":0,\"total_modal_upt_2024\":0}}"},"geometry":{"type":"Point","coordinates":[-119.05649,43.58676]}},{"type":"Feature","properties":{"stop_id":"4249564","stop_code":"","platform_code":"","stop_name":"Clinic (W A St & N Fairview Ave)","stop_desc":"","zone_id":"","stop_url":"","location_type":"0","parent_station":"","stop_timezone":"America/Los_Angeles","position":"","direction":"","wheelchair_boarding":"0","tts_stop_name":"","feed_id":"Oregon__Burns_Paiute_Tribal_Transit__mdb_mdb-2621","agency_name":"Burns Paiute Tribal Transit","route_count":1,"route_ids":"77236","route_short_names":"","route_types":"3","route_type_names":"Bus","routes_json":"[{\"route_id\":\"77236\",\"route_short_name\":\"\",\"route_long_name\":\"BPT Tribal Transit\",\"route_type\":\"3\",\"route_type_name\":\"Bus\",\"route_color\":\"3E5BC6\",\"route_text_color\":\"FFFFFF\"}]","metadata_feed_id":"Oregon__Burns_Paiute_Tribal_Transit__mdb_mdb-2621","metadata_agency_names":"Burns Paiute Tribal Transit","metadata_ntd_id":"00421","metadata_ntd_match_method":"manual_override","metadata_ntd_agency":"Burns Paiute Tribe, dba: Burns Paiute Tribal Transit","metadata_ntd_city":"Burns","metadata_ntd_state":"OR","metadata_gtfs_route_count":1,"metadata_gtfs_trip_count":7,"metadata_gtfs_shape_count":1,"metadata_gtfs_stop_count":8,"metadata_ntd_total_facilities":0,"metadata_ntd_maintenance_facilities":0,"metadata_ntd_passenger_stations":0,"metadata_tam_tier":"Tier II","metadata_route_types_json":"{\"3\":1}","metadata_ntd_facilities_json":"{\"maintenance_facilities\":0,\"administrative_and_other_non_passenger_facilities\":0,\"passenger_stations_and_terminals\":0,\"parking_and_other_passenger_facilities\":0,\"total_facilities\":0,\"bus_transfer_centers\":null,\"elevated_fixed_guideway_stations\":null,\"at_grade_fixed_guideway_stations\":null,\"underground_fixed_guideway_stations\":null,\"simple_at_grade_platform_stations\":null,\"exclusive_grade_separated_platform_stations\":null,\"ferryboat_terminals\":null,\"surface_parking_lots\":null,\"parking_structures\":null}","metadata_tam_modes_json":"{\"DR\":{\"total_units_2024\":3,\"units_under_threshold_2024\":1,\"voms_2024\":0,\"total_modal_vrm_2024\":0,\"total_modal_upt_2024\":0}}"},"geometry":{"type":"Point","coordinates":[-119.06073,43.5898869]}},{"type":"Feature","properties":{"stop_id":"4249565","stop_code":"","platform_code":"","stop_name":"Armory (S Egan Ave & W Tyler St)","stop_desc":"","zone_id":"","stop_url":"","location_type":"0","parent_station":"","stop_timezone":"America/Los_Angeles","position":"","direction":"","wheelchair_boarding":"0","tts_stop_name":"","feed_id":"Oregon__Burns_Paiute_Tribal_Transit__mdb_mdb-2621","agency_name":"Burns Paiute Tribal Transit","route_count":1,"route_ids":"77236","route_short_names":"","route_types":"3","route_type_names":"Bus","routes_json":"[{\"route_id\":\"77236\",\"route_short_name\":\"\",\"route_long_name\":\"BPT Tribal Transit\",\"route_type\":\"3\",\"route_type_name\":\"Bus\",\"route_color\":\"3E5BC6\",\"route_text_color\":\"FFFFFF\"}]","metadata_feed_id":"Oregon__Burns_Paiute_Tribal_Transit__mdb_mdb-2621","metadata_agency_names":"Burns Paiute Tribal Transit","metadata_ntd_id":"00421","metadata_ntd_match_method":"manual_override","metadata_ntd_agency":"Burns Paiute Tribe, dba: Burns Paiute Tribal Transit","metadata_ntd_city":"Burns","metadata_ntd_state":"OR","metadata_gtfs_route_count":1,"metadata_gtfs_trip_count":7,"metadata_gtfs_shape_count":1,"metadata_gtfs_stop_count":8,"metadata_ntd_total_facilities":0,"metadata_ntd_maintenance_facilities":0,"metadata_ntd_passenger_stations":0,"metadata_tam_tier":"Tier II","metadata_route_types_json":"{\"3\":1}","metadata_ntd_facilities_json":"{\"maintenance_facilities\":0,\"administrative_and_other_non_passenger_facilities\":0,\"passenger_stations_and_terminals\":0,\"parking_and_other_passenger_facilities\":0,\"total_facilities\":0,\"bus_transfer_centers\":null,\"elevated_fixed_guideway_stations\":null,\"at_grade_fixed_guideway_stations\":null,\"underground_fixed_guideway_stations\":null,\"simple_at_grade_platform_stations\":null,\"exclusive_grade_separated_platform_stations\":null,\"ferryboat_terminals\":null,\"surface_parking_lots\":null,\"parking_structures\":null}","metadata_tam_modes_json":"{\"DR\":{\"total_units_2024\":3,\"units_under_threshold_2024\":1,\"voms_2024\":0,\"total_modal_vrm_2024\":0,\"total_modal_upt_2024\":0}}"},"geometry":{"type":"Point","coordinates":[-119.05976063107852,43.58224894657147]}},{"type":"Feature","properties":{"stop_id":"4249566","stop_code":"","platform_code":"","stop_name":"Grocery Outlet (627 US-20)","stop_desc":"","zone_id":"","stop_url":"","location_type":"0","parent_station":"","stop_timezone":"America/Los_Angeles","position":"","direction":"","wheelchair_boarding":"0","tts_stop_name":"","feed_id":"Oregon__Burns_Paiute_Tribal_Transit__mdb_mdb-2621","agency_name":"Burns Paiute Tribal Transit","route_count":1,"route_ids":"77236","route_short_names":"","route_types":"3","route_type_names":"Bus","routes_json":"[{\"route_id\":\"77236\",\"route_short_name\":\"\",\"route_long_name\":\"BPT Tribal Transit\",\"route_type\":\"3\",\"route_type_name\":\"Bus\",\"route_color\":\"3E5BC6\",\"route_text_color\":\"FFFFFF\"}]","metadata_feed_id":"Oregon__Burns_Paiute_Tribal_Transit__mdb_mdb-2621","metadata_agency_names":"Burns Paiute Tribal Transit","metadata_ntd_id":"00421","metadata_ntd_match_method":"manual_override","metadata_ntd_agency":"Burns Paiute Tribe, dba: Burns Paiute Tribal Transit","metadata_ntd_city":"Burns","metadata_ntd_state":"OR","metadata_gtfs_route_count":1,"metadata_gtfs_trip_count":7,"metadata_gtfs_shape_count":1,"metadata_gtfs_stop_count":8,"metadata_ntd_total_facilities":0,"metadata_ntd_maintenance_facilities":0,"metadata_ntd_passenger_stations":0,"metadata_tam_tier":"Tier II","metadata_route_types_json":"{\"3\":1}","metadata_ntd_facilities_json":"{\"maintenance_facilities\":0,\"administrative_and_other_non_passenger_facilities\":0,\"passenger_stations_and_terminals\":0,\"parking_and_other_passenger_facilities\":0,\"total_facilities\":0,\"bus_transfer_centers\":null,\"elevated_fixed_guideway_stations\":null,\"at_grade_fixed_guideway_stations\":null,\"underground_fixed_guideway_stations\":null,\"simple_at_grade_platform_stations\":null,\"exclusive_grade_separated_platform_stations\":null,\"ferryboat_terminals\":null,\"surface_parking_lots\":null,\"parking_structures\":null}","metadata_tam_modes_json":"{\"DR\":{\"total_units_2024\":3,\"units_under_threshold_2024\":1,\"voms_2024\":0,\"total_modal_vrm_2024\":0,\"total_modal_upt_2024\":0}}"},"geometry":{"type":"Point","coordinates":[-119.07366,43.57304]}},{"type":"Feature","properties":{"stop_id":"4249567","stop_code":"","platform_code":"","stop_name":"Harney Hub (17 S Alder Ave)","stop_desc":"","zone_id":"","stop_url":"","location_type":"0","parent_station":"","stop_timezone":"America/Los_Angeles","position":"","direction":"","wheelchair_boarding":"0","tts_stop_name":"","feed_id":"Oregon__Burns_Paiute_Tribal_Transit__mdb_mdb-2621","agency_name":"Burns Paiute Tribal Transit","route_count":1,"route_ids":"77236","route_short_names":"","route_types":"3","route_type_names":"Bus","routes_json":"[{\"route_id\":\"77236\",\"route_short_name\":\"\",\"route_long_name\":\"BPT Tribal Transit\",\"route_type\":\"3\",\"route_type_name\":\"Bus\",\"route_color\":\"3E5BC6\",\"route_text_color\":\"FFFFFF\"}]","metadata_feed_id":"Oregon__Burns_Paiute_Tribal_Transit__mdb_mdb-2621","metadata_agency_names":"Burns Paiute Tribal Transit","metadata_ntd_id":"00421","metadata_ntd_match_method":"manual_override","metadata_ntd_agency":"Burns Paiute Tribe, dba: Burns Paiute Tribal Transit","metadata_ntd_city":"Burns","metadata_ntd_state":"OR","metadata_gtfs_route_count":1,"metadata_gtfs_trip_count":7,"metadata_gtfs_shape_count":1,"metadata_gtfs_stop_count":8,"metadata_ntd_total_facilities":0,"metadata_ntd_maintenance_facilities":0,"metadata_ntd_passenger_stations":0,"metadata_tam_tier":"Tier II","metadata_route_types_json":"{\"3\":1}","metadata_ntd_facilities_json":"{\"maintenance_facilities\":0,\"administrative_and_other_non_passenger_facilities\":0,\"passenger_stations_and_terminals\":0,\"parking_and_other_passenger_facilities\":0,\"total_facilities\":0,\"bus_transfer_centers\":null,\"elevated_fixed_guideway_stations\":null,\"at_grade_fixed_guideway_stations\":null,\"underground_fixed_guideway_stations\":null,\"simple_at_grade_platform_stations\":null,\"exclusive_grade_separated_platform_stations\":null,\"ferryboat_terminals\":null,\"surface_parking_lots\":null,\"parking_structures\":null}","metadata_tam_modes_json":"{\"DR\":{\"total_units_2024\":3,\"units_under_threshold_2024\":1,\"voms_2024\":0,\"total_modal_vrm_2024\":0,\"total_modal_upt_2024\":0}}"},"geometry":{"type":"Point","coordinates":[-119.05295,43.5856]}},{"type":"Feature","properties":{"stop_id":"4249568","stop_code":"","platform_code":"","stop_name":"Post Office","stop_desc":"","zone_id":"","stop_url":"","location_type":"0","parent_station":"","stop_timezone":"America/Los_Angeles","position":"","direction":"","wheelchair_boarding":"0","tts_stop_name":"","feed_id":"Oregon__Burns_Paiute_Tribal_Transit__mdb_mdb-2621","agency_name":"Burns Paiute Tribal Transit","route_count":1,"route_ids":"77236","route_short_names":"","route_types":"3","route_type_names":"Bus","routes_json":"[{\"route_id\":\"77236\",\"route_short_name\":\"\",\"route_long_name\":\"BPT Tribal Transit\",\"route_type\":\"3\",\"route_type_name\":\"Bus\",\"route_color\":\"3E5BC6\",\"route_text_color\":\"FFFFFF\"}]","metadata_feed_id":"Oregon__Burns_Paiute_Tribal_Transit__mdb_mdb-2621","metadata_agency_names":"Burns Paiute Tribal Transit","metadata_ntd_id":"00421","metadata_ntd_match_method":"manual_override","metadata_ntd_agency":"Burns Paiute Tribe, dba: Burns Paiute Tribal Transit","metadata_ntd_city":"Burns","metadata_ntd_state":"OR","metadata_gtfs_route_count":1,"metadata_gtfs_trip_count":7,"metadata_gtfs_shape_count":1,"metadata_gtfs_stop_count":8,"metadata_ntd_total_facilities":0,"metadata_ntd_maintenance_facilities":0,"metadata_ntd_passenger_stations":0,"metadata_tam_tier":"Tier II","metadata_route_types_json":"{\"3\":1}","metadata_ntd_facilities_json":"{\"maintenance_facilities\":0,\"administrative_and_other_non_passenger_facilities\":0,\"passenger_stations_and_terminals\":0,\"parking_and_other_passenger_facilities\":0,\"total_facilities\":0,\"bus_transfer_centers\":null,\"elevated_fixed_guideway_stations\":null,\"at_grade_fixed_guideway_stations\":null,\"underground_fixed_guideway_stations\":null,\"simple_at_grade_platform_stations\":null,\"exclusive_grade_separated_platform_stations\":null,\"ferryboat_terminals\":null,\"surface_parking_lots\":null,\"parking_structures\":null}","metadata_tam_modes_json":"{\"DR\":{\"total_units_2024\":3,\"units_under_threshold_2024\":1,\"voms_2024\":0,\"total_modal_vrm_2024\":0,\"total_modal_upt_2024\":0}}"},"geometry":{"type":"Point","coordinates":[-119.0545,43.58456]}}],"metadata":{"feed_id":"Oregon__Burns_Paiute_Tribal_Transit__mdb_mdb-2621","ntd_id":"00421","feature_metadata_embedded":true}}