{"type":"FeatureCollection","features":[{"type":"Feature","properties":{"stop_id":"73368","stop_code":"73368","stop_name":"Fremont Station","zone_id":"81817","stop_desc":"","stop_url":"https://acerail.com/stations/#3423","location_type":"0","parent_station":"","stop_timezone":"","wheelchair_boarding":"1","platform_code":"","feed_id":"California__Altamont_Corridor_Express__mdb_mdb-2684","agency_name":"Altamont Corridor Express","route_count":1,"route_ids":"ACE","route_short_names":"ACE","route_types":"2","route_type_names":"Rail","routes_json":"[{\"route_id\":\"ACE\",\"route_short_name\":\"ACE\",\"route_long_name\":\"Altamont Commuter Express\",\"route_type\":\"2\",\"route_type_name\":\"Rail\",\"route_color\":\"77297D\",\"route_text_color\":\"FFFFFF\"}]","metadata_feed_id":"California__Altamont_Corridor_Express__mdb_mdb-2684","metadata_agency_names":"Altamont Corridor Express","metadata_ntd_id":"90182","metadata_ntd_match_method":"manual_override","metadata_ntd_agency":"Altamont Corridor Express","metadata_ntd_city":"Stockton","metadata_ntd_state":"CA","metadata_gtfs_route_count":1,"metadata_gtfs_trip_count":44,"metadata_gtfs_shape_count":2,"metadata_gtfs_stop_count":10,"metadata_ntd_agency_voms":28,"metadata_ntd_total_facilities":40,"metadata_ntd_maintenance_facilities":3,"metadata_ntd_passenger_stations":11,"metadata_tam_tier":"Tier I (Rail)","metadata_service_area_sq_miles":28,"metadata_service_area_population":4336475,"metadata_route_types_json":"{\"2\":1}","metadata_ntd_facilities_json":"{\"maintenance_facilities\":3,\"administrative_and_other_non_passenger_facilities\":6,\"passenger_stations_and_terminals\":11,\"parking_and_other_passenger_facilities\":20,\"total_facilities\":40,\"bus_transfer_centers\":1,\"elevated_fixed_guideway_stations\":0,\"at_grade_fixed_guideway_stations\":0,\"underground_fixed_guideway_stations\":0,\"simple_at_grade_platform_stations\":10,\"exclusive_grade_separated_platform_stations\":0,\"ferryboat_terminals\":0,\"surface_parking_lots\":13,\"parking_structures\":0}","metadata_tam_modes_json":"{\"CR\":{\"total_units_2024\":208.4,\"units_under_threshold_2024\":7,\"voms_2024\":56,\"total_modal_vrm_2024\":3043623,\"total_modal_upt_2024\":2044053}}"},"geometry":{"type":"Point","coordinates":[-122.007353,37.559114]}},{"type":"Feature","properties":{"stop_id":"73422","stop_code":"73422","stop_name":"Great America Parkway Station","zone_id":"81818","stop_desc":"","stop_url":"https://acerail.com/stations/#3424","location_type":"0","parent_station":"","stop_timezone":"","wheelchair_boarding":"1","platform_code":"","feed_id":"California__Altamont_Corridor_Express__mdb_mdb-2684","agency_name":"Altamont Corridor Express","route_count":1,"route_ids":"ACE","route_short_names":"ACE","route_types":"2","route_type_names":"Rail","routes_json":"[{\"route_id\":\"ACE\",\"route_short_name\":\"ACE\",\"route_long_name\":\"Altamont Commuter Express\",\"route_type\":\"2\",\"route_type_name\":\"Rail\",\"route_color\":\"77297D\",\"route_text_color\":\"FFFFFF\"}]","metadata_feed_id":"California__Altamont_Corridor_Express__mdb_mdb-2684","metadata_agency_names":"Altamont Corridor Express","metadata_ntd_id":"90182","metadata_ntd_match_method":"manual_override","metadata_ntd_agency":"Altamont Corridor Express","metadata_ntd_city":"Stockton","metadata_ntd_state":"CA","metadata_gtfs_route_count":1,"metadata_gtfs_trip_count":44,"metadata_gtfs_shape_count":2,"metadata_gtfs_stop_count":10,"metadata_ntd_agency_voms":28,"metadata_ntd_total_facilities":40,"metadata_ntd_maintenance_facilities":3,"metadata_ntd_passenger_stations":11,"metadata_tam_tier":"Tier I (Rail)","metadata_service_area_sq_miles":28,"metadata_service_area_population":4336475,"metadata_route_types_json":"{\"2\":1}","metadata_ntd_facilities_json":"{\"maintenance_facilities\":3,\"administrative_and_other_non_passenger_facilities\":6,\"passenger_stations_and_terminals\":11,\"parking_and_other_passenger_facilities\":20,\"total_facilities\":40,\"bus_transfer_centers\":1,\"elevated_fixed_guideway_stations\":0,\"at_grade_fixed_guideway_stations\":0,\"underground_fixed_guideway_stations\":0,\"simple_at_grade_platform_stations\":10,\"exclusive_grade_separated_platform_stations\":0,\"ferryboat_terminals\":0,\"surface_parking_lots\":13,\"parking_structures\":0}","metadata_tam_modes_json":"{\"CR\":{\"total_units_2024\":208.4,\"units_under_threshold_2024\":7,\"voms_2024\":56,\"total_modal_vrm_2024\":3043623,\"total_modal_upt_2024\":2044053}}"},"geometry":{"type":"Point","coordinates":[-121.967047,37.406833]}},{"type":"Feature","properties":{"stop_id":"73586","stop_code":"73586","stop_name":"Lathrop/Manteca Station","zone_id":"81812","stop_desc":"","stop_url":"https://acerail.com/stations/#3415","location_type":"0","parent_station":"","stop_timezone":"","wheelchair_boarding":"1","platform_code":"","feed_id":"California__Altamont_Corridor_Express__mdb_mdb-2684","agency_name":"Altamont Corridor Express","route_count":1,"route_ids":"ACE","route_short_names":"ACE","route_types":"2","route_type_names":"Rail","routes_json":"[{\"route_id\":\"ACE\",\"route_short_name\":\"ACE\",\"route_long_name\":\"Altamont Commuter Express\",\"route_type\":\"2\",\"route_type_name\":\"Rail\",\"route_color\":\"77297D\",\"route_text_color\":\"FFFFFF\"}]","metadata_feed_id":"California__Altamont_Corridor_Express__mdb_mdb-2684","metadata_agency_names":"Altamont Corridor Express","metadata_ntd_id":"90182","metadata_ntd_match_method":"manual_override","metadata_ntd_agency":"Altamont Corridor Express","metadata_ntd_city":"Stockton","metadata_ntd_state":"CA","metadata_gtfs_route_count":1,"metadata_gtfs_trip_count":44,"metadata_gtfs_shape_count":2,"metadata_gtfs_stop_count":10,"metadata_ntd_agency_voms":28,"metadata_ntd_total_facilities":40,"metadata_ntd_maintenance_facilities":3,"metadata_ntd_passenger_stations":11,"metadata_tam_tier":"Tier I (Rail)","metadata_service_area_sq_miles":28,"metadata_service_area_population":4336475,"metadata_route_types_json":"{\"2\":1}","metadata_ntd_facilities_json":"{\"maintenance_facilities\":3,\"administrative_and_other_non_passenger_facilities\":6,\"passenger_stations_and_terminals\":11,\"parking_and_other_passenger_facilities\":20,\"total_facilities\":40,\"bus_transfer_centers\":1,\"elevated_fixed_guideway_stations\":0,\"at_grade_fixed_guideway_stations\":0,\"underground_fixed_guideway_stations\":0,\"simple_at_grade_platform_stations\":10,\"exclusive_grade_separated_platform_stations\":0,\"ferryboat_terminals\":0,\"surface_parking_lots\":13,\"parking_structures\":0}","metadata_tam_modes_json":"{\"CR\":{\"total_units_2024\":208.4,\"units_under_threshold_2024\":7,\"voms_2024\":56,\"total_modal_vrm_2024\":3043623,\"total_modal_upt_2024\":2044053}}"},"geometry":{"type":"Point","coordinates":[-121.264143,37.79894]}},{"type":"Feature","properties":{"stop_id":"73548","stop_code":"73548","stop_name":"Livermore Station","zone_id":"81815","stop_desc":"","stop_url":"https://acerail.com/stations/#3421","location_type":"0","parent_station":"","stop_timezone":"","wheelchair_boarding":"1","platform_code":"","feed_id":"California__Altamont_Corridor_Express__mdb_mdb-2684","agency_name":"Altamont Corridor Express","route_count":1,"route_ids":"ACE","route_short_names":"ACE","route_types":"2","route_type_names":"Rail","routes_json":"[{\"route_id\":\"ACE\",\"route_short_name\":\"ACE\",\"route_long_name\":\"Altamont Commuter Express\",\"route_type\":\"2\",\"route_type_name\":\"Rail\",\"route_color\":\"77297D\",\"route_text_color\":\"FFFFFF\"}]","metadata_feed_id":"California__Altamont_Corridor_Express__mdb_mdb-2684","metadata_agency_names":"Altamont Corridor Express","metadata_ntd_id":"90182","metadata_ntd_match_method":"manual_override","metadata_ntd_agency":"Altamont Corridor Express","metadata_ntd_city":"Stockton","metadata_ntd_state":"CA","metadata_gtfs_route_count":1,"metadata_gtfs_trip_count":44,"metadata_gtfs_shape_count":2,"metadata_gtfs_stop_count":10,"metadata_ntd_agency_voms":28,"metadata_ntd_total_facilities":40,"metadata_ntd_maintenance_facilities":3,"metadata_ntd_passenger_stations":11,"metadata_tam_tier":"Tier I (Rail)","metadata_service_area_sq_miles":28,"metadata_service_area_population":4336475,"metadata_route_types_json":"{\"2\":1}","metadata_ntd_facilities_json":"{\"maintenance_facilities\":3,\"administrative_and_other_non_passenger_facilities\":6,\"passenger_stations_and_terminals\":11,\"parking_and_other_passenger_facilities\":20,\"total_facilities\":40,\"bus_transfer_centers\":1,\"elevated_fixed_guideway_stations\":0,\"at_grade_fixed_guideway_stations\":0,\"underground_fixed_guideway_stations\":0,\"simple_at_grade_platform_stations\":10,\"exclusive_grade_separated_platform_stations\":0,\"ferryboat_terminals\":0,\"surface_parking_lots\":13,\"parking_structures\":0}","metadata_tam_modes_json":"{\"CR\":{\"total_units_2024\":208.4,\"units_under_threshold_2024\":7,\"voms_2024\":56,\"total_modal_vrm_2024\":3043623,\"total_modal_upt_2024\":2044053}}"},"geometry":{"type":"Point","coordinates":[-121.766906,37.685045]}},{"type":"Feature","properties":{"stop_id":"73757","stop_code":"73757","stop_name":"Pleasanton Station","zone_id":"81816","stop_desc":"","stop_url":"https://acerail.com/stations/#3422","location_type":"0","parent_station":"","stop_timezone":"","wheelchair_boarding":"1","platform_code":"","feed_id":"California__Altamont_Corridor_Express__mdb_mdb-2684","agency_name":"Altamont Corridor Express","route_count":1,"route_ids":"ACE","route_short_names":"ACE","route_types":"2","route_type_names":"Rail","routes_json":"[{\"route_id\":\"ACE\",\"route_short_name\":\"ACE\",\"route_long_name\":\"Altamont Commuter Express\",\"route_type\":\"2\",\"route_type_name\":\"Rail\",\"route_color\":\"77297D\",\"route_text_color\":\"FFFFFF\"}]","metadata_feed_id":"California__Altamont_Corridor_Express__mdb_mdb-2684","metadata_agency_names":"Altamont Corridor Express","metadata_ntd_id":"90182","metadata_ntd_match_method":"manual_override","metadata_ntd_agency":"Altamont Corridor Express","metadata_ntd_city":"Stockton","metadata_ntd_state":"CA","metadata_gtfs_route_count":1,"metadata_gtfs_trip_count":44,"metadata_gtfs_shape_count":2,"metadata_gtfs_stop_count":10,"metadata_ntd_agency_voms":28,"metadata_ntd_total_facilities":40,"metadata_ntd_maintenance_facilities":3,"metadata_ntd_passenger_stations":11,"metadata_tam_tier":"Tier I (Rail)","metadata_service_area_sq_miles":28,"metadata_service_area_population":4336475,"metadata_route_types_json":"{\"2\":1}","metadata_ntd_facilities_json":"{\"maintenance_facilities\":3,\"administrative_and_other_non_passenger_facilities\":6,\"passenger_stations_and_terminals\":11,\"parking_and_other_passenger_facilities\":20,\"total_facilities\":40,\"bus_transfer_centers\":1,\"elevated_fixed_guideway_stations\":0,\"at_grade_fixed_guideway_stations\":0,\"underground_fixed_guideway_stations\":0,\"simple_at_grade_platform_stations\":10,\"exclusive_grade_separated_platform_stations\":0,\"ferryboat_terminals\":0,\"surface_parking_lots\":13,\"parking_structures\":0}","metadata_tam_modes_json":"{\"CR\":{\"total_units_2024\":208.4,\"units_under_threshold_2024\":7,\"voms_2024\":56,\"total_modal_vrm_2024\":3043623,\"total_modal_upt_2024\":2044053}}"},"geometry":{"type":"Point","coordinates":[-121.882229,37.658561]}},{"type":"Feature","properties":{"stop_id":"73722","stop_code":"73722","stop_name":"San Jose Station Diridon","zone_id":"81820","stop_desc":"","stop_url":"https://acerail.com/stations/#3445","location_type":"0","parent_station":"","stop_timezone":"","wheelchair_boarding":"1","platform_code":"","feed_id":"California__Altamont_Corridor_Express__mdb_mdb-2684","agency_name":"Altamont Corridor Express","route_count":1,"route_ids":"ACE","route_short_names":"ACE","route_types":"2","route_type_names":"Rail","routes_json":"[{\"route_id\":\"ACE\",\"route_short_name\":\"ACE\",\"route_long_name\":\"Altamont Commuter Express\",\"route_type\":\"2\",\"route_type_name\":\"Rail\",\"route_color\":\"77297D\",\"route_text_color\":\"FFFFFF\"}]","metadata_feed_id":"California__Altamont_Corridor_Express__mdb_mdb-2684","metadata_agency_names":"Altamont Corridor Express","metadata_ntd_id":"90182","metadata_ntd_match_method":"manual_override","metadata_ntd_agency":"Altamont Corridor Express","metadata_ntd_city":"Stockton","metadata_ntd_state":"CA","metadata_gtfs_route_count":1,"metadata_gtfs_trip_count":44,"metadata_gtfs_shape_count":2,"metadata_gtfs_stop_count":10,"metadata_ntd_agency_voms":28,"metadata_ntd_total_facilities":40,"metadata_ntd_maintenance_facilities":3,"metadata_ntd_passenger_stations":11,"metadata_tam_tier":"Tier I (Rail)","metadata_service_area_sq_miles":28,"metadata_service_area_population":4336475,"metadata_route_types_json":"{\"2\":1}","metadata_ntd_facilities_json":"{\"maintenance_facilities\":3,\"administrative_and_other_non_passenger_facilities\":6,\"passenger_stations_and_terminals\":11,\"parking_and_other_passenger_facilities\":20,\"total_facilities\":40,\"bus_transfer_centers\":1,\"elevated_fixed_guideway_stations\":0,\"at_grade_fixed_guideway_stations\":0,\"underground_fixed_guideway_stations\":0,\"simple_at_grade_platform_stations\":10,\"exclusive_grade_separated_platform_stations\":0,\"ferryboat_terminals\":0,\"surface_parking_lots\":13,\"parking_structures\":0}","metadata_tam_modes_json":"{\"CR\":{\"total_units_2024\":208.4,\"units_under_threshold_2024\":7,\"voms_2024\":56,\"total_modal_vrm_2024\":3043623,\"total_modal_upt_2024\":2044053}}"},"geometry":{"type":"Point","coordinates":[-121.902378,37.330686]}},{"type":"Feature","properties":{"stop_id":"73752","stop_code":"73752","stop_name":"Santa Clara Station","zone_id":"81819","stop_desc":"","stop_url":"https://acerail.com/stations/#3441","location_type":"0","parent_station":"","stop_timezone":"","wheelchair_boarding":"1","platform_code":"","feed_id":"California__Altamont_Corridor_Express__mdb_mdb-2684","agency_name":"Altamont Corridor Express","route_count":1,"route_ids":"ACE","route_short_names":"ACE","route_types":"2","route_type_names":"Rail","routes_json":"[{\"route_id\":\"ACE\",\"route_short_name\":\"ACE\",\"route_long_name\":\"Altamont Commuter Express\",\"route_type\":\"2\",\"route_type_name\":\"Rail\",\"route_color\":\"77297D\",\"route_text_color\":\"FFFFFF\"}]","metadata_feed_id":"California__Altamont_Corridor_Express__mdb_mdb-2684","metadata_agency_names":"Altamont Corridor Express","metadata_ntd_id":"90182","metadata_ntd_match_method":"manual_override","metadata_ntd_agency":"Altamont Corridor Express","metadata_ntd_city":"Stockton","metadata_ntd_state":"CA","metadata_gtfs_route_count":1,"metadata_gtfs_trip_count":44,"metadata_gtfs_shape_count":2,"metadata_gtfs_stop_count":10,"metadata_ntd_agency_voms":28,"metadata_ntd_total_facilities":40,"metadata_ntd_maintenance_facilities":3,"metadata_ntd_passenger_stations":11,"metadata_tam_tier":"Tier I (Rail)","metadata_service_area_sq_miles":28,"metadata_service_area_population":4336475,"metadata_route_types_json":"{\"2\":1}","metadata_ntd_facilities_json":"{\"maintenance_facilities\":3,\"administrative_and_other_non_passenger_facilities\":6,\"passenger_stations_and_terminals\":11,\"parking_and_other_passenger_facilities\":20,\"total_facilities\":40,\"bus_transfer_centers\":1,\"elevated_fixed_guideway_stations\":0,\"at_grade_fixed_guideway_stations\":0,\"underground_fixed_guideway_stations\":0,\"simple_at_grade_platform_stations\":10,\"exclusive_grade_separated_platform_stations\":0,\"ferryboat_terminals\":0,\"surface_parking_lots\":13,\"parking_structures\":0}","metadata_tam_modes_json":"{\"CR\":{\"total_units_2024\":208.4,\"units_under_threshold_2024\":7,\"voms_2024\":56,\"total_modal_vrm_2024\":3043623,\"total_modal_upt_2024\":2044053}}"},"geometry":{"type":"Point","coordinates":[-121.936312,37.353506]}},{"type":"Feature","properties":{"stop_id":"73758","stop_code":"73758","stop_name":"Stockton - Robert J Cabral Station","zone_id":"81811","stop_desc":"","stop_url":"https://acerail.com/stations/#3411","location_type":"0","parent_station":"","stop_timezone":"","wheelchair_boarding":"1","platform_code":"","feed_id":"California__Altamont_Corridor_Express__mdb_mdb-2684","agency_name":"Altamont Corridor Express","route_count":1,"route_ids":"ACE","route_short_names":"ACE","route_types":"2","route_type_names":"Rail","routes_json":"[{\"route_id\":\"ACE\",\"route_short_name\":\"ACE\",\"route_long_name\":\"Altamont Commuter Express\",\"route_type\":\"2\",\"route_type_name\":\"Rail\",\"route_color\":\"77297D\",\"route_text_color\":\"FFFFFF\"}]","metadata_feed_id":"California__Altamont_Corridor_Express__mdb_mdb-2684","metadata_agency_names":"Altamont Corridor Express","metadata_ntd_id":"90182","metadata_ntd_match_method":"manual_override","metadata_ntd_agency":"Altamont Corridor Express","metadata_ntd_city":"Stockton","metadata_ntd_state":"CA","metadata_gtfs_route_count":1,"metadata_gtfs_trip_count":44,"metadata_gtfs_shape_count":2,"metadata_gtfs_stop_count":10,"metadata_ntd_agency_voms":28,"metadata_ntd_total_facilities":40,"metadata_ntd_maintenance_facilities":3,"metadata_ntd_passenger_stations":11,"metadata_tam_tier":"Tier I (Rail)","metadata_service_area_sq_miles":28,"metadata_service_area_population":4336475,"metadata_route_types_json":"{\"2\":1}","metadata_ntd_facilities_json":"{\"maintenance_facilities\":3,\"administrative_and_other_non_passenger_facilities\":6,\"passenger_stations_and_terminals\":11,\"parking_and_other_passenger_facilities\":20,\"total_facilities\":40,\"bus_transfer_centers\":1,\"elevated_fixed_guideway_stations\":0,\"at_grade_fixed_guideway_stations\":0,\"underground_fixed_guideway_stations\":0,\"simple_at_grade_platform_stations\":10,\"exclusive_grade_separated_platform_stations\":0,\"ferryboat_terminals\":0,\"surface_parking_lots\":13,\"parking_structures\":0}","metadata_tam_modes_json":"{\"CR\":{\"total_units_2024\":208.4,\"units_under_threshold_2024\":7,\"voms_2024\":56,\"total_modal_vrm_2024\":3043623,\"total_modal_upt_2024\":2044053}}"},"geometry":{"type":"Point","coordinates":[-121.27888,37.95708]}},{"type":"Feature","properties":{"stop_id":"73872","stop_code":"73872","stop_name":"Tracy Station","zone_id":"81813","stop_desc":"","stop_url":"https://acerail.com/stations/#3420","location_type":"0","parent_station":"","stop_timezone":"","wheelchair_boarding":"1","platform_code":"","feed_id":"California__Altamont_Corridor_Express__mdb_mdb-2684","agency_name":"Altamont Corridor Express","route_count":1,"route_ids":"ACE","route_short_names":"ACE","route_types":"2","route_type_names":"Rail","routes_json":"[{\"route_id\":\"ACE\",\"route_short_name\":\"ACE\",\"route_long_name\":\"Altamont Commuter Express\",\"route_type\":\"2\",\"route_type_name\":\"Rail\",\"route_color\":\"77297D\",\"route_text_color\":\"FFFFFF\"}]","metadata_feed_id":"California__Altamont_Corridor_Express__mdb_mdb-2684","metadata_agency_names":"Altamont Corridor Express","metadata_ntd_id":"90182","metadata_ntd_match_method":"manual_override","metadata_ntd_agency":"Altamont Corridor Express","metadata_ntd_city":"Stockton","metadata_ntd_state":"CA","metadata_gtfs_route_count":1,"metadata_gtfs_trip_count":44,"metadata_gtfs_shape_count":2,"metadata_gtfs_stop_count":10,"metadata_ntd_agency_voms":28,"metadata_ntd_total_facilities":40,"metadata_ntd_maintenance_facilities":3,"metadata_ntd_passenger_stations":11,"metadata_tam_tier":"Tier I (Rail)","metadata_service_area_sq_miles":28,"metadata_service_area_population":4336475,"metadata_route_types_json":"{\"2\":1}","metadata_ntd_facilities_json":"{\"maintenance_facilities\":3,\"administrative_and_other_non_passenger_facilities\":6,\"passenger_stations_and_terminals\":11,\"parking_and_other_passenger_facilities\":20,\"total_facilities\":40,\"bus_transfer_centers\":1,\"elevated_fixed_guideway_stations\":0,\"at_grade_fixed_guideway_stations\":0,\"underground_fixed_guideway_stations\":0,\"simple_at_grade_platform_stations\":10,\"exclusive_grade_separated_platform_stations\":0,\"ferryboat_terminals\":0,\"surface_parking_lots\":13,\"parking_structures\":0}","metadata_tam_modes_json":"{\"CR\":{\"total_units_2024\":208.4,\"units_under_threshold_2024\":7,\"voms_2024\":56,\"total_modal_vrm_2024\":3043623,\"total_modal_upt_2024\":2044053}}"},"geometry":{"type":"Point","coordinates":[-121.432738,37.696419]}},{"type":"Feature","properties":{"stop_id":"73827","stop_code":"73827","stop_name":"Vasco Rd Station","zone_id":"81814","stop_desc":"","stop_url":"https://acerail.com/stations/#3419","location_type":"0","parent_station":"","stop_timezone":"","wheelchair_boarding":"1","platform_code":"","feed_id":"California__Altamont_Corridor_Express__mdb_mdb-2684","agency_name":"Altamont Corridor Express","route_count":1,"route_ids":"ACE","route_short_names":"ACE","route_types":"2","route_type_names":"Rail","routes_json":"[{\"route_id\":\"ACE\",\"route_short_name\":\"ACE\",\"route_long_name\":\"Altamont Commuter Express\",\"route_type\":\"2\",\"route_type_name\":\"Rail\",\"route_color\":\"77297D\",\"route_text_color\":\"FFFFFF\"}]","metadata_feed_id":"California__Altamont_Corridor_Express__mdb_mdb-2684","metadata_agency_names":"Altamont Corridor Express","metadata_ntd_id":"90182","metadata_ntd_match_method":"manual_override","metadata_ntd_agency":"Altamont Corridor Express","metadata_ntd_city":"Stockton","metadata_ntd_state":"CA","metadata_gtfs_route_count":1,"metadata_gtfs_trip_count":44,"metadata_gtfs_shape_count":2,"metadata_gtfs_stop_count":10,"metadata_ntd_agency_voms":28,"metadata_ntd_total_facilities":40,"metadata_ntd_maintenance_facilities":3,"metadata_ntd_passenger_stations":11,"metadata_tam_tier":"Tier I (Rail)","metadata_service_area_sq_miles":28,"metadata_service_area_population":4336475,"metadata_route_types_json":"{\"2\":1}","metadata_ntd_facilities_json":"{\"maintenance_facilities\":3,\"administrative_and_other_non_passenger_facilities\":6,\"passenger_stations_and_terminals\":11,\"parking_and_other_passenger_facilities\":20,\"total_facilities\":40,\"bus_transfer_centers\":1,\"elevated_fixed_guideway_stations\":0,\"at_grade_fixed_guideway_stations\":0,\"underground_fixed_guideway_stations\":0,\"simple_at_grade_platform_stations\":10,\"exclusive_grade_separated_platform_stations\":0,\"ferryboat_terminals\":0,\"surface_parking_lots\":13,\"parking_structures\":0}","metadata_tam_modes_json":"{\"CR\":{\"total_units_2024\":208.4,\"units_under_threshold_2024\":7,\"voms_2024\":56,\"total_modal_vrm_2024\":3043623,\"total_modal_upt_2024\":2044053}}"},"geometry":{"type":"Point","coordinates":[-121.717655,37.697062]}}],"metadata":{"feed_id":"California__Altamont_Corridor_Express__mdb_mdb-2684","ntd_id":"90182","feature_metadata_embedded":true}}