{"type":"FeatureCollection","features":[{"type":"Feature","properties":{"stop_id":"2617997","stop_code":"","platform_code":"","stop_name":"Sterling Med Center","stop_desc":"","zone_id":"","stop_url":"","location_type":"0","parent_station":"","stop_timezone":"America/Denver","position":"","direction":"","wheelchair_boarding":"0","tts_stop_name":"","feed_id":"Colorado__Prairie_Express_Transit__mdb_mdb-801","agency_name":"Prairie Express Transit","route_count":1,"route_ids":"16676","route_short_names":"","route_types":"3","route_type_names":"Bus","routes_json":"[{\"route_id\":\"16676\",\"route_short_name\":\"\",\"route_long_name\":\"Prairie Express\",\"route_type\":\"3\",\"route_type_name\":\"Bus\",\"route_color\":\"4654FF\",\"route_text_color\":\"FFFFFF\"}]","metadata_feed_id":"Colorado__Prairie_Express_Transit__mdb_mdb-801","metadata_agency_names":"Prairie Express Transit","metadata_ntd_id":"88230","metadata_ntd_match_method":"manual_override","metadata_ntd_agency":"Teller Senior Coalition, dba: TSC Transit","metadata_ntd_city":"Divide","metadata_ntd_state":"CO","metadata_gtfs_route_count":1,"metadata_gtfs_trip_count":22,"metadata_gtfs_shape_count":2,"metadata_gtfs_stop_count":21,"metadata_ntd_agency_voms":13,"metadata_ntd_total_facilities":0,"metadata_ntd_maintenance_facilities":0,"metadata_ntd_passenger_stations":0,"metadata_tam_tier":"Tier II","metadata_route_types_json":"{\"3\":1}","metadata_ntd_facilities_json":"{\"maintenance_facilities\":0,\"administrative_and_other_non_passenger_facilities\":0,\"passenger_stations_and_terminals\":0,\"parking_and_other_passenger_facilities\":0,\"total_facilities\":0,\"bus_transfer_centers\":null,\"elevated_fixed_guideway_stations\":null,\"at_grade_fixed_guideway_stations\":null,\"underground_fixed_guideway_stations\":null,\"simple_at_grade_platform_stations\":null,\"exclusive_grade_separated_platform_stations\":null,\"ferryboat_terminals\":null,\"surface_parking_lots\":null,\"parking_structures\":null}","metadata_tam_modes_json":"{\"DR\":{\"total_units_2024\":12,\"units_under_threshold_2024\":1,\"voms_2024\":48,\"total_modal_vrm_2024\":0,\"total_modal_upt_2024\":0},\"MB\":{\"total_units_2024\":1,\"units_under_threshold_2024\":0,\"voms_2024\":1,\"total_modal_vrm_2024\":0,\"total_modal_upt_2024\":0}}"},"geometry":{"type":"Point","coordinates":[-103.22088,40.612078]}},{"type":"Feature","properties":{"stop_id":"2617998","stop_code":"","platform_code":"","stop_name":"SunMart","stop_desc":"","zone_id":"","stop_url":"","location_type":"0","parent_station":"","stop_timezone":"America/Denver","position":"","direction":"","wheelchair_boarding":"0","tts_stop_name":"","feed_id":"Colorado__Prairie_Express_Transit__mdb_mdb-801","agency_name":"Prairie Express Transit","route_count":1,"route_ids":"16676","route_short_names":"","route_types":"3","route_type_names":"Bus","routes_json":"[{\"route_id\":\"16676\",\"route_short_name\":\"\",\"route_long_name\":\"Prairie Express\",\"route_type\":\"3\",\"route_type_name\":\"Bus\",\"route_color\":\"4654FF\",\"route_text_color\":\"FFFFFF\"}]","metadata_feed_id":"Colorado__Prairie_Express_Transit__mdb_mdb-801","metadata_agency_names":"Prairie Express Transit","metadata_ntd_id":"88230","metadata_ntd_match_method":"manual_override","metadata_ntd_agency":"Teller Senior Coalition, dba: TSC Transit","metadata_ntd_city":"Divide","metadata_ntd_state":"CO","metadata_gtfs_route_count":1,"metadata_gtfs_trip_count":22,"metadata_gtfs_shape_count":2,"metadata_gtfs_stop_count":21,"metadata_ntd_agency_voms":13,"metadata_ntd_total_facilities":0,"metadata_ntd_maintenance_facilities":0,"metadata_ntd_passenger_stations":0,"metadata_tam_tier":"Tier II","metadata_route_types_json":"{\"3\":1}","metadata_ntd_facilities_json":"{\"maintenance_facilities\":0,\"administrative_and_other_non_passenger_facilities\":0,\"passenger_stations_and_terminals\":0,\"parking_and_other_passenger_facilities\":0,\"total_facilities\":0,\"bus_transfer_centers\":null,\"elevated_fixed_guideway_stations\":null,\"at_grade_fixed_guideway_stations\":null,\"underground_fixed_guideway_stations\":null,\"simple_at_grade_platform_stations\":null,\"exclusive_grade_separated_platform_stations\":null,\"ferryboat_terminals\":null,\"surface_parking_lots\":null,\"parking_structures\":null}","metadata_tam_modes_json":"{\"DR\":{\"total_units_2024\":12,\"units_under_threshold_2024\":1,\"voms_2024\":48,\"total_modal_vrm_2024\":0,\"total_modal_upt_2024\":0},\"MB\":{\"total_units_2024\":1,\"units_under_threshold_2024\":0,\"voms_2024\":1,\"total_modal_vrm_2024\":0,\"total_modal_upt_2024\":0}}"},"geometry":{"type":"Point","coordinates":[-103.213918,40.623387]}},{"type":"Feature","properties":{"stop_id":"2617999","stop_code":"","platform_code":"","stop_name":"Courthouse Square","stop_desc":"","zone_id":"","stop_url":"","location_type":"0","parent_station":"","stop_timezone":"America/Denver","position":"","direction":"","wheelchair_boarding":"0","tts_stop_name":"","feed_id":"Colorado__Prairie_Express_Transit__mdb_mdb-801","agency_name":"Prairie Express Transit","route_count":1,"route_ids":"16676","route_short_names":"","route_types":"3","route_type_names":"Bus","routes_json":"[{\"route_id\":\"16676\",\"route_short_name\":\"\",\"route_long_name\":\"Prairie Express\",\"route_type\":\"3\",\"route_type_name\":\"Bus\",\"route_color\":\"4654FF\",\"route_text_color\":\"FFFFFF\"}]","metadata_feed_id":"Colorado__Prairie_Express_Transit__mdb_mdb-801","metadata_agency_names":"Prairie Express Transit","metadata_ntd_id":"88230","metadata_ntd_match_method":"manual_override","metadata_ntd_agency":"Teller Senior Coalition, dba: TSC Transit","metadata_ntd_city":"Divide","metadata_ntd_state":"CO","metadata_gtfs_route_count":1,"metadata_gtfs_trip_count":22,"metadata_gtfs_shape_count":2,"metadata_gtfs_stop_count":21,"metadata_ntd_agency_voms":13,"metadata_ntd_total_facilities":0,"metadata_ntd_maintenance_facilities":0,"metadata_ntd_passenger_stations":0,"metadata_tam_tier":"Tier II","metadata_route_types_json":"{\"3\":1}","metadata_ntd_facilities_json":"{\"maintenance_facilities\":0,\"administrative_and_other_non_passenger_facilities\":0,\"passenger_stations_and_terminals\":0,\"parking_and_other_passenger_facilities\":0,\"total_facilities\":0,\"bus_transfer_centers\":null,\"elevated_fixed_guideway_stations\":null,\"at_grade_fixed_guideway_stations\":null,\"underground_fixed_guideway_stations\":null,\"simple_at_grade_platform_stations\":null,\"exclusive_grade_separated_platform_stations\":null,\"ferryboat_terminals\":null,\"surface_parking_lots\":null,\"parking_structures\":null}","metadata_tam_modes_json":"{\"DR\":{\"total_units_2024\":12,\"units_under_threshold_2024\":1,\"voms_2024\":48,\"total_modal_vrm_2024\":0,\"total_modal_upt_2024\":0},\"MB\":{\"total_units_2024\":1,\"units_under_threshold_2024\":0,\"voms_2024\":1,\"total_modal_vrm_2024\":0,\"total_modal_upt_2024\":0}}"},"geometry":{"type":"Point","coordinates":[-103.210595,40.623142]}},{"type":"Feature","properties":{"stop_id":"2618000","stop_code":"","platform_code":"","stop_name":"HR Tire","stop_desc":"","zone_id":"","stop_url":"","location_type":"0","parent_station":"","stop_timezone":"America/Denver","position":"","direction":"","wheelchair_boarding":"0","tts_stop_name":"","feed_id":"Colorado__Prairie_Express_Transit__mdb_mdb-801","agency_name":"Prairie Express Transit","route_count":1,"route_ids":"16676","route_short_names":"","route_types":"3","route_type_names":"Bus","routes_json":"[{\"route_id\":\"16676\",\"route_short_name\":\"\",\"route_long_name\":\"Prairie Express\",\"route_type\":\"3\",\"route_type_name\":\"Bus\",\"route_color\":\"4654FF\",\"route_text_color\":\"FFFFFF\"}]","metadata_feed_id":"Colorado__Prairie_Express_Transit__mdb_mdb-801","metadata_agency_names":"Prairie Express Transit","metadata_ntd_id":"88230","metadata_ntd_match_method":"manual_override","metadata_ntd_agency":"Teller Senior Coalition, dba: TSC Transit","metadata_ntd_city":"Divide","metadata_ntd_state":"CO","metadata_gtfs_route_count":1,"metadata_gtfs_trip_count":22,"metadata_gtfs_shape_count":2,"metadata_gtfs_stop_count":21,"metadata_ntd_agency_voms":13,"metadata_ntd_total_facilities":0,"metadata_ntd_maintenance_facilities":0,"metadata_ntd_passenger_stations":0,"metadata_tam_tier":"Tier II","metadata_route_types_json":"{\"3\":1}","metadata_ntd_facilities_json":"{\"maintenance_facilities\":0,\"administrative_and_other_non_passenger_facilities\":0,\"passenger_stations_and_terminals\":0,\"parking_and_other_passenger_facilities\":0,\"total_facilities\":0,\"bus_transfer_centers\":null,\"elevated_fixed_guideway_stations\":null,\"at_grade_fixed_guideway_stations\":null,\"underground_fixed_guideway_stations\":null,\"simple_at_grade_platform_stations\":null,\"exclusive_grade_separated_platform_stations\":null,\"ferryboat_terminals\":null,\"surface_parking_lots\":null,\"parking_structures\":null}","metadata_tam_modes_json":"{\"DR\":{\"total_units_2024\":12,\"units_under_threshold_2024\":1,\"voms_2024\":48,\"total_modal_vrm_2024\":0,\"total_modal_upt_2024\":0},\"MB\":{\"total_units_2024\":1,\"units_under_threshold_2024\":0,\"voms_2024\":1,\"total_modal_vrm_2024\":0,\"total_modal_upt_2024\":0}}"},"geometry":{"type":"Point","coordinates":[-103.196613,40.621789]}},{"type":"Feature","properties":{"stop_id":"2618001","stop_code":"","platform_code":"","stop_name":"Advantage Center","stop_desc":"","zone_id":"","stop_url":"","location_type":"0","parent_station":"","stop_timezone":"America/Denver","position":"","direction":"","wheelchair_boarding":"0","tts_stop_name":"","feed_id":"Colorado__Prairie_Express_Transit__mdb_mdb-801","agency_name":"Prairie Express Transit","route_count":1,"route_ids":"16676","route_short_names":"","route_types":"3","route_type_names":"Bus","routes_json":"[{\"route_id\":\"16676\",\"route_short_name\":\"\",\"route_long_name\":\"Prairie Express\",\"route_type\":\"3\",\"route_type_name\":\"Bus\",\"route_color\":\"4654FF\",\"route_text_color\":\"FFFFFF\"}]","metadata_feed_id":"Colorado__Prairie_Express_Transit__mdb_mdb-801","metadata_agency_names":"Prairie Express Transit","metadata_ntd_id":"88230","metadata_ntd_match_method":"manual_override","metadata_ntd_agency":"Teller Senior Coalition, dba: TSC Transit","metadata_ntd_city":"Divide","metadata_ntd_state":"CO","metadata_gtfs_route_count":1,"metadata_gtfs_trip_count":22,"metadata_gtfs_shape_count":2,"metadata_gtfs_stop_count":21,"metadata_ntd_agency_voms":13,"metadata_ntd_total_facilities":0,"metadata_ntd_maintenance_facilities":0,"metadata_ntd_passenger_stations":0,"metadata_tam_tier":"Tier II","metadata_route_types_json":"{\"3\":1}","metadata_ntd_facilities_json":"{\"maintenance_facilities\":0,\"administrative_and_other_non_passenger_facilities\":0,\"passenger_stations_and_terminals\":0,\"parking_and_other_passenger_facilities\":0,\"total_facilities\":0,\"bus_transfer_centers\":null,\"elevated_fixed_guideway_stations\":null,\"at_grade_fixed_guideway_stations\":null,\"underground_fixed_guideway_stations\":null,\"simple_at_grade_platform_stations\":null,\"exclusive_grade_separated_platform_stations\":null,\"ferryboat_terminals\":null,\"surface_parking_lots\":null,\"parking_structures\":null}","metadata_tam_modes_json":"{\"DR\":{\"total_units_2024\":12,\"units_under_threshold_2024\":1,\"voms_2024\":48,\"total_modal_vrm_2024\":0,\"total_modal_upt_2024\":0},\"MB\":{\"total_units_2024\":1,\"units_under_threshold_2024\":0,\"voms_2024\":1,\"total_modal_vrm_2024\":0,\"total_modal_upt_2024\":0}}"},"geometry":{"type":"Point","coordinates":[-103.160681,40.614868]}},{"type":"Feature","properties":{"stop_id":"2618002","stop_code":"","platform_code":"","stop_name":"Grocery Mart","stop_desc":"","zone_id":"","stop_url":"","location_type":"0","parent_station":"","stop_timezone":"America/Denver","position":"","direction":"","wheelchair_boarding":"0","tts_stop_name":"","feed_id":"Colorado__Prairie_Express_Transit__mdb_mdb-801","agency_name":"Prairie Express Transit","route_count":0,"route_ids":"","route_short_names":"","route_types":"","route_type_names":"","routes_json":"[]","metadata_feed_id":"Colorado__Prairie_Express_Transit__mdb_mdb-801","metadata_agency_names":"Prairie Express Transit","metadata_ntd_id":"88230","metadata_ntd_match_method":"manual_override","metadata_ntd_agency":"Teller Senior Coalition, dba: TSC Transit","metadata_ntd_city":"Divide","metadata_ntd_state":"CO","metadata_gtfs_route_count":1,"metadata_gtfs_trip_count":22,"metadata_gtfs_shape_count":2,"metadata_gtfs_stop_count":21,"metadata_ntd_agency_voms":13,"metadata_ntd_total_facilities":0,"metadata_ntd_maintenance_facilities":0,"metadata_ntd_passenger_stations":0,"metadata_tam_tier":"Tier II","metadata_route_types_json":"{\"3\":1}","metadata_ntd_facilities_json":"{\"maintenance_facilities\":0,\"administrative_and_other_non_passenger_facilities\":0,\"passenger_stations_and_terminals\":0,\"parking_and_other_passenger_facilities\":0,\"total_facilities\":0,\"bus_transfer_centers\":null,\"elevated_fixed_guideway_stations\":null,\"at_grade_fixed_guideway_stations\":null,\"underground_fixed_guideway_stations\":null,\"simple_at_grade_platform_stations\":null,\"exclusive_grade_separated_platform_stations\":null,\"ferryboat_terminals\":null,\"surface_parking_lots\":null,\"parking_structures\":null}","metadata_tam_modes_json":"{\"DR\":{\"total_units_2024\":12,\"units_under_threshold_2024\":1,\"voms_2024\":48,\"total_modal_vrm_2024\":0,\"total_modal_upt_2024\":0},\"MB\":{\"total_units_2024\":1,\"units_under_threshold_2024\":0,\"voms_2024\":1,\"total_modal_vrm_2024\":0,\"total_modal_upt_2024\":0}}"},"geometry":{"type":"Point","coordinates":[-103.205406,40.627796]}},{"type":"Feature","properties":{"stop_id":"2618003","stop_code":"","platform_code":"","stop_name":"Broadway Plaza","stop_desc":"","zone_id":"","stop_url":"","location_type":"0","parent_station":"","stop_timezone":"America/Denver","position":"","direction":"","wheelchair_boarding":"0","tts_stop_name":"","feed_id":"Colorado__Prairie_Express_Transit__mdb_mdb-801","agency_name":"Prairie Express Transit","route_count":1,"route_ids":"16676","route_short_names":"","route_types":"3","route_type_names":"Bus","routes_json":"[{\"route_id\":\"16676\",\"route_short_name\":\"\",\"route_long_name\":\"Prairie Express\",\"route_type\":\"3\",\"route_type_name\":\"Bus\",\"route_color\":\"4654FF\",\"route_text_color\":\"FFFFFF\"}]","metadata_feed_id":"Colorado__Prairie_Express_Transit__mdb_mdb-801","metadata_agency_names":"Prairie Express Transit","metadata_ntd_id":"88230","metadata_ntd_match_method":"manual_override","metadata_ntd_agency":"Teller Senior Coalition, dba: TSC Transit","metadata_ntd_city":"Divide","metadata_ntd_state":"CO","metadata_gtfs_route_count":1,"metadata_gtfs_trip_count":22,"metadata_gtfs_shape_count":2,"metadata_gtfs_stop_count":21,"metadata_ntd_agency_voms":13,"metadata_ntd_total_facilities":0,"metadata_ntd_maintenance_facilities":0,"metadata_ntd_passenger_stations":0,"metadata_tam_tier":"Tier II","metadata_route_types_json":"{\"3\":1}","metadata_ntd_facilities_json":"{\"maintenance_facilities\":0,\"administrative_and_other_non_passenger_facilities\":0,\"passenger_stations_and_terminals\":0,\"parking_and_other_passenger_facilities\":0,\"total_facilities\":0,\"bus_transfer_centers\":null,\"elevated_fixed_guideway_stations\":null,\"at_grade_fixed_guideway_stations\":null,\"underground_fixed_guideway_stations\":null,\"simple_at_grade_platform_stations\":null,\"exclusive_grade_separated_platform_stations\":null,\"ferryboat_terminals\":null,\"surface_parking_lots\":null,\"parking_structures\":null}","metadata_tam_modes_json":"{\"DR\":{\"total_units_2024\":12,\"units_under_threshold_2024\":1,\"voms_2024\":48,\"total_modal_vrm_2024\":0,\"total_modal_upt_2024\":0},\"MB\":{\"total_units_2024\":1,\"units_under_threshold_2024\":0,\"voms_2024\":1,\"total_modal_vrm_2024\":0,\"total_modal_upt_2024\":0}}"},"geometry":{"type":"Point","coordinates":[-103.198545,40.634727]}},{"type":"Feature","properties":{"stop_id":"2618004","stop_code":"","platform_code":"","stop_name":"NJC Campus","stop_desc":"","zone_id":"","stop_url":"","location_type":"0","parent_station":"","stop_timezone":"America/Denver","position":"","direction":"","wheelchair_boarding":"0","tts_stop_name":"","feed_id":"Colorado__Prairie_Express_Transit__mdb_mdb-801","agency_name":"Prairie Express Transit","route_count":0,"route_ids":"","route_short_names":"","route_types":"","route_type_names":"","routes_json":"[]","metadata_feed_id":"Colorado__Prairie_Express_Transit__mdb_mdb-801","metadata_agency_names":"Prairie Express Transit","metadata_ntd_id":"88230","metadata_ntd_match_method":"manual_override","metadata_ntd_agency":"Teller Senior Coalition, dba: TSC Transit","metadata_ntd_city":"Divide","metadata_ntd_state":"CO","metadata_gtfs_route_count":1,"metadata_gtfs_trip_count":22,"metadata_gtfs_shape_count":2,"metadata_gtfs_stop_count":21,"metadata_ntd_agency_voms":13,"metadata_ntd_total_facilities":0,"metadata_ntd_maintenance_facilities":0,"metadata_ntd_passenger_stations":0,"metadata_tam_tier":"Tier II","metadata_route_types_json":"{\"3\":1}","metadata_ntd_facilities_json":"{\"maintenance_facilities\":0,\"administrative_and_other_non_passenger_facilities\":0,\"passenger_stations_and_terminals\":0,\"parking_and_other_passenger_facilities\":0,\"total_facilities\":0,\"bus_transfer_centers\":null,\"elevated_fixed_guideway_stations\":null,\"at_grade_fixed_guideway_stations\":null,\"underground_fixed_guideway_stations\":null,\"simple_at_grade_platform_stations\":null,\"exclusive_grade_separated_platform_stations\":null,\"ferryboat_terminals\":null,\"surface_parking_lots\":null,\"parking_structures\":null}","metadata_tam_modes_json":"{\"DR\":{\"total_units_2024\":12,\"units_under_threshold_2024\":1,\"voms_2024\":48,\"total_modal_vrm_2024\":0,\"total_modal_upt_2024\":0},\"MB\":{\"total_units_2024\":1,\"units_under_threshold_2024\":0,\"voms_2024\":1,\"total_modal_vrm_2024\":0,\"total_modal_upt_2024\":0}}"},"geometry":{"type":"Point","coordinates":[-103.19679911228906,40.63602692583408]}},{"type":"Feature","properties":{"stop_id":"2618005","stop_code":"","platform_code":"","stop_name":"Brigadoon Village","stop_desc":"","zone_id":"","stop_url":"","location_type":"0","parent_station":"","stop_timezone":"America/Denver","position":"","direction":"","wheelchair_boarding":"0","tts_stop_name":"","feed_id":"Colorado__Prairie_Express_Transit__mdb_mdb-801","agency_name":"Prairie Express Transit","route_count":1,"route_ids":"16676","route_short_names":"","route_types":"3","route_type_names":"Bus","routes_json":"[{\"route_id\":\"16676\",\"route_short_name\":\"\",\"route_long_name\":\"Prairie Express\",\"route_type\":\"3\",\"route_type_name\":\"Bus\",\"route_color\":\"4654FF\",\"route_text_color\":\"FFFFFF\"}]","metadata_feed_id":"Colorado__Prairie_Express_Transit__mdb_mdb-801","metadata_agency_names":"Prairie Express Transit","metadata_ntd_id":"88230","metadata_ntd_match_method":"manual_override","metadata_ntd_agency":"Teller Senior Coalition, dba: TSC Transit","metadata_ntd_city":"Divide","metadata_ntd_state":"CO","metadata_gtfs_route_count":1,"metadata_gtfs_trip_count":22,"metadata_gtfs_shape_count":2,"metadata_gtfs_stop_count":21,"metadata_ntd_agency_voms":13,"metadata_ntd_total_facilities":0,"metadata_ntd_maintenance_facilities":0,"metadata_ntd_passenger_stations":0,"metadata_tam_tier":"Tier II","metadata_route_types_json":"{\"3\":1}","metadata_ntd_facilities_json":"{\"maintenance_facilities\":0,\"administrative_and_other_non_passenger_facilities\":0,\"passenger_stations_and_terminals\":0,\"parking_and_other_passenger_facilities\":0,\"total_facilities\":0,\"bus_transfer_centers\":null,\"elevated_fixed_guideway_stations\":null,\"at_grade_fixed_guideway_stations\":null,\"underground_fixed_guideway_stations\":null,\"simple_at_grade_platform_stations\":null,\"exclusive_grade_separated_platform_stations\":null,\"ferryboat_terminals\":null,\"surface_parking_lots\":null,\"parking_structures\":null}","metadata_tam_modes_json":"{\"DR\":{\"total_units_2024\":12,\"units_under_threshold_2024\":1,\"voms_2024\":48,\"total_modal_vrm_2024\":0,\"total_modal_upt_2024\":0},\"MB\":{\"total_units_2024\":1,\"units_under_threshold_2024\":0,\"voms_2024\":1,\"total_modal_vrm_2024\":0,\"total_modal_upt_2024\":0}}"},"geometry":{"type":"Point","coordinates":[-103.204441,40.638373]}},{"type":"Feature","properties":{"stop_id":"2618006","stop_code":"","platform_code":"","stop_name":"Sykes","stop_desc":"","zone_id":"","stop_url":"","location_type":"0","parent_station":"","stop_timezone":"America/Denver","position":"","direction":"","wheelchair_boarding":"0","tts_stop_name":"","feed_id":"Colorado__Prairie_Express_Transit__mdb_mdb-801","agency_name":"Prairie Express Transit","route_count":0,"route_ids":"","route_short_names":"","route_types":"","route_type_names":"","routes_json":"[]","metadata_feed_id":"Colorado__Prairie_Express_Transit__mdb_mdb-801","metadata_agency_names":"Prairie Express Transit","metadata_ntd_id":"88230","metadata_ntd_match_method":"manual_override","metadata_ntd_agency":"Teller Senior Coalition, dba: TSC Transit","metadata_ntd_city":"Divide","metadata_ntd_state":"CO","metadata_gtfs_route_count":1,"metadata_gtfs_trip_count":22,"metadata_gtfs_shape_count":2,"metadata_gtfs_stop_count":21,"metadata_ntd_agency_voms":13,"metadata_ntd_total_facilities":0,"metadata_ntd_maintenance_facilities":0,"metadata_ntd_passenger_stations":0,"metadata_tam_tier":"Tier II","metadata_route_types_json":"{\"3\":1}","metadata_ntd_facilities_json":"{\"maintenance_facilities\":0,\"administrative_and_other_non_passenger_facilities\":0,\"passenger_stations_and_terminals\":0,\"parking_and_other_passenger_facilities\":0,\"total_facilities\":0,\"bus_transfer_centers\":null,\"elevated_fixed_guideway_stations\":null,\"at_grade_fixed_guideway_stations\":null,\"underground_fixed_guideway_stations\":null,\"simple_at_grade_platform_stations\":null,\"exclusive_grade_separated_platform_stations\":null,\"ferryboat_terminals\":null,\"surface_parking_lots\":null,\"parking_structures\":null}","metadata_tam_modes_json":"{\"DR\":{\"total_units_2024\":12,\"units_under_threshold_2024\":1,\"voms_2024\":48,\"total_modal_vrm_2024\":0,\"total_modal_upt_2024\":0},\"MB\":{\"total_units_2024\":1,\"units_under_threshold_2024\":0,\"voms_2024\":1,\"total_modal_vrm_2024\":0,\"total_modal_upt_2024\":0}}"},"geometry":{"type":"Point","coordinates":[-103.2044,40.632143]}},{"type":"Feature","properties":{"stop_id":"2618007","stop_code":"","platform_code":"","stop_name":"Courthouse Square","stop_desc":"","zone_id":"","stop_url":"","location_type":"0","parent_station":"","stop_timezone":"America/Denver","position":"","direction":"","wheelchair_boarding":"0","tts_stop_name":"","feed_id":"Colorado__Prairie_Express_Transit__mdb_mdb-801","agency_name":"Prairie Express Transit","route_count":0,"route_ids":"","route_short_names":"","route_types":"","route_type_names":"","routes_json":"[]","metadata_feed_id":"Colorado__Prairie_Express_Transit__mdb_mdb-801","metadata_agency_names":"Prairie Express Transit","metadata_ntd_id":"88230","metadata_ntd_match_method":"manual_override","metadata_ntd_agency":"Teller Senior Coalition, dba: TSC Transit","metadata_ntd_city":"Divide","metadata_ntd_state":"CO","metadata_gtfs_route_count":1,"metadata_gtfs_trip_count":22,"metadata_gtfs_shape_count":2,"metadata_gtfs_stop_count":21,"metadata_ntd_agency_voms":13,"metadata_ntd_total_facilities":0,"metadata_ntd_maintenance_facilities":0,"metadata_ntd_passenger_stations":0,"metadata_tam_tier":"Tier II","metadata_route_types_json":"{\"3\":1}","metadata_ntd_facilities_json":"{\"maintenance_facilities\":0,\"administrative_and_other_non_passenger_facilities\":0,\"passenger_stations_and_terminals\":0,\"parking_and_other_passenger_facilities\":0,\"total_facilities\":0,\"bus_transfer_centers\":null,\"elevated_fixed_guideway_stations\":null,\"at_grade_fixed_guideway_stations\":null,\"underground_fixed_guideway_stations\":null,\"simple_at_grade_platform_stations\":null,\"exclusive_grade_separated_platform_stations\":null,\"ferryboat_terminals\":null,\"surface_parking_lots\":null,\"parking_structures\":null}","metadata_tam_modes_json":"{\"DR\":{\"total_units_2024\":12,\"units_under_threshold_2024\":1,\"voms_2024\":48,\"total_modal_vrm_2024\":0,\"total_modal_upt_2024\":0},\"MB\":{\"total_units_2024\":1,\"units_under_threshold_2024\":0,\"voms_2024\":1,\"total_modal_vrm_2024\":0,\"total_modal_upt_2024\":0}}"},"geometry":{"type":"Point","coordinates":[-103.20887359388006,40.62409807444567]}},{"type":"Feature","properties":{"stop_id":"2618008","stop_code":"","platform_code":"","stop_name":"Walmart","stop_desc":"","zone_id":"","stop_url":"","location_type":"0","parent_station":"","stop_timezone":"America/Denver","position":"","direction":"","wheelchair_boarding":"0","tts_stop_name":"","feed_id":"Colorado__Prairie_Express_Transit__mdb_mdb-801","agency_name":"Prairie Express Transit","route_count":1,"route_ids":"16676","route_short_names":"","route_types":"3","route_type_names":"Bus","routes_json":"[{\"route_id\":\"16676\",\"route_short_name\":\"\",\"route_long_name\":\"Prairie Express\",\"route_type\":\"3\",\"route_type_name\":\"Bus\",\"route_color\":\"4654FF\",\"route_text_color\":\"FFFFFF\"}]","metadata_feed_id":"Colorado__Prairie_Express_Transit__mdb_mdb-801","metadata_agency_names":"Prairie Express Transit","metadata_ntd_id":"88230","metadata_ntd_match_method":"manual_override","metadata_ntd_agency":"Teller Senior Coalition, dba: TSC Transit","metadata_ntd_city":"Divide","metadata_ntd_state":"CO","metadata_gtfs_route_count":1,"metadata_gtfs_trip_count":22,"metadata_gtfs_shape_count":2,"metadata_gtfs_stop_count":21,"metadata_ntd_agency_voms":13,"metadata_ntd_total_facilities":0,"metadata_ntd_maintenance_facilities":0,"metadata_ntd_passenger_stations":0,"metadata_tam_tier":"Tier II","metadata_route_types_json":"{\"3\":1}","metadata_ntd_facilities_json":"{\"maintenance_facilities\":0,\"administrative_and_other_non_passenger_facilities\":0,\"passenger_stations_and_terminals\":0,\"parking_and_other_passenger_facilities\":0,\"total_facilities\":0,\"bus_transfer_centers\":null,\"elevated_fixed_guideway_stations\":null,\"at_grade_fixed_guideway_stations\":null,\"underground_fixed_guideway_stations\":null,\"simple_at_grade_platform_stations\":null,\"exclusive_grade_separated_platform_stations\":null,\"ferryboat_terminals\":null,\"surface_parking_lots\":null,\"parking_structures\":null}","metadata_tam_modes_json":"{\"DR\":{\"total_units_2024\":12,\"units_under_threshold_2024\":1,\"voms_2024\":48,\"total_modal_vrm_2024\":0,\"total_modal_upt_2024\":0},\"MB\":{\"total_units_2024\":1,\"units_under_threshold_2024\":0,\"voms_2024\":1,\"total_modal_vrm_2024\":0,\"total_modal_upt_2024\":0}}"},"geometry":{"type":"Point","coordinates":[-103.235552,40.626544]}},{"type":"Feature","properties":{"stop_id":"2618009","stop_code":"","platform_code":"","stop_name":"High Plains Shopping Center","stop_desc":"","zone_id":"","stop_url":"","location_type":"0","parent_station":"","stop_timezone":"America/Denver","position":"","direction":"","wheelchair_boarding":"0","tts_stop_name":"","feed_id":"Colorado__Prairie_Express_Transit__mdb_mdb-801","agency_name":"Prairie Express Transit","route_count":1,"route_ids":"16676","route_short_names":"","route_types":"3","route_type_names":"Bus","routes_json":"[{\"route_id\":\"16676\",\"route_short_name\":\"\",\"route_long_name\":\"Prairie Express\",\"route_type\":\"3\",\"route_type_name\":\"Bus\",\"route_color\":\"4654FF\",\"route_text_color\":\"FFFFFF\"}]","metadata_feed_id":"Colorado__Prairie_Express_Transit__mdb_mdb-801","metadata_agency_names":"Prairie Express Transit","metadata_ntd_id":"88230","metadata_ntd_match_method":"manual_override","metadata_ntd_agency":"Teller Senior Coalition, dba: TSC Transit","metadata_ntd_city":"Divide","metadata_ntd_state":"CO","metadata_gtfs_route_count":1,"metadata_gtfs_trip_count":22,"metadata_gtfs_shape_count":2,"metadata_gtfs_stop_count":21,"metadata_ntd_agency_voms":13,"metadata_ntd_total_facilities":0,"metadata_ntd_maintenance_facilities":0,"metadata_ntd_passenger_stations":0,"metadata_tam_tier":"Tier II","metadata_route_types_json":"{\"3\":1}","metadata_ntd_facilities_json":"{\"maintenance_facilities\":0,\"administrative_and_other_non_passenger_facilities\":0,\"passenger_stations_and_terminals\":0,\"parking_and_other_passenger_facilities\":0,\"total_facilities\":0,\"bus_transfer_centers\":null,\"elevated_fixed_guideway_stations\":null,\"at_grade_fixed_guideway_stations\":null,\"underground_fixed_guideway_stations\":null,\"simple_at_grade_platform_stations\":null,\"exclusive_grade_separated_platform_stations\":null,\"ferryboat_terminals\":null,\"surface_parking_lots\":null,\"parking_structures\":null}","metadata_tam_modes_json":"{\"DR\":{\"total_units_2024\":12,\"units_under_threshold_2024\":1,\"voms_2024\":48,\"total_modal_vrm_2024\":0,\"total_modal_upt_2024\":0},\"MB\":{\"total_units_2024\":1,\"units_under_threshold_2024\":0,\"voms_2024\":1,\"total_modal_vrm_2024\":0,\"total_modal_upt_2024\":0}}"},"geometry":{"type":"Point","coordinates":[-103.231162,40.623924]}},{"type":"Feature","properties":{"stop_id":"2729758","stop_code":"","platform_code":"","stop_name":"Grandee's Auto","stop_desc":"","zone_id":"","stop_url":"","location_type":"0","parent_station":"","stop_timezone":"America/Denver","position":"","direction":"","wheelchair_boarding":"0","tts_stop_name":"","feed_id":"Colorado__Prairie_Express_Transit__mdb_mdb-801","agency_name":"Prairie Express Transit","route_count":1,"route_ids":"16676","route_short_names":"","route_types":"3","route_type_names":"Bus","routes_json":"[{\"route_id\":\"16676\",\"route_short_name\":\"\",\"route_long_name\":\"Prairie Express\",\"route_type\":\"3\",\"route_type_name\":\"Bus\",\"route_color\":\"4654FF\",\"route_text_color\":\"FFFFFF\"}]","metadata_feed_id":"Colorado__Prairie_Express_Transit__mdb_mdb-801","metadata_agency_names":"Prairie Express Transit","metadata_ntd_id":"88230","metadata_ntd_match_method":"manual_override","metadata_ntd_agency":"Teller Senior Coalition, dba: TSC Transit","metadata_ntd_city":"Divide","metadata_ntd_state":"CO","metadata_gtfs_route_count":1,"metadata_gtfs_trip_count":22,"metadata_gtfs_shape_count":2,"metadata_gtfs_stop_count":21,"metadata_ntd_agency_voms":13,"metadata_ntd_total_facilities":0,"metadata_ntd_maintenance_facilities":0,"metadata_ntd_passenger_stations":0,"metadata_tam_tier":"Tier II","metadata_route_types_json":"{\"3\":1}","metadata_ntd_facilities_json":"{\"maintenance_facilities\":0,\"administrative_and_other_non_passenger_facilities\":0,\"passenger_stations_and_terminals\":0,\"parking_and_other_passenger_facilities\":0,\"total_facilities\":0,\"bus_transfer_centers\":null,\"elevated_fixed_guideway_stations\":null,\"at_grade_fixed_guideway_stations\":null,\"underground_fixed_guideway_stations\":null,\"simple_at_grade_platform_stations\":null,\"exclusive_grade_separated_platform_stations\":null,\"ferryboat_terminals\":null,\"surface_parking_lots\":null,\"parking_structures\":null}","metadata_tam_modes_json":"{\"DR\":{\"total_units_2024\":12,\"units_under_threshold_2024\":1,\"voms_2024\":48,\"total_modal_vrm_2024\":0,\"total_modal_upt_2024\":0},\"MB\":{\"total_units_2024\":1,\"units_under_threshold_2024\":0,\"voms_2024\":1,\"total_modal_vrm_2024\":0,\"total_modal_upt_2024\":0}}"},"geometry":{"type":"Point","coordinates":[-103.21563479217438,40.610581818891575]}},{"type":"Feature","properties":{"stop_id":"2729759","stop_code":"","platform_code":"","stop_name":"Vandenbark Realty","stop_desc":"","zone_id":"","stop_url":"","location_type":"0","parent_station":"","stop_timezone":"America/Denver","position":"","direction":"","wheelchair_boarding":"0","tts_stop_name":"","feed_id":"Colorado__Prairie_Express_Transit__mdb_mdb-801","agency_name":"Prairie Express Transit","route_count":1,"route_ids":"16676","route_short_names":"","route_types":"3","route_type_names":"Bus","routes_json":"[{\"route_id\":\"16676\",\"route_short_name\":\"\",\"route_long_name\":\"Prairie Express\",\"route_type\":\"3\",\"route_type_name\":\"Bus\",\"route_color\":\"4654FF\",\"route_text_color\":\"FFFFFF\"}]","metadata_feed_id":"Colorado__Prairie_Express_Transit__mdb_mdb-801","metadata_agency_names":"Prairie Express Transit","metadata_ntd_id":"88230","metadata_ntd_match_method":"manual_override","metadata_ntd_agency":"Teller Senior Coalition, dba: TSC Transit","metadata_ntd_city":"Divide","metadata_ntd_state":"CO","metadata_gtfs_route_count":1,"metadata_gtfs_trip_count":22,"metadata_gtfs_shape_count":2,"metadata_gtfs_stop_count":21,"metadata_ntd_agency_voms":13,"metadata_ntd_total_facilities":0,"metadata_ntd_maintenance_facilities":0,"metadata_ntd_passenger_stations":0,"metadata_tam_tier":"Tier II","metadata_route_types_json":"{\"3\":1}","metadata_ntd_facilities_json":"{\"maintenance_facilities\":0,\"administrative_and_other_non_passenger_facilities\":0,\"passenger_stations_and_terminals\":0,\"parking_and_other_passenger_facilities\":0,\"total_facilities\":0,\"bus_transfer_centers\":null,\"elevated_fixed_guideway_stations\":null,\"at_grade_fixed_guideway_stations\":null,\"underground_fixed_guideway_stations\":null,\"simple_at_grade_platform_stations\":null,\"exclusive_grade_separated_platform_stations\":null,\"ferryboat_terminals\":null,\"surface_parking_lots\":null,\"parking_structures\":null}","metadata_tam_modes_json":"{\"DR\":{\"total_units_2024\":12,\"units_under_threshold_2024\":1,\"voms_2024\":48,\"total_modal_vrm_2024\":0,\"total_modal_upt_2024\":0},\"MB\":{\"total_units_2024\":1,\"units_under_threshold_2024\":0,\"voms_2024\":1,\"total_modal_vrm_2024\":0,\"total_modal_upt_2024\":0}}"},"geometry":{"type":"Point","coordinates":[-103.20505195961056,40.628324394493774]}},{"type":"Feature","properties":{"stop_id":"2729760","stop_code":"","platform_code":"","stop_name":"Sterling Apartments","stop_desc":"","zone_id":"","stop_url":"","location_type":"0","parent_station":"","stop_timezone":"America/Denver","position":"","direction":"","wheelchair_boarding":"0","tts_stop_name":"","feed_id":"Colorado__Prairie_Express_Transit__mdb_mdb-801","agency_name":"Prairie Express Transit","route_count":1,"route_ids":"16676","route_short_names":"","route_types":"3","route_type_names":"Bus","routes_json":"[{\"route_id\":\"16676\",\"route_short_name\":\"\",\"route_long_name\":\"Prairie Express\",\"route_type\":\"3\",\"route_type_name\":\"Bus\",\"route_color\":\"4654FF\",\"route_text_color\":\"FFFFFF\"}]","metadata_feed_id":"Colorado__Prairie_Express_Transit__mdb_mdb-801","metadata_agency_names":"Prairie Express Transit","metadata_ntd_id":"88230","metadata_ntd_match_method":"manual_override","metadata_ntd_agency":"Teller Senior Coalition, dba: TSC Transit","metadata_ntd_city":"Divide","metadata_ntd_state":"CO","metadata_gtfs_route_count":1,"metadata_gtfs_trip_count":22,"metadata_gtfs_shape_count":2,"metadata_gtfs_stop_count":21,"metadata_ntd_agency_voms":13,"metadata_ntd_total_facilities":0,"metadata_ntd_maintenance_facilities":0,"metadata_ntd_passenger_stations":0,"metadata_tam_tier":"Tier II","metadata_route_types_json":"{\"3\":1}","metadata_ntd_facilities_json":"{\"maintenance_facilities\":0,\"administrative_and_other_non_passenger_facilities\":0,\"passenger_stations_and_terminals\":0,\"parking_and_other_passenger_facilities\":0,\"total_facilities\":0,\"bus_transfer_centers\":null,\"elevated_fixed_guideway_stations\":null,\"at_grade_fixed_guideway_stations\":null,\"underground_fixed_guideway_stations\":null,\"simple_at_grade_platform_stations\":null,\"exclusive_grade_separated_platform_stations\":null,\"ferryboat_terminals\":null,\"surface_parking_lots\":null,\"parking_structures\":null}","metadata_tam_modes_json":"{\"DR\":{\"total_units_2024\":12,\"units_under_threshold_2024\":1,\"voms_2024\":48,\"total_modal_vrm_2024\":0,\"total_modal_upt_2024\":0},\"MB\":{\"total_units_2024\":1,\"units_under_threshold_2024\":0,\"voms_2024\":1,\"total_modal_vrm_2024\":0,\"total_modal_upt_2024\":0}}"},"geometry":{"type":"Point","coordinates":[-103.20789538939998,40.64323953800178]}},{"type":"Feature","properties":{"stop_id":"2729761","stop_code":"","platform_code":"","stop_name":"Sterling Public Library","stop_desc":"","zone_id":"","stop_url":"","location_type":"0","parent_station":"","stop_timezone":"America/Denver","position":"","direction":"","wheelchair_boarding":"0","tts_stop_name":"","feed_id":"Colorado__Prairie_Express_Transit__mdb_mdb-801","agency_name":"Prairie Express Transit","route_count":1,"route_ids":"16676","route_short_names":"","route_types":"3","route_type_names":"Bus","routes_json":"[{\"route_id\":\"16676\",\"route_short_name\":\"\",\"route_long_name\":\"Prairie Express\",\"route_type\":\"3\",\"route_type_name\":\"Bus\",\"route_color\":\"4654FF\",\"route_text_color\":\"FFFFFF\"}]","metadata_feed_id":"Colorado__Prairie_Express_Transit__mdb_mdb-801","metadata_agency_names":"Prairie Express Transit","metadata_ntd_id":"88230","metadata_ntd_match_method":"manual_override","metadata_ntd_agency":"Teller Senior Coalition, dba: TSC Transit","metadata_ntd_city":"Divide","metadata_ntd_state":"CO","metadata_gtfs_route_count":1,"metadata_gtfs_trip_count":22,"metadata_gtfs_shape_count":2,"metadata_gtfs_stop_count":21,"metadata_ntd_agency_voms":13,"metadata_ntd_total_facilities":0,"metadata_ntd_maintenance_facilities":0,"metadata_ntd_passenger_stations":0,"metadata_tam_tier":"Tier II","metadata_route_types_json":"{\"3\":1}","metadata_ntd_facilities_json":"{\"maintenance_facilities\":0,\"administrative_and_other_non_passenger_facilities\":0,\"passenger_stations_and_terminals\":0,\"parking_and_other_passenger_facilities\":0,\"total_facilities\":0,\"bus_transfer_centers\":null,\"elevated_fixed_guideway_stations\":null,\"at_grade_fixed_guideway_stations\":null,\"underground_fixed_guideway_stations\":null,\"simple_at_grade_platform_stations\":null,\"exclusive_grade_separated_platform_stations\":null,\"ferryboat_terminals\":null,\"surface_parking_lots\":null,\"parking_structures\":null}","metadata_tam_modes_json":"{\"DR\":{\"total_units_2024\":12,\"units_under_threshold_2024\":1,\"voms_2024\":48,\"total_modal_vrm_2024\":0,\"total_modal_upt_2024\":0},\"MB\":{\"total_units_2024\":1,\"units_under_threshold_2024\":0,\"voms_2024\":1,\"total_modal_vrm_2024\":0,\"total_modal_upt_2024\":0}}"},"geometry":{"type":"Point","coordinates":[-103.20846602740752,40.62935501429735]}},{"type":"Feature","properties":{"stop_id":"2729762","stop_code":"","platform_code":"","stop_name":"5th & Broadway","stop_desc":"","zone_id":"","stop_url":"","location_type":"0","parent_station":"","stop_timezone":"America/Denver","position":"","direction":"","wheelchair_boarding":"0","tts_stop_name":"","feed_id":"Colorado__Prairie_Express_Transit__mdb_mdb-801","agency_name":"Prairie Express Transit","route_count":1,"route_ids":"16676","route_short_names":"","route_types":"3","route_type_names":"Bus","routes_json":"[{\"route_id\":\"16676\",\"route_short_name\":\"\",\"route_long_name\":\"Prairie Express\",\"route_type\":\"3\",\"route_type_name\":\"Bus\",\"route_color\":\"4654FF\",\"route_text_color\":\"FFFFFF\"}]","metadata_feed_id":"Colorado__Prairie_Express_Transit__mdb_mdb-801","metadata_agency_names":"Prairie Express Transit","metadata_ntd_id":"88230","metadata_ntd_match_method":"manual_override","metadata_ntd_agency":"Teller Senior Coalition, dba: TSC Transit","metadata_ntd_city":"Divide","metadata_ntd_state":"CO","metadata_gtfs_route_count":1,"metadata_gtfs_trip_count":22,"metadata_gtfs_shape_count":2,"metadata_gtfs_stop_count":21,"metadata_ntd_agency_voms":13,"metadata_ntd_total_facilities":0,"metadata_ntd_maintenance_facilities":0,"metadata_ntd_passenger_stations":0,"metadata_tam_tier":"Tier II","metadata_route_types_json":"{\"3\":1}","metadata_ntd_facilities_json":"{\"maintenance_facilities\":0,\"administrative_and_other_non_passenger_facilities\":0,\"passenger_stations_and_terminals\":0,\"parking_and_other_passenger_facilities\":0,\"total_facilities\":0,\"bus_transfer_centers\":null,\"elevated_fixed_guideway_stations\":null,\"at_grade_fixed_guideway_stations\":null,\"underground_fixed_guideway_stations\":null,\"simple_at_grade_platform_stations\":null,\"exclusive_grade_separated_platform_stations\":null,\"ferryboat_terminals\":null,\"surface_parking_lots\":null,\"parking_structures\":null}","metadata_tam_modes_json":"{\"DR\":{\"total_units_2024\":12,\"units_under_threshold_2024\":1,\"voms_2024\":48,\"total_modal_vrm_2024\":0,\"total_modal_upt_2024\":0},\"MB\":{\"total_units_2024\":1,\"units_under_threshold_2024\":0,\"voms_2024\":1,\"total_modal_vrm_2024\":0,\"total_modal_upt_2024\":0}}"},"geometry":{"type":"Point","coordinates":[-103.20594960441242,40.632856410617165]}},{"type":"Feature","properties":{"stop_id":"2729763","stop_code":"","platform_code":"","stop_name":"Barb's Gifts","stop_desc":"","zone_id":"","stop_url":"","location_type":"0","parent_station":"","stop_timezone":"America/Denver","position":"","direction":"","wheelchair_boarding":"0","tts_stop_name":"","feed_id":"Colorado__Prairie_Express_Transit__mdb_mdb-801","agency_name":"Prairie Express Transit","route_count":1,"route_ids":"16676","route_short_names":"","route_types":"3","route_type_names":"Bus","routes_json":"[{\"route_id\":\"16676\",\"route_short_name\":\"\",\"route_long_name\":\"Prairie Express\",\"route_type\":\"3\",\"route_type_name\":\"Bus\",\"route_color\":\"4654FF\",\"route_text_color\":\"FFFFFF\"}]","metadata_feed_id":"Colorado__Prairie_Express_Transit__mdb_mdb-801","metadata_agency_names":"Prairie Express Transit","metadata_ntd_id":"88230","metadata_ntd_match_method":"manual_override","metadata_ntd_agency":"Teller Senior Coalition, dba: TSC Transit","metadata_ntd_city":"Divide","metadata_ntd_state":"CO","metadata_gtfs_route_count":1,"metadata_gtfs_trip_count":22,"metadata_gtfs_shape_count":2,"metadata_gtfs_stop_count":21,"metadata_ntd_agency_voms":13,"metadata_ntd_total_facilities":0,"metadata_ntd_maintenance_facilities":0,"metadata_ntd_passenger_stations":0,"metadata_tam_tier":"Tier II","metadata_route_types_json":"{\"3\":1}","metadata_ntd_facilities_json":"{\"maintenance_facilities\":0,\"administrative_and_other_non_passenger_facilities\":0,\"passenger_stations_and_terminals\":0,\"parking_and_other_passenger_facilities\":0,\"total_facilities\":0,\"bus_transfer_centers\":null,\"elevated_fixed_guideway_stations\":null,\"at_grade_fixed_guideway_stations\":null,\"underground_fixed_guideway_stations\":null,\"simple_at_grade_platform_stations\":null,\"exclusive_grade_separated_platform_stations\":null,\"ferryboat_terminals\":null,\"surface_parking_lots\":null,\"parking_structures\":null}","metadata_tam_modes_json":"{\"DR\":{\"total_units_2024\":12,\"units_under_threshold_2024\":1,\"voms_2024\":48,\"total_modal_vrm_2024\":0,\"total_modal_upt_2024\":0},\"MB\":{\"total_units_2024\":1,\"units_under_threshold_2024\":0,\"voms_2024\":1,\"total_modal_vrm_2024\":0,\"total_modal_upt_2024\":0}}"},"geometry":{"type":"Point","coordinates":[-103.21083910608924,40.62498362041822]}},{"type":"Feature","properties":{"stop_id":"2729764","stop_code":"","platform_code":"","stop_name":"Walker Pharmacy","stop_desc":"","zone_id":"","stop_url":"","location_type":"0","parent_station":"","stop_timezone":"America/Denver","position":"","direction":"","wheelchair_boarding":"0","tts_stop_name":"","feed_id":"Colorado__Prairie_Express_Transit__mdb_mdb-801","agency_name":"Prairie Express Transit","route_count":1,"route_ids":"16676","route_short_names":"","route_types":"3","route_type_names":"Bus","routes_json":"[{\"route_id\":\"16676\",\"route_short_name\":\"\",\"route_long_name\":\"Prairie Express\",\"route_type\":\"3\",\"route_type_name\":\"Bus\",\"route_color\":\"4654FF\",\"route_text_color\":\"FFFFFF\"}]","metadata_feed_id":"Colorado__Prairie_Express_Transit__mdb_mdb-801","metadata_agency_names":"Prairie Express Transit","metadata_ntd_id":"88230","metadata_ntd_match_method":"manual_override","metadata_ntd_agency":"Teller Senior Coalition, dba: TSC Transit","metadata_ntd_city":"Divide","metadata_ntd_state":"CO","metadata_gtfs_route_count":1,"metadata_gtfs_trip_count":22,"metadata_gtfs_shape_count":2,"metadata_gtfs_stop_count":21,"metadata_ntd_agency_voms":13,"metadata_ntd_total_facilities":0,"metadata_ntd_maintenance_facilities":0,"metadata_ntd_passenger_stations":0,"metadata_tam_tier":"Tier II","metadata_route_types_json":"{\"3\":1}","metadata_ntd_facilities_json":"{\"maintenance_facilities\":0,\"administrative_and_other_non_passenger_facilities\":0,\"passenger_stations_and_terminals\":0,\"parking_and_other_passenger_facilities\":0,\"total_facilities\":0,\"bus_transfer_centers\":null,\"elevated_fixed_guideway_stations\":null,\"at_grade_fixed_guideway_stations\":null,\"underground_fixed_guideway_stations\":null,\"simple_at_grade_platform_stations\":null,\"exclusive_grade_separated_platform_stations\":null,\"ferryboat_terminals\":null,\"surface_parking_lots\":null,\"parking_structures\":null}","metadata_tam_modes_json":"{\"DR\":{\"total_units_2024\":12,\"units_under_threshold_2024\":1,\"voms_2024\":48,\"total_modal_vrm_2024\":0,\"total_modal_upt_2024\":0},\"MB\":{\"total_units_2024\":1,\"units_under_threshold_2024\":0,\"voms_2024\":1,\"total_modal_vrm_2024\":0,\"total_modal_upt_2024\":0}}"},"geometry":{"type":"Point","coordinates":[-103.21733588656826,40.62548502035747]}},{"type":"Feature","properties":{"stop_id":"2729767","stop_code":"","platform_code":"","stop_name":"Eagle 1 Gas Stop","stop_desc":"","zone_id":"","stop_url":"","location_type":"0","parent_station":"","stop_timezone":"America/Denver","position":"","direction":"","wheelchair_boarding":"0","tts_stop_name":"","feed_id":"Colorado__Prairie_Express_Transit__mdb_mdb-801","agency_name":"Prairie Express Transit","route_count":1,"route_ids":"16676","route_short_names":"","route_types":"3","route_type_names":"Bus","routes_json":"[{\"route_id\":\"16676\",\"route_short_name\":\"\",\"route_long_name\":\"Prairie Express\",\"route_type\":\"3\",\"route_type_name\":\"Bus\",\"route_color\":\"4654FF\",\"route_text_color\":\"FFFFFF\"}]","metadata_feed_id":"Colorado__Prairie_Express_Transit__mdb_mdb-801","metadata_agency_names":"Prairie Express Transit","metadata_ntd_id":"88230","metadata_ntd_match_method":"manual_override","metadata_ntd_agency":"Teller Senior Coalition, dba: TSC Transit","metadata_ntd_city":"Divide","metadata_ntd_state":"CO","metadata_gtfs_route_count":1,"metadata_gtfs_trip_count":22,"metadata_gtfs_shape_count":2,"metadata_gtfs_stop_count":21,"metadata_ntd_agency_voms":13,"metadata_ntd_total_facilities":0,"metadata_ntd_maintenance_facilities":0,"metadata_ntd_passenger_stations":0,"metadata_tam_tier":"Tier II","metadata_route_types_json":"{\"3\":1}","metadata_ntd_facilities_json":"{\"maintenance_facilities\":0,\"administrative_and_other_non_passenger_facilities\":0,\"passenger_stations_and_terminals\":0,\"parking_and_other_passenger_facilities\":0,\"total_facilities\":0,\"bus_transfer_centers\":null,\"elevated_fixed_guideway_stations\":null,\"at_grade_fixed_guideway_stations\":null,\"underground_fixed_guideway_stations\":null,\"simple_at_grade_platform_stations\":null,\"exclusive_grade_separated_platform_stations\":null,\"ferryboat_terminals\":null,\"surface_parking_lots\":null,\"parking_structures\":null}","metadata_tam_modes_json":"{\"DR\":{\"total_units_2024\":12,\"units_under_threshold_2024\":1,\"voms_2024\":48,\"total_modal_vrm_2024\":0,\"total_modal_upt_2024\":0},\"MB\":{\"total_units_2024\":1,\"units_under_threshold_2024\":0,\"voms_2024\":1,\"total_modal_vrm_2024\":0,\"total_modal_upt_2024\":0}}"},"geometry":{"type":"Point","coordinates":[-103.18295634277624,40.61831932328812]}}],"metadata":{"feed_id":"Colorado__Prairie_Express_Transit__mdb_mdb-801","ntd_id":"88230","feature_metadata_embedded":true}}