{"type":"FeatureCollection","features":[{"type":"Feature","properties":{"stop_id":"4244401","stop_code":"","platform_code":"","stop_name":"Sail River Housing","stop_desc":"","zone_id":"","stop_url":"","location_type":"0","parent_station":"","stop_timezone":"America/Los_Angeles","position":"","direction":"","wheelchair_boarding":"0","tts_stop_name":"","feed_id":"Washington__Makah_Public_Transit__mdb_mdb-2196","agency_name":"Makah Public Transit","route_count":1,"route_ids":"76881","route_short_names":"","route_types":"3","route_type_names":"Bus","routes_json":"[{\"route_id\":\"76881\",\"route_short_name\":\"\",\"route_long_name\":\"Neah Bay\",\"route_type\":\"3\",\"route_type_name\":\"Bus\",\"route_color\":\"D21A18\",\"route_text_color\":\"FFFFFF\"}]","metadata_feed_id":"Washington__Makah_Public_Transit__mdb_mdb-2196","metadata_agency_names":"Makah Public Transit","metadata_ntd_id":"00405","metadata_ntd_match_method":"manual_override","metadata_ntd_agency":"Okanogan County Transit Authority, dba: TranGO","metadata_ntd_city":"Okanogan","metadata_ntd_state":"WA","metadata_gtfs_route_count":1,"metadata_gtfs_trip_count":19,"metadata_gtfs_shape_count":9,"metadata_gtfs_stop_count":19,"metadata_ntd_agency_voms":16,"metadata_ntd_total_facilities":0,"metadata_ntd_maintenance_facilities":0,"metadata_ntd_passenger_stations":0,"metadata_tam_tier":"Tier II","metadata_route_types_json":"{\"3\":1}","metadata_ntd_facilities_json":"{\"maintenance_facilities\":0,\"administrative_and_other_non_passenger_facilities\":0,\"passenger_stations_and_terminals\":0,\"parking_and_other_passenger_facilities\":0,\"total_facilities\":0,\"bus_transfer_centers\":null,\"elevated_fixed_guideway_stations\":null,\"at_grade_fixed_guideway_stations\":null,\"underground_fixed_guideway_stations\":null,\"simple_at_grade_platform_stations\":null,\"exclusive_grade_separated_platform_stations\":null,\"ferryboat_terminals\":null,\"surface_parking_lots\":null,\"parking_structures\":null}","metadata_tam_modes_json":"{\"MB\":{\"total_units_2024\":19,\"units_under_threshold_2024\":7,\"voms_2024\":22,\"total_modal_vrm_2024\":1131724,\"total_modal_upt_2024\":109558},\"VP\":{\"total_units_2024\":8,\"units_under_threshold_2024\":8,\"voms_2024\":5,\"total_modal_vrm_2024\":90543,\"total_modal_upt_2024\":10622}}"},"geometry":{"type":"Point","coordinates":[-124.58248303382533,48.35307079018471]}},{"type":"Feature","properties":{"stop_id":"4244402","stop_code":"","platform_code":"","stop_name":"Washburn General Store/Post Office","stop_desc":"","zone_id":"","stop_url":"","location_type":"0","parent_station":"","stop_timezone":"America/Los_Angeles","position":"","direction":"","wheelchair_boarding":"0","tts_stop_name":"","feed_id":"Washington__Makah_Public_Transit__mdb_mdb-2196","agency_name":"Makah Public Transit","route_count":1,"route_ids":"76881","route_short_names":"","route_types":"3","route_type_names":"Bus","routes_json":"[{\"route_id\":\"76881\",\"route_short_name\":\"\",\"route_long_name\":\"Neah Bay\",\"route_type\":\"3\",\"route_type_name\":\"Bus\",\"route_color\":\"D21A18\",\"route_text_color\":\"FFFFFF\"}]","metadata_feed_id":"Washington__Makah_Public_Transit__mdb_mdb-2196","metadata_agency_names":"Makah Public Transit","metadata_ntd_id":"00405","metadata_ntd_match_method":"manual_override","metadata_ntd_agency":"Okanogan County Transit Authority, dba: TranGO","metadata_ntd_city":"Okanogan","metadata_ntd_state":"WA","metadata_gtfs_route_count":1,"metadata_gtfs_trip_count":19,"metadata_gtfs_shape_count":9,"metadata_gtfs_stop_count":19,"metadata_ntd_agency_voms":16,"metadata_ntd_total_facilities":0,"metadata_ntd_maintenance_facilities":0,"metadata_ntd_passenger_stations":0,"metadata_tam_tier":"Tier II","metadata_route_types_json":"{\"3\":1}","metadata_ntd_facilities_json":"{\"maintenance_facilities\":0,\"administrative_and_other_non_passenger_facilities\":0,\"passenger_stations_and_terminals\":0,\"parking_and_other_passenger_facilities\":0,\"total_facilities\":0,\"bus_transfer_centers\":null,\"elevated_fixed_guideway_stations\":null,\"at_grade_fixed_guideway_stations\":null,\"underground_fixed_guideway_stations\":null,\"simple_at_grade_platform_stations\":null,\"exclusive_grade_separated_platform_stations\":null,\"ferryboat_terminals\":null,\"surface_parking_lots\":null,\"parking_structures\":null}","metadata_tam_modes_json":"{\"MB\":{\"total_units_2024\":19,\"units_under_threshold_2024\":7,\"voms_2024\":22,\"total_modal_vrm_2024\":1131724,\"total_modal_upt_2024\":109558},\"VP\":{\"total_units_2024\":8,\"units_under_threshold_2024\":8,\"voms_2024\":5,\"total_modal_vrm_2024\":90543,\"total_modal_upt_2024\":10622}}"},"geometry":{"type":"Point","coordinates":[-124.607867323,48.365790851]}},{"type":"Feature","properties":{"stop_id":"4244403","stop_code":"","platform_code":"","stop_name":"200 Line at Twin Spruce Dr","stop_desc":"","zone_id":"","stop_url":"","location_type":"0","parent_station":"","stop_timezone":"America/Los_Angeles","position":"","direction":"","wheelchair_boarding":"0","tts_stop_name":"","feed_id":"Washington__Makah_Public_Transit__mdb_mdb-2196","agency_name":"Makah Public Transit","route_count":1,"route_ids":"76881","route_short_names":"","route_types":"3","route_type_names":"Bus","routes_json":"[{\"route_id\":\"76881\",\"route_short_name\":\"\",\"route_long_name\":\"Neah Bay\",\"route_type\":\"3\",\"route_type_name\":\"Bus\",\"route_color\":\"D21A18\",\"route_text_color\":\"FFFFFF\"}]","metadata_feed_id":"Washington__Makah_Public_Transit__mdb_mdb-2196","metadata_agency_names":"Makah Public Transit","metadata_ntd_id":"00405","metadata_ntd_match_method":"manual_override","metadata_ntd_agency":"Okanogan County Transit Authority, dba: TranGO","metadata_ntd_city":"Okanogan","metadata_ntd_state":"WA","metadata_gtfs_route_count":1,"metadata_gtfs_trip_count":19,"metadata_gtfs_shape_count":9,"metadata_gtfs_stop_count":19,"metadata_ntd_agency_voms":16,"metadata_ntd_total_facilities":0,"metadata_ntd_maintenance_facilities":0,"metadata_ntd_passenger_stations":0,"metadata_tam_tier":"Tier II","metadata_route_types_json":"{\"3\":1}","metadata_ntd_facilities_json":"{\"maintenance_facilities\":0,\"administrative_and_other_non_passenger_facilities\":0,\"passenger_stations_and_terminals\":0,\"parking_and_other_passenger_facilities\":0,\"total_facilities\":0,\"bus_transfer_centers\":null,\"elevated_fixed_guideway_stations\":null,\"at_grade_fixed_guideway_stations\":null,\"underground_fixed_guideway_stations\":null,\"simple_at_grade_platform_stations\":null,\"exclusive_grade_separated_platform_stations\":null,\"ferryboat_terminals\":null,\"surface_parking_lots\":null,\"parking_structures\":null}","metadata_tam_modes_json":"{\"MB\":{\"total_units_2024\":19,\"units_under_threshold_2024\":7,\"voms_2024\":22,\"total_modal_vrm_2024\":1131724,\"total_modal_upt_2024\":109558},\"VP\":{\"total_units_2024\":8,\"units_under_threshold_2024\":8,\"voms_2024\":5,\"total_modal_vrm_2024\":90543,\"total_modal_upt_2024\":10622}}"},"geometry":{"type":"Point","coordinates":[-124.591578793,48.356928114]}},{"type":"Feature","properties":{"stop_id":"4244404","stop_code":"","platform_code":"","stop_name":"Wellness Center","stop_desc":"","zone_id":"","stop_url":"","location_type":"0","parent_station":"","stop_timezone":"America/Los_Angeles","position":"","direction":"","wheelchair_boarding":"0","tts_stop_name":"","feed_id":"Washington__Makah_Public_Transit__mdb_mdb-2196","agency_name":"Makah Public Transit","route_count":1,"route_ids":"76881","route_short_names":"","route_types":"3","route_type_names":"Bus","routes_json":"[{\"route_id\":\"76881\",\"route_short_name\":\"\",\"route_long_name\":\"Neah Bay\",\"route_type\":\"3\",\"route_type_name\":\"Bus\",\"route_color\":\"D21A18\",\"route_text_color\":\"FFFFFF\"}]","metadata_feed_id":"Washington__Makah_Public_Transit__mdb_mdb-2196","metadata_agency_names":"Makah Public Transit","metadata_ntd_id":"00405","metadata_ntd_match_method":"manual_override","metadata_ntd_agency":"Okanogan County Transit Authority, dba: TranGO","metadata_ntd_city":"Okanogan","metadata_ntd_state":"WA","metadata_gtfs_route_count":1,"metadata_gtfs_trip_count":19,"metadata_gtfs_shape_count":9,"metadata_gtfs_stop_count":19,"metadata_ntd_agency_voms":16,"metadata_ntd_total_facilities":0,"metadata_ntd_maintenance_facilities":0,"metadata_ntd_passenger_stations":0,"metadata_tam_tier":"Tier II","metadata_route_types_json":"{\"3\":1}","metadata_ntd_facilities_json":"{\"maintenance_facilities\":0,\"administrative_and_other_non_passenger_facilities\":0,\"passenger_stations_and_terminals\":0,\"parking_and_other_passenger_facilities\":0,\"total_facilities\":0,\"bus_transfer_centers\":null,\"elevated_fixed_guideway_stations\":null,\"at_grade_fixed_guideway_stations\":null,\"underground_fixed_guideway_stations\":null,\"simple_at_grade_platform_stations\":null,\"exclusive_grade_separated_platform_stations\":null,\"ferryboat_terminals\":null,\"surface_parking_lots\":null,\"parking_structures\":null}","metadata_tam_modes_json":"{\"MB\":{\"total_units_2024\":19,\"units_under_threshold_2024\":7,\"voms_2024\":22,\"total_modal_vrm_2024\":1131724,\"total_modal_upt_2024\":109558},\"VP\":{\"total_units_2024\":8,\"units_under_threshold_2024\":8,\"voms_2024\":5,\"total_modal_vrm_2024\":90543,\"total_modal_upt_2024\":10622}}"},"geometry":{"type":"Point","coordinates":[-124.58501214262344,48.35831943324028]}},{"type":"Feature","properties":{"stop_id":"4244405","stop_code":"","platform_code":"","stop_name":"Neah Bay Schools","stop_desc":"","zone_id":"","stop_url":"","location_type":"0","parent_station":"","stop_timezone":"America/Los_Angeles","position":"","direction":"","wheelchair_boarding":"0","tts_stop_name":"","feed_id":"Washington__Makah_Public_Transit__mdb_mdb-2196","agency_name":"Makah Public Transit","route_count":1,"route_ids":"76881","route_short_names":"","route_types":"3","route_type_names":"Bus","routes_json":"[{\"route_id\":\"76881\",\"route_short_name\":\"\",\"route_long_name\":\"Neah Bay\",\"route_type\":\"3\",\"route_type_name\":\"Bus\",\"route_color\":\"D21A18\",\"route_text_color\":\"FFFFFF\"}]","metadata_feed_id":"Washington__Makah_Public_Transit__mdb_mdb-2196","metadata_agency_names":"Makah Public Transit","metadata_ntd_id":"00405","metadata_ntd_match_method":"manual_override","metadata_ntd_agency":"Okanogan County Transit Authority, dba: TranGO","metadata_ntd_city":"Okanogan","metadata_ntd_state":"WA","metadata_gtfs_route_count":1,"metadata_gtfs_trip_count":19,"metadata_gtfs_shape_count":9,"metadata_gtfs_stop_count":19,"metadata_ntd_agency_voms":16,"metadata_ntd_total_facilities":0,"metadata_ntd_maintenance_facilities":0,"metadata_ntd_passenger_stations":0,"metadata_tam_tier":"Tier II","metadata_route_types_json":"{\"3\":1}","metadata_ntd_facilities_json":"{\"maintenance_facilities\":0,\"administrative_and_other_non_passenger_facilities\":0,\"passenger_stations_and_terminals\":0,\"parking_and_other_passenger_facilities\":0,\"total_facilities\":0,\"bus_transfer_centers\":null,\"elevated_fixed_guideway_stations\":null,\"at_grade_fixed_guideway_stations\":null,\"underground_fixed_guideway_stations\":null,\"simple_at_grade_platform_stations\":null,\"exclusive_grade_separated_platform_stations\":null,\"ferryboat_terminals\":null,\"surface_parking_lots\":null,\"parking_structures\":null}","metadata_tam_modes_json":"{\"MB\":{\"total_units_2024\":19,\"units_under_threshold_2024\":7,\"voms_2024\":22,\"total_modal_vrm_2024\":1131724,\"total_modal_upt_2024\":109558},\"VP\":{\"total_units_2024\":8,\"units_under_threshold_2024\":8,\"voms_2024\":5,\"total_modal_vrm_2024\":90543,\"total_modal_upt_2024\":10622}}"},"geometry":{"type":"Point","coordinates":[-124.623000434,48.364093049]}},{"type":"Feature","properties":{"stop_id":"4244406","stop_code":"","platform_code":"","stop_name":"400 Housing at Wa'atch Beach Dr","stop_desc":"","zone_id":"","stop_url":"","location_type":"0","parent_station":"","stop_timezone":"America/Los_Angeles","position":"","direction":"","wheelchair_boarding":"0","tts_stop_name":"","feed_id":"Washington__Makah_Public_Transit__mdb_mdb-2196","agency_name":"Makah Public Transit","route_count":1,"route_ids":"76881","route_short_names":"","route_types":"3","route_type_names":"Bus","routes_json":"[{\"route_id\":\"76881\",\"route_short_name\":\"\",\"route_long_name\":\"Neah Bay\",\"route_type\":\"3\",\"route_type_name\":\"Bus\",\"route_color\":\"D21A18\",\"route_text_color\":\"FFFFFF\"}]","metadata_feed_id":"Washington__Makah_Public_Transit__mdb_mdb-2196","metadata_agency_names":"Makah Public Transit","metadata_ntd_id":"00405","metadata_ntd_match_method":"manual_override","metadata_ntd_agency":"Okanogan County Transit Authority, dba: TranGO","metadata_ntd_city":"Okanogan","metadata_ntd_state":"WA","metadata_gtfs_route_count":1,"metadata_gtfs_trip_count":19,"metadata_gtfs_shape_count":9,"metadata_gtfs_stop_count":19,"metadata_ntd_agency_voms":16,"metadata_ntd_total_facilities":0,"metadata_ntd_maintenance_facilities":0,"metadata_ntd_passenger_stations":0,"metadata_tam_tier":"Tier II","metadata_route_types_json":"{\"3\":1}","metadata_ntd_facilities_json":"{\"maintenance_facilities\":0,\"administrative_and_other_non_passenger_facilities\":0,\"passenger_stations_and_terminals\":0,\"parking_and_other_passenger_facilities\":0,\"total_facilities\":0,\"bus_transfer_centers\":null,\"elevated_fixed_guideway_stations\":null,\"at_grade_fixed_guideway_stations\":null,\"underground_fixed_guideway_stations\":null,\"simple_at_grade_platform_stations\":null,\"exclusive_grade_separated_platform_stations\":null,\"ferryboat_terminals\":null,\"surface_parking_lots\":null,\"parking_structures\":null}","metadata_tam_modes_json":"{\"MB\":{\"total_units_2024\":19,\"units_under_threshold_2024\":7,\"voms_2024\":22,\"total_modal_vrm_2024\":1131724,\"total_modal_upt_2024\":109558},\"VP\":{\"total_units_2024\":8,\"units_under_threshold_2024\":8,\"voms_2024\":5,\"total_modal_vrm_2024\":90543,\"total_modal_upt_2024\":10622}}"},"geometry":{"type":"Point","coordinates":[-124.672634238,48.345917616]}},{"type":"Feature","properties":{"stop_id":"4244407","stop_code":"","platform_code":"","stop_name":"Dia'ht Hill Dr","stop_desc":"","zone_id":"","stop_url":"","location_type":"0","parent_station":"","stop_timezone":"America/Los_Angeles","position":"","direction":"","wheelchair_boarding":"0","tts_stop_name":"","feed_id":"Washington__Makah_Public_Transit__mdb_mdb-2196","agency_name":"Makah Public Transit","route_count":1,"route_ids":"76881","route_short_names":"","route_types":"3","route_type_names":"Bus","routes_json":"[{\"route_id\":\"76881\",\"route_short_name\":\"\",\"route_long_name\":\"Neah Bay\",\"route_type\":\"3\",\"route_type_name\":\"Bus\",\"route_color\":\"D21A18\",\"route_text_color\":\"FFFFFF\"}]","metadata_feed_id":"Washington__Makah_Public_Transit__mdb_mdb-2196","metadata_agency_names":"Makah Public Transit","metadata_ntd_id":"00405","metadata_ntd_match_method":"manual_override","metadata_ntd_agency":"Okanogan County Transit Authority, dba: TranGO","metadata_ntd_city":"Okanogan","metadata_ntd_state":"WA","metadata_gtfs_route_count":1,"metadata_gtfs_trip_count":19,"metadata_gtfs_shape_count":9,"metadata_gtfs_stop_count":19,"metadata_ntd_agency_voms":16,"metadata_ntd_total_facilities":0,"metadata_ntd_maintenance_facilities":0,"metadata_ntd_passenger_stations":0,"metadata_tam_tier":"Tier II","metadata_route_types_json":"{\"3\":1}","metadata_ntd_facilities_json":"{\"maintenance_facilities\":0,\"administrative_and_other_non_passenger_facilities\":0,\"passenger_stations_and_terminals\":0,\"parking_and_other_passenger_facilities\":0,\"total_facilities\":0,\"bus_transfer_centers\":null,\"elevated_fixed_guideway_stations\":null,\"at_grade_fixed_guideway_stations\":null,\"underground_fixed_guideway_stations\":null,\"simple_at_grade_platform_stations\":null,\"exclusive_grade_separated_platform_stations\":null,\"ferryboat_terminals\":null,\"surface_parking_lots\":null,\"parking_structures\":null}","metadata_tam_modes_json":"{\"MB\":{\"total_units_2024\":19,\"units_under_threshold_2024\":7,\"voms_2024\":22,\"total_modal_vrm_2024\":1131724,\"total_modal_upt_2024\":109558},\"VP\":{\"total_units_2024\":8,\"units_under_threshold_2024\":8,\"voms_2024\":5,\"total_modal_vrm_2024\":90543,\"total_modal_upt_2024\":10622}}"},"geometry":{"type":"Point","coordinates":[-124.631031519,48.367207981]}},{"type":"Feature","properties":{"stop_id":"4244408","stop_code":"","platform_code":"","stop_name":"Head Start at Ba'adah Village Loop Rd","stop_desc":"","zone_id":"","stop_url":"","location_type":"0","parent_station":"","stop_timezone":"America/Los_Angeles","position":"","direction":"","wheelchair_boarding":"0","tts_stop_name":"","feed_id":"Washington__Makah_Public_Transit__mdb_mdb-2196","agency_name":"Makah Public Transit","route_count":1,"route_ids":"76881","route_short_names":"","route_types":"3","route_type_names":"Bus","routes_json":"[{\"route_id\":\"76881\",\"route_short_name\":\"\",\"route_long_name\":\"Neah Bay\",\"route_type\":\"3\",\"route_type_name\":\"Bus\",\"route_color\":\"D21A18\",\"route_text_color\":\"FFFFFF\"}]","metadata_feed_id":"Washington__Makah_Public_Transit__mdb_mdb-2196","metadata_agency_names":"Makah Public Transit","metadata_ntd_id":"00405","metadata_ntd_match_method":"manual_override","metadata_ntd_agency":"Okanogan County Transit Authority, dba: TranGO","metadata_ntd_city":"Okanogan","metadata_ntd_state":"WA","metadata_gtfs_route_count":1,"metadata_gtfs_trip_count":19,"metadata_gtfs_shape_count":9,"metadata_gtfs_stop_count":19,"metadata_ntd_agency_voms":16,"metadata_ntd_total_facilities":0,"metadata_ntd_maintenance_facilities":0,"metadata_ntd_passenger_stations":0,"metadata_tam_tier":"Tier II","metadata_route_types_json":"{\"3\":1}","metadata_ntd_facilities_json":"{\"maintenance_facilities\":0,\"administrative_and_other_non_passenger_facilities\":0,\"passenger_stations_and_terminals\":0,\"parking_and_other_passenger_facilities\":0,\"total_facilities\":0,\"bus_transfer_centers\":null,\"elevated_fixed_guideway_stations\":null,\"at_grade_fixed_guideway_stations\":null,\"underground_fixed_guideway_stations\":null,\"simple_at_grade_platform_stations\":null,\"exclusive_grade_separated_platform_stations\":null,\"ferryboat_terminals\":null,\"surface_parking_lots\":null,\"parking_structures\":null}","metadata_tam_modes_json":"{\"MB\":{\"total_units_2024\":19,\"units_under_threshold_2024\":7,\"voms_2024\":22,\"total_modal_vrm_2024\":1131724,\"total_modal_upt_2024\":109558},\"VP\":{\"total_units_2024\":8,\"units_under_threshold_2024\":8,\"voms_2024\":5,\"total_modal_vrm_2024\":90543,\"total_modal_upt_2024\":10622}}"},"geometry":{"type":"Point","coordinates":[-124.592505744,48.370404875]}},{"type":"Feature","properties":{"stop_id":"4244409","stop_code":"","platform_code":"","stop_name":"Housing Department","stop_desc":"","zone_id":"","stop_url":"","location_type":"0","parent_station":"","stop_timezone":"America/Los_Angeles","position":"","direction":"","wheelchair_boarding":"0","tts_stop_name":"","feed_id":"Washington__Makah_Public_Transit__mdb_mdb-2196","agency_name":"Makah Public Transit","route_count":1,"route_ids":"76881","route_short_names":"","route_types":"3","route_type_names":"Bus","routes_json":"[{\"route_id\":\"76881\",\"route_short_name\":\"\",\"route_long_name\":\"Neah Bay\",\"route_type\":\"3\",\"route_type_name\":\"Bus\",\"route_color\":\"D21A18\",\"route_text_color\":\"FFFFFF\"}]","metadata_feed_id":"Washington__Makah_Public_Transit__mdb_mdb-2196","metadata_agency_names":"Makah Public Transit","metadata_ntd_id":"00405","metadata_ntd_match_method":"manual_override","metadata_ntd_agency":"Okanogan County Transit Authority, dba: TranGO","metadata_ntd_city":"Okanogan","metadata_ntd_state":"WA","metadata_gtfs_route_count":1,"metadata_gtfs_trip_count":19,"metadata_gtfs_shape_count":9,"metadata_gtfs_stop_count":19,"metadata_ntd_agency_voms":16,"metadata_ntd_total_facilities":0,"metadata_ntd_maintenance_facilities":0,"metadata_ntd_passenger_stations":0,"metadata_tam_tier":"Tier II","metadata_route_types_json":"{\"3\":1}","metadata_ntd_facilities_json":"{\"maintenance_facilities\":0,\"administrative_and_other_non_passenger_facilities\":0,\"passenger_stations_and_terminals\":0,\"parking_and_other_passenger_facilities\":0,\"total_facilities\":0,\"bus_transfer_centers\":null,\"elevated_fixed_guideway_stations\":null,\"at_grade_fixed_guideway_stations\":null,\"underground_fixed_guideway_stations\":null,\"simple_at_grade_platform_stations\":null,\"exclusive_grade_separated_platform_stations\":null,\"ferryboat_terminals\":null,\"surface_parking_lots\":null,\"parking_structures\":null}","metadata_tam_modes_json":"{\"MB\":{\"total_units_2024\":19,\"units_under_threshold_2024\":7,\"voms_2024\":22,\"total_modal_vrm_2024\":1131724,\"total_modal_upt_2024\":109558},\"VP\":{\"total_units_2024\":8,\"units_under_threshold_2024\":8,\"voms_2024\":5,\"total_modal_vrm_2024\":90543,\"total_modal_upt_2024\":10622}}"},"geometry":{"type":"Point","coordinates":[-124.59442305906322,48.370968573799466]}},{"type":"Feature","properties":{"stop_id":"4244410","stop_code":"","platform_code":"","stop_name":"East Nursery at Hemlock St","stop_desc":"","zone_id":"","stop_url":"","location_type":"0","parent_station":"","stop_timezone":"America/Los_Angeles","position":"","direction":"","wheelchair_boarding":"0","tts_stop_name":"","feed_id":"Washington__Makah_Public_Transit__mdb_mdb-2196","agency_name":"Makah Public Transit","route_count":1,"route_ids":"76881","route_short_names":"","route_types":"3","route_type_names":"Bus","routes_json":"[{\"route_id\":\"76881\",\"route_short_name\":\"\",\"route_long_name\":\"Neah Bay\",\"route_type\":\"3\",\"route_type_name\":\"Bus\",\"route_color\":\"D21A18\",\"route_text_color\":\"FFFFFF\"}]","metadata_feed_id":"Washington__Makah_Public_Transit__mdb_mdb-2196","metadata_agency_names":"Makah Public Transit","metadata_ntd_id":"00405","metadata_ntd_match_method":"manual_override","metadata_ntd_agency":"Okanogan County Transit Authority, dba: TranGO","metadata_ntd_city":"Okanogan","metadata_ntd_state":"WA","metadata_gtfs_route_count":1,"metadata_gtfs_trip_count":19,"metadata_gtfs_shape_count":9,"metadata_gtfs_stop_count":19,"metadata_ntd_agency_voms":16,"metadata_ntd_total_facilities":0,"metadata_ntd_maintenance_facilities":0,"metadata_ntd_passenger_stations":0,"metadata_tam_tier":"Tier II","metadata_route_types_json":"{\"3\":1}","metadata_ntd_facilities_json":"{\"maintenance_facilities\":0,\"administrative_and_other_non_passenger_facilities\":0,\"passenger_stations_and_terminals\":0,\"parking_and_other_passenger_facilities\":0,\"total_facilities\":0,\"bus_transfer_centers\":null,\"elevated_fixed_guideway_stations\":null,\"at_grade_fixed_guideway_stations\":null,\"underground_fixed_guideway_stations\":null,\"simple_at_grade_platform_stations\":null,\"exclusive_grade_separated_platform_stations\":null,\"ferryboat_terminals\":null,\"surface_parking_lots\":null,\"parking_structures\":null}","metadata_tam_modes_json":"{\"MB\":{\"total_units_2024\":19,\"units_under_threshold_2024\":7,\"voms_2024\":22,\"total_modal_vrm_2024\":1131724,\"total_modal_upt_2024\":109558},\"VP\":{\"total_units_2024\":8,\"units_under_threshold_2024\":8,\"voms_2024\":5,\"total_modal_vrm_2024\":90543,\"total_modal_upt_2024\":10622}}"},"geometry":{"type":"Point","coordinates":[-124.603014736,48.368075884]}},{"type":"Feature","properties":{"stop_id":"4244411","stop_code":"","platform_code":"","stop_name":"Senior Center","stop_desc":"","zone_id":"","stop_url":"","location_type":"0","parent_station":"","stop_timezone":"America/Los_Angeles","position":"","direction":"","wheelchair_boarding":"0","tts_stop_name":"","feed_id":"Washington__Makah_Public_Transit__mdb_mdb-2196","agency_name":"Makah Public Transit","route_count":1,"route_ids":"76881","route_short_names":"","route_types":"3","route_type_names":"Bus","routes_json":"[{\"route_id\":\"76881\",\"route_short_name\":\"\",\"route_long_name\":\"Neah Bay\",\"route_type\":\"3\",\"route_type_name\":\"Bus\",\"route_color\":\"D21A18\",\"route_text_color\":\"FFFFFF\"}]","metadata_feed_id":"Washington__Makah_Public_Transit__mdb_mdb-2196","metadata_agency_names":"Makah Public Transit","metadata_ntd_id":"00405","metadata_ntd_match_method":"manual_override","metadata_ntd_agency":"Okanogan County Transit Authority, dba: TranGO","metadata_ntd_city":"Okanogan","metadata_ntd_state":"WA","metadata_gtfs_route_count":1,"metadata_gtfs_trip_count":19,"metadata_gtfs_shape_count":9,"metadata_gtfs_stop_count":19,"metadata_ntd_agency_voms":16,"metadata_ntd_total_facilities":0,"metadata_ntd_maintenance_facilities":0,"metadata_ntd_passenger_stations":0,"metadata_tam_tier":"Tier II","metadata_route_types_json":"{\"3\":1}","metadata_ntd_facilities_json":"{\"maintenance_facilities\":0,\"administrative_and_other_non_passenger_facilities\":0,\"passenger_stations_and_terminals\":0,\"parking_and_other_passenger_facilities\":0,\"total_facilities\":0,\"bus_transfer_centers\":null,\"elevated_fixed_guideway_stations\":null,\"at_grade_fixed_guideway_stations\":null,\"underground_fixed_guideway_stations\":null,\"simple_at_grade_platform_stations\":null,\"exclusive_grade_separated_platform_stations\":null,\"ferryboat_terminals\":null,\"surface_parking_lots\":null,\"parking_structures\":null}","metadata_tam_modes_json":"{\"MB\":{\"total_units_2024\":19,\"units_under_threshold_2024\":7,\"voms_2024\":22,\"total_modal_vrm_2024\":1131724,\"total_modal_upt_2024\":109558},\"VP\":{\"total_units_2024\":8,\"units_under_threshold_2024\":8,\"voms_2024\":5,\"total_modal_vrm_2024\":90543,\"total_modal_upt_2024\":10622}}"},"geometry":{"type":"Point","coordinates":[-124.62384042974436,48.36819324109357]}},{"type":"Feature","properties":{"stop_id":"4244412","stop_code":"","platform_code":"","stop_name":"Health Clinic","stop_desc":"","zone_id":"","stop_url":"","location_type":"0","parent_station":"","stop_timezone":"America/Los_Angeles","position":"","direction":"","wheelchair_boarding":"0","tts_stop_name":"","feed_id":"Washington__Makah_Public_Transit__mdb_mdb-2196","agency_name":"Makah Public Transit","route_count":1,"route_ids":"76881","route_short_names":"","route_types":"3","route_type_names":"Bus","routes_json":"[{\"route_id\":\"76881\",\"route_short_name\":\"\",\"route_long_name\":\"Neah Bay\",\"route_type\":\"3\",\"route_type_name\":\"Bus\",\"route_color\":\"D21A18\",\"route_text_color\":\"FFFFFF\"}]","metadata_feed_id":"Washington__Makah_Public_Transit__mdb_mdb-2196","metadata_agency_names":"Makah Public Transit","metadata_ntd_id":"00405","metadata_ntd_match_method":"manual_override","metadata_ntd_agency":"Okanogan County Transit Authority, dba: TranGO","metadata_ntd_city":"Okanogan","metadata_ntd_state":"WA","metadata_gtfs_route_count":1,"metadata_gtfs_trip_count":19,"metadata_gtfs_shape_count":9,"metadata_gtfs_stop_count":19,"metadata_ntd_agency_voms":16,"metadata_ntd_total_facilities":0,"metadata_ntd_maintenance_facilities":0,"metadata_ntd_passenger_stations":0,"metadata_tam_tier":"Tier II","metadata_route_types_json":"{\"3\":1}","metadata_ntd_facilities_json":"{\"maintenance_facilities\":0,\"administrative_and_other_non_passenger_facilities\":0,\"passenger_stations_and_terminals\":0,\"parking_and_other_passenger_facilities\":0,\"total_facilities\":0,\"bus_transfer_centers\":null,\"elevated_fixed_guideway_stations\":null,\"at_grade_fixed_guideway_stations\":null,\"underground_fixed_guideway_stations\":null,\"simple_at_grade_platform_stations\":null,\"exclusive_grade_separated_platform_stations\":null,\"ferryboat_terminals\":null,\"surface_parking_lots\":null,\"parking_structures\":null}","metadata_tam_modes_json":"{\"MB\":{\"total_units_2024\":19,\"units_under_threshold_2024\":7,\"voms_2024\":22,\"total_modal_vrm_2024\":1131724,\"total_modal_upt_2024\":109558},\"VP\":{\"total_units_2024\":8,\"units_under_threshold_2024\":8,\"voms_2024\":5,\"total_modal_vrm_2024\":90543,\"total_modal_upt_2024\":10622}}"},"geometry":{"type":"Point","coordinates":[-124.62701217,48.367544313]}},{"type":"Feature","properties":{"stop_id":"4244413","stop_code":"","platform_code":"","stop_name":"Tribal Center","stop_desc":"","zone_id":"","stop_url":"","location_type":"0","parent_station":"","stop_timezone":"America/Los_Angeles","position":"","direction":"","wheelchair_boarding":"0","tts_stop_name":"","feed_id":"Washington__Makah_Public_Transit__mdb_mdb-2196","agency_name":"Makah Public Transit","route_count":1,"route_ids":"76881","route_short_names":"","route_types":"3","route_type_names":"Bus","routes_json":"[{\"route_id\":\"76881\",\"route_short_name\":\"\",\"route_long_name\":\"Neah Bay\",\"route_type\":\"3\",\"route_type_name\":\"Bus\",\"route_color\":\"D21A18\",\"route_text_color\":\"FFFFFF\"}]","metadata_feed_id":"Washington__Makah_Public_Transit__mdb_mdb-2196","metadata_agency_names":"Makah Public Transit","metadata_ntd_id":"00405","metadata_ntd_match_method":"manual_override","metadata_ntd_agency":"Okanogan County Transit Authority, dba: TranGO","metadata_ntd_city":"Okanogan","metadata_ntd_state":"WA","metadata_gtfs_route_count":1,"metadata_gtfs_trip_count":19,"metadata_gtfs_shape_count":9,"metadata_gtfs_stop_count":19,"metadata_ntd_agency_voms":16,"metadata_ntd_total_facilities":0,"metadata_ntd_maintenance_facilities":0,"metadata_ntd_passenger_stations":0,"metadata_tam_tier":"Tier II","metadata_route_types_json":"{\"3\":1}","metadata_ntd_facilities_json":"{\"maintenance_facilities\":0,\"administrative_and_other_non_passenger_facilities\":0,\"passenger_stations_and_terminals\":0,\"parking_and_other_passenger_facilities\":0,\"total_facilities\":0,\"bus_transfer_centers\":null,\"elevated_fixed_guideway_stations\":null,\"at_grade_fixed_guideway_stations\":null,\"underground_fixed_guideway_stations\":null,\"simple_at_grade_platform_stations\":null,\"exclusive_grade_separated_platform_stations\":null,\"ferryboat_terminals\":null,\"surface_parking_lots\":null,\"parking_structures\":null}","metadata_tam_modes_json":"{\"MB\":{\"total_units_2024\":19,\"units_under_threshold_2024\":7,\"voms_2024\":22,\"total_modal_vrm_2024\":1131724,\"total_modal_upt_2024\":109558},\"VP\":{\"total_units_2024\":8,\"units_under_threshold_2024\":8,\"voms_2024\":5,\"total_modal_vrm_2024\":90543,\"total_modal_upt_2024\":10622}}"},"geometry":{"type":"Point","coordinates":[-124.66764671609884,48.347783602753466]}},{"type":"Feature","properties":{"stop_id":"4244414","stop_code":"","platform_code":"","stop_name":"US Coast Guard Station Neah Bay","stop_desc":"","zone_id":"","stop_url":"","location_type":"0","parent_station":"","stop_timezone":"America/Los_Angeles","position":"","direction":"","wheelchair_boarding":"0","tts_stop_name":"","feed_id":"Washington__Makah_Public_Transit__mdb_mdb-2196","agency_name":"Makah Public Transit","route_count":1,"route_ids":"76881","route_short_names":"","route_types":"3","route_type_names":"Bus","routes_json":"[{\"route_id\":\"76881\",\"route_short_name\":\"\",\"route_long_name\":\"Neah Bay\",\"route_type\":\"3\",\"route_type_name\":\"Bus\",\"route_color\":\"D21A18\",\"route_text_color\":\"FFFFFF\"}]","metadata_feed_id":"Washington__Makah_Public_Transit__mdb_mdb-2196","metadata_agency_names":"Makah Public Transit","metadata_ntd_id":"00405","metadata_ntd_match_method":"manual_override","metadata_ntd_agency":"Okanogan County Transit Authority, dba: TranGO","metadata_ntd_city":"Okanogan","metadata_ntd_state":"WA","metadata_gtfs_route_count":1,"metadata_gtfs_trip_count":19,"metadata_gtfs_shape_count":9,"metadata_gtfs_stop_count":19,"metadata_ntd_agency_voms":16,"metadata_ntd_total_facilities":0,"metadata_ntd_maintenance_facilities":0,"metadata_ntd_passenger_stations":0,"metadata_tam_tier":"Tier II","metadata_route_types_json":"{\"3\":1}","metadata_ntd_facilities_json":"{\"maintenance_facilities\":0,\"administrative_and_other_non_passenger_facilities\":0,\"passenger_stations_and_terminals\":0,\"parking_and_other_passenger_facilities\":0,\"total_facilities\":0,\"bus_transfer_centers\":null,\"elevated_fixed_guideway_stations\":null,\"at_grade_fixed_guideway_stations\":null,\"underground_fixed_guideway_stations\":null,\"simple_at_grade_platform_stations\":null,\"exclusive_grade_separated_platform_stations\":null,\"ferryboat_terminals\":null,\"surface_parking_lots\":null,\"parking_structures\":null}","metadata_tam_modes_json":"{\"MB\":{\"total_units_2024\":19,\"units_under_threshold_2024\":7,\"voms_2024\":22,\"total_modal_vrm_2024\":1131724,\"total_modal_upt_2024\":109558},\"VP\":{\"total_units_2024\":8,\"units_under_threshold_2024\":8,\"voms_2024\":5,\"total_modal_vrm_2024\":90543,\"total_modal_upt_2024\":10622}}"},"geometry":{"type":"Point","coordinates":[-124.59867991,48.369024519]}},{"type":"Feature","properties":{"stop_id":"4244415","stop_code":"","platform_code":"","stop_name":"Makah Cultural & Research Center Museum","stop_desc":"","zone_id":"","stop_url":"","location_type":"0","parent_station":"","stop_timezone":"America/Los_Angeles","position":"","direction":"","wheelchair_boarding":"0","tts_stop_name":"","feed_id":"Washington__Makah_Public_Transit__mdb_mdb-2196","agency_name":"Makah Public Transit","route_count":1,"route_ids":"76881","route_short_names":"","route_types":"3","route_type_names":"Bus","routes_json":"[{\"route_id\":\"76881\",\"route_short_name\":\"\",\"route_long_name\":\"Neah Bay\",\"route_type\":\"3\",\"route_type_name\":\"Bus\",\"route_color\":\"D21A18\",\"route_text_color\":\"FFFFFF\"}]","metadata_feed_id":"Washington__Makah_Public_Transit__mdb_mdb-2196","metadata_agency_names":"Makah Public Transit","metadata_ntd_id":"00405","metadata_ntd_match_method":"manual_override","metadata_ntd_agency":"Okanogan County Transit Authority, dba: TranGO","metadata_ntd_city":"Okanogan","metadata_ntd_state":"WA","metadata_gtfs_route_count":1,"metadata_gtfs_trip_count":19,"metadata_gtfs_shape_count":9,"metadata_gtfs_stop_count":19,"metadata_ntd_agency_voms":16,"metadata_ntd_total_facilities":0,"metadata_ntd_maintenance_facilities":0,"metadata_ntd_passenger_stations":0,"metadata_tam_tier":"Tier II","metadata_route_types_json":"{\"3\":1}","metadata_ntd_facilities_json":"{\"maintenance_facilities\":0,\"administrative_and_other_non_passenger_facilities\":0,\"passenger_stations_and_terminals\":0,\"parking_and_other_passenger_facilities\":0,\"total_facilities\":0,\"bus_transfer_centers\":null,\"elevated_fixed_guideway_stations\":null,\"at_grade_fixed_guideway_stations\":null,\"underground_fixed_guideway_stations\":null,\"simple_at_grade_platform_stations\":null,\"exclusive_grade_separated_platform_stations\":null,\"ferryboat_terminals\":null,\"surface_parking_lots\":null,\"parking_structures\":null}","metadata_tam_modes_json":"{\"MB\":{\"total_units_2024\":19,\"units_under_threshold_2024\":7,\"voms_2024\":22,\"total_modal_vrm_2024\":1131724,\"total_modal_upt_2024\":109558},\"VP\":{\"total_units_2024\":8,\"units_under_threshold_2024\":8,\"voms_2024\":5,\"total_modal_vrm_2024\":90543,\"total_modal_upt_2024\":10622}}"},"geometry":{"type":"Point","coordinates":[-124.599408668,48.368881751]}},{"type":"Feature","properties":{"stop_id":"4244416","stop_code":"","platform_code":"","stop_name":"Warmhouse Restaurant","stop_desc":"","zone_id":"","stop_url":"","location_type":"0","parent_station":"","stop_timezone":"America/Los_Angeles","position":"","direction":"","wheelchair_boarding":"0","tts_stop_name":"","feed_id":"Washington__Makah_Public_Transit__mdb_mdb-2196","agency_name":"Makah Public Transit","route_count":1,"route_ids":"76881","route_short_names":"","route_types":"3","route_type_names":"Bus","routes_json":"[{\"route_id\":\"76881\",\"route_short_name\":\"\",\"route_long_name\":\"Neah Bay\",\"route_type\":\"3\",\"route_type_name\":\"Bus\",\"route_color\":\"D21A18\",\"route_text_color\":\"FFFFFF\"}]","metadata_feed_id":"Washington__Makah_Public_Transit__mdb_mdb-2196","metadata_agency_names":"Makah Public Transit","metadata_ntd_id":"00405","metadata_ntd_match_method":"manual_override","metadata_ntd_agency":"Okanogan County Transit Authority, dba: TranGO","metadata_ntd_city":"Okanogan","metadata_ntd_state":"WA","metadata_gtfs_route_count":1,"metadata_gtfs_trip_count":19,"metadata_gtfs_shape_count":9,"metadata_gtfs_stop_count":19,"metadata_ntd_agency_voms":16,"metadata_ntd_total_facilities":0,"metadata_ntd_maintenance_facilities":0,"metadata_ntd_passenger_stations":0,"metadata_tam_tier":"Tier II","metadata_route_types_json":"{\"3\":1}","metadata_ntd_facilities_json":"{\"maintenance_facilities\":0,\"administrative_and_other_non_passenger_facilities\":0,\"passenger_stations_and_terminals\":0,\"parking_and_other_passenger_facilities\":0,\"total_facilities\":0,\"bus_transfer_centers\":null,\"elevated_fixed_guideway_stations\":null,\"at_grade_fixed_guideway_stations\":null,\"underground_fixed_guideway_stations\":null,\"simple_at_grade_platform_stations\":null,\"exclusive_grade_separated_platform_stations\":null,\"ferryboat_terminals\":null,\"surface_parking_lots\":null,\"parking_structures\":null}","metadata_tam_modes_json":"{\"MB\":{\"total_units_2024\":19,\"units_under_threshold_2024\":7,\"voms_2024\":22,\"total_modal_vrm_2024\":1131724,\"total_modal_upt_2024\":109558},\"VP\":{\"total_units_2024\":8,\"units_under_threshold_2024\":8,\"voms_2024\":5,\"total_modal_vrm_2024\":90543,\"total_modal_upt_2024\":10622}}"},"geometry":{"type":"Point","coordinates":[-124.606948186,48.366729634]}},{"type":"Feature","properties":{"stop_id":"4244417","stop_code":"","platform_code":"","stop_name":"Makah Community Gym","stop_desc":"","zone_id":"","stop_url":"","location_type":"0","parent_station":"","stop_timezone":"America/Los_Angeles","position":"","direction":"","wheelchair_boarding":"0","tts_stop_name":"","feed_id":"Washington__Makah_Public_Transit__mdb_mdb-2196","agency_name":"Makah Public Transit","route_count":1,"route_ids":"76881","route_short_names":"","route_types":"3","route_type_names":"Bus","routes_json":"[{\"route_id\":\"76881\",\"route_short_name\":\"\",\"route_long_name\":\"Neah Bay\",\"route_type\":\"3\",\"route_type_name\":\"Bus\",\"route_color\":\"D21A18\",\"route_text_color\":\"FFFFFF\"}]","metadata_feed_id":"Washington__Makah_Public_Transit__mdb_mdb-2196","metadata_agency_names":"Makah Public Transit","metadata_ntd_id":"00405","metadata_ntd_match_method":"manual_override","metadata_ntd_agency":"Okanogan County Transit Authority, dba: TranGO","metadata_ntd_city":"Okanogan","metadata_ntd_state":"WA","metadata_gtfs_route_count":1,"metadata_gtfs_trip_count":19,"metadata_gtfs_shape_count":9,"metadata_gtfs_stop_count":19,"metadata_ntd_agency_voms":16,"metadata_ntd_total_facilities":0,"metadata_ntd_maintenance_facilities":0,"metadata_ntd_passenger_stations":0,"metadata_tam_tier":"Tier II","metadata_route_types_json":"{\"3\":1}","metadata_ntd_facilities_json":"{\"maintenance_facilities\":0,\"administrative_and_other_non_passenger_facilities\":0,\"passenger_stations_and_terminals\":0,\"parking_and_other_passenger_facilities\":0,\"total_facilities\":0,\"bus_transfer_centers\":null,\"elevated_fixed_guideway_stations\":null,\"at_grade_fixed_guideway_stations\":null,\"underground_fixed_guideway_stations\":null,\"simple_at_grade_platform_stations\":null,\"exclusive_grade_separated_platform_stations\":null,\"ferryboat_terminals\":null,\"surface_parking_lots\":null,\"parking_structures\":null}","metadata_tam_modes_json":"{\"MB\":{\"total_units_2024\":19,\"units_under_threshold_2024\":7,\"voms_2024\":22,\"total_modal_vrm_2024\":1131724,\"total_modal_upt_2024\":109558},\"VP\":{\"total_units_2024\":8,\"units_under_threshold_2024\":8,\"voms_2024\":5,\"total_modal_vrm_2024\":90543,\"total_modal_upt_2024\":10622}}"},"geometry":{"type":"Point","coordinates":[-124.609253876,48.365747918]}},{"type":"Feature","properties":{"stop_id":"4244418","stop_code":"","platform_code":"","stop_name":"Makah Mini Mart/Gas Station","stop_desc":"","zone_id":"","stop_url":"","location_type":"0","parent_station":"","stop_timezone":"America/Los_Angeles","position":"","direction":"","wheelchair_boarding":"0","tts_stop_name":"","feed_id":"Washington__Makah_Public_Transit__mdb_mdb-2196","agency_name":"Makah Public Transit","route_count":1,"route_ids":"76881","route_short_names":"","route_types":"3","route_type_names":"Bus","routes_json":"[{\"route_id\":\"76881\",\"route_short_name\":\"\",\"route_long_name\":\"Neah Bay\",\"route_type\":\"3\",\"route_type_name\":\"Bus\",\"route_color\":\"D21A18\",\"route_text_color\":\"FFFFFF\"}]","metadata_feed_id":"Washington__Makah_Public_Transit__mdb_mdb-2196","metadata_agency_names":"Makah Public Transit","metadata_ntd_id":"00405","metadata_ntd_match_method":"manual_override","metadata_ntd_agency":"Okanogan County Transit Authority, dba: TranGO","metadata_ntd_city":"Okanogan","metadata_ntd_state":"WA","metadata_gtfs_route_count":1,"metadata_gtfs_trip_count":19,"metadata_gtfs_shape_count":9,"metadata_gtfs_stop_count":19,"metadata_ntd_agency_voms":16,"metadata_ntd_total_facilities":0,"metadata_ntd_maintenance_facilities":0,"metadata_ntd_passenger_stations":0,"metadata_tam_tier":"Tier II","metadata_route_types_json":"{\"3\":1}","metadata_ntd_facilities_json":"{\"maintenance_facilities\":0,\"administrative_and_other_non_passenger_facilities\":0,\"passenger_stations_and_terminals\":0,\"parking_and_other_passenger_facilities\":0,\"total_facilities\":0,\"bus_transfer_centers\":null,\"elevated_fixed_guideway_stations\":null,\"at_grade_fixed_guideway_stations\":null,\"underground_fixed_guideway_stations\":null,\"simple_at_grade_platform_stations\":null,\"exclusive_grade_separated_platform_stations\":null,\"ferryboat_terminals\":null,\"surface_parking_lots\":null,\"parking_structures\":null}","metadata_tam_modes_json":"{\"MB\":{\"total_units_2024\":19,\"units_under_threshold_2024\":7,\"voms_2024\":22,\"total_modal_vrm_2024\":1131724,\"total_modal_upt_2024\":109558},\"VP\":{\"total_units_2024\":8,\"units_under_threshold_2024\":8,\"voms_2024\":5,\"total_modal_vrm_2024\":90543,\"total_modal_upt_2024\":10622}}"},"geometry":{"type":"Point","coordinates":[-124.617009438,48.366100807]}},{"type":"Feature","properties":{"stop_id":"4244419","stop_code":"","platform_code":"","stop_name":"Makah Tribal Community Hall","stop_desc":"","zone_id":"","stop_url":"","location_type":"0","parent_station":"","stop_timezone":"America/Los_Angeles","position":"","direction":"","wheelchair_boarding":"0","tts_stop_name":"","feed_id":"Washington__Makah_Public_Transit__mdb_mdb-2196","agency_name":"Makah Public Transit","route_count":1,"route_ids":"76881","route_short_names":"","route_types":"3","route_type_names":"Bus","routes_json":"[{\"route_id\":\"76881\",\"route_short_name\":\"\",\"route_long_name\":\"Neah Bay\",\"route_type\":\"3\",\"route_type_name\":\"Bus\",\"route_color\":\"D21A18\",\"route_text_color\":\"FFFFFF\"}]","metadata_feed_id":"Washington__Makah_Public_Transit__mdb_mdb-2196","metadata_agency_names":"Makah Public Transit","metadata_ntd_id":"00405","metadata_ntd_match_method":"manual_override","metadata_ntd_agency":"Okanogan County Transit Authority, dba: TranGO","metadata_ntd_city":"Okanogan","metadata_ntd_state":"WA","metadata_gtfs_route_count":1,"metadata_gtfs_trip_count":19,"metadata_gtfs_shape_count":9,"metadata_gtfs_stop_count":19,"metadata_ntd_agency_voms":16,"metadata_ntd_total_facilities":0,"metadata_ntd_maintenance_facilities":0,"metadata_ntd_passenger_stations":0,"metadata_tam_tier":"Tier II","metadata_route_types_json":"{\"3\":1}","metadata_ntd_facilities_json":"{\"maintenance_facilities\":0,\"administrative_and_other_non_passenger_facilities\":0,\"passenger_stations_and_terminals\":0,\"parking_and_other_passenger_facilities\":0,\"total_facilities\":0,\"bus_transfer_centers\":null,\"elevated_fixed_guideway_stations\":null,\"at_grade_fixed_guideway_stations\":null,\"underground_fixed_guideway_stations\":null,\"simple_at_grade_platform_stations\":null,\"exclusive_grade_separated_platform_stations\":null,\"ferryboat_terminals\":null,\"surface_parking_lots\":null,\"parking_structures\":null}","metadata_tam_modes_json":"{\"MB\":{\"total_units_2024\":19,\"units_under_threshold_2024\":7,\"voms_2024\":22,\"total_modal_vrm_2024\":1131724,\"total_modal_upt_2024\":109558},\"VP\":{\"total_units_2024\":8,\"units_under_threshold_2024\":8,\"voms_2024\":5,\"total_modal_vrm_2024\":90543,\"total_modal_upt_2024\":10622}}"},"geometry":{"type":"Point","coordinates":[-124.62799097,48.367986256]}}],"metadata":{"feed_id":"Washington__Makah_Public_Transit__mdb_mdb-2196","ntd_id":"00405","feature_metadata_embedded":true}}