{"type":"FeatureCollection","features":[{"type":"Feature","properties":{"stop_id":"4147510","stop_code":"","platform_code":"","stop_name":"Brown County Offices","stop_desc":"","zone_id":"","stop_url":"","location_type":"0","parent_station":"","stop_timezone":"America/Chicago","position":"","direction":"","wheelchair_boarding":"0","tts_stop_name":"","feed_id":"Minnesota__Brown_County_Heartland_Express__mdb_mdb-2037","agency_name":"Brown County Heartland Express","route_count":0,"route_ids":"","route_short_names":"","route_types":"","route_type_names":"","routes_json":"[]","metadata_feed_id":"Minnesota__Brown_County_Heartland_Express__mdb_mdb-2037","metadata_agency_names":"Brown County Heartland Express","metadata_ntd_id":"50384","metadata_ntd_match_method":"manual_override","metadata_ntd_agency":"Brown County, dba: Brown County Heartland Express","metadata_ntd_city":"New Ulm","metadata_ntd_state":"MN","metadata_gtfs_route_count":2,"metadata_gtfs_trip_count":17,"metadata_gtfs_shape_count":1,"metadata_gtfs_stop_count":20,"metadata_ntd_agency_voms":8,"metadata_ntd_total_facilities":1,"metadata_ntd_maintenance_facilities":0,"metadata_ntd_passenger_stations":0,"metadata_tam_tier":"Tier II","metadata_route_types_json":"{\"3\":2}","metadata_ntd_facilities_json":"{\"maintenance_facilities\":0,\"administrative_and_other_non_passenger_facilities\":0,\"passenger_stations_and_terminals\":0,\"parking_and_other_passenger_facilities\":1,\"total_facilities\":1,\"bus_transfer_centers\":0,\"elevated_fixed_guideway_stations\":0,\"at_grade_fixed_guideway_stations\":0,\"underground_fixed_guideway_stations\":0,\"simple_at_grade_platform_stations\":0,\"exclusive_grade_separated_platform_stations\":0,\"ferryboat_terminals\":0,\"surface_parking_lots\":0,\"parking_structures\":1}","metadata_tam_modes_json":"{\"Multiple\":{\"total_units_2024\":11,\"units_under_threshold_2024\":5,\"voms_2024\":1,\"total_modal_vrm_2024\":0,\"total_modal_upt_2024\":0},\"DR\":{\"total_units_2024\":1,\"units_under_threshold_2024\":0,\"voms_2024\":0,\"total_modal_vrm_2024\":0,\"total_modal_upt_2024\":0}}"},"geometry":{"type":"Point","coordinates":[-94.46152142454758,44.311175804922016]}},{"type":"Feature","properties":{"stop_id":"4149546","stop_code":"","platform_code":"","stop_name":"Linderhof/Hillside Apartments","stop_desc":"","zone_id":"","stop_url":"https://newulmmn.gov/553/Hermann-Express-City-Bus-Service","location_type":"0","parent_station":"","stop_timezone":"America/Chicago","position":"","direction":"","wheelchair_boarding":"0","tts_stop_name":"","feed_id":"Minnesota__Brown_County_Heartland_Express__mdb_mdb-2037","agency_name":"Brown County Heartland Express","route_count":1,"route_ids":"74513","route_short_names":"","route_types":"3","route_type_names":"Bus","routes_json":"[{\"route_id\":\"74513\",\"route_short_name\":\"\",\"route_long_name\":\"Hermann Express\",\"route_type\":\"3\",\"route_type_name\":\"Bus\",\"route_color\":\"009D4F\",\"route_text_color\":\"000000\"}]","metadata_feed_id":"Minnesota__Brown_County_Heartland_Express__mdb_mdb-2037","metadata_agency_names":"Brown County Heartland Express","metadata_ntd_id":"50384","metadata_ntd_match_method":"manual_override","metadata_ntd_agency":"Brown County, dba: Brown County Heartland Express","metadata_ntd_city":"New Ulm","metadata_ntd_state":"MN","metadata_gtfs_route_count":2,"metadata_gtfs_trip_count":17,"metadata_gtfs_shape_count":1,"metadata_gtfs_stop_count":20,"metadata_ntd_agency_voms":8,"metadata_ntd_total_facilities":1,"metadata_ntd_maintenance_facilities":0,"metadata_ntd_passenger_stations":0,"metadata_tam_tier":"Tier II","metadata_route_types_json":"{\"3\":2}","metadata_ntd_facilities_json":"{\"maintenance_facilities\":0,\"administrative_and_other_non_passenger_facilities\":0,\"passenger_stations_and_terminals\":0,\"parking_and_other_passenger_facilities\":1,\"total_facilities\":1,\"bus_transfer_centers\":0,\"elevated_fixed_guideway_stations\":0,\"at_grade_fixed_guideway_stations\":0,\"underground_fixed_guideway_stations\":0,\"simple_at_grade_platform_stations\":0,\"exclusive_grade_separated_platform_stations\":0,\"ferryboat_terminals\":0,\"surface_parking_lots\":0,\"parking_structures\":1}","metadata_tam_modes_json":"{\"Multiple\":{\"total_units_2024\":11,\"units_under_threshold_2024\":5,\"voms_2024\":1,\"total_modal_vrm_2024\":0,\"total_modal_upt_2024\":0},\"DR\":{\"total_units_2024\":1,\"units_under_threshold_2024\":0,\"voms_2024\":0,\"total_modal_vrm_2024\":0,\"total_modal_upt_2024\":0}}"},"geometry":{"type":"Point","coordinates":[-94.4832557975509,44.3244403726866]}},{"type":"Feature","properties":{"stop_id":"4149547","stop_code":"","platform_code":"","stop_name":"Oak Hills Living Center","stop_desc":"","zone_id":"","stop_url":"https://newulmmn.gov/553/Hermann-Express-City-Bus-Service","location_type":"0","parent_station":"","stop_timezone":"America/Chicago","position":"","direction":"","wheelchair_boarding":"0","tts_stop_name":"","feed_id":"Minnesota__Brown_County_Heartland_Express__mdb_mdb-2037","agency_name":"Brown County Heartland Express","route_count":1,"route_ids":"74513","route_short_names":"","route_types":"3","route_type_names":"Bus","routes_json":"[{\"route_id\":\"74513\",\"route_short_name\":\"\",\"route_long_name\":\"Hermann Express\",\"route_type\":\"3\",\"route_type_name\":\"Bus\",\"route_color\":\"009D4F\",\"route_text_color\":\"000000\"}]","metadata_feed_id":"Minnesota__Brown_County_Heartland_Express__mdb_mdb-2037","metadata_agency_names":"Brown County Heartland Express","metadata_ntd_id":"50384","metadata_ntd_match_method":"manual_override","metadata_ntd_agency":"Brown County, dba: Brown County Heartland Express","metadata_ntd_city":"New Ulm","metadata_ntd_state":"MN","metadata_gtfs_route_count":2,"metadata_gtfs_trip_count":17,"metadata_gtfs_shape_count":1,"metadata_gtfs_stop_count":20,"metadata_ntd_agency_voms":8,"metadata_ntd_total_facilities":1,"metadata_ntd_maintenance_facilities":0,"metadata_ntd_passenger_stations":0,"metadata_tam_tier":"Tier II","metadata_route_types_json":"{\"3\":2}","metadata_ntd_facilities_json":"{\"maintenance_facilities\":0,\"administrative_and_other_non_passenger_facilities\":0,\"passenger_stations_and_terminals\":0,\"parking_and_other_passenger_facilities\":1,\"total_facilities\":1,\"bus_transfer_centers\":0,\"elevated_fixed_guideway_stations\":0,\"at_grade_fixed_guideway_stations\":0,\"underground_fixed_guideway_stations\":0,\"simple_at_grade_platform_stations\":0,\"exclusive_grade_separated_platform_stations\":0,\"ferryboat_terminals\":0,\"surface_parking_lots\":0,\"parking_structures\":1}","metadata_tam_modes_json":"{\"Multiple\":{\"total_units_2024\":11,\"units_under_threshold_2024\":5,\"voms_2024\":1,\"total_modal_vrm_2024\":0,\"total_modal_upt_2024\":0},\"DR\":{\"total_units_2024\":1,\"units_under_threshold_2024\":0,\"voms_2024\":0,\"total_modal_vrm_2024\":0,\"total_modal_upt_2024\":0}}"},"geometry":{"type":"Point","coordinates":[-94.4774795762031,44.315809075239]}},{"type":"Feature","properties":{"stop_id":"4149548","stop_code":"","platform_code":"","stop_name":"New Ulm Medical Center","stop_desc":"","zone_id":"","stop_url":"https://newulmmn.gov/553/Hermann-Express-City-Bus-Service","location_type":"0","parent_station":"","stop_timezone":"America/Chicago","position":"","direction":"","wheelchair_boarding":"0","tts_stop_name":"","feed_id":"Minnesota__Brown_County_Heartland_Express__mdb_mdb-2037","agency_name":"Brown County Heartland Express","route_count":1,"route_ids":"74513","route_short_names":"","route_types":"3","route_type_names":"Bus","routes_json":"[{\"route_id\":\"74513\",\"route_short_name\":\"\",\"route_long_name\":\"Hermann Express\",\"route_type\":\"3\",\"route_type_name\":\"Bus\",\"route_color\":\"009D4F\",\"route_text_color\":\"000000\"}]","metadata_feed_id":"Minnesota__Brown_County_Heartland_Express__mdb_mdb-2037","metadata_agency_names":"Brown County Heartland Express","metadata_ntd_id":"50384","metadata_ntd_match_method":"manual_override","metadata_ntd_agency":"Brown County, dba: Brown County Heartland Express","metadata_ntd_city":"New Ulm","metadata_ntd_state":"MN","metadata_gtfs_route_count":2,"metadata_gtfs_trip_count":17,"metadata_gtfs_shape_count":1,"metadata_gtfs_stop_count":20,"metadata_ntd_agency_voms":8,"metadata_ntd_total_facilities":1,"metadata_ntd_maintenance_facilities":0,"metadata_ntd_passenger_stations":0,"metadata_tam_tier":"Tier II","metadata_route_types_json":"{\"3\":2}","metadata_ntd_facilities_json":"{\"maintenance_facilities\":0,\"administrative_and_other_non_passenger_facilities\":0,\"passenger_stations_and_terminals\":0,\"parking_and_other_passenger_facilities\":1,\"total_facilities\":1,\"bus_transfer_centers\":0,\"elevated_fixed_guideway_stations\":0,\"at_grade_fixed_guideway_stations\":0,\"underground_fixed_guideway_stations\":0,\"simple_at_grade_platform_stations\":0,\"exclusive_grade_separated_platform_stations\":0,\"ferryboat_terminals\":0,\"surface_parking_lots\":0,\"parking_structures\":1}","metadata_tam_modes_json":"{\"Multiple\":{\"total_units_2024\":11,\"units_under_threshold_2024\":5,\"voms_2024\":1,\"total_modal_vrm_2024\":0,\"total_modal_upt_2024\":0},\"DR\":{\"total_units_2024\":1,\"units_under_threshold_2024\":0,\"voms_2024\":0,\"total_modal_vrm_2024\":0,\"total_modal_upt_2024\":0}}"},"geometry":{"type":"Point","coordinates":[-94.4761953323972,44.31348443793311]}},{"type":"Feature","properties":{"stop_id":"4149549","stop_code":"","platform_code":"","stop_name":"St. Michael's","stop_desc":"","zone_id":"","stop_url":"https://newulmmn.gov/553/Hermann-Express-City-Bus-Service","location_type":"0","parent_station":"","stop_timezone":"America/Chicago","position":"","direction":"","wheelchair_boarding":"0","tts_stop_name":"","feed_id":"Minnesota__Brown_County_Heartland_Express__mdb_mdb-2037","agency_name":"Brown County Heartland Express","route_count":1,"route_ids":"74513","route_short_names":"","route_types":"3","route_type_names":"Bus","routes_json":"[{\"route_id\":\"74513\",\"route_short_name\":\"\",\"route_long_name\":\"Hermann Express\",\"route_type\":\"3\",\"route_type_name\":\"Bus\",\"route_color\":\"009D4F\",\"route_text_color\":\"000000\"}]","metadata_feed_id":"Minnesota__Brown_County_Heartland_Express__mdb_mdb-2037","metadata_agency_names":"Brown County Heartland Express","metadata_ntd_id":"50384","metadata_ntd_match_method":"manual_override","metadata_ntd_agency":"Brown County, dba: Brown County Heartland Express","metadata_ntd_city":"New Ulm","metadata_ntd_state":"MN","metadata_gtfs_route_count":2,"metadata_gtfs_trip_count":17,"metadata_gtfs_shape_count":1,"metadata_gtfs_stop_count":20,"metadata_ntd_agency_voms":8,"metadata_ntd_total_facilities":1,"metadata_ntd_maintenance_facilities":0,"metadata_ntd_passenger_stations":0,"metadata_tam_tier":"Tier II","metadata_route_types_json":"{\"3\":2}","metadata_ntd_facilities_json":"{\"maintenance_facilities\":0,\"administrative_and_other_non_passenger_facilities\":0,\"passenger_stations_and_terminals\":0,\"parking_and_other_passenger_facilities\":1,\"total_facilities\":1,\"bus_transfer_centers\":0,\"elevated_fixed_guideway_stations\":0,\"at_grade_fixed_guideway_stations\":0,\"underground_fixed_guideway_stations\":0,\"simple_at_grade_platform_stations\":0,\"exclusive_grade_separated_platform_stations\":0,\"ferryboat_terminals\":0,\"surface_parking_lots\":0,\"parking_structures\":1}","metadata_tam_modes_json":"{\"Multiple\":{\"total_units_2024\":11,\"units_under_threshold_2024\":5,\"voms_2024\":1,\"total_modal_vrm_2024\":0,\"total_modal_upt_2024\":0},\"DR\":{\"total_units_2024\":1,\"units_under_threshold_2024\":0,\"voms_2024\":0,\"total_modal_vrm_2024\":0,\"total_modal_upt_2024\":0}}"},"geometry":{"type":"Point","coordinates":[-94.46625040297523,44.31688860019708]}},{"type":"Feature","properties":{"stop_id":"4149550","stop_code":"","platform_code":"","stop_name":"Broadway Haus","stop_desc":"","zone_id":"","stop_url":"https://newulmmn.gov/553/Hermann-Express-City-Bus-Service","location_type":"0","parent_station":"","stop_timezone":"America/Chicago","position":"","direction":"","wheelchair_boarding":"0","tts_stop_name":"","feed_id":"Minnesota__Brown_County_Heartland_Express__mdb_mdb-2037","agency_name":"Brown County Heartland Express","route_count":1,"route_ids":"74513","route_short_names":"","route_types":"3","route_type_names":"Bus","routes_json":"[{\"route_id\":\"74513\",\"route_short_name\":\"\",\"route_long_name\":\"Hermann Express\",\"route_type\":\"3\",\"route_type_name\":\"Bus\",\"route_color\":\"009D4F\",\"route_text_color\":\"000000\"}]","metadata_feed_id":"Minnesota__Brown_County_Heartland_Express__mdb_mdb-2037","metadata_agency_names":"Brown County Heartland Express","metadata_ntd_id":"50384","metadata_ntd_match_method":"manual_override","metadata_ntd_agency":"Brown County, dba: Brown County Heartland Express","metadata_ntd_city":"New Ulm","metadata_ntd_state":"MN","metadata_gtfs_route_count":2,"metadata_gtfs_trip_count":17,"metadata_gtfs_shape_count":1,"metadata_gtfs_stop_count":20,"metadata_ntd_agency_voms":8,"metadata_ntd_total_facilities":1,"metadata_ntd_maintenance_facilities":0,"metadata_ntd_passenger_stations":0,"metadata_tam_tier":"Tier II","metadata_route_types_json":"{\"3\":2}","metadata_ntd_facilities_json":"{\"maintenance_facilities\":0,\"administrative_and_other_non_passenger_facilities\":0,\"passenger_stations_and_terminals\":0,\"parking_and_other_passenger_facilities\":1,\"total_facilities\":1,\"bus_transfer_centers\":0,\"elevated_fixed_guideway_stations\":0,\"at_grade_fixed_guideway_stations\":0,\"underground_fixed_guideway_stations\":0,\"simple_at_grade_platform_stations\":0,\"exclusive_grade_separated_platform_stations\":0,\"ferryboat_terminals\":0,\"surface_parking_lots\":0,\"parking_structures\":1}","metadata_tam_modes_json":"{\"Multiple\":{\"total_units_2024\":11,\"units_under_threshold_2024\":5,\"voms_2024\":1,\"total_modal_vrm_2024\":0,\"total_modal_upt_2024\":0},\"DR\":{\"total_units_2024\":1,\"units_under_threshold_2024\":0,\"voms_2024\":0,\"total_modal_vrm_2024\":0,\"total_modal_upt_2024\":0}}"},"geometry":{"type":"Point","coordinates":[-94.4629292109348,44.3156026577971]}},{"type":"Feature","properties":{"stop_id":"4149551","stop_code":"","platform_code":"","stop_name":"Downtown I","stop_desc":"","zone_id":"","stop_url":"https://newulmmn.gov/553/Hermann-Express-City-Bus-Service","location_type":"0","parent_station":"","stop_timezone":"America/Chicago","position":"","direction":"","wheelchair_boarding":"0","tts_stop_name":"","feed_id":"Minnesota__Brown_County_Heartland_Express__mdb_mdb-2037","agency_name":"Brown County Heartland Express","route_count":1,"route_ids":"74513","route_short_names":"","route_types":"3","route_type_names":"Bus","routes_json":"[{\"route_id\":\"74513\",\"route_short_name\":\"\",\"route_long_name\":\"Hermann Express\",\"route_type\":\"3\",\"route_type_name\":\"Bus\",\"route_color\":\"009D4F\",\"route_text_color\":\"000000\"}]","metadata_feed_id":"Minnesota__Brown_County_Heartland_Express__mdb_mdb-2037","metadata_agency_names":"Brown County Heartland Express","metadata_ntd_id":"50384","metadata_ntd_match_method":"manual_override","metadata_ntd_agency":"Brown County, dba: Brown County Heartland Express","metadata_ntd_city":"New Ulm","metadata_ntd_state":"MN","metadata_gtfs_route_count":2,"metadata_gtfs_trip_count":17,"metadata_gtfs_shape_count":1,"metadata_gtfs_stop_count":20,"metadata_ntd_agency_voms":8,"metadata_ntd_total_facilities":1,"metadata_ntd_maintenance_facilities":0,"metadata_ntd_passenger_stations":0,"metadata_tam_tier":"Tier II","metadata_route_types_json":"{\"3\":2}","metadata_ntd_facilities_json":"{\"maintenance_facilities\":0,\"administrative_and_other_non_passenger_facilities\":0,\"passenger_stations_and_terminals\":0,\"parking_and_other_passenger_facilities\":1,\"total_facilities\":1,\"bus_transfer_centers\":0,\"elevated_fixed_guideway_stations\":0,\"at_grade_fixed_guideway_stations\":0,\"underground_fixed_guideway_stations\":0,\"simple_at_grade_platform_stations\":0,\"exclusive_grade_separated_platform_stations\":0,\"ferryboat_terminals\":0,\"surface_parking_lots\":0,\"parking_structures\":1}","metadata_tam_modes_json":"{\"Multiple\":{\"total_units_2024\":11,\"units_under_threshold_2024\":5,\"voms_2024\":1,\"total_modal_vrm_2024\":0,\"total_modal_upt_2024\":0},\"DR\":{\"total_units_2024\":1,\"units_under_threshold_2024\":0,\"voms_2024\":0,\"total_modal_vrm_2024\":0,\"total_modal_upt_2024\":0}}"},"geometry":{"type":"Point","coordinates":[-94.4600591933422,44.31440542052728]}},{"type":"Feature","properties":{"stop_id":"4149552","stop_code":"","platform_code":"","stop_name":"Downtown II","stop_desc":"","zone_id":"","stop_url":"https://newulmmn.gov/553/Hermann-Express-City-Bus-Service","location_type":"0","parent_station":"","stop_timezone":"America/Chicago","position":"","direction":"","wheelchair_boarding":"0","tts_stop_name":"","feed_id":"Minnesota__Brown_County_Heartland_Express__mdb_mdb-2037","agency_name":"Brown County Heartland Express","route_count":1,"route_ids":"74513","route_short_names":"","route_types":"3","route_type_names":"Bus","routes_json":"[{\"route_id\":\"74513\",\"route_short_name\":\"\",\"route_long_name\":\"Hermann Express\",\"route_type\":\"3\",\"route_type_name\":\"Bus\",\"route_color\":\"009D4F\",\"route_text_color\":\"000000\"}]","metadata_feed_id":"Minnesota__Brown_County_Heartland_Express__mdb_mdb-2037","metadata_agency_names":"Brown County Heartland Express","metadata_ntd_id":"50384","metadata_ntd_match_method":"manual_override","metadata_ntd_agency":"Brown County, dba: Brown County Heartland Express","metadata_ntd_city":"New Ulm","metadata_ntd_state":"MN","metadata_gtfs_route_count":2,"metadata_gtfs_trip_count":17,"metadata_gtfs_shape_count":1,"metadata_gtfs_stop_count":20,"metadata_ntd_agency_voms":8,"metadata_ntd_total_facilities":1,"metadata_ntd_maintenance_facilities":0,"metadata_ntd_passenger_stations":0,"metadata_tam_tier":"Tier II","metadata_route_types_json":"{\"3\":2}","metadata_ntd_facilities_json":"{\"maintenance_facilities\":0,\"administrative_and_other_non_passenger_facilities\":0,\"passenger_stations_and_terminals\":0,\"parking_and_other_passenger_facilities\":1,\"total_facilities\":1,\"bus_transfer_centers\":0,\"elevated_fixed_guideway_stations\":0,\"at_grade_fixed_guideway_stations\":0,\"underground_fixed_guideway_stations\":0,\"simple_at_grade_platform_stations\":0,\"exclusive_grade_separated_platform_stations\":0,\"ferryboat_terminals\":0,\"surface_parking_lots\":0,\"parking_structures\":1}","metadata_tam_modes_json":"{\"Multiple\":{\"total_units_2024\":11,\"units_under_threshold_2024\":5,\"voms_2024\":1,\"total_modal_vrm_2024\":0,\"total_modal_upt_2024\":0},\"DR\":{\"total_units_2024\":1,\"units_under_threshold_2024\":0,\"voms_2024\":0,\"total_modal_vrm_2024\":0,\"total_modal_upt_2024\":0}}"},"geometry":{"type":"Point","coordinates":[-94.4578170057494,44.31201731234275]}},{"type":"Feature","properties":{"stop_id":"4149553","stop_code":"","platform_code":"","stop_name":"Oakwood Estates","stop_desc":"","zone_id":"","stop_url":"https://newulmmn.gov/553/Hermann-Express-City-Bus-Service","location_type":"0","parent_station":"","stop_timezone":"America/Chicago","position":"","direction":"","wheelchair_boarding":"0","tts_stop_name":"","feed_id":"Minnesota__Brown_County_Heartland_Express__mdb_mdb-2037","agency_name":"Brown County Heartland Express","route_count":1,"route_ids":"74513","route_short_names":"","route_types":"3","route_type_names":"Bus","routes_json":"[{\"route_id\":\"74513\",\"route_short_name\":\"\",\"route_long_name\":\"Hermann Express\",\"route_type\":\"3\",\"route_type_name\":\"Bus\",\"route_color\":\"009D4F\",\"route_text_color\":\"000000\"}]","metadata_feed_id":"Minnesota__Brown_County_Heartland_Express__mdb_mdb-2037","metadata_agency_names":"Brown County Heartland Express","metadata_ntd_id":"50384","metadata_ntd_match_method":"manual_override","metadata_ntd_agency":"Brown County, dba: Brown County Heartland Express","metadata_ntd_city":"New Ulm","metadata_ntd_state":"MN","metadata_gtfs_route_count":2,"metadata_gtfs_trip_count":17,"metadata_gtfs_shape_count":1,"metadata_gtfs_stop_count":20,"metadata_ntd_agency_voms":8,"metadata_ntd_total_facilities":1,"metadata_ntd_maintenance_facilities":0,"metadata_ntd_passenger_stations":0,"metadata_tam_tier":"Tier II","metadata_route_types_json":"{\"3\":2}","metadata_ntd_facilities_json":"{\"maintenance_facilities\":0,\"administrative_and_other_non_passenger_facilities\":0,\"passenger_stations_and_terminals\":0,\"parking_and_other_passenger_facilities\":1,\"total_facilities\":1,\"bus_transfer_centers\":0,\"elevated_fixed_guideway_stations\":0,\"at_grade_fixed_guideway_stations\":0,\"underground_fixed_guideway_stations\":0,\"simple_at_grade_platform_stations\":0,\"exclusive_grade_separated_platform_stations\":0,\"ferryboat_terminals\":0,\"surface_parking_lots\":0,\"parking_structures\":1}","metadata_tam_modes_json":"{\"Multiple\":{\"total_units_2024\":11,\"units_under_threshold_2024\":5,\"voms_2024\":1,\"total_modal_vrm_2024\":0,\"total_modal_upt_2024\":0},\"DR\":{\"total_units_2024\":1,\"units_under_threshold_2024\":0,\"voms_2024\":0,\"total_modal_vrm_2024\":0,\"total_modal_upt_2024\":0}}"},"geometry":{"type":"Point","coordinates":[-94.43291134889424,44.28741495361129]}},{"type":"Feature","properties":{"stop_id":"4149554","stop_code":"","platform_code":"","stop_name":"HyVee","stop_desc":"","zone_id":"","stop_url":"https://newulmmn.gov/553/Hermann-Express-City-Bus-Service","location_type":"0","parent_station":"","stop_timezone":"America/Chicago","position":"","direction":"","wheelchair_boarding":"0","tts_stop_name":"","feed_id":"Minnesota__Brown_County_Heartland_Express__mdb_mdb-2037","agency_name":"Brown County Heartland Express","route_count":1,"route_ids":"74513","route_short_names":"","route_types":"3","route_type_names":"Bus","routes_json":"[{\"route_id\":\"74513\",\"route_short_name\":\"\",\"route_long_name\":\"Hermann Express\",\"route_type\":\"3\",\"route_type_name\":\"Bus\",\"route_color\":\"009D4F\",\"route_text_color\":\"000000\"}]","metadata_feed_id":"Minnesota__Brown_County_Heartland_Express__mdb_mdb-2037","metadata_agency_names":"Brown County Heartland Express","metadata_ntd_id":"50384","metadata_ntd_match_method":"manual_override","metadata_ntd_agency":"Brown County, dba: Brown County Heartland Express","metadata_ntd_city":"New Ulm","metadata_ntd_state":"MN","metadata_gtfs_route_count":2,"metadata_gtfs_trip_count":17,"metadata_gtfs_shape_count":1,"metadata_gtfs_stop_count":20,"metadata_ntd_agency_voms":8,"metadata_ntd_total_facilities":1,"metadata_ntd_maintenance_facilities":0,"metadata_ntd_passenger_stations":0,"metadata_tam_tier":"Tier II","metadata_route_types_json":"{\"3\":2}","metadata_ntd_facilities_json":"{\"maintenance_facilities\":0,\"administrative_and_other_non_passenger_facilities\":0,\"passenger_stations_and_terminals\":0,\"parking_and_other_passenger_facilities\":1,\"total_facilities\":1,\"bus_transfer_centers\":0,\"elevated_fixed_guideway_stations\":0,\"at_grade_fixed_guideway_stations\":0,\"underground_fixed_guideway_stations\":0,\"simple_at_grade_platform_stations\":0,\"exclusive_grade_separated_platform_stations\":0,\"ferryboat_terminals\":0,\"surface_parking_lots\":0,\"parking_structures\":1}","metadata_tam_modes_json":"{\"Multiple\":{\"total_units_2024\":11,\"units_under_threshold_2024\":5,\"voms_2024\":1,\"total_modal_vrm_2024\":0,\"total_modal_upt_2024\":0},\"DR\":{\"total_units_2024\":1,\"units_under_threshold_2024\":0,\"voms_2024\":0,\"total_modal_vrm_2024\":0,\"total_modal_upt_2024\":0}}"},"geometry":{"type":"Point","coordinates":[-94.43941400886224,44.29292548772072]}},{"type":"Feature","properties":{"stop_id":"4149555","stop_code":"","platform_code":"","stop_name":"Emerson Union / Courthouse","stop_desc":"","zone_id":"","stop_url":"https://newulmmn.gov/553/Hermann-Express-City-Bus-Service","location_type":"0","parent_station":"","stop_timezone":"America/Chicago","position":"","direction":"","wheelchair_boarding":"0","tts_stop_name":"","feed_id":"Minnesota__Brown_County_Heartland_Express__mdb_mdb-2037","agency_name":"Brown County Heartland Express","route_count":1,"route_ids":"74513","route_short_names":"","route_types":"3","route_type_names":"Bus","routes_json":"[{\"route_id\":\"74513\",\"route_short_name\":\"\",\"route_long_name\":\"Hermann Express\",\"route_type\":\"3\",\"route_type_name\":\"Bus\",\"route_color\":\"009D4F\",\"route_text_color\":\"000000\"}]","metadata_feed_id":"Minnesota__Brown_County_Heartland_Express__mdb_mdb-2037","metadata_agency_names":"Brown County Heartland Express","metadata_ntd_id":"50384","metadata_ntd_match_method":"manual_override","metadata_ntd_agency":"Brown County, dba: Brown County Heartland Express","metadata_ntd_city":"New Ulm","metadata_ntd_state":"MN","metadata_gtfs_route_count":2,"metadata_gtfs_trip_count":17,"metadata_gtfs_shape_count":1,"metadata_gtfs_stop_count":20,"metadata_ntd_agency_voms":8,"metadata_ntd_total_facilities":1,"metadata_ntd_maintenance_facilities":0,"metadata_ntd_passenger_stations":0,"metadata_tam_tier":"Tier II","metadata_route_types_json":"{\"3\":2}","metadata_ntd_facilities_json":"{\"maintenance_facilities\":0,\"administrative_and_other_non_passenger_facilities\":0,\"passenger_stations_and_terminals\":0,\"parking_and_other_passenger_facilities\":1,\"total_facilities\":1,\"bus_transfer_centers\":0,\"elevated_fixed_guideway_stations\":0,\"at_grade_fixed_guideway_stations\":0,\"underground_fixed_guideway_stations\":0,\"simple_at_grade_platform_stations\":0,\"exclusive_grade_separated_platform_stations\":0,\"ferryboat_terminals\":0,\"surface_parking_lots\":0,\"parking_structures\":1}","metadata_tam_modes_json":"{\"Multiple\":{\"total_units_2024\":11,\"units_under_threshold_2024\":5,\"voms_2024\":1,\"total_modal_vrm_2024\":0,\"total_modal_upt_2024\":0},\"DR\":{\"total_units_2024\":1,\"units_under_threshold_2024\":0,\"voms_2024\":0,\"total_modal_vrm_2024\":0,\"total_modal_upt_2024\":0}}"},"geometry":{"type":"Point","coordinates":[-94.46393455829558,44.3121524043615]}},{"type":"Feature","properties":{"stop_id":"4149556","stop_code":"","platform_code":"","stop_name":"Hermann Heights / Martin Luther College","stop_desc":"","zone_id":"","stop_url":"https://newulmmn.gov/553/Hermann-Express-City-Bus-Service","location_type":"0","parent_station":"","stop_timezone":"America/Chicago","position":"","direction":"","wheelchair_boarding":"0","tts_stop_name":"","feed_id":"Minnesota__Brown_County_Heartland_Express__mdb_mdb-2037","agency_name":"Brown County Heartland Express","route_count":1,"route_ids":"74513","route_short_names":"","route_types":"3","route_type_names":"Bus","routes_json":"[{\"route_id\":\"74513\",\"route_short_name\":\"\",\"route_long_name\":\"Hermann Express\",\"route_type\":\"3\",\"route_type_name\":\"Bus\",\"route_color\":\"009D4F\",\"route_text_color\":\"000000\"}]","metadata_feed_id":"Minnesota__Brown_County_Heartland_Express__mdb_mdb-2037","metadata_agency_names":"Brown County Heartland Express","metadata_ntd_id":"50384","metadata_ntd_match_method":"manual_override","metadata_ntd_agency":"Brown County, dba: Brown County Heartland Express","metadata_ntd_city":"New Ulm","metadata_ntd_state":"MN","metadata_gtfs_route_count":2,"metadata_gtfs_trip_count":17,"metadata_gtfs_shape_count":1,"metadata_gtfs_stop_count":20,"metadata_ntd_agency_voms":8,"metadata_ntd_total_facilities":1,"metadata_ntd_maintenance_facilities":0,"metadata_ntd_passenger_stations":0,"metadata_tam_tier":"Tier II","metadata_route_types_json":"{\"3\":2}","metadata_ntd_facilities_json":"{\"maintenance_facilities\":0,\"administrative_and_other_non_passenger_facilities\":0,\"passenger_stations_and_terminals\":0,\"parking_and_other_passenger_facilities\":1,\"total_facilities\":1,\"bus_transfer_centers\":0,\"elevated_fixed_guideway_stations\":0,\"at_grade_fixed_guideway_stations\":0,\"underground_fixed_guideway_stations\":0,\"simple_at_grade_platform_stations\":0,\"exclusive_grade_separated_platform_stations\":0,\"ferryboat_terminals\":0,\"surface_parking_lots\":0,\"parking_structures\":1}","metadata_tam_modes_json":"{\"Multiple\":{\"total_units_2024\":11,\"units_under_threshold_2024\":5,\"voms_2024\":1,\"total_modal_vrm_2024\":0,\"total_modal_upt_2024\":0},\"DR\":{\"total_units_2024\":1,\"units_under_threshold_2024\":0,\"voms_2024\":0,\"total_modal_vrm_2024\":0,\"total_modal_upt_2024\":0}}"},"geometry":{"type":"Point","coordinates":[-94.4732186548907,44.3063995950563]}},{"type":"Feature","properties":{"stop_id":"4149557","stop_code":"","platform_code":"","stop_name":"Highland Regency","stop_desc":"","zone_id":"","stop_url":"https://newulmmn.gov/553/Hermann-Express-City-Bus-Service","location_type":"0","parent_station":"","stop_timezone":"America/Chicago","position":"","direction":"","wheelchair_boarding":"0","tts_stop_name":"","feed_id":"Minnesota__Brown_County_Heartland_Express__mdb_mdb-2037","agency_name":"Brown County Heartland Express","route_count":1,"route_ids":"74513","route_short_names":"","route_types":"3","route_type_names":"Bus","routes_json":"[{\"route_id\":\"74513\",\"route_short_name\":\"\",\"route_long_name\":\"Hermann Express\",\"route_type\":\"3\",\"route_type_name\":\"Bus\",\"route_color\":\"009D4F\",\"route_text_color\":\"000000\"}]","metadata_feed_id":"Minnesota__Brown_County_Heartland_Express__mdb_mdb-2037","metadata_agency_names":"Brown County Heartland Express","metadata_ntd_id":"50384","metadata_ntd_match_method":"manual_override","metadata_ntd_agency":"Brown County, dba: Brown County Heartland Express","metadata_ntd_city":"New Ulm","metadata_ntd_state":"MN","metadata_gtfs_route_count":2,"metadata_gtfs_trip_count":17,"metadata_gtfs_shape_count":1,"metadata_gtfs_stop_count":20,"metadata_ntd_agency_voms":8,"metadata_ntd_total_facilities":1,"metadata_ntd_maintenance_facilities":0,"metadata_ntd_passenger_stations":0,"metadata_tam_tier":"Tier II","metadata_route_types_json":"{\"3\":2}","metadata_ntd_facilities_json":"{\"maintenance_facilities\":0,\"administrative_and_other_non_passenger_facilities\":0,\"passenger_stations_and_terminals\":0,\"parking_and_other_passenger_facilities\":1,\"total_facilities\":1,\"bus_transfer_centers\":0,\"elevated_fixed_guideway_stations\":0,\"at_grade_fixed_guideway_stations\":0,\"underground_fixed_guideway_stations\":0,\"simple_at_grade_platform_stations\":0,\"exclusive_grade_separated_platform_stations\":0,\"ferryboat_terminals\":0,\"surface_parking_lots\":0,\"parking_structures\":1}","metadata_tam_modes_json":"{\"Multiple\":{\"total_units_2024\":11,\"units_under_threshold_2024\":5,\"voms_2024\":1,\"total_modal_vrm_2024\":0,\"total_modal_upt_2024\":0},\"DR\":{\"total_units_2024\":1,\"units_under_threshold_2024\":0,\"voms_2024\":0,\"total_modal_vrm_2024\":0,\"total_modal_upt_2024\":0}}"},"geometry":{"type":"Point","coordinates":[-94.47976430638168,44.3084939606084]}},{"type":"Feature","properties":{"stop_id":"4149558","stop_code":"","platform_code":"","stop_name":"Sunset Apartments","stop_desc":"","zone_id":"","stop_url":"https://newulmmn.gov/553/Hermann-Express-City-Bus-Service","location_type":"0","parent_station":"","stop_timezone":"America/Chicago","position":"","direction":"","wheelchair_boarding":"0","tts_stop_name":"","feed_id":"Minnesota__Brown_County_Heartland_Express__mdb_mdb-2037","agency_name":"Brown County Heartland Express","route_count":1,"route_ids":"74513","route_short_names":"","route_types":"3","route_type_names":"Bus","routes_json":"[{\"route_id\":\"74513\",\"route_short_name\":\"\",\"route_long_name\":\"Hermann Express\",\"route_type\":\"3\",\"route_type_name\":\"Bus\",\"route_color\":\"009D4F\",\"route_text_color\":\"000000\"}]","metadata_feed_id":"Minnesota__Brown_County_Heartland_Express__mdb_mdb-2037","metadata_agency_names":"Brown County Heartland Express","metadata_ntd_id":"50384","metadata_ntd_match_method":"manual_override","metadata_ntd_agency":"Brown County, dba: Brown County Heartland Express","metadata_ntd_city":"New Ulm","metadata_ntd_state":"MN","metadata_gtfs_route_count":2,"metadata_gtfs_trip_count":17,"metadata_gtfs_shape_count":1,"metadata_gtfs_stop_count":20,"metadata_ntd_agency_voms":8,"metadata_ntd_total_facilities":1,"metadata_ntd_maintenance_facilities":0,"metadata_ntd_passenger_stations":0,"metadata_tam_tier":"Tier II","metadata_route_types_json":"{\"3\":2}","metadata_ntd_facilities_json":"{\"maintenance_facilities\":0,\"administrative_and_other_non_passenger_facilities\":0,\"passenger_stations_and_terminals\":0,\"parking_and_other_passenger_facilities\":1,\"total_facilities\":1,\"bus_transfer_centers\":0,\"elevated_fixed_guideway_stations\":0,\"at_grade_fixed_guideway_stations\":0,\"underground_fixed_guideway_stations\":0,\"simple_at_grade_platform_stations\":0,\"exclusive_grade_separated_platform_stations\":0,\"ferryboat_terminals\":0,\"surface_parking_lots\":0,\"parking_structures\":1}","metadata_tam_modes_json":"{\"Multiple\":{\"total_units_2024\":11,\"units_under_threshold_2024\":5,\"voms_2024\":1,\"total_modal_vrm_2024\":0,\"total_modal_upt_2024\":0},\"DR\":{\"total_units_2024\":1,\"units_under_threshold_2024\":0,\"voms_2024\":0,\"total_modal_vrm_2024\":0,\"total_modal_upt_2024\":0}}"},"geometry":{"type":"Point","coordinates":[-94.4814244456242,44.3080735626766]}},{"type":"Feature","properties":{"stop_id":"4149560","stop_code":"","platform_code":"","stop_name":"Cash Wise Foods","stop_desc":"","zone_id":"","stop_url":"https://newulmmn.gov/553/Hermann-Express-City-Bus-Service","location_type":"0","parent_station":"","stop_timezone":"America/Chicago","position":"","direction":"","wheelchair_boarding":"0","tts_stop_name":"","feed_id":"Minnesota__Brown_County_Heartland_Express__mdb_mdb-2037","agency_name":"Brown County Heartland Express","route_count":1,"route_ids":"74513","route_short_names":"","route_types":"3","route_type_names":"Bus","routes_json":"[{\"route_id\":\"74513\",\"route_short_name\":\"\",\"route_long_name\":\"Hermann Express\",\"route_type\":\"3\",\"route_type_name\":\"Bus\",\"route_color\":\"009D4F\",\"route_text_color\":\"000000\"}]","metadata_feed_id":"Minnesota__Brown_County_Heartland_Express__mdb_mdb-2037","metadata_agency_names":"Brown County Heartland Express","metadata_ntd_id":"50384","metadata_ntd_match_method":"manual_override","metadata_ntd_agency":"Brown County, dba: Brown County Heartland Express","metadata_ntd_city":"New Ulm","metadata_ntd_state":"MN","metadata_gtfs_route_count":2,"metadata_gtfs_trip_count":17,"metadata_gtfs_shape_count":1,"metadata_gtfs_stop_count":20,"metadata_ntd_agency_voms":8,"metadata_ntd_total_facilities":1,"metadata_ntd_maintenance_facilities":0,"metadata_ntd_passenger_stations":0,"metadata_tam_tier":"Tier II","metadata_route_types_json":"{\"3\":2}","metadata_ntd_facilities_json":"{\"maintenance_facilities\":0,\"administrative_and_other_non_passenger_facilities\":0,\"passenger_stations_and_terminals\":0,\"parking_and_other_passenger_facilities\":1,\"total_facilities\":1,\"bus_transfer_centers\":0,\"elevated_fixed_guideway_stations\":0,\"at_grade_fixed_guideway_stations\":0,\"underground_fixed_guideway_stations\":0,\"simple_at_grade_platform_stations\":0,\"exclusive_grade_separated_platform_stations\":0,\"ferryboat_terminals\":0,\"surface_parking_lots\":0,\"parking_structures\":1}","metadata_tam_modes_json":"{\"Multiple\":{\"total_units_2024\":11,\"units_under_threshold_2024\":5,\"voms_2024\":1,\"total_modal_vrm_2024\":0,\"total_modal_upt_2024\":0},\"DR\":{\"total_units_2024\":1,\"units_under_threshold_2024\":0,\"voms_2024\":0,\"total_modal_vrm_2024\":0,\"total_modal_upt_2024\":0}}"},"geometry":{"type":"Point","coordinates":[-94.48979197541122,44.32747725039535]}},{"type":"Feature","properties":{"stop_id":"4149561","stop_code":"","platform_code":"","stop_name":"Aldi","stop_desc":"","zone_id":"","stop_url":"https://newulmmn.gov/553/Hermann-Express-City-Bus-Service","location_type":"0","parent_station":"","stop_timezone":"America/Chicago","position":"","direction":"","wheelchair_boarding":"0","tts_stop_name":"","feed_id":"Minnesota__Brown_County_Heartland_Express__mdb_mdb-2037","agency_name":"Brown County Heartland Express","route_count":1,"route_ids":"74513","route_short_names":"","route_types":"3","route_type_names":"Bus","routes_json":"[{\"route_id\":\"74513\",\"route_short_name\":\"\",\"route_long_name\":\"Hermann Express\",\"route_type\":\"3\",\"route_type_name\":\"Bus\",\"route_color\":\"009D4F\",\"route_text_color\":\"000000\"}]","metadata_feed_id":"Minnesota__Brown_County_Heartland_Express__mdb_mdb-2037","metadata_agency_names":"Brown County Heartland Express","metadata_ntd_id":"50384","metadata_ntd_match_method":"manual_override","metadata_ntd_agency":"Brown County, dba: Brown County Heartland Express","metadata_ntd_city":"New Ulm","metadata_ntd_state":"MN","metadata_gtfs_route_count":2,"metadata_gtfs_trip_count":17,"metadata_gtfs_shape_count":1,"metadata_gtfs_stop_count":20,"metadata_ntd_agency_voms":8,"metadata_ntd_total_facilities":1,"metadata_ntd_maintenance_facilities":0,"metadata_ntd_passenger_stations":0,"metadata_tam_tier":"Tier II","metadata_route_types_json":"{\"3\":2}","metadata_ntd_facilities_json":"{\"maintenance_facilities\":0,\"administrative_and_other_non_passenger_facilities\":0,\"passenger_stations_and_terminals\":0,\"parking_and_other_passenger_facilities\":1,\"total_facilities\":1,\"bus_transfer_centers\":0,\"elevated_fixed_guideway_stations\":0,\"at_grade_fixed_guideway_stations\":0,\"underground_fixed_guideway_stations\":0,\"simple_at_grade_platform_stations\":0,\"exclusive_grade_separated_platform_stations\":0,\"ferryboat_terminals\":0,\"surface_parking_lots\":0,\"parking_structures\":1}","metadata_tam_modes_json":"{\"Multiple\":{\"total_units_2024\":11,\"units_under_threshold_2024\":5,\"voms_2024\":1,\"total_modal_vrm_2024\":0,\"total_modal_upt_2024\":0},\"DR\":{\"total_units_2024\":1,\"units_under_threshold_2024\":0,\"voms_2024\":0,\"total_modal_vrm_2024\":0,\"total_modal_upt_2024\":0}}"},"geometry":{"type":"Point","coordinates":[-94.49875934115612,44.32664537262041]}},{"type":"Feature","properties":{"stop_id":"4149562","stop_code":"","platform_code":"","stop_name":"Walmart","stop_desc":"","zone_id":"","stop_url":"https://newulmmn.gov/553/Hermann-Express-City-Bus-Service","location_type":"0","parent_station":"","stop_timezone":"America/Chicago","position":"","direction":"","wheelchair_boarding":"0","tts_stop_name":"","feed_id":"Minnesota__Brown_County_Heartland_Express__mdb_mdb-2037","agency_name":"Brown County Heartland Express","route_count":1,"route_ids":"74513","route_short_names":"","route_types":"3","route_type_names":"Bus","routes_json":"[{\"route_id\":\"74513\",\"route_short_name\":\"\",\"route_long_name\":\"Hermann Express\",\"route_type\":\"3\",\"route_type_name\":\"Bus\",\"route_color\":\"009D4F\",\"route_text_color\":\"000000\"}]","metadata_feed_id":"Minnesota__Brown_County_Heartland_Express__mdb_mdb-2037","metadata_agency_names":"Brown County Heartland Express","metadata_ntd_id":"50384","metadata_ntd_match_method":"manual_override","metadata_ntd_agency":"Brown County, dba: Brown County Heartland Express","metadata_ntd_city":"New Ulm","metadata_ntd_state":"MN","metadata_gtfs_route_count":2,"metadata_gtfs_trip_count":17,"metadata_gtfs_shape_count":1,"metadata_gtfs_stop_count":20,"metadata_ntd_agency_voms":8,"metadata_ntd_total_facilities":1,"metadata_ntd_maintenance_facilities":0,"metadata_ntd_passenger_stations":0,"metadata_tam_tier":"Tier II","metadata_route_types_json":"{\"3\":2}","metadata_ntd_facilities_json":"{\"maintenance_facilities\":0,\"administrative_and_other_non_passenger_facilities\":0,\"passenger_stations_and_terminals\":0,\"parking_and_other_passenger_facilities\":1,\"total_facilities\":1,\"bus_transfer_centers\":0,\"elevated_fixed_guideway_stations\":0,\"at_grade_fixed_guideway_stations\":0,\"underground_fixed_guideway_stations\":0,\"simple_at_grade_platform_stations\":0,\"exclusive_grade_separated_platform_stations\":0,\"ferryboat_terminals\":0,\"surface_parking_lots\":0,\"parking_structures\":1}","metadata_tam_modes_json":"{\"Multiple\":{\"total_units_2024\":11,\"units_under_threshold_2024\":5,\"voms_2024\":1,\"total_modal_vrm_2024\":0,\"total_modal_upt_2024\":0},\"DR\":{\"total_units_2024\":1,\"units_under_threshold_2024\":0,\"voms_2024\":0,\"total_modal_vrm_2024\":0,\"total_modal_upt_2024\":0}}"},"geometry":{"type":"Point","coordinates":[-94.50656548281547,44.32832308147486]}},{"type":"Feature","properties":{"stop_id":"4149563","stop_code":"","platform_code":"","stop_name":"Skyline Terrace / Orchard Hill","stop_desc":"","zone_id":"","stop_url":"https://newulmmn.gov/553/Hermann-Express-City-Bus-Service","location_type":"0","parent_station":"","stop_timezone":"America/Chicago","position":"","direction":"","wheelchair_boarding":"0","tts_stop_name":"","feed_id":"Minnesota__Brown_County_Heartland_Express__mdb_mdb-2037","agency_name":"Brown County Heartland Express","route_count":1,"route_ids":"74513","route_short_names":"","route_types":"3","route_type_names":"Bus","routes_json":"[{\"route_id\":\"74513\",\"route_short_name\":\"\",\"route_long_name\":\"Hermann Express\",\"route_type\":\"3\",\"route_type_name\":\"Bus\",\"route_color\":\"009D4F\",\"route_text_color\":\"000000\"}]","metadata_feed_id":"Minnesota__Brown_County_Heartland_Express__mdb_mdb-2037","metadata_agency_names":"Brown County Heartland Express","metadata_ntd_id":"50384","metadata_ntd_match_method":"manual_override","metadata_ntd_agency":"Brown County, dba: Brown County Heartland Express","metadata_ntd_city":"New Ulm","metadata_ntd_state":"MN","metadata_gtfs_route_count":2,"metadata_gtfs_trip_count":17,"metadata_gtfs_shape_count":1,"metadata_gtfs_stop_count":20,"metadata_ntd_agency_voms":8,"metadata_ntd_total_facilities":1,"metadata_ntd_maintenance_facilities":0,"metadata_ntd_passenger_stations":0,"metadata_tam_tier":"Tier II","metadata_route_types_json":"{\"3\":2}","metadata_ntd_facilities_json":"{\"maintenance_facilities\":0,\"administrative_and_other_non_passenger_facilities\":0,\"passenger_stations_and_terminals\":0,\"parking_and_other_passenger_facilities\":1,\"total_facilities\":1,\"bus_transfer_centers\":0,\"elevated_fixed_guideway_stations\":0,\"at_grade_fixed_guideway_stations\":0,\"underground_fixed_guideway_stations\":0,\"simple_at_grade_platform_stations\":0,\"exclusive_grade_separated_platform_stations\":0,\"ferryboat_terminals\":0,\"surface_parking_lots\":0,\"parking_structures\":1}","metadata_tam_modes_json":"{\"Multiple\":{\"total_units_2024\":11,\"units_under_threshold_2024\":5,\"voms_2024\":1,\"total_modal_vrm_2024\":0,\"total_modal_upt_2024\":0},\"DR\":{\"total_units_2024\":1,\"units_under_threshold_2024\":0,\"voms_2024\":0,\"total_modal_vrm_2024\":0,\"total_modal_upt_2024\":0}}"},"geometry":{"type":"Point","coordinates":[-94.49423665085727,44.330316735600896]}},{"type":"Feature","properties":{"stop_id":"4149564","stop_code":"","platform_code":"","stop_name":"Heartland Express / DMV","stop_desc":"","zone_id":"","stop_url":"https://newulmmn.gov/553/Hermann-Express-City-Bus-Service","location_type":"0","parent_station":"","stop_timezone":"America/Chicago","position":"","direction":"","wheelchair_boarding":"0","tts_stop_name":"","feed_id":"Minnesota__Brown_County_Heartland_Express__mdb_mdb-2037","agency_name":"Brown County Heartland Express","route_count":1,"route_ids":"74513","route_short_names":"","route_types":"3","route_type_names":"Bus","routes_json":"[{\"route_id\":\"74513\",\"route_short_name\":\"\",\"route_long_name\":\"Hermann Express\",\"route_type\":\"3\",\"route_type_name\":\"Bus\",\"route_color\":\"009D4F\",\"route_text_color\":\"000000\"}]","metadata_feed_id":"Minnesota__Brown_County_Heartland_Express__mdb_mdb-2037","metadata_agency_names":"Brown County Heartland Express","metadata_ntd_id":"50384","metadata_ntd_match_method":"manual_override","metadata_ntd_agency":"Brown County, dba: Brown County Heartland Express","metadata_ntd_city":"New Ulm","metadata_ntd_state":"MN","metadata_gtfs_route_count":2,"metadata_gtfs_trip_count":17,"metadata_gtfs_shape_count":1,"metadata_gtfs_stop_count":20,"metadata_ntd_agency_voms":8,"metadata_ntd_total_facilities":1,"metadata_ntd_maintenance_facilities":0,"metadata_ntd_passenger_stations":0,"metadata_tam_tier":"Tier II","metadata_route_types_json":"{\"3\":2}","metadata_ntd_facilities_json":"{\"maintenance_facilities\":0,\"administrative_and_other_non_passenger_facilities\":0,\"passenger_stations_and_terminals\":0,\"parking_and_other_passenger_facilities\":1,\"total_facilities\":1,\"bus_transfer_centers\":0,\"elevated_fixed_guideway_stations\":0,\"at_grade_fixed_guideway_stations\":0,\"underground_fixed_guideway_stations\":0,\"simple_at_grade_platform_stations\":0,\"exclusive_grade_separated_platform_stations\":0,\"ferryboat_terminals\":0,\"surface_parking_lots\":0,\"parking_structures\":1}","metadata_tam_modes_json":"{\"Multiple\":{\"total_units_2024\":11,\"units_under_threshold_2024\":5,\"voms_2024\":1,\"total_modal_vrm_2024\":0,\"total_modal_upt_2024\":0},\"DR\":{\"total_units_2024\":1,\"units_under_threshold_2024\":0,\"voms_2024\":0,\"total_modal_vrm_2024\":0,\"total_modal_upt_2024\":0}}"},"geometry":{"type":"Point","coordinates":[-94.48215531314337,44.329851585233335]}},{"type":"Feature","properties":{"stop_id":"4210601","stop_code":"","platform_code":"","stop_name":"Ridgeway on 23rd / Traulich Estates","stop_desc":"","zone_id":"","stop_url":"","location_type":"0","parent_station":"","stop_timezone":"America/Chicago","position":"","direction":"","wheelchair_boarding":"0","tts_stop_name":"","feed_id":"Minnesota__Brown_County_Heartland_Express__mdb_mdb-2037","agency_name":"Brown County Heartland Express","route_count":1,"route_ids":"74513","route_short_names":"","route_types":"3","route_type_names":"Bus","routes_json":"[{\"route_id\":\"74513\",\"route_short_name\":\"\",\"route_long_name\":\"Hermann Express\",\"route_type\":\"3\",\"route_type_name\":\"Bus\",\"route_color\":\"009D4F\",\"route_text_color\":\"000000\"}]","metadata_feed_id":"Minnesota__Brown_County_Heartland_Express__mdb_mdb-2037","metadata_agency_names":"Brown County Heartland Express","metadata_ntd_id":"50384","metadata_ntd_match_method":"manual_override","metadata_ntd_agency":"Brown County, dba: Brown County Heartland Express","metadata_ntd_city":"New Ulm","metadata_ntd_state":"MN","metadata_gtfs_route_count":2,"metadata_gtfs_trip_count":17,"metadata_gtfs_shape_count":1,"metadata_gtfs_stop_count":20,"metadata_ntd_agency_voms":8,"metadata_ntd_total_facilities":1,"metadata_ntd_maintenance_facilities":0,"metadata_ntd_passenger_stations":0,"metadata_tam_tier":"Tier II","metadata_route_types_json":"{\"3\":2}","metadata_ntd_facilities_json":"{\"maintenance_facilities\":0,\"administrative_and_other_non_passenger_facilities\":0,\"passenger_stations_and_terminals\":0,\"parking_and_other_passenger_facilities\":1,\"total_facilities\":1,\"bus_transfer_centers\":0,\"elevated_fixed_guideway_stations\":0,\"at_grade_fixed_guideway_stations\":0,\"underground_fixed_guideway_stations\":0,\"simple_at_grade_platform_stations\":0,\"exclusive_grade_separated_platform_stations\":0,\"ferryboat_terminals\":0,\"surface_parking_lots\":0,\"parking_structures\":1}","metadata_tam_modes_json":"{\"Multiple\":{\"total_units_2024\":11,\"units_under_threshold_2024\":5,\"voms_2024\":1,\"total_modal_vrm_2024\":0,\"total_modal_upt_2024\":0},\"DR\":{\"total_units_2024\":1,\"units_under_threshold_2024\":0,\"voms_2024\":0,\"total_modal_vrm_2024\":0,\"total_modal_upt_2024\":0}}"},"geometry":{"type":"Point","coordinates":[-94.4905727129149,44.3393958836996]}}],"metadata":{"feed_id":"Minnesota__Brown_County_Heartland_Express__mdb_mdb-2037","ntd_id":"50384","feature_metadata_embedded":true}}