{"type":"FeatureCollection","features":[{"type":"Feature","properties":{"stop_id":"4206434","stop_code":"","platform_code":"","stop_name":"Penrose","stop_desc":"","zone_id":"","stop_url":"","location_type":"0","parent_station":"","stop_timezone":"America/Denver","position":"","direction":"","wheelchair_boarding":"0","tts_stop_name":"","feed_id":"Colorado__Upper_Arkansas_Area_Council_of_Governments__mdb_mdb-2188","agency_name":"Fremont County Transit | Wet Mountain Valley Rotary Van Service","route_count":0,"route_ids":"","route_short_names":"","route_types":"","route_type_names":"","routes_json":"[]","metadata_feed_id":"Colorado__Upper_Arkansas_Area_Council_of_Governments__mdb_mdb-2188","metadata_agency_names":"Fremont County Transit | Wet Mountain Valley Rotary Van Service","metadata_ntd_id":"80274","metadata_ntd_match_method":"manual_override","metadata_ntd_agency":"Canon City Golden Age Council, Inc, dba: Fremont County Transit","metadata_ntd_city":"Canon City","metadata_ntd_state":"CO","metadata_gtfs_route_count":2,"metadata_gtfs_trip_count":4,"metadata_gtfs_shape_count":4,"metadata_gtfs_stop_count":6,"metadata_ntd_agency_voms":9,"metadata_ntd_total_facilities":0,"metadata_ntd_maintenance_facilities":0,"metadata_ntd_passenger_stations":0,"metadata_tam_tier":"Tier II","metadata_route_types_json":"{\"3\":2}","metadata_ntd_facilities_json":"{\"maintenance_facilities\":0,\"administrative_and_other_non_passenger_facilities\":0,\"passenger_stations_and_terminals\":0,\"parking_and_other_passenger_facilities\":0,\"total_facilities\":0,\"bus_transfer_centers\":null,\"elevated_fixed_guideway_stations\":null,\"at_grade_fixed_guideway_stations\":null,\"underground_fixed_guideway_stations\":null,\"simple_at_grade_platform_stations\":null,\"exclusive_grade_separated_platform_stations\":null,\"ferryboat_terminals\":null,\"surface_parking_lots\":null,\"parking_structures\":null}","metadata_tam_modes_json":"{\"DR\":{\"total_units_2024\":9,\"units_under_threshold_2024\":4,\"voms_2024\":27,\"total_modal_vrm_2024\":259119,\"total_modal_upt_2024\":21681}}"},"geometry":{"type":"Point","coordinates":[-105.02436948342029,38.42078216778442]}},{"type":"Feature","properties":{"stop_id":"4206435","stop_code":"","platform_code":"","stop_name":"Cañon City","stop_desc":"","zone_id":"","stop_url":"","location_type":"0","parent_station":"","stop_timezone":"America/Denver","position":"","direction":"","wheelchair_boarding":"0","tts_stop_name":"","feed_id":"Colorado__Upper_Arkansas_Area_Council_of_Governments__mdb_mdb-2188","agency_name":"Fremont County Transit | Wet Mountain Valley Rotary Van Service","route_count":0,"route_ids":"","route_short_names":"","route_types":"","route_type_names":"","routes_json":"[]","metadata_feed_id":"Colorado__Upper_Arkansas_Area_Council_of_Governments__mdb_mdb-2188","metadata_agency_names":"Fremont County Transit | Wet Mountain Valley Rotary Van Service","metadata_ntd_id":"80274","metadata_ntd_match_method":"manual_override","metadata_ntd_agency":"Canon City Golden Age Council, Inc, dba: Fremont County Transit","metadata_ntd_city":"Canon City","metadata_ntd_state":"CO","metadata_gtfs_route_count":2,"metadata_gtfs_trip_count":4,"metadata_gtfs_shape_count":4,"metadata_gtfs_stop_count":6,"metadata_ntd_agency_voms":9,"metadata_ntd_total_facilities":0,"metadata_ntd_maintenance_facilities":0,"metadata_ntd_passenger_stations":0,"metadata_tam_tier":"Tier II","metadata_route_types_json":"{\"3\":2}","metadata_ntd_facilities_json":"{\"maintenance_facilities\":0,\"administrative_and_other_non_passenger_facilities\":0,\"passenger_stations_and_terminals\":0,\"parking_and_other_passenger_facilities\":0,\"total_facilities\":0,\"bus_transfer_centers\":null,\"elevated_fixed_guideway_stations\":null,\"at_grade_fixed_guideway_stations\":null,\"underground_fixed_guideway_stations\":null,\"simple_at_grade_platform_stations\":null,\"exclusive_grade_separated_platform_stations\":null,\"ferryboat_terminals\":null,\"surface_parking_lots\":null,\"parking_structures\":null}","metadata_tam_modes_json":"{\"DR\":{\"total_units_2024\":9,\"units_under_threshold_2024\":4,\"voms_2024\":27,\"total_modal_vrm_2024\":259119,\"total_modal_upt_2024\":21681}}"},"geometry":{"type":"Point","coordinates":[-105.23474804025832,38.44953933751561]}},{"type":"Feature","properties":{"stop_id":"4206436","stop_code":"","platform_code":"","stop_name":"Florence","stop_desc":"","zone_id":"","stop_url":"","location_type":"0","parent_station":"","stop_timezone":"America/Denver","position":"","direction":"","wheelchair_boarding":"0","tts_stop_name":"","feed_id":"Colorado__Upper_Arkansas_Area_Council_of_Governments__mdb_mdb-2188","agency_name":"Fremont County Transit | Wet Mountain Valley Rotary Van Service","route_count":0,"route_ids":"","route_short_names":"","route_types":"","route_type_names":"","routes_json":"[]","metadata_feed_id":"Colorado__Upper_Arkansas_Area_Council_of_Governments__mdb_mdb-2188","metadata_agency_names":"Fremont County Transit | Wet Mountain Valley Rotary Van Service","metadata_ntd_id":"80274","metadata_ntd_match_method":"manual_override","metadata_ntd_agency":"Canon City Golden Age Council, Inc, dba: Fremont County Transit","metadata_ntd_city":"Canon City","metadata_ntd_state":"CO","metadata_gtfs_route_count":2,"metadata_gtfs_trip_count":4,"metadata_gtfs_shape_count":4,"metadata_gtfs_stop_count":6,"metadata_ntd_agency_voms":9,"metadata_ntd_total_facilities":0,"metadata_ntd_maintenance_facilities":0,"metadata_ntd_passenger_stations":0,"metadata_tam_tier":"Tier II","metadata_route_types_json":"{\"3\":2}","metadata_ntd_facilities_json":"{\"maintenance_facilities\":0,\"administrative_and_other_non_passenger_facilities\":0,\"passenger_stations_and_terminals\":0,\"parking_and_other_passenger_facilities\":0,\"total_facilities\":0,\"bus_transfer_centers\":null,\"elevated_fixed_guideway_stations\":null,\"at_grade_fixed_guideway_stations\":null,\"underground_fixed_guideway_stations\":null,\"simple_at_grade_platform_stations\":null,\"exclusive_grade_separated_platform_stations\":null,\"ferryboat_terminals\":null,\"surface_parking_lots\":null,\"parking_structures\":null}","metadata_tam_modes_json":"{\"DR\":{\"total_units_2024\":9,\"units_under_threshold_2024\":4,\"voms_2024\":27,\"total_modal_vrm_2024\":259119,\"total_modal_upt_2024\":21681}}"},"geometry":{"type":"Point","coordinates":[-105.12602596782718,38.3944546718548]}},{"type":"Feature","properties":{"stop_id":"4206438","stop_code":"","platform_code":"","stop_name":"Westcliffe","stop_desc":"","zone_id":"","stop_url":"","location_type":"0","parent_station":"","stop_timezone":"America/Denver","position":"","direction":"","wheelchair_boarding":"0","tts_stop_name":"","feed_id":"Colorado__Upper_Arkansas_Area_Council_of_Governments__mdb_mdb-2188","agency_name":"Fremont County Transit | Wet Mountain Valley Rotary Van Service","route_count":0,"route_ids":"","route_short_names":"","route_types":"","route_type_names":"","routes_json":"[]","metadata_feed_id":"Colorado__Upper_Arkansas_Area_Council_of_Governments__mdb_mdb-2188","metadata_agency_names":"Fremont County Transit | Wet Mountain Valley Rotary Van Service","metadata_ntd_id":"80274","metadata_ntd_match_method":"manual_override","metadata_ntd_agency":"Canon City Golden Age Council, Inc, dba: Fremont County Transit","metadata_ntd_city":"Canon City","metadata_ntd_state":"CO","metadata_gtfs_route_count":2,"metadata_gtfs_trip_count":4,"metadata_gtfs_shape_count":4,"metadata_gtfs_stop_count":6,"metadata_ntd_agency_voms":9,"metadata_ntd_total_facilities":0,"metadata_ntd_maintenance_facilities":0,"metadata_ntd_passenger_stations":0,"metadata_tam_tier":"Tier II","metadata_route_types_json":"{\"3\":2}","metadata_ntd_facilities_json":"{\"maintenance_facilities\":0,\"administrative_and_other_non_passenger_facilities\":0,\"passenger_stations_and_terminals\":0,\"parking_and_other_passenger_facilities\":0,\"total_facilities\":0,\"bus_transfer_centers\":null,\"elevated_fixed_guideway_stations\":null,\"at_grade_fixed_guideway_stations\":null,\"underground_fixed_guideway_stations\":null,\"simple_at_grade_platform_stations\":null,\"exclusive_grade_separated_platform_stations\":null,\"ferryboat_terminals\":null,\"surface_parking_lots\":null,\"parking_structures\":null}","metadata_tam_modes_json":"{\"DR\":{\"total_units_2024\":9,\"units_under_threshold_2024\":4,\"voms_2024\":27,\"total_modal_vrm_2024\":259119,\"total_modal_upt_2024\":21681}}"},"geometry":{"type":"Point","coordinates":[-105.46346486926696,38.13336974294547]}},{"type":"Feature","properties":{"stop_id":"4206439","stop_code":"","platform_code":"","stop_name":"Colorado Springs","stop_desc":"","zone_id":"","stop_url":"","location_type":"0","parent_station":"","stop_timezone":"America/Denver","position":"","direction":"","wheelchair_boarding":"0","tts_stop_name":"","feed_id":"Colorado__Upper_Arkansas_Area_Council_of_Governments__mdb_mdb-2188","agency_name":"Fremont County Transit | Wet Mountain Valley Rotary Van Service","route_count":0,"route_ids":"","route_short_names":"","route_types":"","route_type_names":"","routes_json":"[]","metadata_feed_id":"Colorado__Upper_Arkansas_Area_Council_of_Governments__mdb_mdb-2188","metadata_agency_names":"Fremont County Transit | Wet Mountain Valley Rotary Van Service","metadata_ntd_id":"80274","metadata_ntd_match_method":"manual_override","metadata_ntd_agency":"Canon City Golden Age Council, Inc, dba: Fremont County Transit","metadata_ntd_city":"Canon City","metadata_ntd_state":"CO","metadata_gtfs_route_count":2,"metadata_gtfs_trip_count":4,"metadata_gtfs_shape_count":4,"metadata_gtfs_stop_count":6,"metadata_ntd_agency_voms":9,"metadata_ntd_total_facilities":0,"metadata_ntd_maintenance_facilities":0,"metadata_ntd_passenger_stations":0,"metadata_tam_tier":"Tier II","metadata_route_types_json":"{\"3\":2}","metadata_ntd_facilities_json":"{\"maintenance_facilities\":0,\"administrative_and_other_non_passenger_facilities\":0,\"passenger_stations_and_terminals\":0,\"parking_and_other_passenger_facilities\":0,\"total_facilities\":0,\"bus_transfer_centers\":null,\"elevated_fixed_guideway_stations\":null,\"at_grade_fixed_guideway_stations\":null,\"underground_fixed_guideway_stations\":null,\"simple_at_grade_platform_stations\":null,\"exclusive_grade_separated_platform_stations\":null,\"ferryboat_terminals\":null,\"surface_parking_lots\":null,\"parking_structures\":null}","metadata_tam_modes_json":"{\"DR\":{\"total_units_2024\":9,\"units_under_threshold_2024\":4,\"voms_2024\":27,\"total_modal_vrm_2024\":259119,\"total_modal_upt_2024\":21681}}"},"geometry":{"type":"Point","coordinates":[-104.8325696034231,38.83694649838654]}},{"type":"Feature","properties":{"stop_id":"4206440","stop_code":"","platform_code":"","stop_name":"Pueblo","stop_desc":"","zone_id":"","stop_url":"","location_type":"0","parent_station":"","stop_timezone":"America/Denver","position":"","direction":"","wheelchair_boarding":"0","tts_stop_name":"","feed_id":"Colorado__Upper_Arkansas_Area_Council_of_Governments__mdb_mdb-2188","agency_name":"Fremont County Transit | Wet Mountain Valley Rotary Van Service","route_count":0,"route_ids":"","route_short_names":"","route_types":"","route_type_names":"","routes_json":"[]","metadata_feed_id":"Colorado__Upper_Arkansas_Area_Council_of_Governments__mdb_mdb-2188","metadata_agency_names":"Fremont County Transit | Wet Mountain Valley Rotary Van Service","metadata_ntd_id":"80274","metadata_ntd_match_method":"manual_override","metadata_ntd_agency":"Canon City Golden Age Council, Inc, dba: Fremont County Transit","metadata_ntd_city":"Canon City","metadata_ntd_state":"CO","metadata_gtfs_route_count":2,"metadata_gtfs_trip_count":4,"metadata_gtfs_shape_count":4,"metadata_gtfs_stop_count":6,"metadata_ntd_agency_voms":9,"metadata_ntd_total_facilities":0,"metadata_ntd_maintenance_facilities":0,"metadata_ntd_passenger_stations":0,"metadata_tam_tier":"Tier II","metadata_route_types_json":"{\"3\":2}","metadata_ntd_facilities_json":"{\"maintenance_facilities\":0,\"administrative_and_other_non_passenger_facilities\":0,\"passenger_stations_and_terminals\":0,\"parking_and_other_passenger_facilities\":0,\"total_facilities\":0,\"bus_transfer_centers\":null,\"elevated_fixed_guideway_stations\":null,\"at_grade_fixed_guideway_stations\":null,\"underground_fixed_guideway_stations\":null,\"simple_at_grade_platform_stations\":null,\"exclusive_grade_separated_platform_stations\":null,\"ferryboat_terminals\":null,\"surface_parking_lots\":null,\"parking_structures\":null}","metadata_tam_modes_json":"{\"DR\":{\"total_units_2024\":9,\"units_under_threshold_2024\":4,\"voms_2024\":27,\"total_modal_vrm_2024\":259119,\"total_modal_upt_2024\":21681}}"},"geometry":{"type":"Point","coordinates":[-104.61238466821588,38.27098230562935]}}],"metadata":{"feed_id":"Colorado__Upper_Arkansas_Area_Council_of_Governments__mdb_mdb-2188","ntd_id":"80274","feature_metadata_embedded":true}}