{"type":"FeatureCollection","features":[{"type":"Feature","properties":{"stop_id":"4161142","stop_code":"","platform_code":"","stop_name":"Routt County, CO, USA","stop_desc":"","zone_id":"","stop_url":"","location_type":"0","parent_station":"","stop_timezone":"America/Denver","position":"","direction":"","wheelchair_boarding":"0","tts_stop_name":"","feed_id":"Colorado__Routt_County_Council_on_Aging_(RCCOCA)_Transportation__mdb_mdb-2178","agency_name":"RCCOA Transportation","route_count":0,"route_ids":"","route_short_names":"","route_types":"","route_type_names":"","routes_json":"[]","metadata_feed_id":"Colorado__Routt_County_Council_on_Aging_(RCCOCA)_Transportation__mdb_mdb-2178","metadata_agency_names":"RCCOA Transportation","metadata_ntd_id":"88292","metadata_ntd_match_method":"manual_override","metadata_ntd_agency":"Routt County Council on Aging","metadata_ntd_city":"Steamboat Springs","metadata_ntd_state":"CO","metadata_gtfs_route_count":1,"metadata_gtfs_trip_count":3,"metadata_gtfs_shape_count":2,"metadata_gtfs_stop_count":5,"metadata_ntd_total_facilities":0,"metadata_ntd_maintenance_facilities":0,"metadata_ntd_passenger_stations":0,"metadata_tam_tier":"Tier II","metadata_route_types_json":"{\"3\":1}","metadata_ntd_facilities_json":"{\"maintenance_facilities\":0,\"administrative_and_other_non_passenger_facilities\":0,\"passenger_stations_and_terminals\":0,\"parking_and_other_passenger_facilities\":0,\"total_facilities\":0,\"bus_transfer_centers\":null,\"elevated_fixed_guideway_stations\":null,\"at_grade_fixed_guideway_stations\":null,\"underground_fixed_guideway_stations\":null,\"simple_at_grade_platform_stations\":null,\"exclusive_grade_separated_platform_stations\":null,\"ferryboat_terminals\":null,\"surface_parking_lots\":null,\"parking_structures\":null}","metadata_tam_modes_json":"{\"DR\":{\"total_units_2024\":3,\"units_under_threshold_2024\":1,\"voms_2024\":0,\"total_modal_vrm_2024\":0,\"total_modal_upt_2024\":0}}"},"geometry":{"type":"Point","coordinates":[-106.998945,40.531086]}},{"type":"Feature","properties":{"stop_id":"4230618","stop_code":"","platform_code":"","stop_name":"Steamboat Springs, CO, USA","stop_desc":"","zone_id":"","stop_url":"","location_type":"0","parent_station":"","stop_timezone":"America/Denver","position":"","direction":"","wheelchair_boarding":"0","tts_stop_name":"","feed_id":"Colorado__Routt_County_Council_on_Aging_(RCCOCA)_Transportation__mdb_mdb-2178","agency_name":"RCCOA Transportation","route_count":0,"route_ids":"","route_short_names":"","route_types":"","route_type_names":"","routes_json":"[]","metadata_feed_id":"Colorado__Routt_County_Council_on_Aging_(RCCOCA)_Transportation__mdb_mdb-2178","metadata_agency_names":"RCCOA Transportation","metadata_ntd_id":"88292","metadata_ntd_match_method":"manual_override","metadata_ntd_agency":"Routt County Council on Aging","metadata_ntd_city":"Steamboat Springs","metadata_ntd_state":"CO","metadata_gtfs_route_count":1,"metadata_gtfs_trip_count":3,"metadata_gtfs_shape_count":2,"metadata_gtfs_stop_count":5,"metadata_ntd_total_facilities":0,"metadata_ntd_maintenance_facilities":0,"metadata_ntd_passenger_stations":0,"metadata_tam_tier":"Tier II","metadata_route_types_json":"{\"3\":1}","metadata_ntd_facilities_json":"{\"maintenance_facilities\":0,\"administrative_and_other_non_passenger_facilities\":0,\"passenger_stations_and_terminals\":0,\"parking_and_other_passenger_facilities\":0,\"total_facilities\":0,\"bus_transfer_centers\":null,\"elevated_fixed_guideway_stations\":null,\"at_grade_fixed_guideway_stations\":null,\"underground_fixed_guideway_stations\":null,\"simple_at_grade_platform_stations\":null,\"exclusive_grade_separated_platform_stations\":null,\"ferryboat_terminals\":null,\"surface_parking_lots\":null,\"parking_structures\":null}","metadata_tam_modes_json":"{\"DR\":{\"total_units_2024\":3,\"units_under_threshold_2024\":1,\"voms_2024\":0,\"total_modal_vrm_2024\":0,\"total_modal_upt_2024\":0}}"},"geometry":{"type":"Point","coordinates":[-106.813604,40.469959]}},{"type":"Feature","properties":{"stop_id":"4230619","stop_code":"","platform_code":"","stop_name":"Hayden, CO, USA","stop_desc":"","zone_id":"","stop_url":"","location_type":"0","parent_station":"","stop_timezone":"America/Denver","position":"","direction":"","wheelchair_boarding":"0","tts_stop_name":"","feed_id":"Colorado__Routt_County_Council_on_Aging_(RCCOCA)_Transportation__mdb_mdb-2178","agency_name":"RCCOA Transportation","route_count":0,"route_ids":"","route_short_names":"","route_types":"","route_type_names":"","routes_json":"[]","metadata_feed_id":"Colorado__Routt_County_Council_on_Aging_(RCCOCA)_Transportation__mdb_mdb-2178","metadata_agency_names":"RCCOA Transportation","metadata_ntd_id":"88292","metadata_ntd_match_method":"manual_override","metadata_ntd_agency":"Routt County Council on Aging","metadata_ntd_city":"Steamboat Springs","metadata_ntd_state":"CO","metadata_gtfs_route_count":1,"metadata_gtfs_trip_count":3,"metadata_gtfs_shape_count":2,"metadata_gtfs_stop_count":5,"metadata_ntd_total_facilities":0,"metadata_ntd_maintenance_facilities":0,"metadata_ntd_passenger_stations":0,"metadata_tam_tier":"Tier II","metadata_route_types_json":"{\"3\":1}","metadata_ntd_facilities_json":"{\"maintenance_facilities\":0,\"administrative_and_other_non_passenger_facilities\":0,\"passenger_stations_and_terminals\":0,\"parking_and_other_passenger_facilities\":0,\"total_facilities\":0,\"bus_transfer_centers\":null,\"elevated_fixed_guideway_stations\":null,\"at_grade_fixed_guideway_stations\":null,\"underground_fixed_guideway_stations\":null,\"simple_at_grade_platform_stations\":null,\"exclusive_grade_separated_platform_stations\":null,\"ferryboat_terminals\":null,\"surface_parking_lots\":null,\"parking_structures\":null}","metadata_tam_modes_json":"{\"DR\":{\"total_units_2024\":3,\"units_under_threshold_2024\":1,\"voms_2024\":0,\"total_modal_vrm_2024\":0,\"total_modal_upt_2024\":0}}"},"geometry":{"type":"Point","coordinates":[-107.2593758389892,40.49315905668794]}},{"type":"Feature","properties":{"stop_id":"4230620","stop_code":"","platform_code":"","stop_name":"Oak Creek, CO, USA","stop_desc":"","zone_id":"","stop_url":"","location_type":"0","parent_station":"","stop_timezone":"America/Denver","position":"","direction":"","wheelchair_boarding":"0","tts_stop_name":"","feed_id":"Colorado__Routt_County_Council_on_Aging_(RCCOCA)_Transportation__mdb_mdb-2178","agency_name":"RCCOA Transportation","route_count":0,"route_ids":"","route_short_names":"","route_types":"","route_type_names":"","routes_json":"[]","metadata_feed_id":"Colorado__Routt_County_Council_on_Aging_(RCCOCA)_Transportation__mdb_mdb-2178","metadata_agency_names":"RCCOA Transportation","metadata_ntd_id":"88292","metadata_ntd_match_method":"manual_override","metadata_ntd_agency":"Routt County Council on Aging","metadata_ntd_city":"Steamboat Springs","metadata_ntd_state":"CO","metadata_gtfs_route_count":1,"metadata_gtfs_trip_count":3,"metadata_gtfs_shape_count":2,"metadata_gtfs_stop_count":5,"metadata_ntd_total_facilities":0,"metadata_ntd_maintenance_facilities":0,"metadata_ntd_passenger_stations":0,"metadata_tam_tier":"Tier II","metadata_route_types_json":"{\"3\":1}","metadata_ntd_facilities_json":"{\"maintenance_facilities\":0,\"administrative_and_other_non_passenger_facilities\":0,\"passenger_stations_and_terminals\":0,\"parking_and_other_passenger_facilities\":0,\"total_facilities\":0,\"bus_transfer_centers\":null,\"elevated_fixed_guideway_stations\":null,\"at_grade_fixed_guideway_stations\":null,\"underground_fixed_guideway_stations\":null,\"simple_at_grade_platform_stations\":null,\"exclusive_grade_separated_platform_stations\":null,\"ferryboat_terminals\":null,\"surface_parking_lots\":null,\"parking_structures\":null}","metadata_tam_modes_json":"{\"DR\":{\"total_units_2024\":3,\"units_under_threshold_2024\":1,\"voms_2024\":0,\"total_modal_vrm_2024\":0,\"total_modal_upt_2024\":0}}"},"geometry":{"type":"Point","coordinates":[-106.957797,40.273659]}},{"type":"Feature","properties":{"stop_id":"4230621","stop_code":"","platform_code":"","stop_name":"Yampa, CO, USA","stop_desc":"","zone_id":"","stop_url":"","location_type":"0","parent_station":"","stop_timezone":"America/Denver","position":"","direction":"","wheelchair_boarding":"0","tts_stop_name":"","feed_id":"Colorado__Routt_County_Council_on_Aging_(RCCOCA)_Transportation__mdb_mdb-2178","agency_name":"RCCOA Transportation","route_count":0,"route_ids":"","route_short_names":"","route_types":"","route_type_names":"","routes_json":"[]","metadata_feed_id":"Colorado__Routt_County_Council_on_Aging_(RCCOCA)_Transportation__mdb_mdb-2178","metadata_agency_names":"RCCOA Transportation","metadata_ntd_id":"88292","metadata_ntd_match_method":"manual_override","metadata_ntd_agency":"Routt County Council on Aging","metadata_ntd_city":"Steamboat Springs","metadata_ntd_state":"CO","metadata_gtfs_route_count":1,"metadata_gtfs_trip_count":3,"metadata_gtfs_shape_count":2,"metadata_gtfs_stop_count":5,"metadata_ntd_total_facilities":0,"metadata_ntd_maintenance_facilities":0,"metadata_ntd_passenger_stations":0,"metadata_tam_tier":"Tier II","metadata_route_types_json":"{\"3\":1}","metadata_ntd_facilities_json":"{\"maintenance_facilities\":0,\"administrative_and_other_non_passenger_facilities\":0,\"passenger_stations_and_terminals\":0,\"parking_and_other_passenger_facilities\":0,\"total_facilities\":0,\"bus_transfer_centers\":null,\"elevated_fixed_guideway_stations\":null,\"at_grade_fixed_guideway_stations\":null,\"underground_fixed_guideway_stations\":null,\"simple_at_grade_platform_stations\":null,\"exclusive_grade_separated_platform_stations\":null,\"ferryboat_terminals\":null,\"surface_parking_lots\":null,\"parking_structures\":null}","metadata_tam_modes_json":"{\"DR\":{\"total_units_2024\":3,\"units_under_threshold_2024\":1,\"voms_2024\":0,\"total_modal_vrm_2024\":0,\"total_modal_upt_2024\":0}}"},"geometry":{"type":"Point","coordinates":[-106.908387,40.152201]}}],"metadata":{"feed_id":"Colorado__Routt_County_Council_on_Aging_(RCCOCA)_Transportation__mdb_mdb-2178","ntd_id":"88292","feature_metadata_embedded":true}}