{"type":"FeatureCollection","features":[{"type":"Feature","properties":{"stop_id":"2484427","stop_code":"","stop_name":"Basin Street (Astoria Riverwalk Inn)","stop_desc":"","zone_id":"","stop_url":"","location_type":"0","parent_station":"","stop_timezone":"America/Los_Angeles","wheelchair_boarding":"0","platform_code":"","tts_stop_name":"","feed_id":"Oregon__Astoria_Riverfront_Trolley__mdb_mdb-1254","agency_name":"Astoria Riverfront Trolley","route_count":1,"route_ids":"11770","route_short_names":"","route_types":"11","route_type_names":"Trolleybus","routes_json":"[{\"route_id\":\"11770\",\"route_short_name\":\"\",\"route_long_name\":\"Riverfront Trolley\",\"route_type\":\"11\",\"route_type_name\":\"Trolleybus\",\"route_color\":\"BE022A\",\"route_text_color\":\"FFFFFF\"}]","metadata_feed_id":"Oregon__Astoria_Riverfront_Trolley__mdb_mdb-1254","metadata_agency_names":"Astoria Riverfront Trolley","metadata_ntd_id":"70057","metadata_ntd_match_method":"manual_override","metadata_ntd_agency":"Loop Trolley Transportation Development District","metadata_ntd_city":"Saint Louis","metadata_ntd_state":"MO","metadata_gtfs_route_count":1,"metadata_gtfs_trip_count":18,"metadata_gtfs_shape_count":2,"metadata_gtfs_stop_count":12,"metadata_ntd_agency_voms":1,"metadata_ntd_total_facilities":14,"metadata_ntd_maintenance_facilities":0,"metadata_ntd_passenger_stations":13,"metadata_tam_tier":"Tier I (Rail)","metadata_service_area_sq_miles":5,"metadata_service_area_population":50580,"metadata_route_types_json":"{\"11\":1}","metadata_ntd_facilities_json":"{\"maintenance_facilities\":0,\"administrative_and_other_non_passenger_facilities\":1,\"passenger_stations_and_terminals\":13,\"parking_and_other_passenger_facilities\":0,\"total_facilities\":14,\"bus_transfer_centers\":0,\"elevated_fixed_guideway_stations\":0,\"at_grade_fixed_guideway_stations\":0,\"underground_fixed_guideway_stations\":0,\"simple_at_grade_platform_stations\":13,\"exclusive_grade_separated_platform_stations\":0,\"ferryboat_terminals\":0,\"surface_parking_lots\":0,\"parking_structures\":0}","metadata_tam_modes_json":"{\"SR\":{\"total_units_2024\":20.1,\"units_under_threshold_2024\":0,\"voms_2024\":1,\"total_modal_vrm_2024\":6614,\"total_modal_upt_2024\":24696}}"},"geometry":{"type":"Point","coordinates":[-123.8533740665317,46.18831385784847]}},{"type":"Feature","properties":{"stop_id":"2484428","stop_code":"","stop_name":"Bay Street (Maritime Memorial Park)","stop_desc":"","zone_id":"","stop_url":"","location_type":"0","parent_station":"","stop_timezone":"America/Los_Angeles","wheelchair_boarding":"0","platform_code":"","tts_stop_name":"","feed_id":"Oregon__Astoria_Riverfront_Trolley__mdb_mdb-1254","agency_name":"Astoria Riverfront Trolley","route_count":1,"route_ids":"11770","route_short_names":"","route_types":"11","route_type_names":"Trolleybus","routes_json":"[{\"route_id\":\"11770\",\"route_short_name\":\"\",\"route_long_name\":\"Riverfront Trolley\",\"route_type\":\"11\",\"route_type_name\":\"Trolleybus\",\"route_color\":\"BE022A\",\"route_text_color\":\"FFFFFF\"}]","metadata_feed_id":"Oregon__Astoria_Riverfront_Trolley__mdb_mdb-1254","metadata_agency_names":"Astoria Riverfront Trolley","metadata_ntd_id":"70057","metadata_ntd_match_method":"manual_override","metadata_ntd_agency":"Loop Trolley Transportation Development District","metadata_ntd_city":"Saint Louis","metadata_ntd_state":"MO","metadata_gtfs_route_count":1,"metadata_gtfs_trip_count":18,"metadata_gtfs_shape_count":2,"metadata_gtfs_stop_count":12,"metadata_ntd_agency_voms":1,"metadata_ntd_total_facilities":14,"metadata_ntd_maintenance_facilities":0,"metadata_ntd_passenger_stations":13,"metadata_tam_tier":"Tier I (Rail)","metadata_service_area_sq_miles":5,"metadata_service_area_population":50580,"metadata_route_types_json":"{\"11\":1}","metadata_ntd_facilities_json":"{\"maintenance_facilities\":0,\"administrative_and_other_non_passenger_facilities\":1,\"passenger_stations_and_terminals\":13,\"parking_and_other_passenger_facilities\":0,\"total_facilities\":14,\"bus_transfer_centers\":0,\"elevated_fixed_guideway_stations\":0,\"at_grade_fixed_guideway_stations\":0,\"underground_fixed_guideway_stations\":0,\"simple_at_grade_platform_stations\":13,\"exclusive_grade_separated_platform_stations\":0,\"ferryboat_terminals\":0,\"surface_parking_lots\":0,\"parking_structures\":0}","metadata_tam_modes_json":"{\"SR\":{\"total_units_2024\":20.1,\"units_under_threshold_2024\":0,\"voms_2024\":1,\"total_modal_vrm_2024\":6614,\"total_modal_upt_2024\":24696}}"},"geometry":{"type":"Point","coordinates":[-123.84932978062623,46.19015519299961]}},{"type":"Feature","properties":{"stop_id":"2484429","stop_code":"","stop_name":"3rd Street (Columbia House Condominiums)","stop_desc":"","zone_id":"","stop_url":"","location_type":"0","parent_station":"","stop_timezone":"America/Los_Angeles","wheelchair_boarding":"0","platform_code":"","tts_stop_name":"","feed_id":"Oregon__Astoria_Riverfront_Trolley__mdb_mdb-1254","agency_name":"Astoria Riverfront Trolley","route_count":1,"route_ids":"11770","route_short_names":"","route_types":"11","route_type_names":"Trolleybus","routes_json":"[{\"route_id\":\"11770\",\"route_short_name\":\"\",\"route_long_name\":\"Riverfront Trolley\",\"route_type\":\"11\",\"route_type_name\":\"Trolleybus\",\"route_color\":\"BE022A\",\"route_text_color\":\"FFFFFF\"}]","metadata_feed_id":"Oregon__Astoria_Riverfront_Trolley__mdb_mdb-1254","metadata_agency_names":"Astoria Riverfront Trolley","metadata_ntd_id":"70057","metadata_ntd_match_method":"manual_override","metadata_ntd_agency":"Loop Trolley Transportation Development District","metadata_ntd_city":"Saint Louis","metadata_ntd_state":"MO","metadata_gtfs_route_count":1,"metadata_gtfs_trip_count":18,"metadata_gtfs_shape_count":2,"metadata_gtfs_stop_count":12,"metadata_ntd_agency_voms":1,"metadata_ntd_total_facilities":14,"metadata_ntd_maintenance_facilities":0,"metadata_ntd_passenger_stations":13,"metadata_tam_tier":"Tier I (Rail)","metadata_service_area_sq_miles":5,"metadata_service_area_population":50580,"metadata_route_types_json":"{\"11\":1}","metadata_ntd_facilities_json":"{\"maintenance_facilities\":0,\"administrative_and_other_non_passenger_facilities\":1,\"passenger_stations_and_terminals\":13,\"parking_and_other_passenger_facilities\":0,\"total_facilities\":14,\"bus_transfer_centers\":0,\"elevated_fixed_guideway_stations\":0,\"at_grade_fixed_guideway_stations\":0,\"underground_fixed_guideway_stations\":0,\"simple_at_grade_platform_stations\":13,\"exclusive_grade_separated_platform_stations\":0,\"ferryboat_terminals\":0,\"surface_parking_lots\":0,\"parking_structures\":0}","metadata_tam_modes_json":"{\"SR\":{\"total_units_2024\":20.1,\"units_under_threshold_2024\":0,\"voms_2024\":1,\"total_modal_vrm_2024\":6614,\"total_modal_upt_2024\":24696}}"},"geometry":{"type":"Point","coordinates":[-123.83973169774885,46.19125121393097]}},{"type":"Feature","properties":{"stop_id":"2484430","stop_code":"","stop_name":"6th Street (Viewing Platform)","stop_desc":"","zone_id":"","stop_url":"","location_type":"0","parent_station":"","stop_timezone":"America/Los_Angeles","wheelchair_boarding":"0","platform_code":"","tts_stop_name":"","feed_id":"Oregon__Astoria_Riverfront_Trolley__mdb_mdb-1254","agency_name":"Astoria Riverfront Trolley","route_count":1,"route_ids":"11770","route_short_names":"","route_types":"11","route_type_names":"Trolleybus","routes_json":"[{\"route_id\":\"11770\",\"route_short_name\":\"\",\"route_long_name\":\"Riverfront Trolley\",\"route_type\":\"11\",\"route_type_name\":\"Trolleybus\",\"route_color\":\"BE022A\",\"route_text_color\":\"FFFFFF\"}]","metadata_feed_id":"Oregon__Astoria_Riverfront_Trolley__mdb_mdb-1254","metadata_agency_names":"Astoria Riverfront Trolley","metadata_ntd_id":"70057","metadata_ntd_match_method":"manual_override","metadata_ntd_agency":"Loop Trolley Transportation Development District","metadata_ntd_city":"Saint Louis","metadata_ntd_state":"MO","metadata_gtfs_route_count":1,"metadata_gtfs_trip_count":18,"metadata_gtfs_shape_count":2,"metadata_gtfs_stop_count":12,"metadata_ntd_agency_voms":1,"metadata_ntd_total_facilities":14,"metadata_ntd_maintenance_facilities":0,"metadata_ntd_passenger_stations":13,"metadata_tam_tier":"Tier I (Rail)","metadata_service_area_sq_miles":5,"metadata_service_area_population":50580,"metadata_route_types_json":"{\"11\":1}","metadata_ntd_facilities_json":"{\"maintenance_facilities\":0,\"administrative_and_other_non_passenger_facilities\":1,\"passenger_stations_and_terminals\":13,\"parking_and_other_passenger_facilities\":0,\"total_facilities\":14,\"bus_transfer_centers\":0,\"elevated_fixed_guideway_stations\":0,\"at_grade_fixed_guideway_stations\":0,\"underground_fixed_guideway_stations\":0,\"simple_at_grade_platform_stations\":13,\"exclusive_grade_separated_platform_stations\":0,\"ferryboat_terminals\":0,\"surface_parking_lots\":0,\"parking_structures\":0}","metadata_tam_modes_json":"{\"SR\":{\"total_units_2024\":20.1,\"units_under_threshold_2024\":0,\"voms_2024\":1,\"total_modal_vrm_2024\":6614,\"total_modal_upt_2024\":24696}}"},"geometry":{"type":"Point","coordinates":[-123.83676270776584,46.19123052622922]}},{"type":"Feature","properties":{"stop_id":"4211528","stop_code":"","stop_name":"9th Street","stop_desc":"","zone_id":"","stop_url":"","location_type":"0","parent_station":"","stop_timezone":"America/Los_Angeles","wheelchair_boarding":"0","platform_code":"","tts_stop_name":"","feed_id":"Oregon__Astoria_Riverfront_Trolley__mdb_mdb-1254","agency_name":"Astoria Riverfront Trolley","route_count":1,"route_ids":"11770","route_short_names":"","route_types":"11","route_type_names":"Trolleybus","routes_json":"[{\"route_id\":\"11770\",\"route_short_name\":\"\",\"route_long_name\":\"Riverfront Trolley\",\"route_type\":\"11\",\"route_type_name\":\"Trolleybus\",\"route_color\":\"BE022A\",\"route_text_color\":\"FFFFFF\"}]","metadata_feed_id":"Oregon__Astoria_Riverfront_Trolley__mdb_mdb-1254","metadata_agency_names":"Astoria Riverfront Trolley","metadata_ntd_id":"70057","metadata_ntd_match_method":"manual_override","metadata_ntd_agency":"Loop Trolley Transportation Development District","metadata_ntd_city":"Saint Louis","metadata_ntd_state":"MO","metadata_gtfs_route_count":1,"metadata_gtfs_trip_count":18,"metadata_gtfs_shape_count":2,"metadata_gtfs_stop_count":12,"metadata_ntd_agency_voms":1,"metadata_ntd_total_facilities":14,"metadata_ntd_maintenance_facilities":0,"metadata_ntd_passenger_stations":13,"metadata_tam_tier":"Tier I (Rail)","metadata_service_area_sq_miles":5,"metadata_service_area_population":50580,"metadata_route_types_json":"{\"11\":1}","metadata_ntd_facilities_json":"{\"maintenance_facilities\":0,\"administrative_and_other_non_passenger_facilities\":1,\"passenger_stations_and_terminals\":13,\"parking_and_other_passenger_facilities\":0,\"total_facilities\":14,\"bus_transfer_centers\":0,\"elevated_fixed_guideway_stations\":0,\"at_grade_fixed_guideway_stations\":0,\"underground_fixed_guideway_stations\":0,\"simple_at_grade_platform_stations\":13,\"exclusive_grade_separated_platform_stations\":0,\"ferryboat_terminals\":0,\"surface_parking_lots\":0,\"parking_structures\":0}","metadata_tam_modes_json":"{\"SR\":{\"total_units_2024\":20.1,\"units_under_threshold_2024\":0,\"voms_2024\":1,\"total_modal_vrm_2024\":6614,\"total_modal_upt_2024\":24696}}"},"geometry":{"type":"Point","coordinates":[-123.833587175343,46.190835073055]}},{"type":"Feature","properties":{"stop_id":"2484431","stop_code":"","stop_name":"11th Street","stop_desc":"","zone_id":"","stop_url":"","location_type":"0","parent_station":"","stop_timezone":"America/Los_Angeles","wheelchair_boarding":"0","platform_code":"","tts_stop_name":"","feed_id":"Oregon__Astoria_Riverfront_Trolley__mdb_mdb-1254","agency_name":"Astoria Riverfront Trolley","route_count":1,"route_ids":"11770","route_short_names":"","route_types":"11","route_type_names":"Trolleybus","routes_json":"[{\"route_id\":\"11770\",\"route_short_name\":\"\",\"route_long_name\":\"Riverfront Trolley\",\"route_type\":\"11\",\"route_type_name\":\"Trolleybus\",\"route_color\":\"BE022A\",\"route_text_color\":\"FFFFFF\"}]","metadata_feed_id":"Oregon__Astoria_Riverfront_Trolley__mdb_mdb-1254","metadata_agency_names":"Astoria Riverfront Trolley","metadata_ntd_id":"70057","metadata_ntd_match_method":"manual_override","metadata_ntd_agency":"Loop Trolley Transportation Development District","metadata_ntd_city":"Saint Louis","metadata_ntd_state":"MO","metadata_gtfs_route_count":1,"metadata_gtfs_trip_count":18,"metadata_gtfs_shape_count":2,"metadata_gtfs_stop_count":12,"metadata_ntd_agency_voms":1,"metadata_ntd_total_facilities":14,"metadata_ntd_maintenance_facilities":0,"metadata_ntd_passenger_stations":13,"metadata_tam_tier":"Tier I (Rail)","metadata_service_area_sq_miles":5,"metadata_service_area_population":50580,"metadata_route_types_json":"{\"11\":1}","metadata_ntd_facilities_json":"{\"maintenance_facilities\":0,\"administrative_and_other_non_passenger_facilities\":1,\"passenger_stations_and_terminals\":13,\"parking_and_other_passenger_facilities\":0,\"total_facilities\":14,\"bus_transfer_centers\":0,\"elevated_fixed_guideway_stations\":0,\"at_grade_fixed_guideway_stations\":0,\"underground_fixed_guideway_stations\":0,\"simple_at_grade_platform_stations\":13,\"exclusive_grade_separated_platform_stations\":0,\"ferryboat_terminals\":0,\"surface_parking_lots\":0,\"parking_structures\":0}","metadata_tam_modes_json":"{\"SR\":{\"total_units_2024\":20.1,\"units_under_threshold_2024\":0,\"voms_2024\":1,\"total_modal_vrm_2024\":6614,\"total_modal_upt_2024\":24696}}"},"geometry":{"type":"Point","coordinates":[-123.83152204477878,46.19036058760327]}},{"type":"Feature","properties":{"stop_id":"2484432","stop_code":"","stop_name":"14th Street","stop_desc":"","zone_id":"","stop_url":"","location_type":"0","parent_station":"","stop_timezone":"America/Los_Angeles","wheelchair_boarding":"0","platform_code":"","tts_stop_name":"","feed_id":"Oregon__Astoria_Riverfront_Trolley__mdb_mdb-1254","agency_name":"Astoria Riverfront Trolley","route_count":1,"route_ids":"11770","route_short_names":"","route_types":"11","route_type_names":"Trolleybus","routes_json":"[{\"route_id\":\"11770\",\"route_short_name\":\"\",\"route_long_name\":\"Riverfront Trolley\",\"route_type\":\"11\",\"route_type_name\":\"Trolleybus\",\"route_color\":\"BE022A\",\"route_text_color\":\"FFFFFF\"}]","metadata_feed_id":"Oregon__Astoria_Riverfront_Trolley__mdb_mdb-1254","metadata_agency_names":"Astoria Riverfront Trolley","metadata_ntd_id":"70057","metadata_ntd_match_method":"manual_override","metadata_ntd_agency":"Loop Trolley Transportation Development District","metadata_ntd_city":"Saint Louis","metadata_ntd_state":"MO","metadata_gtfs_route_count":1,"metadata_gtfs_trip_count":18,"metadata_gtfs_shape_count":2,"metadata_gtfs_stop_count":12,"metadata_ntd_agency_voms":1,"metadata_ntd_total_facilities":14,"metadata_ntd_maintenance_facilities":0,"metadata_ntd_passenger_stations":13,"metadata_tam_tier":"Tier I (Rail)","metadata_service_area_sq_miles":5,"metadata_service_area_population":50580,"metadata_route_types_json":"{\"11\":1}","metadata_ntd_facilities_json":"{\"maintenance_facilities\":0,\"administrative_and_other_non_passenger_facilities\":1,\"passenger_stations_and_terminals\":13,\"parking_and_other_passenger_facilities\":0,\"total_facilities\":14,\"bus_transfer_centers\":0,\"elevated_fixed_guideway_stations\":0,\"at_grade_fixed_guideway_stations\":0,\"underground_fixed_guideway_stations\":0,\"simple_at_grade_platform_stations\":13,\"exclusive_grade_separated_platform_stations\":0,\"ferryboat_terminals\":0,\"surface_parking_lots\":0,\"parking_structures\":0}","metadata_tam_modes_json":"{\"SR\":{\"total_units_2024\":20.1,\"units_under_threshold_2024\":0,\"voms_2024\":1,\"total_modal_vrm_2024\":6614,\"total_modal_upt_2024\":24696}}"},"geometry":{"type":"Point","coordinates":[-123.82851650207157,46.18972984747788]}},{"type":"Feature","properties":{"stop_id":"2484433","stop_code":"","stop_name":"17th Street (Columbia River Maritime Museum)","stop_desc":"","zone_id":"","stop_url":"","location_type":"0","parent_station":"","stop_timezone":"America/Los_Angeles","wheelchair_boarding":"0","platform_code":"","tts_stop_name":"","feed_id":"Oregon__Astoria_Riverfront_Trolley__mdb_mdb-1254","agency_name":"Astoria Riverfront Trolley","route_count":1,"route_ids":"11770","route_short_names":"","route_types":"11","route_type_names":"Trolleybus","routes_json":"[{\"route_id\":\"11770\",\"route_short_name\":\"\",\"route_long_name\":\"Riverfront Trolley\",\"route_type\":\"11\",\"route_type_name\":\"Trolleybus\",\"route_color\":\"BE022A\",\"route_text_color\":\"FFFFFF\"}]","metadata_feed_id":"Oregon__Astoria_Riverfront_Trolley__mdb_mdb-1254","metadata_agency_names":"Astoria Riverfront Trolley","metadata_ntd_id":"70057","metadata_ntd_match_method":"manual_override","metadata_ntd_agency":"Loop Trolley Transportation Development District","metadata_ntd_city":"Saint Louis","metadata_ntd_state":"MO","metadata_gtfs_route_count":1,"metadata_gtfs_trip_count":18,"metadata_gtfs_shape_count":2,"metadata_gtfs_stop_count":12,"metadata_ntd_agency_voms":1,"metadata_ntd_total_facilities":14,"metadata_ntd_maintenance_facilities":0,"metadata_ntd_passenger_stations":13,"metadata_tam_tier":"Tier I (Rail)","metadata_service_area_sq_miles":5,"metadata_service_area_population":50580,"metadata_route_types_json":"{\"11\":1}","metadata_ntd_facilities_json":"{\"maintenance_facilities\":0,\"administrative_and_other_non_passenger_facilities\":1,\"passenger_stations_and_terminals\":13,\"parking_and_other_passenger_facilities\":0,\"total_facilities\":14,\"bus_transfer_centers\":0,\"elevated_fixed_guideway_stations\":0,\"at_grade_fixed_guideway_stations\":0,\"underground_fixed_guideway_stations\":0,\"simple_at_grade_platform_stations\":13,\"exclusive_grade_separated_platform_stations\":0,\"ferryboat_terminals\":0,\"surface_parking_lots\":0,\"parking_structures\":0}","metadata_tam_modes_json":"{\"SR\":{\"total_units_2024\":20.1,\"units_under_threshold_2024\":0,\"voms_2024\":1,\"total_modal_vrm_2024\":6614,\"total_modal_upt_2024\":24696}}"},"geometry":{"type":"Point","coordinates":[-123.82432331213955,46.18956473357147]}},{"type":"Feature","properties":{"stop_id":"4211529","stop_code":"","stop_name":"20th Street (Barbey Maritime Center)","stop_desc":"","zone_id":"","stop_url":"","location_type":"0","parent_station":"","stop_timezone":"America/Los_Angeles","wheelchair_boarding":"0","platform_code":"","tts_stop_name":"","feed_id":"Oregon__Astoria_Riverfront_Trolley__mdb_mdb-1254","agency_name":"Astoria Riverfront Trolley","route_count":1,"route_ids":"11770","route_short_names":"","route_types":"11","route_type_names":"Trolleybus","routes_json":"[{\"route_id\":\"11770\",\"route_short_name\":\"\",\"route_long_name\":\"Riverfront Trolley\",\"route_type\":\"11\",\"route_type_name\":\"Trolleybus\",\"route_color\":\"BE022A\",\"route_text_color\":\"FFFFFF\"}]","metadata_feed_id":"Oregon__Astoria_Riverfront_Trolley__mdb_mdb-1254","metadata_agency_names":"Astoria Riverfront Trolley","metadata_ntd_id":"70057","metadata_ntd_match_method":"manual_override","metadata_ntd_agency":"Loop Trolley Transportation Development District","metadata_ntd_city":"Saint Louis","metadata_ntd_state":"MO","metadata_gtfs_route_count":1,"metadata_gtfs_trip_count":18,"metadata_gtfs_shape_count":2,"metadata_gtfs_stop_count":12,"metadata_ntd_agency_voms":1,"metadata_ntd_total_facilities":14,"metadata_ntd_maintenance_facilities":0,"metadata_ntd_passenger_stations":13,"metadata_tam_tier":"Tier I (Rail)","metadata_service_area_sq_miles":5,"metadata_service_area_population":50580,"metadata_route_types_json":"{\"11\":1}","metadata_ntd_facilities_json":"{\"maintenance_facilities\":0,\"administrative_and_other_non_passenger_facilities\":1,\"passenger_stations_and_terminals\":13,\"parking_and_other_passenger_facilities\":0,\"total_facilities\":14,\"bus_transfer_centers\":0,\"elevated_fixed_guideway_stations\":0,\"at_grade_fixed_guideway_stations\":0,\"underground_fixed_guideway_stations\":0,\"simple_at_grade_platform_stations\":13,\"exclusive_grade_separated_platform_stations\":0,\"ferryboat_terminals\":0,\"surface_parking_lots\":0,\"parking_structures\":0}","metadata_tam_modes_json":"{\"SR\":{\"total_units_2024\":20.1,\"units_under_threshold_2024\":0,\"voms_2024\":1,\"total_modal_vrm_2024\":6614,\"total_modal_upt_2024\":24696}}"},"geometry":{"type":"Point","coordinates":[-123.819855748871,46.1901519123347]}},{"type":"Feature","properties":{"stop_id":"4211530","stop_code":"","stop_name":"33rd Street (Safeway)","stop_desc":"","zone_id":"","stop_url":"","location_type":"0","parent_station":"","stop_timezone":"America/Los_Angeles","wheelchair_boarding":"0","platform_code":"","tts_stop_name":"","feed_id":"Oregon__Astoria_Riverfront_Trolley__mdb_mdb-1254","agency_name":"Astoria Riverfront Trolley","route_count":1,"route_ids":"11770","route_short_names":"","route_types":"11","route_type_names":"Trolleybus","routes_json":"[{\"route_id\":\"11770\",\"route_short_name\":\"\",\"route_long_name\":\"Riverfront Trolley\",\"route_type\":\"11\",\"route_type_name\":\"Trolleybus\",\"route_color\":\"BE022A\",\"route_text_color\":\"FFFFFF\"}]","metadata_feed_id":"Oregon__Astoria_Riverfront_Trolley__mdb_mdb-1254","metadata_agency_names":"Astoria Riverfront Trolley","metadata_ntd_id":"70057","metadata_ntd_match_method":"manual_override","metadata_ntd_agency":"Loop Trolley Transportation Development District","metadata_ntd_city":"Saint Louis","metadata_ntd_state":"MO","metadata_gtfs_route_count":1,"metadata_gtfs_trip_count":18,"metadata_gtfs_shape_count":2,"metadata_gtfs_stop_count":12,"metadata_ntd_agency_voms":1,"metadata_ntd_total_facilities":14,"metadata_ntd_maintenance_facilities":0,"metadata_ntd_passenger_stations":13,"metadata_tam_tier":"Tier I (Rail)","metadata_service_area_sq_miles":5,"metadata_service_area_population":50580,"metadata_route_types_json":"{\"11\":1}","metadata_ntd_facilities_json":"{\"maintenance_facilities\":0,\"administrative_and_other_non_passenger_facilities\":1,\"passenger_stations_and_terminals\":13,\"parking_and_other_passenger_facilities\":0,\"total_facilities\":14,\"bus_transfer_centers\":0,\"elevated_fixed_guideway_stations\":0,\"at_grade_fixed_guideway_stations\":0,\"underground_fixed_guideway_stations\":0,\"simple_at_grade_platform_stations\":13,\"exclusive_grade_separated_platform_stations\":0,\"ferryboat_terminals\":0,\"surface_parking_lots\":0,\"parking_structures\":0}","metadata_tam_modes_json":"{\"SR\":{\"total_units_2024\":20.1,\"units_under_threshold_2024\":0,\"voms_2024\":1,\"total_modal_vrm_2024\":6614,\"total_modal_upt_2024\":24696}}"},"geometry":{"type":"Point","coordinates":[-123.80847468770476,46.19297644222809]}},{"type":"Feature","properties":{"stop_id":"4211531","stop_code":"","stop_name":"35th Street (Best Western)","stop_desc":"","zone_id":"","stop_url":"","location_type":"0","parent_station":"","stop_timezone":"America/Los_Angeles","wheelchair_boarding":"0","platform_code":"","tts_stop_name":"","feed_id":"Oregon__Astoria_Riverfront_Trolley__mdb_mdb-1254","agency_name":"Astoria Riverfront Trolley","route_count":1,"route_ids":"11770","route_short_names":"","route_types":"11","route_type_names":"Trolleybus","routes_json":"[{\"route_id\":\"11770\",\"route_short_name\":\"\",\"route_long_name\":\"Riverfront Trolley\",\"route_type\":\"11\",\"route_type_name\":\"Trolleybus\",\"route_color\":\"BE022A\",\"route_text_color\":\"FFFFFF\"}]","metadata_feed_id":"Oregon__Astoria_Riverfront_Trolley__mdb_mdb-1254","metadata_agency_names":"Astoria Riverfront Trolley","metadata_ntd_id":"70057","metadata_ntd_match_method":"manual_override","metadata_ntd_agency":"Loop Trolley Transportation Development District","metadata_ntd_city":"Saint Louis","metadata_ntd_state":"MO","metadata_gtfs_route_count":1,"metadata_gtfs_trip_count":18,"metadata_gtfs_shape_count":2,"metadata_gtfs_stop_count":12,"metadata_ntd_agency_voms":1,"metadata_ntd_total_facilities":14,"metadata_ntd_maintenance_facilities":0,"metadata_ntd_passenger_stations":13,"metadata_tam_tier":"Tier I (Rail)","metadata_service_area_sq_miles":5,"metadata_service_area_population":50580,"metadata_route_types_json":"{\"11\":1}","metadata_ntd_facilities_json":"{\"maintenance_facilities\":0,\"administrative_and_other_non_passenger_facilities\":1,\"passenger_stations_and_terminals\":13,\"parking_and_other_passenger_facilities\":0,\"total_facilities\":14,\"bus_transfer_centers\":0,\"elevated_fixed_guideway_stations\":0,\"at_grade_fixed_guideway_stations\":0,\"underground_fixed_guideway_stations\":0,\"simple_at_grade_platform_stations\":13,\"exclusive_grade_separated_platform_stations\":0,\"ferryboat_terminals\":0,\"surface_parking_lots\":0,\"parking_structures\":0}","metadata_tam_modes_json":"{\"SR\":{\"total_units_2024\":20.1,\"units_under_threshold_2024\":0,\"voms_2024\":1,\"total_modal_vrm_2024\":6614,\"total_modal_upt_2024\":24696}}"},"geometry":{"type":"Point","coordinates":[-123.80512202490569,46.19380332383199]}},{"type":"Feature","properties":{"stop_id":"2484435","stop_code":"","stop_name":"39th Street (East End Mooring Basin - Pier 39)","stop_desc":"","zone_id":"","stop_url":"","location_type":"0","parent_station":"","stop_timezone":"America/Los_Angeles","wheelchair_boarding":"0","platform_code":"","tts_stop_name":"","feed_id":"Oregon__Astoria_Riverfront_Trolley__mdb_mdb-1254","agency_name":"Astoria Riverfront Trolley","route_count":1,"route_ids":"11770","route_short_names":"","route_types":"11","route_type_names":"Trolleybus","routes_json":"[{\"route_id\":\"11770\",\"route_short_name\":\"\",\"route_long_name\":\"Riverfront Trolley\",\"route_type\":\"11\",\"route_type_name\":\"Trolleybus\",\"route_color\":\"BE022A\",\"route_text_color\":\"FFFFFF\"}]","metadata_feed_id":"Oregon__Astoria_Riverfront_Trolley__mdb_mdb-1254","metadata_agency_names":"Astoria Riverfront Trolley","metadata_ntd_id":"70057","metadata_ntd_match_method":"manual_override","metadata_ntd_agency":"Loop Trolley Transportation Development District","metadata_ntd_city":"Saint Louis","metadata_ntd_state":"MO","metadata_gtfs_route_count":1,"metadata_gtfs_trip_count":18,"metadata_gtfs_shape_count":2,"metadata_gtfs_stop_count":12,"metadata_ntd_agency_voms":1,"metadata_ntd_total_facilities":14,"metadata_ntd_maintenance_facilities":0,"metadata_ntd_passenger_stations":13,"metadata_tam_tier":"Tier I (Rail)","metadata_service_area_sq_miles":5,"metadata_service_area_population":50580,"metadata_route_types_json":"{\"11\":1}","metadata_ntd_facilities_json":"{\"maintenance_facilities\":0,\"administrative_and_other_non_passenger_facilities\":1,\"passenger_stations_and_terminals\":13,\"parking_and_other_passenger_facilities\":0,\"total_facilities\":14,\"bus_transfer_centers\":0,\"elevated_fixed_guideway_stations\":0,\"at_grade_fixed_guideway_stations\":0,\"underground_fixed_guideway_stations\":0,\"simple_at_grade_platform_stations\":13,\"exclusive_grade_separated_platform_stations\":0,\"ferryboat_terminals\":0,\"surface_parking_lots\":0,\"parking_structures\":0}","metadata_tam_modes_json":"{\"SR\":{\"total_units_2024\":20.1,\"units_under_threshold_2024\":0,\"voms_2024\":1,\"total_modal_vrm_2024\":6614,\"total_modal_upt_2024\":24696}}"},"geometry":{"type":"Point","coordinates":[-123.798865697557,46.1950828017295]}}],"metadata":{"feed_id":"Oregon__Astoria_Riverfront_Trolley__mdb_mdb-1254","ntd_id":"70057","feature_metadata_embedded":true}}