{"type":"FeatureCollection","features":[{"type":"Feature","properties":{"stop_id":"363807","stop_code":"363807","stop_name":"Midtown Towers","stop_desc":"","zone_id":"","stop_url":"","location_type":"0","parent_station":"","stop_timezone":"","wheelchair_boarding":"0","platform_code":"","feed_id":"New_York__Watertown_Citibus__mdb_mdb-871","agency_name":"Watertown Citibus","route_count":1,"route_ids":"10693","route_short_names":"A-1","route_types":"3","route_type_names":"Bus","routes_json":"[{\"route_id\":\"10693\",\"route_short_name\":\"A-1\",\"route_long_name\":\"State-East Main\",\"route_type\":\"3\",\"route_type_name\":\"Bus\",\"route_color\":\"226FC9\",\"route_text_color\":\"FFFFFF\"}]","metadata_feed_id":"New_York__Watertown_Citibus__mdb_mdb-871","metadata_agency_names":"Watertown Citibus","metadata_ntd_id":"20215","metadata_ntd_match_method":"manual_override","metadata_ntd_agency":"City of Watertown NY, dba: CitiBus","metadata_ntd_city":"Watertown","metadata_ntd_state":"NY","metadata_gtfs_route_count":5,"metadata_gtfs_trip_count":87,"metadata_gtfs_shape_count":5,"metadata_gtfs_stop_count":28,"metadata_ntd_agency_voms":10,"metadata_ntd_total_facilities":4,"metadata_ntd_maintenance_facilities":2,"metadata_ntd_passenger_stations":1,"metadata_tam_tier":"Tier II","metadata_service_area_sq_miles":17,"metadata_service_area_population":25290,"metadata_route_types_json":"{\"3\":5}","metadata_ntd_facilities_json":"{\"maintenance_facilities\":2,\"administrative_and_other_non_passenger_facilities\":1,\"passenger_stations_and_terminals\":1,\"parking_and_other_passenger_facilities\":0,\"total_facilities\":4,\"bus_transfer_centers\":1,\"elevated_fixed_guideway_stations\":0,\"at_grade_fixed_guideway_stations\":0,\"underground_fixed_guideway_stations\":0,\"simple_at_grade_platform_stations\":0,\"exclusive_grade_separated_platform_stations\":0,\"ferryboat_terminals\":0,\"surface_parking_lots\":0,\"parking_structures\":0}","metadata_tam_modes_json":"{\"DR\":{\"total_units_2024\":4,\"units_under_threshold_2024\":1,\"voms_2024\":4,\"total_modal_vrm_2024\":0,\"total_modal_upt_2024\":0},\"MB\":{\"total_units_2024\":12,\"units_under_threshold_2024\":0,\"voms_2024\":12,\"total_modal_vrm_2024\":0,\"total_modal_upt_2024\":0}}"},"geometry":{"type":"Point","coordinates":[-75.903664,43.974533]}},{"type":"Feature","properties":{"stop_id":"363808","stop_code":"363808","stop_name":"Skyline Apts","stop_desc":"","zone_id":"","stop_url":"","location_type":"0","parent_station":"","stop_timezone":"","wheelchair_boarding":"0","platform_code":"","feed_id":"New_York__Watertown_Citibus__mdb_mdb-871","agency_name":"Watertown Citibus","route_count":1,"route_ids":"10693","route_short_names":"A-1","route_types":"3","route_type_names":"Bus","routes_json":"[{\"route_id\":\"10693\",\"route_short_name\":\"A-1\",\"route_long_name\":\"State-East Main\",\"route_type\":\"3\",\"route_type_name\":\"Bus\",\"route_color\":\"226FC9\",\"route_text_color\":\"FFFFFF\"}]","metadata_feed_id":"New_York__Watertown_Citibus__mdb_mdb-871","metadata_agency_names":"Watertown Citibus","metadata_ntd_id":"20215","metadata_ntd_match_method":"manual_override","metadata_ntd_agency":"City of Watertown NY, dba: CitiBus","metadata_ntd_city":"Watertown","metadata_ntd_state":"NY","metadata_gtfs_route_count":5,"metadata_gtfs_trip_count":87,"metadata_gtfs_shape_count":5,"metadata_gtfs_stop_count":28,"metadata_ntd_agency_voms":10,"metadata_ntd_total_facilities":4,"metadata_ntd_maintenance_facilities":2,"metadata_ntd_passenger_stations":1,"metadata_tam_tier":"Tier II","metadata_service_area_sq_miles":17,"metadata_service_area_population":25290,"metadata_route_types_json":"{\"3\":5}","metadata_ntd_facilities_json":"{\"maintenance_facilities\":2,\"administrative_and_other_non_passenger_facilities\":1,\"passenger_stations_and_terminals\":1,\"parking_and_other_passenger_facilities\":0,\"total_facilities\":4,\"bus_transfer_centers\":1,\"elevated_fixed_guideway_stations\":0,\"at_grade_fixed_guideway_stations\":0,\"underground_fixed_guideway_stations\":0,\"simple_at_grade_platform_stations\":0,\"exclusive_grade_separated_platform_stations\":0,\"ferryboat_terminals\":0,\"surface_parking_lots\":0,\"parking_structures\":0}","metadata_tam_modes_json":"{\"DR\":{\"total_units_2024\":4,\"units_under_threshold_2024\":1,\"voms_2024\":4,\"total_modal_vrm_2024\":0,\"total_modal_upt_2024\":0},\"MB\":{\"total_units_2024\":12,\"units_under_threshold_2024\":0,\"voms_2024\":12,\"total_modal_vrm_2024\":0,\"total_modal_upt_2024\":0}}"},"geometry":{"type":"Point","coordinates":[-75.895332,43.981606]}},{"type":"Feature","properties":{"stop_id":"363809","stop_code":"363809","stop_name":"Samaritan Keep","stop_desc":"","zone_id":"","stop_url":"","location_type":"0","parent_station":"","stop_timezone":"","wheelchair_boarding":"0","platform_code":"","feed_id":"New_York__Watertown_Citibus__mdb_mdb-871","agency_name":"Watertown Citibus","route_count":1,"route_ids":"10694","route_short_names":"A-2","route_types":"3","route_type_names":"Bus","routes_json":"[{\"route_id\":\"10694\",\"route_short_name\":\"A-2\",\"route_long_name\":\"Washington\",\"route_type\":\"3\",\"route_type_name\":\"Bus\",\"route_color\":\"6AFCF7\",\"route_text_color\":\"000000\"}]","metadata_feed_id":"New_York__Watertown_Citibus__mdb_mdb-871","metadata_agency_names":"Watertown Citibus","metadata_ntd_id":"20215","metadata_ntd_match_method":"manual_override","metadata_ntd_agency":"City of Watertown NY, dba: CitiBus","metadata_ntd_city":"Watertown","metadata_ntd_state":"NY","metadata_gtfs_route_count":5,"metadata_gtfs_trip_count":87,"metadata_gtfs_shape_count":5,"metadata_gtfs_stop_count":28,"metadata_ntd_agency_voms":10,"metadata_ntd_total_facilities":4,"metadata_ntd_maintenance_facilities":2,"metadata_ntd_passenger_stations":1,"metadata_tam_tier":"Tier II","metadata_service_area_sq_miles":17,"metadata_service_area_population":25290,"metadata_route_types_json":"{\"3\":5}","metadata_ntd_facilities_json":"{\"maintenance_facilities\":2,\"administrative_and_other_non_passenger_facilities\":1,\"passenger_stations_and_terminals\":1,\"parking_and_other_passenger_facilities\":0,\"total_facilities\":4,\"bus_transfer_centers\":1,\"elevated_fixed_guideway_stations\":0,\"at_grade_fixed_guideway_stations\":0,\"underground_fixed_guideway_stations\":0,\"simple_at_grade_platform_stations\":0,\"exclusive_grade_separated_platform_stations\":0,\"ferryboat_terminals\":0,\"surface_parking_lots\":0,\"parking_structures\":0}","metadata_tam_modes_json":"{\"DR\":{\"total_units_2024\":4,\"units_under_threshold_2024\":1,\"voms_2024\":4,\"total_modal_vrm_2024\":0,\"total_modal_upt_2024\":0},\"MB\":{\"total_units_2024\":12,\"units_under_threshold_2024\":0,\"voms_2024\":12,\"total_modal_vrm_2024\":0,\"total_modal_upt_2024\":0}}"},"geometry":{"type":"Point","coordinates":[-75.915123,43.96442]}},{"type":"Feature","properties":{"stop_id":"363810","stop_code":"363810","stop_name":"Weldon Jewell","stop_desc":"","zone_id":"","stop_url":"","location_type":"0","parent_station":"","stop_timezone":"","wheelchair_boarding":"0","platform_code":"","feed_id":"New_York__Watertown_Citibus__mdb_mdb-871","agency_name":"Watertown Citibus","route_count":1,"route_ids":"10694","route_short_names":"A-2","route_types":"3","route_type_names":"Bus","routes_json":"[{\"route_id\":\"10694\",\"route_short_name\":\"A-2\",\"route_long_name\":\"Washington\",\"route_type\":\"3\",\"route_type_name\":\"Bus\",\"route_color\":\"6AFCF7\",\"route_text_color\":\"000000\"}]","metadata_feed_id":"New_York__Watertown_Citibus__mdb_mdb-871","metadata_agency_names":"Watertown Citibus","metadata_ntd_id":"20215","metadata_ntd_match_method":"manual_override","metadata_ntd_agency":"City of Watertown NY, dba: CitiBus","metadata_ntd_city":"Watertown","metadata_ntd_state":"NY","metadata_gtfs_route_count":5,"metadata_gtfs_trip_count":87,"metadata_gtfs_shape_count":5,"metadata_gtfs_stop_count":28,"metadata_ntd_agency_voms":10,"metadata_ntd_total_facilities":4,"metadata_ntd_maintenance_facilities":2,"metadata_ntd_passenger_stations":1,"metadata_tam_tier":"Tier II","metadata_service_area_sq_miles":17,"metadata_service_area_population":25290,"metadata_route_types_json":"{\"3\":5}","metadata_ntd_facilities_json":"{\"maintenance_facilities\":2,\"administrative_and_other_non_passenger_facilities\":1,\"passenger_stations_and_terminals\":1,\"parking_and_other_passenger_facilities\":0,\"total_facilities\":4,\"bus_transfer_centers\":1,\"elevated_fixed_guideway_stations\":0,\"at_grade_fixed_guideway_stations\":0,\"underground_fixed_guideway_stations\":0,\"simple_at_grade_platform_stations\":0,\"exclusive_grade_separated_platform_stations\":0,\"ferryboat_terminals\":0,\"surface_parking_lots\":0,\"parking_structures\":0}","metadata_tam_modes_json":"{\"DR\":{\"total_units_2024\":4,\"units_under_threshold_2024\":1,\"voms_2024\":4,\"total_modal_vrm_2024\":0,\"total_modal_upt_2024\":0},\"MB\":{\"total_units_2024\":12,\"units_under_threshold_2024\":0,\"voms_2024\":12,\"total_modal_vrm_2024\":0,\"total_modal_upt_2024\":0}}"},"geometry":{"type":"Point","coordinates":[-75.933617,43.963894]}},{"type":"Feature","properties":{"stop_id":"363811","stop_code":"363811","stop_name":"Brook Washington","stop_desc":"","zone_id":"","stop_url":"","location_type":"0","parent_station":"","stop_timezone":"","wheelchair_boarding":"0","platform_code":"","feed_id":"New_York__Watertown_Citibus__mdb_mdb-871","agency_name":"Watertown Citibus","route_count":1,"route_ids":"10694","route_short_names":"A-2","route_types":"3","route_type_names":"Bus","routes_json":"[{\"route_id\":\"10694\",\"route_short_name\":\"A-2\",\"route_long_name\":\"Washington\",\"route_type\":\"3\",\"route_type_name\":\"Bus\",\"route_color\":\"6AFCF7\",\"route_text_color\":\"000000\"}]","metadata_feed_id":"New_York__Watertown_Citibus__mdb_mdb-871","metadata_agency_names":"Watertown Citibus","metadata_ntd_id":"20215","metadata_ntd_match_method":"manual_override","metadata_ntd_agency":"City of Watertown NY, dba: CitiBus","metadata_ntd_city":"Watertown","metadata_ntd_state":"NY","metadata_gtfs_route_count":5,"metadata_gtfs_trip_count":87,"metadata_gtfs_shape_count":5,"metadata_gtfs_stop_count":28,"metadata_ntd_agency_voms":10,"metadata_ntd_total_facilities":4,"metadata_ntd_maintenance_facilities":2,"metadata_ntd_passenger_stations":1,"metadata_tam_tier":"Tier II","metadata_service_area_sq_miles":17,"metadata_service_area_population":25290,"metadata_route_types_json":"{\"3\":5}","metadata_ntd_facilities_json":"{\"maintenance_facilities\":2,\"administrative_and_other_non_passenger_facilities\":1,\"passenger_stations_and_terminals\":1,\"parking_and_other_passenger_facilities\":0,\"total_facilities\":4,\"bus_transfer_centers\":1,\"elevated_fixed_guideway_stations\":0,\"at_grade_fixed_guideway_stations\":0,\"underground_fixed_guideway_stations\":0,\"simple_at_grade_platform_stations\":0,\"exclusive_grade_separated_platform_stations\":0,\"ferryboat_terminals\":0,\"surface_parking_lots\":0,\"parking_structures\":0}","metadata_tam_modes_json":"{\"DR\":{\"total_units_2024\":4,\"units_under_threshold_2024\":1,\"voms_2024\":4,\"total_modal_vrm_2024\":0,\"total_modal_upt_2024\":0},\"MB\":{\"total_units_2024\":12,\"units_under_threshold_2024\":0,\"voms_2024\":12,\"total_modal_vrm_2024\":0,\"total_modal_upt_2024\":0}}"},"geometry":{"type":"Point","coordinates":[-75.913864,43.956951]}},{"type":"Feature","properties":{"stop_id":"363812","stop_code":"363812","stop_name":"Coffeen Massey","stop_desc":"","zone_id":"","stop_url":"","location_type":"0","parent_station":"","stop_timezone":"","wheelchair_boarding":"0","platform_code":"","feed_id":"New_York__Watertown_Citibus__mdb_mdb-871","agency_name":"Watertown Citibus","route_count":1,"route_ids":"10697","route_short_names":"C-2","route_types":"3","route_type_names":"Bus","routes_json":"[{\"route_id\":\"10697\",\"route_short_name\":\"C-2\",\"route_long_name\":\"Coffeen - JCC\",\"route_type\":\"3\",\"route_type_name\":\"Bus\",\"route_color\":\"417505\",\"route_text_color\":\"FFFFFF\"}]","metadata_feed_id":"New_York__Watertown_Citibus__mdb_mdb-871","metadata_agency_names":"Watertown Citibus","metadata_ntd_id":"20215","metadata_ntd_match_method":"manual_override","metadata_ntd_agency":"City of Watertown NY, dba: CitiBus","metadata_ntd_city":"Watertown","metadata_ntd_state":"NY","metadata_gtfs_route_count":5,"metadata_gtfs_trip_count":87,"metadata_gtfs_shape_count":5,"metadata_gtfs_stop_count":28,"metadata_ntd_agency_voms":10,"metadata_ntd_total_facilities":4,"metadata_ntd_maintenance_facilities":2,"metadata_ntd_passenger_stations":1,"metadata_tam_tier":"Tier II","metadata_service_area_sq_miles":17,"metadata_service_area_population":25290,"metadata_route_types_json":"{\"3\":5}","metadata_ntd_facilities_json":"{\"maintenance_facilities\":2,\"administrative_and_other_non_passenger_facilities\":1,\"passenger_stations_and_terminals\":1,\"parking_and_other_passenger_facilities\":0,\"total_facilities\":4,\"bus_transfer_centers\":1,\"elevated_fixed_guideway_stations\":0,\"at_grade_fixed_guideway_stations\":0,\"underground_fixed_guideway_stations\":0,\"simple_at_grade_platform_stations\":0,\"exclusive_grade_separated_platform_stations\":0,\"ferryboat_terminals\":0,\"surface_parking_lots\":0,\"parking_structures\":0}","metadata_tam_modes_json":"{\"DR\":{\"total_units_2024\":4,\"units_under_threshold_2024\":1,\"voms_2024\":4,\"total_modal_vrm_2024\":0,\"total_modal_upt_2024\":0},\"MB\":{\"total_units_2024\":12,\"units_under_threshold_2024\":0,\"voms_2024\":12,\"total_modal_vrm_2024\":0,\"total_modal_upt_2024\":0}}"},"geometry":{"type":"Point","coordinates":[-75.915245,43.978764]}},{"type":"Feature","properties":{"stop_id":"363813","stop_code":"363813","stop_name":"Transfer Station","stop_desc":"","zone_id":"","stop_url":"","location_type":"0","parent_station":"","stop_timezone":"","wheelchair_boarding":"0","platform_code":"","feed_id":"New_York__Watertown_Citibus__mdb_mdb-871","agency_name":"Watertown Citibus","route_count":5,"route_ids":"10693|10694|10695|10696|10697","route_short_names":"A-1|A-2|B-1|C-1|C-2","route_types":"3","route_type_names":"Bus","routes_json":"[{\"route_id\":\"10693\",\"route_short_name\":\"A-1\",\"route_long_name\":\"State-East Main\",\"route_type\":\"3\",\"route_type_name\":\"Bus\",\"route_color\":\"226FC9\",\"route_text_color\":\"FFFFFF\"},{\"route_id\":\"10694\",\"route_short_name\":\"A-2\",\"route_long_name\":\"Washington\",\"route_type\":\"3\",\"route_type_name\":\"Bus\",\"route_color\":\"6AFCF7\",\"route_text_color\":\"000000\"},{\"route_id\":\"10695\",\"route_short_name\":\"B-1\",\"route_long_name\":\"Arsenal - Mall\",\"route_type\":\"3\",\"route_type_name\":\"Bus\",\"route_color\":\"D0021B\",\"route_text_color\":\"FFFFFF\"},{\"route_id\":\"10696\",\"route_short_name\":\"C-1\",\"route_long_name\":\"Northside Loop\",\"route_type\":\"3\",\"route_type_name\":\"Bus\",\"route_color\":\"7ED321\",\"route_text_color\":\"000000\"},{\"route_id\":\"10697\",\"route_short_name\":\"C-2\",\"route_long_name\":\"Coffeen - JCC\",\"route_type\":\"3\",\"route_type_name\":\"Bus\",\"route_color\":\"417505\",\"route_text_color\":\"FFFFFF\"}]","metadata_feed_id":"New_York__Watertown_Citibus__mdb_mdb-871","metadata_agency_names":"Watertown Citibus","metadata_ntd_id":"20215","metadata_ntd_match_method":"manual_override","metadata_ntd_agency":"City of Watertown NY, dba: CitiBus","metadata_ntd_city":"Watertown","metadata_ntd_state":"NY","metadata_gtfs_route_count":5,"metadata_gtfs_trip_count":87,"metadata_gtfs_shape_count":5,"metadata_gtfs_stop_count":28,"metadata_ntd_agency_voms":10,"metadata_ntd_total_facilities":4,"metadata_ntd_maintenance_facilities":2,"metadata_ntd_passenger_stations":1,"metadata_tam_tier":"Tier II","metadata_service_area_sq_miles":17,"metadata_service_area_population":25290,"metadata_route_types_json":"{\"3\":5}","metadata_ntd_facilities_json":"{\"maintenance_facilities\":2,\"administrative_and_other_non_passenger_facilities\":1,\"passenger_stations_and_terminals\":1,\"parking_and_other_passenger_facilities\":0,\"total_facilities\":4,\"bus_transfer_centers\":1,\"elevated_fixed_guideway_stations\":0,\"at_grade_fixed_guideway_stations\":0,\"underground_fixed_guideway_stations\":0,\"simple_at_grade_platform_stations\":0,\"exclusive_grade_separated_platform_stations\":0,\"ferryboat_terminals\":0,\"surface_parking_lots\":0,\"parking_structures\":0}","metadata_tam_modes_json":"{\"DR\":{\"total_units_2024\":4,\"units_under_threshold_2024\":1,\"voms_2024\":4,\"total_modal_vrm_2024\":0,\"total_modal_upt_2024\":0},\"MB\":{\"total_units_2024\":12,\"units_under_threshold_2024\":0,\"voms_2024\":12,\"total_modal_vrm_2024\":0,\"total_modal_upt_2024\":0}}"},"geometry":{"type":"Point","coordinates":[-75.911636,43.975044]}},{"type":"Feature","properties":{"stop_id":"363814","stop_code":"363814","stop_name":"Hannaford Foods","stop_desc":"","zone_id":"","stop_url":"","location_type":"0","parent_station":"","stop_timezone":"","wheelchair_boarding":"0","platform_code":"","feed_id":"New_York__Watertown_Citibus__mdb_mdb-871","agency_name":"Watertown Citibus","route_count":0,"route_ids":"","route_short_names":"","route_types":"","route_type_names":"","routes_json":"[]","metadata_feed_id":"New_York__Watertown_Citibus__mdb_mdb-871","metadata_agency_names":"Watertown Citibus","metadata_ntd_id":"20215","metadata_ntd_match_method":"manual_override","metadata_ntd_agency":"City of Watertown NY, dba: CitiBus","metadata_ntd_city":"Watertown","metadata_ntd_state":"NY","metadata_gtfs_route_count":5,"metadata_gtfs_trip_count":87,"metadata_gtfs_shape_count":5,"metadata_gtfs_stop_count":28,"metadata_ntd_agency_voms":10,"metadata_ntd_total_facilities":4,"metadata_ntd_maintenance_facilities":2,"metadata_ntd_passenger_stations":1,"metadata_tam_tier":"Tier II","metadata_service_area_sq_miles":17,"metadata_service_area_population":25290,"metadata_route_types_json":"{\"3\":5}","metadata_ntd_facilities_json":"{\"maintenance_facilities\":2,\"administrative_and_other_non_passenger_facilities\":1,\"passenger_stations_and_terminals\":1,\"parking_and_other_passenger_facilities\":0,\"total_facilities\":4,\"bus_transfer_centers\":1,\"elevated_fixed_guideway_stations\":0,\"at_grade_fixed_guideway_stations\":0,\"underground_fixed_guideway_stations\":0,\"simple_at_grade_platform_stations\":0,\"exclusive_grade_separated_platform_stations\":0,\"ferryboat_terminals\":0,\"surface_parking_lots\":0,\"parking_structures\":0}","metadata_tam_modes_json":"{\"DR\":{\"total_units_2024\":4,\"units_under_threshold_2024\":1,\"voms_2024\":4,\"total_modal_vrm_2024\":0,\"total_modal_upt_2024\":0},\"MB\":{\"total_units_2024\":12,\"units_under_threshold_2024\":0,\"voms_2024\":12,\"total_modal_vrm_2024\":0,\"total_modal_upt_2024\":0}}"},"geometry":{"type":"Point","coordinates":[-75.95417,43.974041]}},{"type":"Feature","properties":{"stop_id":"363815","stop_code":"363815","stop_name":"Coffeen VanDuzee","stop_desc":"","zone_id":"","stop_url":"","location_type":"0","parent_station":"","stop_timezone":"","wheelchair_boarding":"0","platform_code":"","feed_id":"New_York__Watertown_Citibus__mdb_mdb-871","agency_name":"Watertown Citibus","route_count":1,"route_ids":"10697","route_short_names":"C-2","route_types":"3","route_type_names":"Bus","routes_json":"[{\"route_id\":\"10697\",\"route_short_name\":\"C-2\",\"route_long_name\":\"Coffeen - JCC\",\"route_type\":\"3\",\"route_type_name\":\"Bus\",\"route_color\":\"417505\",\"route_text_color\":\"FFFFFF\"}]","metadata_feed_id":"New_York__Watertown_Citibus__mdb_mdb-871","metadata_agency_names":"Watertown Citibus","metadata_ntd_id":"20215","metadata_ntd_match_method":"manual_override","metadata_ntd_agency":"City of Watertown NY, dba: CitiBus","metadata_ntd_city":"Watertown","metadata_ntd_state":"NY","metadata_gtfs_route_count":5,"metadata_gtfs_trip_count":87,"metadata_gtfs_shape_count":5,"metadata_gtfs_stop_count":28,"metadata_ntd_agency_voms":10,"metadata_ntd_total_facilities":4,"metadata_ntd_maintenance_facilities":2,"metadata_ntd_passenger_stations":1,"metadata_tam_tier":"Tier II","metadata_service_area_sq_miles":17,"metadata_service_area_population":25290,"metadata_route_types_json":"{\"3\":5}","metadata_ntd_facilities_json":"{\"maintenance_facilities\":2,\"administrative_and_other_non_passenger_facilities\":1,\"passenger_stations_and_terminals\":1,\"parking_and_other_passenger_facilities\":0,\"total_facilities\":4,\"bus_transfer_centers\":1,\"elevated_fixed_guideway_stations\":0,\"at_grade_fixed_guideway_stations\":0,\"underground_fixed_guideway_stations\":0,\"simple_at_grade_platform_stations\":0,\"exclusive_grade_separated_platform_stations\":0,\"ferryboat_terminals\":0,\"surface_parking_lots\":0,\"parking_structures\":0}","metadata_tam_modes_json":"{\"DR\":{\"total_units_2024\":4,\"units_under_threshold_2024\":1,\"voms_2024\":4,\"total_modal_vrm_2024\":0,\"total_modal_upt_2024\":0},\"MB\":{\"total_units_2024\":12,\"units_under_threshold_2024\":0,\"voms_2024\":12,\"total_modal_vrm_2024\":0,\"total_modal_upt_2024\":0}}"},"geometry":{"type":"Point","coordinates":[-75.926407,43.982735]}},{"type":"Feature","properties":{"stop_id":"363816","stop_code":"363816","stop_name":"Franklin Winslow","stop_desc":"","zone_id":"","stop_url":"","location_type":"0","parent_station":"","stop_timezone":"","wheelchair_boarding":"0","platform_code":"","feed_id":"New_York__Watertown_Citibus__mdb_mdb-871","agency_name":"Watertown Citibus","route_count":1,"route_ids":"10694","route_short_names":"A-2","route_types":"3","route_type_names":"Bus","routes_json":"[{\"route_id\":\"10694\",\"route_short_name\":\"A-2\",\"route_long_name\":\"Washington\",\"route_type\":\"3\",\"route_type_name\":\"Bus\",\"route_color\":\"6AFCF7\",\"route_text_color\":\"000000\"}]","metadata_feed_id":"New_York__Watertown_Citibus__mdb_mdb-871","metadata_agency_names":"Watertown Citibus","metadata_ntd_id":"20215","metadata_ntd_match_method":"manual_override","metadata_ntd_agency":"City of Watertown NY, dba: CitiBus","metadata_ntd_city":"Watertown","metadata_ntd_state":"NY","metadata_gtfs_route_count":5,"metadata_gtfs_trip_count":87,"metadata_gtfs_shape_count":5,"metadata_gtfs_stop_count":28,"metadata_ntd_agency_voms":10,"metadata_ntd_total_facilities":4,"metadata_ntd_maintenance_facilities":2,"metadata_ntd_passenger_stations":1,"metadata_tam_tier":"Tier II","metadata_service_area_sq_miles":17,"metadata_service_area_population":25290,"metadata_route_types_json":"{\"3\":5}","metadata_ntd_facilities_json":"{\"maintenance_facilities\":2,\"administrative_and_other_non_passenger_facilities\":1,\"passenger_stations_and_terminals\":1,\"parking_and_other_passenger_facilities\":0,\"total_facilities\":4,\"bus_transfer_centers\":1,\"elevated_fixed_guideway_stations\":0,\"at_grade_fixed_guideway_stations\":0,\"underground_fixed_guideway_stations\":0,\"simple_at_grade_platform_stations\":0,\"exclusive_grade_separated_platform_stations\":0,\"ferryboat_terminals\":0,\"surface_parking_lots\":0,\"parking_structures\":0}","metadata_tam_modes_json":"{\"DR\":{\"total_units_2024\":4,\"units_under_threshold_2024\":1,\"voms_2024\":4,\"total_modal_vrm_2024\":0,\"total_modal_upt_2024\":0},\"MB\":{\"total_units_2024\":12,\"units_under_threshold_2024\":0,\"voms_2024\":12,\"total_modal_vrm_2024\":0,\"total_modal_upt_2024\":0}}"},"geometry":{"type":"Point","coordinates":[-75.902954,43.969021]}},{"type":"Feature","properties":{"stop_id":"363817","stop_code":"363817","stop_name":"Curtis Apts","stop_desc":"","zone_id":"","stop_url":"","location_type":"0","parent_station":"","stop_timezone":"","wheelchair_boarding":"0","platform_code":"","feed_id":"New_York__Watertown_Citibus__mdb_mdb-871","agency_name":"Watertown Citibus","route_count":0,"route_ids":"","route_short_names":"","route_types":"","route_type_names":"","routes_json":"[]","metadata_feed_id":"New_York__Watertown_Citibus__mdb_mdb-871","metadata_agency_names":"Watertown Citibus","metadata_ntd_id":"20215","metadata_ntd_match_method":"manual_override","metadata_ntd_agency":"City of Watertown NY, dba: CitiBus","metadata_ntd_city":"Watertown","metadata_ntd_state":"NY","metadata_gtfs_route_count":5,"metadata_gtfs_trip_count":87,"metadata_gtfs_shape_count":5,"metadata_gtfs_stop_count":28,"metadata_ntd_agency_voms":10,"metadata_ntd_total_facilities":4,"metadata_ntd_maintenance_facilities":2,"metadata_ntd_passenger_stations":1,"metadata_tam_tier":"Tier II","metadata_service_area_sq_miles":17,"metadata_service_area_population":25290,"metadata_route_types_json":"{\"3\":5}","metadata_ntd_facilities_json":"{\"maintenance_facilities\":2,\"administrative_and_other_non_passenger_facilities\":1,\"passenger_stations_and_terminals\":1,\"parking_and_other_passenger_facilities\":0,\"total_facilities\":4,\"bus_transfer_centers\":1,\"elevated_fixed_guideway_stations\":0,\"at_grade_fixed_guideway_stations\":0,\"underground_fixed_guideway_stations\":0,\"simple_at_grade_platform_stations\":0,\"exclusive_grade_separated_platform_stations\":0,\"ferryboat_terminals\":0,\"surface_parking_lots\":0,\"parking_structures\":0}","metadata_tam_modes_json":"{\"DR\":{\"total_units_2024\":4,\"units_under_threshold_2024\":1,\"voms_2024\":4,\"total_modal_vrm_2024\":0,\"total_modal_upt_2024\":0},\"MB\":{\"total_units_2024\":12,\"units_under_threshold_2024\":0,\"voms_2024\":12,\"total_modal_vrm_2024\":0,\"total_modal_upt_2024\":0}}"},"geometry":{"type":"Point","coordinates":[-75.911255,43.980404]}},{"type":"Feature","properties":{"stop_id":"363818","stop_code":"363818","stop_name":"Jeff Comm Col","stop_desc":"","zone_id":"","stop_url":"","location_type":"0","parent_station":"","stop_timezone":"","wheelchair_boarding":"0","platform_code":"","feed_id":"New_York__Watertown_Citibus__mdb_mdb-871","agency_name":"Watertown Citibus","route_count":1,"route_ids":"10697","route_short_names":"C-2","route_types":"3","route_type_names":"Bus","routes_json":"[{\"route_id\":\"10697\",\"route_short_name\":\"C-2\",\"route_long_name\":\"Coffeen - JCC\",\"route_type\":\"3\",\"route_type_name\":\"Bus\",\"route_color\":\"417505\",\"route_text_color\":\"FFFFFF\"}]","metadata_feed_id":"New_York__Watertown_Citibus__mdb_mdb-871","metadata_agency_names":"Watertown Citibus","metadata_ntd_id":"20215","metadata_ntd_match_method":"manual_override","metadata_ntd_agency":"City of Watertown NY, dba: CitiBus","metadata_ntd_city":"Watertown","metadata_ntd_state":"NY","metadata_gtfs_route_count":5,"metadata_gtfs_trip_count":87,"metadata_gtfs_shape_count":5,"metadata_gtfs_stop_count":28,"metadata_ntd_agency_voms":10,"metadata_ntd_total_facilities":4,"metadata_ntd_maintenance_facilities":2,"metadata_ntd_passenger_stations":1,"metadata_tam_tier":"Tier II","metadata_service_area_sq_miles":17,"metadata_service_area_population":25290,"metadata_route_types_json":"{\"3\":5}","metadata_ntd_facilities_json":"{\"maintenance_facilities\":2,\"administrative_and_other_non_passenger_facilities\":1,\"passenger_stations_and_terminals\":1,\"parking_and_other_passenger_facilities\":0,\"total_facilities\":4,\"bus_transfer_centers\":1,\"elevated_fixed_guideway_stations\":0,\"at_grade_fixed_guideway_stations\":0,\"underground_fixed_guideway_stations\":0,\"simple_at_grade_platform_stations\":0,\"exclusive_grade_separated_platform_stations\":0,\"ferryboat_terminals\":0,\"surface_parking_lots\":0,\"parking_structures\":0}","metadata_tam_modes_json":"{\"DR\":{\"total_units_2024\":4,\"units_under_threshold_2024\":1,\"voms_2024\":4,\"total_modal_vrm_2024\":0,\"total_modal_upt_2024\":0},\"MB\":{\"total_units_2024\":12,\"units_under_threshold_2024\":0,\"voms_2024\":12,\"total_modal_vrm_2024\":0,\"total_modal_upt_2024\":0}}"},"geometry":{"type":"Point","coordinates":[-75.937263,43.991795]}},{"type":"Feature","properties":{"stop_id":"363819","stop_code":"363819","stop_name":"Huntington Heights","stop_desc":"","zone_id":"","stop_url":"","location_type":"0","parent_station":"","stop_timezone":"","wheelchair_boarding":"0","platform_code":"","feed_id":"New_York__Watertown_Citibus__mdb_mdb-871","agency_name":"Watertown Citibus","route_count":1,"route_ids":"10693","route_short_names":"A-1","route_types":"3","route_type_names":"Bus","routes_json":"[{\"route_id\":\"10693\",\"route_short_name\":\"A-1\",\"route_long_name\":\"State-East Main\",\"route_type\":\"3\",\"route_type_name\":\"Bus\",\"route_color\":\"226FC9\",\"route_text_color\":\"FFFFFF\"}]","metadata_feed_id":"New_York__Watertown_Citibus__mdb_mdb-871","metadata_agency_names":"Watertown Citibus","metadata_ntd_id":"20215","metadata_ntd_match_method":"manual_override","metadata_ntd_agency":"City of Watertown NY, dba: CitiBus","metadata_ntd_city":"Watertown","metadata_ntd_state":"NY","metadata_gtfs_route_count":5,"metadata_gtfs_trip_count":87,"metadata_gtfs_shape_count":5,"metadata_gtfs_stop_count":28,"metadata_ntd_agency_voms":10,"metadata_ntd_total_facilities":4,"metadata_ntd_maintenance_facilities":2,"metadata_ntd_passenger_stations":1,"metadata_tam_tier":"Tier II","metadata_service_area_sq_miles":17,"metadata_service_area_population":25290,"metadata_route_types_json":"{\"3\":5}","metadata_ntd_facilities_json":"{\"maintenance_facilities\":2,\"administrative_and_other_non_passenger_facilities\":1,\"passenger_stations_and_terminals\":1,\"parking_and_other_passenger_facilities\":0,\"total_facilities\":4,\"bus_transfer_centers\":1,\"elevated_fixed_guideway_stations\":0,\"at_grade_fixed_guideway_stations\":0,\"underground_fixed_guideway_stations\":0,\"simple_at_grade_platform_stations\":0,\"exclusive_grade_separated_platform_stations\":0,\"ferryboat_terminals\":0,\"surface_parking_lots\":0,\"parking_structures\":0}","metadata_tam_modes_json":"{\"DR\":{\"total_units_2024\":4,\"units_under_threshold_2024\":1,\"voms_2024\":4,\"total_modal_vrm_2024\":0,\"total_modal_upt_2024\":0},\"MB\":{\"total_units_2024\":12,\"units_under_threshold_2024\":0,\"voms_2024\":12,\"total_modal_vrm_2024\":0,\"total_modal_upt_2024\":0}}"},"geometry":{"type":"Point","coordinates":[-75.881004,43.977917]}},{"type":"Feature","properties":{"stop_id":"363820","stop_code":"363820","stop_name":"Salmon Run Mall","stop_desc":"","zone_id":"","stop_url":"","location_type":"0","parent_station":"","stop_timezone":"","wheelchair_boarding":"0","platform_code":"","feed_id":"New_York__Watertown_Citibus__mdb_mdb-871","agency_name":"Watertown Citibus","route_count":1,"route_ids":"10695","route_short_names":"B-1","route_types":"3","route_type_names":"Bus","routes_json":"[{\"route_id\":\"10695\",\"route_short_name\":\"B-1\",\"route_long_name\":\"Arsenal - Mall\",\"route_type\":\"3\",\"route_type_name\":\"Bus\",\"route_color\":\"D0021B\",\"route_text_color\":\"FFFFFF\"}]","metadata_feed_id":"New_York__Watertown_Citibus__mdb_mdb-871","metadata_agency_names":"Watertown Citibus","metadata_ntd_id":"20215","metadata_ntd_match_method":"manual_override","metadata_ntd_agency":"City of Watertown NY, dba: CitiBus","metadata_ntd_city":"Watertown","metadata_ntd_state":"NY","metadata_gtfs_route_count":5,"metadata_gtfs_trip_count":87,"metadata_gtfs_shape_count":5,"metadata_gtfs_stop_count":28,"metadata_ntd_agency_voms":10,"metadata_ntd_total_facilities":4,"metadata_ntd_maintenance_facilities":2,"metadata_ntd_passenger_stations":1,"metadata_tam_tier":"Tier II","metadata_service_area_sq_miles":17,"metadata_service_area_population":25290,"metadata_route_types_json":"{\"3\":5}","metadata_ntd_facilities_json":"{\"maintenance_facilities\":2,\"administrative_and_other_non_passenger_facilities\":1,\"passenger_stations_and_terminals\":1,\"parking_and_other_passenger_facilities\":0,\"total_facilities\":4,\"bus_transfer_centers\":1,\"elevated_fixed_guideway_stations\":0,\"at_grade_fixed_guideway_stations\":0,\"underground_fixed_guideway_stations\":0,\"simple_at_grade_platform_stations\":0,\"exclusive_grade_separated_platform_stations\":0,\"ferryboat_terminals\":0,\"surface_parking_lots\":0,\"parking_structures\":0}","metadata_tam_modes_json":"{\"DR\":{\"total_units_2024\":4,\"units_under_threshold_2024\":1,\"voms_2024\":4,\"total_modal_vrm_2024\":0,\"total_modal_upt_2024\":0},\"MB\":{\"total_units_2024\":12,\"units_under_threshold_2024\":0,\"voms_2024\":12,\"total_modal_vrm_2024\":0,\"total_modal_upt_2024\":0}}"},"geometry":{"type":"Point","coordinates":[-75.951576,43.976524]}},{"type":"Feature","properties":{"stop_id":"363822","stop_code":"363822","stop_name":"Seaway Plaza","stop_desc":"","zone_id":"","stop_url":"","location_type":"0","parent_station":"","stop_timezone":"","wheelchair_boarding":"0","platform_code":"","feed_id":"New_York__Watertown_Citibus__mdb_mdb-871","agency_name":"Watertown Citibus","route_count":1,"route_ids":"10696","route_short_names":"C-1","route_types":"3","route_type_names":"Bus","routes_json":"[{\"route_id\":\"10696\",\"route_short_name\":\"C-1\",\"route_long_name\":\"Northside Loop\",\"route_type\":\"3\",\"route_type_name\":\"Bus\",\"route_color\":\"7ED321\",\"route_text_color\":\"000000\"}]","metadata_feed_id":"New_York__Watertown_Citibus__mdb_mdb-871","metadata_agency_names":"Watertown Citibus","metadata_ntd_id":"20215","metadata_ntd_match_method":"manual_override","metadata_ntd_agency":"City of Watertown NY, dba: CitiBus","metadata_ntd_city":"Watertown","metadata_ntd_state":"NY","metadata_gtfs_route_count":5,"metadata_gtfs_trip_count":87,"metadata_gtfs_shape_count":5,"metadata_gtfs_stop_count":28,"metadata_ntd_agency_voms":10,"metadata_ntd_total_facilities":4,"metadata_ntd_maintenance_facilities":2,"metadata_ntd_passenger_stations":1,"metadata_tam_tier":"Tier II","metadata_service_area_sq_miles":17,"metadata_service_area_population":25290,"metadata_route_types_json":"{\"3\":5}","metadata_ntd_facilities_json":"{\"maintenance_facilities\":2,\"administrative_and_other_non_passenger_facilities\":1,\"passenger_stations_and_terminals\":1,\"parking_and_other_passenger_facilities\":0,\"total_facilities\":4,\"bus_transfer_centers\":1,\"elevated_fixed_guideway_stations\":0,\"at_grade_fixed_guideway_stations\":0,\"underground_fixed_guideway_stations\":0,\"simple_at_grade_platform_stations\":0,\"exclusive_grade_separated_platform_stations\":0,\"ferryboat_terminals\":0,\"surface_parking_lots\":0,\"parking_structures\":0}","metadata_tam_modes_json":"{\"DR\":{\"total_units_2024\":4,\"units_under_threshold_2024\":1,\"voms_2024\":4,\"total_modal_vrm_2024\":0,\"total_modal_upt_2024\":0},\"MB\":{\"total_units_2024\":12,\"units_under_threshold_2024\":0,\"voms_2024\":12,\"total_modal_vrm_2024\":0,\"total_modal_upt_2024\":0}}"},"geometry":{"type":"Point","coordinates":[-75.896065,43.989449]}},{"type":"Feature","properties":{"stop_id":"363823","stop_code":"363823","stop_name":"LeRay Apts","stop_desc":"","zone_id":"","stop_url":"","location_type":"0","parent_station":"","stop_timezone":"","wheelchair_boarding":"0","platform_code":"","feed_id":"New_York__Watertown_Citibus__mdb_mdb-871","agency_name":"Watertown Citibus","route_count":1,"route_ids":"10696","route_short_names":"C-1","route_types":"3","route_type_names":"Bus","routes_json":"[{\"route_id\":\"10696\",\"route_short_name\":\"C-1\",\"route_long_name\":\"Northside Loop\",\"route_type\":\"3\",\"route_type_name\":\"Bus\",\"route_color\":\"7ED321\",\"route_text_color\":\"000000\"}]","metadata_feed_id":"New_York__Watertown_Citibus__mdb_mdb-871","metadata_agency_names":"Watertown Citibus","metadata_ntd_id":"20215","metadata_ntd_match_method":"manual_override","metadata_ntd_agency":"City of Watertown NY, dba: CitiBus","metadata_ntd_city":"Watertown","metadata_ntd_state":"NY","metadata_gtfs_route_count":5,"metadata_gtfs_trip_count":87,"metadata_gtfs_shape_count":5,"metadata_gtfs_stop_count":28,"metadata_ntd_agency_voms":10,"metadata_ntd_total_facilities":4,"metadata_ntd_maintenance_facilities":2,"metadata_ntd_passenger_stations":1,"metadata_tam_tier":"Tier II","metadata_service_area_sq_miles":17,"metadata_service_area_population":25290,"metadata_route_types_json":"{\"3\":5}","metadata_ntd_facilities_json":"{\"maintenance_facilities\":2,\"administrative_and_other_non_passenger_facilities\":1,\"passenger_stations_and_terminals\":1,\"parking_and_other_passenger_facilities\":0,\"total_facilities\":4,\"bus_transfer_centers\":1,\"elevated_fixed_guideway_stations\":0,\"at_grade_fixed_guideway_stations\":0,\"underground_fixed_guideway_stations\":0,\"simple_at_grade_platform_stations\":0,\"exclusive_grade_separated_platform_stations\":0,\"ferryboat_terminals\":0,\"surface_parking_lots\":0,\"parking_structures\":0}","metadata_tam_modes_json":"{\"DR\":{\"total_units_2024\":4,\"units_under_threshold_2024\":1,\"voms_2024\":4,\"total_modal_vrm_2024\":0,\"total_modal_upt_2024\":0},\"MB\":{\"total_units_2024\":12,\"units_under_threshold_2024\":0,\"voms_2024\":12,\"total_modal_vrm_2024\":0,\"total_modal_upt_2024\":0}}"},"geometry":{"type":"Point","coordinates":[-75.910332,43.986561]}},{"type":"Feature","properties":{"stop_id":"363825","stop_code":"363825","stop_name":"Pharmhouse","stop_desc":"","zone_id":"","stop_url":"","location_type":"0","parent_station":"","stop_timezone":"","wheelchair_boarding":"0","platform_code":"","feed_id":"New_York__Watertown_Citibus__mdb_mdb-871","agency_name":"Watertown Citibus","route_count":0,"route_ids":"","route_short_names":"","route_types":"","route_type_names":"","routes_json":"[]","metadata_feed_id":"New_York__Watertown_Citibus__mdb_mdb-871","metadata_agency_names":"Watertown Citibus","metadata_ntd_id":"20215","metadata_ntd_match_method":"manual_override","metadata_ntd_agency":"City of Watertown NY, dba: CitiBus","metadata_ntd_city":"Watertown","metadata_ntd_state":"NY","metadata_gtfs_route_count":5,"metadata_gtfs_trip_count":87,"metadata_gtfs_shape_count":5,"metadata_gtfs_stop_count":28,"metadata_ntd_agency_voms":10,"metadata_ntd_total_facilities":4,"metadata_ntd_maintenance_facilities":2,"metadata_ntd_passenger_stations":1,"metadata_tam_tier":"Tier II","metadata_service_area_sq_miles":17,"metadata_service_area_population":25290,"metadata_route_types_json":"{\"3\":5}","metadata_ntd_facilities_json":"{\"maintenance_facilities\":2,\"administrative_and_other_non_passenger_facilities\":1,\"passenger_stations_and_terminals\":1,\"parking_and_other_passenger_facilities\":0,\"total_facilities\":4,\"bus_transfer_centers\":1,\"elevated_fixed_guideway_stations\":0,\"at_grade_fixed_guideway_stations\":0,\"underground_fixed_guideway_stations\":0,\"simple_at_grade_platform_stations\":0,\"exclusive_grade_separated_platform_stations\":0,\"ferryboat_terminals\":0,\"surface_parking_lots\":0,\"parking_structures\":0}","metadata_tam_modes_json":"{\"DR\":{\"total_units_2024\":4,\"units_under_threshold_2024\":1,\"voms_2024\":4,\"total_modal_vrm_2024\":0,\"total_modal_upt_2024\":0},\"MB\":{\"total_units_2024\":12,\"units_under_threshold_2024\":0,\"voms_2024\":12,\"total_modal_vrm_2024\":0,\"total_modal_upt_2024\":0}}"},"geometry":{"type":"Point","coordinates":[-75.938705,43.976757]}},{"type":"Feature","properties":{"stop_id":"363826","stop_code":"363826","stop_name":"Kelsey Creek","stop_desc":"","zone_id":"","stop_url":"","location_type":"0","parent_station":"","stop_timezone":"","wheelchair_boarding":"0","platform_code":"","feed_id":"New_York__Watertown_Citibus__mdb_mdb-871","agency_name":"Watertown Citibus","route_count":1,"route_ids":"10696","route_short_names":"C-1","route_types":"3","route_type_names":"Bus","routes_json":"[{\"route_id\":\"10696\",\"route_short_name\":\"C-1\",\"route_long_name\":\"Northside Loop\",\"route_type\":\"3\",\"route_type_name\":\"Bus\",\"route_color\":\"7ED321\",\"route_text_color\":\"000000\"}]","metadata_feed_id":"New_York__Watertown_Citibus__mdb_mdb-871","metadata_agency_names":"Watertown Citibus","metadata_ntd_id":"20215","metadata_ntd_match_method":"manual_override","metadata_ntd_agency":"City of Watertown NY, dba: CitiBus","metadata_ntd_city":"Watertown","metadata_ntd_state":"NY","metadata_gtfs_route_count":5,"metadata_gtfs_trip_count":87,"metadata_gtfs_shape_count":5,"metadata_gtfs_stop_count":28,"metadata_ntd_agency_voms":10,"metadata_ntd_total_facilities":4,"metadata_ntd_maintenance_facilities":2,"metadata_ntd_passenger_stations":1,"metadata_tam_tier":"Tier II","metadata_service_area_sq_miles":17,"metadata_service_area_population":25290,"metadata_route_types_json":"{\"3\":5}","metadata_ntd_facilities_json":"{\"maintenance_facilities\":2,\"administrative_and_other_non_passenger_facilities\":1,\"passenger_stations_and_terminals\":1,\"parking_and_other_passenger_facilities\":0,\"total_facilities\":4,\"bus_transfer_centers\":1,\"elevated_fixed_guideway_stations\":0,\"at_grade_fixed_guideway_stations\":0,\"underground_fixed_guideway_stations\":0,\"simple_at_grade_platform_stations\":0,\"exclusive_grade_separated_platform_stations\":0,\"ferryboat_terminals\":0,\"surface_parking_lots\":0,\"parking_structures\":0}","metadata_tam_modes_json":"{\"DR\":{\"total_units_2024\":4,\"units_under_threshold_2024\":1,\"voms_2024\":4,\"total_modal_vrm_2024\":0,\"total_modal_upt_2024\":0},\"MB\":{\"total_units_2024\":12,\"units_under_threshold_2024\":0,\"voms_2024\":12,\"total_modal_vrm_2024\":0,\"total_modal_upt_2024\":0}}"},"geometry":{"type":"Point","coordinates":[-75.920288,43.994343]}},{"type":"Feature","properties":{"stop_id":"vg4c","stop_code":"","stop_name":"Factory Street","stop_desc":"Factory & High","zone_id":"","stop_url":"","location_type":"","parent_station":"","stop_timezone":"","wheelchair_boarding":"","platform_code":"","feed_id":"New_York__Watertown_Citibus__mdb_mdb-871","agency_name":"Watertown Citibus","route_count":1,"route_ids":"10696","route_short_names":"C-1","route_types":"3","route_type_names":"Bus","routes_json":"[{\"route_id\":\"10696\",\"route_short_name\":\"C-1\",\"route_long_name\":\"Northside Loop\",\"route_type\":\"3\",\"route_type_name\":\"Bus\",\"route_color\":\"7ED321\",\"route_text_color\":\"000000\"}]","metadata_feed_id":"New_York__Watertown_Citibus__mdb_mdb-871","metadata_agency_names":"Watertown Citibus","metadata_ntd_id":"20215","metadata_ntd_match_method":"manual_override","metadata_ntd_agency":"City of Watertown NY, dba: CitiBus","metadata_ntd_city":"Watertown","metadata_ntd_state":"NY","metadata_gtfs_route_count":5,"metadata_gtfs_trip_count":87,"metadata_gtfs_shape_count":5,"metadata_gtfs_stop_count":28,"metadata_ntd_agency_voms":10,"metadata_ntd_total_facilities":4,"metadata_ntd_maintenance_facilities":2,"metadata_ntd_passenger_stations":1,"metadata_tam_tier":"Tier II","metadata_service_area_sq_miles":17,"metadata_service_area_population":25290,"metadata_route_types_json":"{\"3\":5}","metadata_ntd_facilities_json":"{\"maintenance_facilities\":2,\"administrative_and_other_non_passenger_facilities\":1,\"passenger_stations_and_terminals\":1,\"parking_and_other_passenger_facilities\":0,\"total_facilities\":4,\"bus_transfer_centers\":1,\"elevated_fixed_guideway_stations\":0,\"at_grade_fixed_guideway_stations\":0,\"underground_fixed_guideway_stations\":0,\"simple_at_grade_platform_stations\":0,\"exclusive_grade_separated_platform_stations\":0,\"ferryboat_terminals\":0,\"surface_parking_lots\":0,\"parking_structures\":0}","metadata_tam_modes_json":"{\"DR\":{\"total_units_2024\":4,\"units_under_threshold_2024\":1,\"voms_2024\":4,\"total_modal_vrm_2024\":0,\"total_modal_upt_2024\":0},\"MB\":{\"total_units_2024\":12,\"units_under_threshold_2024\":0,\"voms_2024\":12,\"total_modal_vrm_2024\":0,\"total_modal_upt_2024\":0}}"},"geometry":{"type":"Point","coordinates":[-75.900103,43.977395]}},{"type":"Feature","properties":{"stop_id":"gqs1","stop_code":"","stop_name":"Samaritan Summit Village","stop_desc":"22691 Campus Drive","zone_id":"","stop_url":"","location_type":"","parent_station":"","stop_timezone":"","wheelchair_boarding":"","platform_code":"","feed_id":"New_York__Watertown_Citibus__mdb_mdb-871","agency_name":"Watertown Citibus","route_count":0,"route_ids":"","route_short_names":"","route_types":"","route_type_names":"","routes_json":"[]","metadata_feed_id":"New_York__Watertown_Citibus__mdb_mdb-871","metadata_agency_names":"Watertown Citibus","metadata_ntd_id":"20215","metadata_ntd_match_method":"manual_override","metadata_ntd_agency":"City of Watertown NY, dba: CitiBus","metadata_ntd_city":"Watertown","metadata_ntd_state":"NY","metadata_gtfs_route_count":5,"metadata_gtfs_trip_count":87,"metadata_gtfs_shape_count":5,"metadata_gtfs_stop_count":28,"metadata_ntd_agency_voms":10,"metadata_ntd_total_facilities":4,"metadata_ntd_maintenance_facilities":2,"metadata_ntd_passenger_stations":1,"metadata_tam_tier":"Tier II","metadata_service_area_sq_miles":17,"metadata_service_area_population":25290,"metadata_route_types_json":"{\"3\":5}","metadata_ntd_facilities_json":"{\"maintenance_facilities\":2,\"administrative_and_other_non_passenger_facilities\":1,\"passenger_stations_and_terminals\":1,\"parking_and_other_passenger_facilities\":0,\"total_facilities\":4,\"bus_transfer_centers\":1,\"elevated_fixed_guideway_stations\":0,\"at_grade_fixed_guideway_stations\":0,\"underground_fixed_guideway_stations\":0,\"simple_at_grade_platform_stations\":0,\"exclusive_grade_separated_platform_stations\":0,\"ferryboat_terminals\":0,\"surface_parking_lots\":0,\"parking_structures\":0}","metadata_tam_modes_json":"{\"DR\":{\"total_units_2024\":4,\"units_under_threshold_2024\":1,\"voms_2024\":4,\"total_modal_vrm_2024\":0,\"total_modal_upt_2024\":0},\"MB\":{\"total_units_2024\":12,\"units_under_threshold_2024\":0,\"voms_2024\":12,\"total_modal_vrm_2024\":0,\"total_modal_upt_2024\":0}}"},"geometry":{"type":"Point","coordinates":[-75.913288,43.947218]}},{"type":"Feature","properties":{"stop_id":"o0ch","stop_code":"","stop_name":"Big Lots","stop_desc":"","zone_id":"","stop_url":"","location_type":"","parent_station":"","stop_timezone":"","wheelchair_boarding":"","platform_code":"","feed_id":"New_York__Watertown_Citibus__mdb_mdb-871","agency_name":"Watertown Citibus","route_count":1,"route_ids":"10695","route_short_names":"B-1","route_types":"3","route_type_names":"Bus","routes_json":"[{\"route_id\":\"10695\",\"route_short_name\":\"B-1\",\"route_long_name\":\"Arsenal - Mall\",\"route_type\":\"3\",\"route_type_name\":\"Bus\",\"route_color\":\"D0021B\",\"route_text_color\":\"FFFFFF\"}]","metadata_feed_id":"New_York__Watertown_Citibus__mdb_mdb-871","metadata_agency_names":"Watertown Citibus","metadata_ntd_id":"20215","metadata_ntd_match_method":"manual_override","metadata_ntd_agency":"City of Watertown NY, dba: CitiBus","metadata_ntd_city":"Watertown","metadata_ntd_state":"NY","metadata_gtfs_route_count":5,"metadata_gtfs_trip_count":87,"metadata_gtfs_shape_count":5,"metadata_gtfs_stop_count":28,"metadata_ntd_agency_voms":10,"metadata_ntd_total_facilities":4,"metadata_ntd_maintenance_facilities":2,"metadata_ntd_passenger_stations":1,"metadata_tam_tier":"Tier II","metadata_service_area_sq_miles":17,"metadata_service_area_population":25290,"metadata_route_types_json":"{\"3\":5}","metadata_ntd_facilities_json":"{\"maintenance_facilities\":2,\"administrative_and_other_non_passenger_facilities\":1,\"passenger_stations_and_terminals\":1,\"parking_and_other_passenger_facilities\":0,\"total_facilities\":4,\"bus_transfer_centers\":1,\"elevated_fixed_guideway_stations\":0,\"at_grade_fixed_guideway_stations\":0,\"underground_fixed_guideway_stations\":0,\"simple_at_grade_platform_stations\":0,\"exclusive_grade_separated_platform_stations\":0,\"ferryboat_terminals\":0,\"surface_parking_lots\":0,\"parking_structures\":0}","metadata_tam_modes_json":"{\"DR\":{\"total_units_2024\":4,\"units_under_threshold_2024\":1,\"voms_2024\":4,\"total_modal_vrm_2024\":0,\"total_modal_upt_2024\":0},\"MB\":{\"total_units_2024\":12,\"units_under_threshold_2024\":0,\"voms_2024\":12,\"total_modal_vrm_2024\":0,\"total_modal_upt_2024\":0}}"},"geometry":{"type":"Point","coordinates":[-75.939078,43.97443]}},{"type":"Feature","properties":{"stop_id":"363824","stop_code":"363824","stop_name":"Price Chopper","stop_desc":"","zone_id":"","stop_url":"","location_type":"0","parent_station":"","stop_timezone":"","wheelchair_boarding":"0","platform_code":"","feed_id":"New_York__Watertown_Citibus__mdb_mdb-871","agency_name":"Watertown Citibus","route_count":1,"route_ids":"10695","route_short_names":"B-1","route_types":"3","route_type_names":"Bus","routes_json":"[{\"route_id\":\"10695\",\"route_short_name\":\"B-1\",\"route_long_name\":\"Arsenal - Mall\",\"route_type\":\"3\",\"route_type_name\":\"Bus\",\"route_color\":\"D0021B\",\"route_text_color\":\"FFFFFF\"}]","metadata_feed_id":"New_York__Watertown_Citibus__mdb_mdb-871","metadata_agency_names":"Watertown Citibus","metadata_ntd_id":"20215","metadata_ntd_match_method":"manual_override","metadata_ntd_agency":"City of Watertown NY, dba: CitiBus","metadata_ntd_city":"Watertown","metadata_ntd_state":"NY","metadata_gtfs_route_count":5,"metadata_gtfs_trip_count":87,"metadata_gtfs_shape_count":5,"metadata_gtfs_stop_count":28,"metadata_ntd_agency_voms":10,"metadata_ntd_total_facilities":4,"metadata_ntd_maintenance_facilities":2,"metadata_ntd_passenger_stations":1,"metadata_tam_tier":"Tier II","metadata_service_area_sq_miles":17,"metadata_service_area_population":25290,"metadata_route_types_json":"{\"3\":5}","metadata_ntd_facilities_json":"{\"maintenance_facilities\":2,\"administrative_and_other_non_passenger_facilities\":1,\"passenger_stations_and_terminals\":1,\"parking_and_other_passenger_facilities\":0,\"total_facilities\":4,\"bus_transfer_centers\":1,\"elevated_fixed_guideway_stations\":0,\"at_grade_fixed_guideway_stations\":0,\"underground_fixed_guideway_stations\":0,\"simple_at_grade_platform_stations\":0,\"exclusive_grade_separated_platform_stations\":0,\"ferryboat_terminals\":0,\"surface_parking_lots\":0,\"parking_structures\":0}","metadata_tam_modes_json":"{\"DR\":{\"total_units_2024\":4,\"units_under_threshold_2024\":1,\"voms_2024\":4,\"total_modal_vrm_2024\":0,\"total_modal_upt_2024\":0},\"MB\":{\"total_units_2024\":12,\"units_under_threshold_2024\":0,\"voms_2024\":12,\"total_modal_vrm_2024\":0,\"total_modal_upt_2024\":0}}"},"geometry":{"type":"Point","coordinates":[-75.945356,43.975415]}},{"type":"Feature","properties":{"stop_id":"363821","stop_code":"363821","stop_name":"Stateway Plaza","stop_desc":"","zone_id":"","stop_url":"","location_type":"0","parent_station":"","stop_timezone":"","wheelchair_boarding":"0","platform_code":"","feed_id":"New_York__Watertown_Citibus__mdb_mdb-871","agency_name":"Watertown Citibus","route_count":1,"route_ids":"10697","route_short_names":"C-2","route_types":"3","route_type_names":"Bus","routes_json":"[{\"route_id\":\"10697\",\"route_short_name\":\"C-2\",\"route_long_name\":\"Coffeen - JCC\",\"route_type\":\"3\",\"route_type_name\":\"Bus\",\"route_color\":\"417505\",\"route_text_color\":\"FFFFFF\"}]","metadata_feed_id":"New_York__Watertown_Citibus__mdb_mdb-871","metadata_agency_names":"Watertown Citibus","metadata_ntd_id":"20215","metadata_ntd_match_method":"manual_override","metadata_ntd_agency":"City of Watertown NY, dba: CitiBus","metadata_ntd_city":"Watertown","metadata_ntd_state":"NY","metadata_gtfs_route_count":5,"metadata_gtfs_trip_count":87,"metadata_gtfs_shape_count":5,"metadata_gtfs_stop_count":28,"metadata_ntd_agency_voms":10,"metadata_ntd_total_facilities":4,"metadata_ntd_maintenance_facilities":2,"metadata_ntd_passenger_stations":1,"metadata_tam_tier":"Tier II","metadata_service_area_sq_miles":17,"metadata_service_area_population":25290,"metadata_route_types_json":"{\"3\":5}","metadata_ntd_facilities_json":"{\"maintenance_facilities\":2,\"administrative_and_other_non_passenger_facilities\":1,\"passenger_stations_and_terminals\":1,\"parking_and_other_passenger_facilities\":0,\"total_facilities\":4,\"bus_transfer_centers\":1,\"elevated_fixed_guideway_stations\":0,\"at_grade_fixed_guideway_stations\":0,\"underground_fixed_guideway_stations\":0,\"simple_at_grade_platform_stations\":0,\"exclusive_grade_separated_platform_stations\":0,\"ferryboat_terminals\":0,\"surface_parking_lots\":0,\"parking_structures\":0}","metadata_tam_modes_json":"{\"DR\":{\"total_units_2024\":4,\"units_under_threshold_2024\":1,\"voms_2024\":4,\"total_modal_vrm_2024\":0,\"total_modal_upt_2024\":0},\"MB\":{\"total_units_2024\":12,\"units_under_threshold_2024\":0,\"voms_2024\":12,\"total_modal_vrm_2024\":0,\"total_modal_upt_2024\":0}}"},"geometry":{"type":"Point","coordinates":[-75.944243,43.979377]}},{"type":"Feature","properties":{"stop_id":"jdhl","stop_code":"","stop_name":"Walmart Outer - Arsenal Street Parking","stop_desc":"","zone_id":"","stop_url":"","location_type":"","parent_station":"","stop_timezone":"","wheelchair_boarding":"","platform_code":"","feed_id":"New_York__Watertown_Citibus__mdb_mdb-871","agency_name":"Watertown Citibus","route_count":1,"route_ids":"10695","route_short_names":"B-1","route_types":"3","route_type_names":"Bus","routes_json":"[{\"route_id\":\"10695\",\"route_short_name\":\"B-1\",\"route_long_name\":\"Arsenal - Mall\",\"route_type\":\"3\",\"route_type_name\":\"Bus\",\"route_color\":\"D0021B\",\"route_text_color\":\"FFFFFF\"}]","metadata_feed_id":"New_York__Watertown_Citibus__mdb_mdb-871","metadata_agency_names":"Watertown Citibus","metadata_ntd_id":"20215","metadata_ntd_match_method":"manual_override","metadata_ntd_agency":"City of Watertown NY, dba: CitiBus","metadata_ntd_city":"Watertown","metadata_ntd_state":"NY","metadata_gtfs_route_count":5,"metadata_gtfs_trip_count":87,"metadata_gtfs_shape_count":5,"metadata_gtfs_stop_count":28,"metadata_ntd_agency_voms":10,"metadata_ntd_total_facilities":4,"metadata_ntd_maintenance_facilities":2,"metadata_ntd_passenger_stations":1,"metadata_tam_tier":"Tier II","metadata_service_area_sq_miles":17,"metadata_service_area_population":25290,"metadata_route_types_json":"{\"3\":5}","metadata_ntd_facilities_json":"{\"maintenance_facilities\":2,\"administrative_and_other_non_passenger_facilities\":1,\"passenger_stations_and_terminals\":1,\"parking_and_other_passenger_facilities\":0,\"total_facilities\":4,\"bus_transfer_centers\":1,\"elevated_fixed_guideway_stations\":0,\"at_grade_fixed_guideway_stations\":0,\"underground_fixed_guideway_stations\":0,\"simple_at_grade_platform_stations\":0,\"exclusive_grade_separated_platform_stations\":0,\"ferryboat_terminals\":0,\"surface_parking_lots\":0,\"parking_structures\":0}","metadata_tam_modes_json":"{\"DR\":{\"total_units_2024\":4,\"units_under_threshold_2024\":1,\"voms_2024\":4,\"total_modal_vrm_2024\":0,\"total_modal_upt_2024\":0},\"MB\":{\"total_units_2024\":12,\"units_under_threshold_2024\":0,\"voms_2024\":12,\"total_modal_vrm_2024\":0,\"total_modal_upt_2024\":0}}"},"geometry":{"type":"Point","coordinates":[-75.95886,43.974943]}},{"type":"Feature","properties":{"stop_id":"tdou","stop_code":"","stop_name":"Target - Towne Center Parking","stop_desc":"","zone_id":"","stop_url":"","location_type":"","parent_station":"","stop_timezone":"","wheelchair_boarding":"","platform_code":"","feed_id":"New_York__Watertown_Citibus__mdb_mdb-871","agency_name":"Watertown Citibus","route_count":1,"route_ids":"10695","route_short_names":"B-1","route_types":"3","route_type_names":"Bus","routes_json":"[{\"route_id\":\"10695\",\"route_short_name\":\"B-1\",\"route_long_name\":\"Arsenal - Mall\",\"route_type\":\"3\",\"route_type_name\":\"Bus\",\"route_color\":\"D0021B\",\"route_text_color\":\"FFFFFF\"}]","metadata_feed_id":"New_York__Watertown_Citibus__mdb_mdb-871","metadata_agency_names":"Watertown Citibus","metadata_ntd_id":"20215","metadata_ntd_match_method":"manual_override","metadata_ntd_agency":"City of Watertown NY, dba: CitiBus","metadata_ntd_city":"Watertown","metadata_ntd_state":"NY","metadata_gtfs_route_count":5,"metadata_gtfs_trip_count":87,"metadata_gtfs_shape_count":5,"metadata_gtfs_stop_count":28,"metadata_ntd_agency_voms":10,"metadata_ntd_total_facilities":4,"metadata_ntd_maintenance_facilities":2,"metadata_ntd_passenger_stations":1,"metadata_tam_tier":"Tier II","metadata_service_area_sq_miles":17,"metadata_service_area_population":25290,"metadata_route_types_json":"{\"3\":5}","metadata_ntd_facilities_json":"{\"maintenance_facilities\":2,\"administrative_and_other_non_passenger_facilities\":1,\"passenger_stations_and_terminals\":1,\"parking_and_other_passenger_facilities\":0,\"total_facilities\":4,\"bus_transfer_centers\":1,\"elevated_fixed_guideway_stations\":0,\"at_grade_fixed_guideway_stations\":0,\"underground_fixed_guideway_stations\":0,\"simple_at_grade_platform_stations\":0,\"exclusive_grade_separated_platform_stations\":0,\"ferryboat_terminals\":0,\"surface_parking_lots\":0,\"parking_structures\":0}","metadata_tam_modes_json":"{\"DR\":{\"total_units_2024\":4,\"units_under_threshold_2024\":1,\"voms_2024\":4,\"total_modal_vrm_2024\":0,\"total_modal_upt_2024\":0},\"MB\":{\"total_units_2024\":12,\"units_under_threshold_2024\":0,\"voms_2024\":12,\"total_modal_vrm_2024\":0,\"total_modal_upt_2024\":0}}"},"geometry":{"type":"Point","coordinates":[-75.962603,43.970254]}},{"type":"Feature","properties":{"stop_id":"jo97","stop_code":"","stop_name":"The Plaza at Salmon Run","stop_desc":"","zone_id":"","stop_url":"","location_type":"","parent_station":"","stop_timezone":"","wheelchair_boarding":"","platform_code":"","feed_id":"New_York__Watertown_Citibus__mdb_mdb-871","agency_name":"Watertown Citibus","route_count":1,"route_ids":"10695","route_short_names":"B-1","route_types":"3","route_type_names":"Bus","routes_json":"[{\"route_id\":\"10695\",\"route_short_name\":\"B-1\",\"route_long_name\":\"Arsenal - Mall\",\"route_type\":\"3\",\"route_type_name\":\"Bus\",\"route_color\":\"D0021B\",\"route_text_color\":\"FFFFFF\"}]","metadata_feed_id":"New_York__Watertown_Citibus__mdb_mdb-871","metadata_agency_names":"Watertown Citibus","metadata_ntd_id":"20215","metadata_ntd_match_method":"manual_override","metadata_ntd_agency":"City of Watertown NY, dba: CitiBus","metadata_ntd_city":"Watertown","metadata_ntd_state":"NY","metadata_gtfs_route_count":5,"metadata_gtfs_trip_count":87,"metadata_gtfs_shape_count":5,"metadata_gtfs_stop_count":28,"metadata_ntd_agency_voms":10,"metadata_ntd_total_facilities":4,"metadata_ntd_maintenance_facilities":2,"metadata_ntd_passenger_stations":1,"metadata_tam_tier":"Tier II","metadata_service_area_sq_miles":17,"metadata_service_area_population":25290,"metadata_route_types_json":"{\"3\":5}","metadata_ntd_facilities_json":"{\"maintenance_facilities\":2,\"administrative_and_other_non_passenger_facilities\":1,\"passenger_stations_and_terminals\":1,\"parking_and_other_passenger_facilities\":0,\"total_facilities\":4,\"bus_transfer_centers\":1,\"elevated_fixed_guideway_stations\":0,\"at_grade_fixed_guideway_stations\":0,\"underground_fixed_guideway_stations\":0,\"simple_at_grade_platform_stations\":0,\"exclusive_grade_separated_platform_stations\":0,\"ferryboat_terminals\":0,\"surface_parking_lots\":0,\"parking_structures\":0}","metadata_tam_modes_json":"{\"DR\":{\"total_units_2024\":4,\"units_under_threshold_2024\":1,\"voms_2024\":4,\"total_modal_vrm_2024\":0,\"total_modal_upt_2024\":0},\"MB\":{\"total_units_2024\":12,\"units_under_threshold_2024\":0,\"voms_2024\":12,\"total_modal_vrm_2024\":0,\"total_modal_upt_2024\":0}}"},"geometry":{"type":"Point","coordinates":[-75.955747,43.973586]}},{"type":"Feature","properties":{"stop_id":"qo4k","stop_code":"","stop_name":"Walgreen's - Arsenal St & Bellew Ave S","stop_desc":"","zone_id":"","stop_url":"","location_type":"","parent_station":"","stop_timezone":"","wheelchair_boarding":"","platform_code":"","feed_id":"New_York__Watertown_Citibus__mdb_mdb-871","agency_name":"Watertown Citibus","route_count":1,"route_ids":"10695","route_short_names":"B-1","route_types":"3","route_type_names":"Bus","routes_json":"[{\"route_id\":\"10695\",\"route_short_name\":\"B-1\",\"route_long_name\":\"Arsenal - Mall\",\"route_type\":\"3\",\"route_type_name\":\"Bus\",\"route_color\":\"D0021B\",\"route_text_color\":\"FFFFFF\"}]","metadata_feed_id":"New_York__Watertown_Citibus__mdb_mdb-871","metadata_agency_names":"Watertown Citibus","metadata_ntd_id":"20215","metadata_ntd_match_method":"manual_override","metadata_ntd_agency":"City of Watertown NY, dba: CitiBus","metadata_ntd_city":"Watertown","metadata_ntd_state":"NY","metadata_gtfs_route_count":5,"metadata_gtfs_trip_count":87,"metadata_gtfs_shape_count":5,"metadata_gtfs_stop_count":28,"metadata_ntd_agency_voms":10,"metadata_ntd_total_facilities":4,"metadata_ntd_maintenance_facilities":2,"metadata_ntd_passenger_stations":1,"metadata_tam_tier":"Tier II","metadata_service_area_sq_miles":17,"metadata_service_area_population":25290,"metadata_route_types_json":"{\"3\":5}","metadata_ntd_facilities_json":"{\"maintenance_facilities\":2,\"administrative_and_other_non_passenger_facilities\":1,\"passenger_stations_and_terminals\":1,\"parking_and_other_passenger_facilities\":0,\"total_facilities\":4,\"bus_transfer_centers\":1,\"elevated_fixed_guideway_stations\":0,\"at_grade_fixed_guideway_stations\":0,\"underground_fixed_guideway_stations\":0,\"simple_at_grade_platform_stations\":0,\"exclusive_grade_separated_platform_stations\":0,\"ferryboat_terminals\":0,\"surface_parking_lots\":0,\"parking_structures\":0}","metadata_tam_modes_json":"{\"DR\":{\"total_units_2024\":4,\"units_under_threshold_2024\":1,\"voms_2024\":4,\"total_modal_vrm_2024\":0,\"total_modal_upt_2024\":0},\"MB\":{\"total_units_2024\":12,\"units_under_threshold_2024\":0,\"voms_2024\":12,\"total_modal_vrm_2024\":0,\"total_modal_upt_2024\":0}}"},"geometry":{"type":"Point","coordinates":[-75.931575,43.976517]}},{"type":"Feature","properties":{"stop_id":"363806","stop_code":"363806","stop_name":"Northland Plaza","stop_desc":"","zone_id":"","stop_url":"","location_type":"0","parent_station":"","stop_timezone":"","wheelchair_boarding":"0","platform_code":"","feed_id":"New_York__Watertown_Citibus__mdb_mdb-871","agency_name":"Watertown Citibus","route_count":1,"route_ids":"10693","route_short_names":"A-1","route_types":"3","route_type_names":"Bus","routes_json":"[{\"route_id\":\"10693\",\"route_short_name\":\"A-1\",\"route_long_name\":\"State-East Main\",\"route_type\":\"3\",\"route_type_name\":\"Bus\",\"route_color\":\"226FC9\",\"route_text_color\":\"FFFFFF\"}]","metadata_feed_id":"New_York__Watertown_Citibus__mdb_mdb-871","metadata_agency_names":"Watertown Citibus","metadata_ntd_id":"20215","metadata_ntd_match_method":"manual_override","metadata_ntd_agency":"City of Watertown NY, dba: CitiBus","metadata_ntd_city":"Watertown","metadata_ntd_state":"NY","metadata_gtfs_route_count":5,"metadata_gtfs_trip_count":87,"metadata_gtfs_shape_count":5,"metadata_gtfs_stop_count":28,"metadata_ntd_agency_voms":10,"metadata_ntd_total_facilities":4,"metadata_ntd_maintenance_facilities":2,"metadata_ntd_passenger_stations":1,"metadata_tam_tier":"Tier II","metadata_service_area_sq_miles":17,"metadata_service_area_population":25290,"metadata_route_types_json":"{\"3\":5}","metadata_ntd_facilities_json":"{\"maintenance_facilities\":2,\"administrative_and_other_non_passenger_facilities\":1,\"passenger_stations_and_terminals\":1,\"parking_and_other_passenger_facilities\":0,\"total_facilities\":4,\"bus_transfer_centers\":1,\"elevated_fixed_guideway_stations\":0,\"at_grade_fixed_guideway_stations\":0,\"underground_fixed_guideway_stations\":0,\"simple_at_grade_platform_stations\":0,\"exclusive_grade_separated_platform_stations\":0,\"ferryboat_terminals\":0,\"surface_parking_lots\":0,\"parking_structures\":0}","metadata_tam_modes_json":"{\"DR\":{\"total_units_2024\":4,\"units_under_threshold_2024\":1,\"voms_2024\":4,\"total_modal_vrm_2024\":0,\"total_modal_upt_2024\":0},\"MB\":{\"total_units_2024\":12,\"units_under_threshold_2024\":0,\"voms_2024\":12,\"total_modal_vrm_2024\":0,\"total_modal_upt_2024\":0}}"},"geometry":{"type":"Point","coordinates":[-75.880326,43.968719]}}],"metadata":{"feed_id":"New_York__Watertown_Citibus__mdb_mdb-871","ntd_id":"20215","feature_metadata_embedded":true}}