{"type":"FeatureCollection","features":[{"type":"Feature","properties":{"stop_id":"4230272","stop_code":"","stop_name":"Brush Creek Park & Ride","stop_desc":"","zone_id":"","stop_url":"","location_type":"0","parent_station":"","stop_timezone":"America/Denver","wheelchair_boarding":"1","platform_code":"","tts_stop_name":"","feed_id":"Colorado__Snowmass_Village_Transportation__mdb_mdb-164","agency_name":"Snowmass","route_count":2,"route_ids":"76966|76719","route_short_names":"BC-SMI|SMI-BC","route_types":"3","route_type_names":"Bus","routes_json":"[{\"route_id\":\"76966\",\"route_short_name\":\"BC-SMI\",\"route_long_name\":\"SM Snowmass Depr\",\"route_type\":\"3\",\"route_type_name\":\"Bus\",\"route_color\":\"247BFA\",\"route_text_color\":\"0C0000\"},{\"route_id\":\"76719\",\"route_short_name\":\"SMI-BC\",\"route_long_name\":\"SM BC Park & Ride Depr\",\"route_type\":\"3\",\"route_type_name\":\"Bus\",\"route_color\":\"4CD975\",\"route_text_color\":\"000000\"}]","metadata_feed_id":"Colorado__Snowmass_Village_Transportation__mdb_mdb-164","metadata_agency_names":"Snowmass","metadata_ntd_id":"80263","metadata_ntd_match_method":"manual_override","metadata_ntd_agency":"Town of Snowmass Village, dba: Village Shuttle","metadata_ntd_city":"Snowmass Village","metadata_ntd_state":"CO","metadata_gtfs_route_count":2,"metadata_gtfs_trip_count":114,"metadata_gtfs_shape_count":2,"metadata_gtfs_stop_count":21,"metadata_ntd_agency_voms":24,"metadata_ntd_total_facilities":6,"metadata_ntd_maintenance_facilities":0,"metadata_ntd_passenger_stations":3,"metadata_tam_tier":"Tier II","metadata_route_types_json":"{\"3\":2}","metadata_ntd_facilities_json":"{\"maintenance_facilities\":0,\"administrative_and_other_non_passenger_facilities\":2,\"passenger_stations_and_terminals\":3,\"parking_and_other_passenger_facilities\":1,\"total_facilities\":6,\"bus_transfer_centers\":3,\"elevated_fixed_guideway_stations\":0,\"at_grade_fixed_guideway_stations\":0,\"underground_fixed_guideway_stations\":0,\"simple_at_grade_platform_stations\":0,\"exclusive_grade_separated_platform_stations\":0,\"ferryboat_terminals\":0,\"surface_parking_lots\":1,\"parking_structures\":0}","metadata_tam_modes_json":"{\"MB\":{\"total_units_2024\":37,\"units_under_threshold_2024\":0,\"voms_2024\":48,\"total_modal_vrm_2024\":0,\"total_modal_upt_2024\":0}}"},"geometry":{"type":"Point","coordinates":[-106.883231,39.2506932]}},{"type":"Feature","properties":{"stop_id":"4230265","stop_code":"","stop_name":"Brush Creek Rd + Medicine Bow Rd Uphill","stop_desc":"","zone_id":"","stop_url":"","location_type":"0","parent_station":"","stop_timezone":"America/Denver","wheelchair_boarding":"0","platform_code":"","tts_stop_name":"","feed_id":"Colorado__Snowmass_Village_Transportation__mdb_mdb-164","agency_name":"Snowmass","route_count":1,"route_ids":"76966","route_short_names":"BC-SMI","route_types":"3","route_type_names":"Bus","routes_json":"[{\"route_id\":\"76966\",\"route_short_name\":\"BC-SMI\",\"route_long_name\":\"SM Snowmass Depr\",\"route_type\":\"3\",\"route_type_name\":\"Bus\",\"route_color\":\"247BFA\",\"route_text_color\":\"0C0000\"}]","metadata_feed_id":"Colorado__Snowmass_Village_Transportation__mdb_mdb-164","metadata_agency_names":"Snowmass","metadata_ntd_id":"80263","metadata_ntd_match_method":"manual_override","metadata_ntd_agency":"Town of Snowmass Village, dba: Village Shuttle","metadata_ntd_city":"Snowmass Village","metadata_ntd_state":"CO","metadata_gtfs_route_count":2,"metadata_gtfs_trip_count":114,"metadata_gtfs_shape_count":2,"metadata_gtfs_stop_count":21,"metadata_ntd_agency_voms":24,"metadata_ntd_total_facilities":6,"metadata_ntd_maintenance_facilities":0,"metadata_ntd_passenger_stations":3,"metadata_tam_tier":"Tier II","metadata_route_types_json":"{\"3\":2}","metadata_ntd_facilities_json":"{\"maintenance_facilities\":0,\"administrative_and_other_non_passenger_facilities\":2,\"passenger_stations_and_terminals\":3,\"parking_and_other_passenger_facilities\":1,\"total_facilities\":6,\"bus_transfer_centers\":3,\"elevated_fixed_guideway_stations\":0,\"at_grade_fixed_guideway_stations\":0,\"underground_fixed_guideway_stations\":0,\"simple_at_grade_platform_stations\":0,\"exclusive_grade_separated_platform_stations\":0,\"ferryboat_terminals\":0,\"surface_parking_lots\":1,\"parking_structures\":0}","metadata_tam_modes_json":"{\"MB\":{\"total_units_2024\":37,\"units_under_threshold_2024\":0,\"voms_2024\":48,\"total_modal_vrm_2024\":0,\"total_modal_upt_2024\":0}}"},"geometry":{"type":"Point","coordinates":[-106.8873063,39.2480963]}},{"type":"Feature","properties":{"stop_id":"4230266","stop_code":"","stop_name":"Brush Creek Ranch Uphill","stop_desc":"","zone_id":"","stop_url":"","location_type":"0","parent_station":"","stop_timezone":"America/Denver","wheelchair_boarding":"0","platform_code":"","tts_stop_name":"","feed_id":"Colorado__Snowmass_Village_Transportation__mdb_mdb-164","agency_name":"Snowmass","route_count":1,"route_ids":"76966","route_short_names":"BC-SMI","route_types":"3","route_type_names":"Bus","routes_json":"[{\"route_id\":\"76966\",\"route_short_name\":\"BC-SMI\",\"route_long_name\":\"SM Snowmass Depr\",\"route_type\":\"3\",\"route_type_name\":\"Bus\",\"route_color\":\"247BFA\",\"route_text_color\":\"0C0000\"}]","metadata_feed_id":"Colorado__Snowmass_Village_Transportation__mdb_mdb-164","metadata_agency_names":"Snowmass","metadata_ntd_id":"80263","metadata_ntd_match_method":"manual_override","metadata_ntd_agency":"Town of Snowmass Village, dba: Village Shuttle","metadata_ntd_city":"Snowmass Village","metadata_ntd_state":"CO","metadata_gtfs_route_count":2,"metadata_gtfs_trip_count":114,"metadata_gtfs_shape_count":2,"metadata_gtfs_stop_count":21,"metadata_ntd_agency_voms":24,"metadata_ntd_total_facilities":6,"metadata_ntd_maintenance_facilities":0,"metadata_ntd_passenger_stations":3,"metadata_tam_tier":"Tier II","metadata_route_types_json":"{\"3\":2}","metadata_ntd_facilities_json":"{\"maintenance_facilities\":0,\"administrative_and_other_non_passenger_facilities\":2,\"passenger_stations_and_terminals\":3,\"parking_and_other_passenger_facilities\":1,\"total_facilities\":6,\"bus_transfer_centers\":3,\"elevated_fixed_guideway_stations\":0,\"at_grade_fixed_guideway_stations\":0,\"underground_fixed_guideway_stations\":0,\"simple_at_grade_platform_stations\":0,\"exclusive_grade_separated_platform_stations\":0,\"ferryboat_terminals\":0,\"surface_parking_lots\":1,\"parking_structures\":0}","metadata_tam_modes_json":"{\"MB\":{\"total_units_2024\":37,\"units_under_threshold_2024\":0,\"voms_2024\":48,\"total_modal_vrm_2024\":0,\"total_modal_upt_2024\":0}}"},"geometry":{"type":"Point","coordinates":[-106.8967031,39.239445]}},{"type":"Feature","properties":{"stop_id":"4245208","stop_code":"","stop_name":"Town Park Station Uphill","stop_desc":"","zone_id":"","stop_url":"","location_type":"0","parent_station":"","stop_timezone":"America/Denver","wheelchair_boarding":"0","platform_code":"","tts_stop_name":"","feed_id":"Colorado__Snowmass_Village_Transportation__mdb_mdb-164","agency_name":"Snowmass","route_count":1,"route_ids":"76966","route_short_names":"BC-SMI","route_types":"3","route_type_names":"Bus","routes_json":"[{\"route_id\":\"76966\",\"route_short_name\":\"BC-SMI\",\"route_long_name\":\"SM Snowmass Depr\",\"route_type\":\"3\",\"route_type_name\":\"Bus\",\"route_color\":\"247BFA\",\"route_text_color\":\"0C0000\"}]","metadata_feed_id":"Colorado__Snowmass_Village_Transportation__mdb_mdb-164","metadata_agency_names":"Snowmass","metadata_ntd_id":"80263","metadata_ntd_match_method":"manual_override","metadata_ntd_agency":"Town of Snowmass Village, dba: Village Shuttle","metadata_ntd_city":"Snowmass Village","metadata_ntd_state":"CO","metadata_gtfs_route_count":2,"metadata_gtfs_trip_count":114,"metadata_gtfs_shape_count":2,"metadata_gtfs_stop_count":21,"metadata_ntd_agency_voms":24,"metadata_ntd_total_facilities":6,"metadata_ntd_maintenance_facilities":0,"metadata_ntd_passenger_stations":3,"metadata_tam_tier":"Tier II","metadata_route_types_json":"{\"3\":2}","metadata_ntd_facilities_json":"{\"maintenance_facilities\":0,\"administrative_and_other_non_passenger_facilities\":2,\"passenger_stations_and_terminals\":3,\"parking_and_other_passenger_facilities\":1,\"total_facilities\":6,\"bus_transfer_centers\":3,\"elevated_fixed_guideway_stations\":0,\"at_grade_fixed_guideway_stations\":0,\"underground_fixed_guideway_stations\":0,\"simple_at_grade_platform_stations\":0,\"exclusive_grade_separated_platform_stations\":0,\"ferryboat_terminals\":0,\"surface_parking_lots\":1,\"parking_structures\":0}","metadata_tam_modes_json":"{\"MB\":{\"total_units_2024\":37,\"units_under_threshold_2024\":0,\"voms_2024\":48,\"total_modal_vrm_2024\":0,\"total_modal_upt_2024\":0}}"},"geometry":{"type":"Point","coordinates":[-106.924255,39.225511]}},{"type":"Feature","properties":{"stop_id":"2421954","stop_code":"139","stop_name":"Brush Creek Rd + Meadow Rd Uphill","stop_desc":"","zone_id":"","stop_url":"","location_type":"0","parent_station":"","stop_timezone":"America/Denver","wheelchair_boarding":"0","platform_code":"","tts_stop_name":"","feed_id":"Colorado__Snowmass_Village_Transportation__mdb_mdb-164","agency_name":"Snowmass","route_count":1,"route_ids":"76966","route_short_names":"BC-SMI","route_types":"3","route_type_names":"Bus","routes_json":"[{\"route_id\":\"76966\",\"route_short_name\":\"BC-SMI\",\"route_long_name\":\"SM Snowmass Depr\",\"route_type\":\"3\",\"route_type_name\":\"Bus\",\"route_color\":\"247BFA\",\"route_text_color\":\"0C0000\"}]","metadata_feed_id":"Colorado__Snowmass_Village_Transportation__mdb_mdb-164","metadata_agency_names":"Snowmass","metadata_ntd_id":"80263","metadata_ntd_match_method":"manual_override","metadata_ntd_agency":"Town of Snowmass Village, dba: Village Shuttle","metadata_ntd_city":"Snowmass Village","metadata_ntd_state":"CO","metadata_gtfs_route_count":2,"metadata_gtfs_trip_count":114,"metadata_gtfs_shape_count":2,"metadata_gtfs_stop_count":21,"metadata_ntd_agency_voms":24,"metadata_ntd_total_facilities":6,"metadata_ntd_maintenance_facilities":0,"metadata_ntd_passenger_stations":3,"metadata_tam_tier":"Tier II","metadata_route_types_json":"{\"3\":2}","metadata_ntd_facilities_json":"{\"maintenance_facilities\":0,\"administrative_and_other_non_passenger_facilities\":2,\"passenger_stations_and_terminals\":3,\"parking_and_other_passenger_facilities\":1,\"total_facilities\":6,\"bus_transfer_centers\":3,\"elevated_fixed_guideway_stations\":0,\"at_grade_fixed_guideway_stations\":0,\"underground_fixed_guideway_stations\":0,\"simple_at_grade_platform_stations\":0,\"exclusive_grade_separated_platform_stations\":0,\"ferryboat_terminals\":0,\"surface_parking_lots\":1,\"parking_structures\":0}","metadata_tam_modes_json":"{\"MB\":{\"total_units_2024\":37,\"units_under_threshold_2024\":0,\"voms_2024\":48,\"total_modal_vrm_2024\":0,\"total_modal_upt_2024\":0}}"},"geometry":{"type":"Point","coordinates":[-106.9324063,39.2217927]}},{"type":"Feature","properties":{"stop_id":"2421950","stop_code":"137","stop_name":"Brush Creek Rd + Sinclair Rd Uphill","stop_desc":"","zone_id":"","stop_url":"","location_type":"0","parent_station":"","stop_timezone":"America/Denver","wheelchair_boarding":"0","platform_code":"","tts_stop_name":"","feed_id":"Colorado__Snowmass_Village_Transportation__mdb_mdb-164","agency_name":"Snowmass","route_count":1,"route_ids":"76966","route_short_names":"BC-SMI","route_types":"3","route_type_names":"Bus","routes_json":"[{\"route_id\":\"76966\",\"route_short_name\":\"BC-SMI\",\"route_long_name\":\"SM Snowmass Depr\",\"route_type\":\"3\",\"route_type_name\":\"Bus\",\"route_color\":\"247BFA\",\"route_text_color\":\"0C0000\"}]","metadata_feed_id":"Colorado__Snowmass_Village_Transportation__mdb_mdb-164","metadata_agency_names":"Snowmass","metadata_ntd_id":"80263","metadata_ntd_match_method":"manual_override","metadata_ntd_agency":"Town of Snowmass Village, dba: Village Shuttle","metadata_ntd_city":"Snowmass Village","metadata_ntd_state":"CO","metadata_gtfs_route_count":2,"metadata_gtfs_trip_count":114,"metadata_gtfs_shape_count":2,"metadata_gtfs_stop_count":21,"metadata_ntd_agency_voms":24,"metadata_ntd_total_facilities":6,"metadata_ntd_maintenance_facilities":0,"metadata_ntd_passenger_stations":3,"metadata_tam_tier":"Tier II","metadata_route_types_json":"{\"3\":2}","metadata_ntd_facilities_json":"{\"maintenance_facilities\":0,\"administrative_and_other_non_passenger_facilities\":2,\"passenger_stations_and_terminals\":3,\"parking_and_other_passenger_facilities\":1,\"total_facilities\":6,\"bus_transfer_centers\":3,\"elevated_fixed_guideway_stations\":0,\"at_grade_fixed_guideway_stations\":0,\"underground_fixed_guideway_stations\":0,\"simple_at_grade_platform_stations\":0,\"exclusive_grade_separated_platform_stations\":0,\"ferryboat_terminals\":0,\"surface_parking_lots\":1,\"parking_structures\":0}","metadata_tam_modes_json":"{\"MB\":{\"total_units_2024\":37,\"units_under_threshold_2024\":0,\"voms_2024\":48,\"total_modal_vrm_2024\":0,\"total_modal_upt_2024\":0}}"},"geometry":{"type":"Point","coordinates":[-106.9353096,39.2170702]}},{"type":"Feature","properties":{"stop_id":"2421941","stop_code":"218","stop_name":"Brush Creek Rd + Owl Creek Rd Uphill","stop_desc":"","zone_id":"","stop_url":"","location_type":"0","parent_station":"","stop_timezone":"America/Denver","wheelchair_boarding":"0","platform_code":"","tts_stop_name":"","feed_id":"Colorado__Snowmass_Village_Transportation__mdb_mdb-164","agency_name":"Snowmass","route_count":1,"route_ids":"76966","route_short_names":"BC-SMI","route_types":"3","route_type_names":"Bus","routes_json":"[{\"route_id\":\"76966\",\"route_short_name\":\"BC-SMI\",\"route_long_name\":\"SM Snowmass Depr\",\"route_type\":\"3\",\"route_type_name\":\"Bus\",\"route_color\":\"247BFA\",\"route_text_color\":\"0C0000\"}]","metadata_feed_id":"Colorado__Snowmass_Village_Transportation__mdb_mdb-164","metadata_agency_names":"Snowmass","metadata_ntd_id":"80263","metadata_ntd_match_method":"manual_override","metadata_ntd_agency":"Town of Snowmass Village, dba: Village Shuttle","metadata_ntd_city":"Snowmass Village","metadata_ntd_state":"CO","metadata_gtfs_route_count":2,"metadata_gtfs_trip_count":114,"metadata_gtfs_shape_count":2,"metadata_gtfs_stop_count":21,"metadata_ntd_agency_voms":24,"metadata_ntd_total_facilities":6,"metadata_ntd_maintenance_facilities":0,"metadata_ntd_passenger_stations":3,"metadata_tam_tier":"Tier II","metadata_route_types_json":"{\"3\":2}","metadata_ntd_facilities_json":"{\"maintenance_facilities\":0,\"administrative_and_other_non_passenger_facilities\":2,\"passenger_stations_and_terminals\":3,\"parking_and_other_passenger_facilities\":1,\"total_facilities\":6,\"bus_transfer_centers\":3,\"elevated_fixed_guideway_stations\":0,\"at_grade_fixed_guideway_stations\":0,\"underground_fixed_guideway_stations\":0,\"simple_at_grade_platform_stations\":0,\"exclusive_grade_separated_platform_stations\":0,\"ferryboat_terminals\":0,\"surface_parking_lots\":1,\"parking_structures\":0}","metadata_tam_modes_json":"{\"MB\":{\"total_units_2024\":37,\"units_under_threshold_2024\":0,\"voms_2024\":48,\"total_modal_vrm_2024\":0,\"total_modal_upt_2024\":0}}"},"geometry":{"type":"Point","coordinates":[-106.9395856,39.2135251]}},{"type":"Feature","properties":{"stop_id":"2421939","stop_code":"150","stop_name":"Brush Creek Rd + Faraway  Rd Uphill","stop_desc":"","zone_id":"","stop_url":"","location_type":"0","parent_station":"","stop_timezone":"America/Denver","wheelchair_boarding":"0","platform_code":"","tts_stop_name":"","feed_id":"Colorado__Snowmass_Village_Transportation__mdb_mdb-164","agency_name":"Snowmass","route_count":1,"route_ids":"76966","route_short_names":"BC-SMI","route_types":"3","route_type_names":"Bus","routes_json":"[{\"route_id\":\"76966\",\"route_short_name\":\"BC-SMI\",\"route_long_name\":\"SM Snowmass Depr\",\"route_type\":\"3\",\"route_type_name\":\"Bus\",\"route_color\":\"247BFA\",\"route_text_color\":\"0C0000\"}]","metadata_feed_id":"Colorado__Snowmass_Village_Transportation__mdb_mdb-164","metadata_agency_names":"Snowmass","metadata_ntd_id":"80263","metadata_ntd_match_method":"manual_override","metadata_ntd_agency":"Town of Snowmass Village, dba: Village Shuttle","metadata_ntd_city":"Snowmass Village","metadata_ntd_state":"CO","metadata_gtfs_route_count":2,"metadata_gtfs_trip_count":114,"metadata_gtfs_shape_count":2,"metadata_gtfs_stop_count":21,"metadata_ntd_agency_voms":24,"metadata_ntd_total_facilities":6,"metadata_ntd_maintenance_facilities":0,"metadata_ntd_passenger_stations":3,"metadata_tam_tier":"Tier II","metadata_route_types_json":"{\"3\":2}","metadata_ntd_facilities_json":"{\"maintenance_facilities\":0,\"administrative_and_other_non_passenger_facilities\":2,\"passenger_stations_and_terminals\":3,\"parking_and_other_passenger_facilities\":1,\"total_facilities\":6,\"bus_transfer_centers\":3,\"elevated_fixed_guideway_stations\":0,\"at_grade_fixed_guideway_stations\":0,\"underground_fixed_guideway_stations\":0,\"simple_at_grade_platform_stations\":0,\"exclusive_grade_separated_platform_stations\":0,\"ferryboat_terminals\":0,\"surface_parking_lots\":1,\"parking_structures\":0}","metadata_tam_modes_json":"{\"MB\":{\"total_units_2024\":37,\"units_under_threshold_2024\":0,\"voms_2024\":48,\"total_modal_vrm_2024\":0,\"total_modal_upt_2024\":0}}"},"geometry":{"type":"Point","coordinates":[-106.9427912,39.2112199]}},{"type":"Feature","properties":{"stop_id":"2421912","stop_code":"219","stop_name":"Brush Creek Rd + Wood Rd Uphill","stop_desc":"","zone_id":"","stop_url":"","location_type":"0","parent_station":"","stop_timezone":"America/Denver","wheelchair_boarding":"0","platform_code":"","tts_stop_name":"","feed_id":"Colorado__Snowmass_Village_Transportation__mdb_mdb-164","agency_name":"Snowmass","route_count":1,"route_ids":"76966","route_short_names":"BC-SMI","route_types":"3","route_type_names":"Bus","routes_json":"[{\"route_id\":\"76966\",\"route_short_name\":\"BC-SMI\",\"route_long_name\":\"SM Snowmass Depr\",\"route_type\":\"3\",\"route_type_name\":\"Bus\",\"route_color\":\"247BFA\",\"route_text_color\":\"0C0000\"}]","metadata_feed_id":"Colorado__Snowmass_Village_Transportation__mdb_mdb-164","metadata_agency_names":"Snowmass","metadata_ntd_id":"80263","metadata_ntd_match_method":"manual_override","metadata_ntd_agency":"Town of Snowmass Village, dba: Village Shuttle","metadata_ntd_city":"Snowmass Village","metadata_ntd_state":"CO","metadata_gtfs_route_count":2,"metadata_gtfs_trip_count":114,"metadata_gtfs_shape_count":2,"metadata_gtfs_stop_count":21,"metadata_ntd_agency_voms":24,"metadata_ntd_total_facilities":6,"metadata_ntd_maintenance_facilities":0,"metadata_ntd_passenger_stations":3,"metadata_tam_tier":"Tier II","metadata_route_types_json":"{\"3\":2}","metadata_ntd_facilities_json":"{\"maintenance_facilities\":0,\"administrative_and_other_non_passenger_facilities\":2,\"passenger_stations_and_terminals\":3,\"parking_and_other_passenger_facilities\":1,\"total_facilities\":6,\"bus_transfer_centers\":3,\"elevated_fixed_guideway_stations\":0,\"at_grade_fixed_guideway_stations\":0,\"underground_fixed_guideway_stations\":0,\"simple_at_grade_platform_stations\":0,\"exclusive_grade_separated_platform_stations\":0,\"ferryboat_terminals\":0,\"surface_parking_lots\":1,\"parking_structures\":0}","metadata_tam_modes_json":"{\"MB\":{\"total_units_2024\":37,\"units_under_threshold_2024\":0,\"voms_2024\":48,\"total_modal_vrm_2024\":0,\"total_modal_upt_2024\":0}}"},"geometry":{"type":"Point","coordinates":[-106.9476109,39.2106934]}},{"type":"Feature","properties":{"stop_id":"2421962","stop_code":"220","stop_name":"Brush Creek Rd + Hawk Ridge Ln Uphill","stop_desc":"","zone_id":"","stop_url":"","location_type":"0","parent_station":"","stop_timezone":"America/Denver","wheelchair_boarding":"0","platform_code":"","tts_stop_name":"","feed_id":"Colorado__Snowmass_Village_Transportation__mdb_mdb-164","agency_name":"Snowmass","route_count":1,"route_ids":"76966","route_short_names":"BC-SMI","route_types":"3","route_type_names":"Bus","routes_json":"[{\"route_id\":\"76966\",\"route_short_name\":\"BC-SMI\",\"route_long_name\":\"SM Snowmass Depr\",\"route_type\":\"3\",\"route_type_name\":\"Bus\",\"route_color\":\"247BFA\",\"route_text_color\":\"0C0000\"}]","metadata_feed_id":"Colorado__Snowmass_Village_Transportation__mdb_mdb-164","metadata_agency_names":"Snowmass","metadata_ntd_id":"80263","metadata_ntd_match_method":"manual_override","metadata_ntd_agency":"Town of Snowmass Village, dba: Village Shuttle","metadata_ntd_city":"Snowmass Village","metadata_ntd_state":"CO","metadata_gtfs_route_count":2,"metadata_gtfs_trip_count":114,"metadata_gtfs_shape_count":2,"metadata_gtfs_stop_count":21,"metadata_ntd_agency_voms":24,"metadata_ntd_total_facilities":6,"metadata_ntd_maintenance_facilities":0,"metadata_ntd_passenger_stations":3,"metadata_tam_tier":"Tier II","metadata_route_types_json":"{\"3\":2}","metadata_ntd_facilities_json":"{\"maintenance_facilities\":0,\"administrative_and_other_non_passenger_facilities\":2,\"passenger_stations_and_terminals\":3,\"parking_and_other_passenger_facilities\":1,\"total_facilities\":6,\"bus_transfer_centers\":3,\"elevated_fixed_guideway_stations\":0,\"at_grade_fixed_guideway_stations\":0,\"underground_fixed_guideway_stations\":0,\"simple_at_grade_platform_stations\":0,\"exclusive_grade_separated_platform_stations\":0,\"ferryboat_terminals\":0,\"surface_parking_lots\":1,\"parking_structures\":0}","metadata_tam_modes_json":"{\"MB\":{\"total_units_2024\":37,\"units_under_threshold_2024\":0,\"voms_2024\":48,\"total_modal_vrm_2024\":0,\"total_modal_upt_2024\":0}}"},"geometry":{"type":"Point","coordinates":[-106.955459,39.2098893]}},{"type":"Feature","properties":{"stop_id":"2421965","stop_code":"221","stop_name":"Brush Creek Rd + Divide Rd Uphill","stop_desc":"","zone_id":"","stop_url":"","location_type":"0","parent_station":"","stop_timezone":"America/Denver","wheelchair_boarding":"0","platform_code":"","tts_stop_name":"","feed_id":"Colorado__Snowmass_Village_Transportation__mdb_mdb-164","agency_name":"Snowmass","route_count":1,"route_ids":"76966","route_short_names":"BC-SMI","route_types":"3","route_type_names":"Bus","routes_json":"[{\"route_id\":\"76966\",\"route_short_name\":\"BC-SMI\",\"route_long_name\":\"SM Snowmass Depr\",\"route_type\":\"3\",\"route_type_name\":\"Bus\",\"route_color\":\"247BFA\",\"route_text_color\":\"0C0000\"}]","metadata_feed_id":"Colorado__Snowmass_Village_Transportation__mdb_mdb-164","metadata_agency_names":"Snowmass","metadata_ntd_id":"80263","metadata_ntd_match_method":"manual_override","metadata_ntd_agency":"Town of Snowmass Village, dba: Village Shuttle","metadata_ntd_city":"Snowmass Village","metadata_ntd_state":"CO","metadata_gtfs_route_count":2,"metadata_gtfs_trip_count":114,"metadata_gtfs_shape_count":2,"metadata_gtfs_stop_count":21,"metadata_ntd_agency_voms":24,"metadata_ntd_total_facilities":6,"metadata_ntd_maintenance_facilities":0,"metadata_ntd_passenger_stations":3,"metadata_tam_tier":"Tier II","metadata_route_types_json":"{\"3\":2}","metadata_ntd_facilities_json":"{\"maintenance_facilities\":0,\"administrative_and_other_non_passenger_facilities\":2,\"passenger_stations_and_terminals\":3,\"parking_and_other_passenger_facilities\":1,\"total_facilities\":6,\"bus_transfer_centers\":3,\"elevated_fixed_guideway_stations\":0,\"at_grade_fixed_guideway_stations\":0,\"underground_fixed_guideway_stations\":0,\"simple_at_grade_platform_stations\":0,\"exclusive_grade_separated_platform_stations\":0,\"ferryboat_terminals\":0,\"surface_parking_lots\":1,\"parking_structures\":0}","metadata_tam_modes_json":"{\"MB\":{\"total_units_2024\":37,\"units_under_threshold_2024\":0,\"voms_2024\":48,\"total_modal_vrm_2024\":0,\"total_modal_upt_2024\":0}}"},"geometry":{"type":"Point","coordinates":[-106.9571466,39.2080861]}},{"type":"Feature","properties":{"stop_id":"4230270","stop_code":"","stop_name":"Snowmass Village Mall","stop_desc":"","zone_id":"","stop_url":"","location_type":"0","parent_station":"","stop_timezone":"America/Denver","wheelchair_boarding":"0","platform_code":"","tts_stop_name":"","feed_id":"Colorado__Snowmass_Village_Transportation__mdb_mdb-164","agency_name":"Snowmass","route_count":2,"route_ids":"76966|76719","route_short_names":"BC-SMI|SMI-BC","route_types":"3","route_type_names":"Bus","routes_json":"[{\"route_id\":\"76966\",\"route_short_name\":\"BC-SMI\",\"route_long_name\":\"SM Snowmass Depr\",\"route_type\":\"3\",\"route_type_name\":\"Bus\",\"route_color\":\"247BFA\",\"route_text_color\":\"0C0000\"},{\"route_id\":\"76719\",\"route_short_name\":\"SMI-BC\",\"route_long_name\":\"SM BC Park & Ride Depr\",\"route_type\":\"3\",\"route_type_name\":\"Bus\",\"route_color\":\"4CD975\",\"route_text_color\":\"000000\"}]","metadata_feed_id":"Colorado__Snowmass_Village_Transportation__mdb_mdb-164","metadata_agency_names":"Snowmass","metadata_ntd_id":"80263","metadata_ntd_match_method":"manual_override","metadata_ntd_agency":"Town of Snowmass Village, dba: Village Shuttle","metadata_ntd_city":"Snowmass Village","metadata_ntd_state":"CO","metadata_gtfs_route_count":2,"metadata_gtfs_trip_count":114,"metadata_gtfs_shape_count":2,"metadata_gtfs_stop_count":21,"metadata_ntd_agency_voms":24,"metadata_ntd_total_facilities":6,"metadata_ntd_maintenance_facilities":0,"metadata_ntd_passenger_stations":3,"metadata_tam_tier":"Tier II","metadata_route_types_json":"{\"3\":2}","metadata_ntd_facilities_json":"{\"maintenance_facilities\":0,\"administrative_and_other_non_passenger_facilities\":2,\"passenger_stations_and_terminals\":3,\"parking_and_other_passenger_facilities\":1,\"total_facilities\":6,\"bus_transfer_centers\":3,\"elevated_fixed_guideway_stations\":0,\"at_grade_fixed_guideway_stations\":0,\"underground_fixed_guideway_stations\":0,\"simple_at_grade_platform_stations\":0,\"exclusive_grade_separated_platform_stations\":0,\"ferryboat_terminals\":0,\"surface_parking_lots\":1,\"parking_structures\":0}","metadata_tam_modes_json":"{\"MB\":{\"total_units_2024\":37,\"units_under_threshold_2024\":0,\"voms_2024\":48,\"total_modal_vrm_2024\":0,\"total_modal_upt_2024\":0}}"},"geometry":{"type":"Point","coordinates":[-106.9547481,39.2072349]}},{"type":"Feature","properties":{"stop_id":"2421922","stop_code":"152","stop_name":"Stonebridge Inn Downhill","stop_desc":"","zone_id":"","stop_url":"","location_type":"0","parent_station":"","stop_timezone":"America/Denver","wheelchair_boarding":"0","platform_code":"","tts_stop_name":"","feed_id":"Colorado__Snowmass_Village_Transportation__mdb_mdb-164","agency_name":"Snowmass","route_count":1,"route_ids":"76719","route_short_names":"SMI-BC","route_types":"3","route_type_names":"Bus","routes_json":"[{\"route_id\":\"76719\",\"route_short_name\":\"SMI-BC\",\"route_long_name\":\"SM BC Park & Ride Depr\",\"route_type\":\"3\",\"route_type_name\":\"Bus\",\"route_color\":\"4CD975\",\"route_text_color\":\"000000\"}]","metadata_feed_id":"Colorado__Snowmass_Village_Transportation__mdb_mdb-164","metadata_agency_names":"Snowmass","metadata_ntd_id":"80263","metadata_ntd_match_method":"manual_override","metadata_ntd_agency":"Town of Snowmass Village, dba: Village Shuttle","metadata_ntd_city":"Snowmass Village","metadata_ntd_state":"CO","metadata_gtfs_route_count":2,"metadata_gtfs_trip_count":114,"metadata_gtfs_shape_count":2,"metadata_gtfs_stop_count":21,"metadata_ntd_agency_voms":24,"metadata_ntd_total_facilities":6,"metadata_ntd_maintenance_facilities":0,"metadata_ntd_passenger_stations":3,"metadata_tam_tier":"Tier II","metadata_route_types_json":"{\"3\":2}","metadata_ntd_facilities_json":"{\"maintenance_facilities\":0,\"administrative_and_other_non_passenger_facilities\":2,\"passenger_stations_and_terminals\":3,\"parking_and_other_passenger_facilities\":1,\"total_facilities\":6,\"bus_transfer_centers\":3,\"elevated_fixed_guideway_stations\":0,\"at_grade_fixed_guideway_stations\":0,\"underground_fixed_guideway_stations\":0,\"simple_at_grade_platform_stations\":0,\"exclusive_grade_separated_platform_stations\":0,\"ferryboat_terminals\":0,\"surface_parking_lots\":1,\"parking_structures\":0}","metadata_tam_modes_json":"{\"MB\":{\"total_units_2024\":37,\"units_under_threshold_2024\":0,\"voms_2024\":48,\"total_modal_vrm_2024\":0,\"total_modal_upt_2024\":0}}"},"geometry":{"type":"Point","coordinates":[-106.9527745,39.2082865]}},{"type":"Feature","properties":{"stop_id":"2421966","stop_code":"216","stop_name":"Base Village","stop_desc":"","zone_id":"","stop_url":"","location_type":"0","parent_station":"","stop_timezone":"America/Denver","wheelchair_boarding":"0","platform_code":"","tts_stop_name":"","feed_id":"Colorado__Snowmass_Village_Transportation__mdb_mdb-164","agency_name":"Snowmass","route_count":1,"route_ids":"76719","route_short_names":"SMI-BC","route_types":"3","route_type_names":"Bus","routes_json":"[{\"route_id\":\"76719\",\"route_short_name\":\"SMI-BC\",\"route_long_name\":\"SM BC Park & Ride Depr\",\"route_type\":\"3\",\"route_type_name\":\"Bus\",\"route_color\":\"4CD975\",\"route_text_color\":\"000000\"}]","metadata_feed_id":"Colorado__Snowmass_Village_Transportation__mdb_mdb-164","metadata_agency_names":"Snowmass","metadata_ntd_id":"80263","metadata_ntd_match_method":"manual_override","metadata_ntd_agency":"Town of Snowmass Village, dba: Village Shuttle","metadata_ntd_city":"Snowmass Village","metadata_ntd_state":"CO","metadata_gtfs_route_count":2,"metadata_gtfs_trip_count":114,"metadata_gtfs_shape_count":2,"metadata_gtfs_stop_count":21,"metadata_ntd_agency_voms":24,"metadata_ntd_total_facilities":6,"metadata_ntd_maintenance_facilities":0,"metadata_ntd_passenger_stations":3,"metadata_tam_tier":"Tier II","metadata_route_types_json":"{\"3\":2}","metadata_ntd_facilities_json":"{\"maintenance_facilities\":0,\"administrative_and_other_non_passenger_facilities\":2,\"passenger_stations_and_terminals\":3,\"parking_and_other_passenger_facilities\":1,\"total_facilities\":6,\"bus_transfer_centers\":3,\"elevated_fixed_guideway_stations\":0,\"at_grade_fixed_guideway_stations\":0,\"underground_fixed_guideway_stations\":0,\"simple_at_grade_platform_stations\":0,\"exclusive_grade_separated_platform_stations\":0,\"ferryboat_terminals\":0,\"surface_parking_lots\":1,\"parking_structures\":0}","metadata_tam_modes_json":"{\"MB\":{\"total_units_2024\":37,\"units_under_threshold_2024\":0,\"voms_2024\":48,\"total_modal_vrm_2024\":0,\"total_modal_upt_2024\":0}}"},"geometry":{"type":"Point","coordinates":[-106.94784093172942,39.20975736893192]}},{"type":"Feature","properties":{"stop_id":"2421967","stop_code":"141","stop_name":"Brush Creek Rd + Wood Rd Downhill","stop_desc":"","zone_id":"","stop_url":"","location_type":"0","parent_station":"","stop_timezone":"America/Denver","wheelchair_boarding":"0","platform_code":"","tts_stop_name":"","feed_id":"Colorado__Snowmass_Village_Transportation__mdb_mdb-164","agency_name":"Snowmass","route_count":1,"route_ids":"76719","route_short_names":"SMI-BC","route_types":"3","route_type_names":"Bus","routes_json":"[{\"route_id\":\"76719\",\"route_short_name\":\"SMI-BC\",\"route_long_name\":\"SM BC Park & Ride Depr\",\"route_type\":\"3\",\"route_type_name\":\"Bus\",\"route_color\":\"4CD975\",\"route_text_color\":\"000000\"}]","metadata_feed_id":"Colorado__Snowmass_Village_Transportation__mdb_mdb-164","metadata_agency_names":"Snowmass","metadata_ntd_id":"80263","metadata_ntd_match_method":"manual_override","metadata_ntd_agency":"Town of Snowmass Village, dba: Village Shuttle","metadata_ntd_city":"Snowmass Village","metadata_ntd_state":"CO","metadata_gtfs_route_count":2,"metadata_gtfs_trip_count":114,"metadata_gtfs_shape_count":2,"metadata_gtfs_stop_count":21,"metadata_ntd_agency_voms":24,"metadata_ntd_total_facilities":6,"metadata_ntd_maintenance_facilities":0,"metadata_ntd_passenger_stations":3,"metadata_tam_tier":"Tier II","metadata_route_types_json":"{\"3\":2}","metadata_ntd_facilities_json":"{\"maintenance_facilities\":0,\"administrative_and_other_non_passenger_facilities\":2,\"passenger_stations_and_terminals\":3,\"parking_and_other_passenger_facilities\":1,\"total_facilities\":6,\"bus_transfer_centers\":3,\"elevated_fixed_guideway_stations\":0,\"at_grade_fixed_guideway_stations\":0,\"underground_fixed_guideway_stations\":0,\"simple_at_grade_platform_stations\":0,\"exclusive_grade_separated_platform_stations\":0,\"ferryboat_terminals\":0,\"surface_parking_lots\":1,\"parking_structures\":0}","metadata_tam_modes_json":"{\"MB\":{\"total_units_2024\":37,\"units_under_threshold_2024\":0,\"voms_2024\":48,\"total_modal_vrm_2024\":0,\"total_modal_upt_2024\":0}}"},"geometry":{"type":"Point","coordinates":[-106.9465938,39.2102772]}},{"type":"Feature","properties":{"stop_id":"2421938","stop_code":"149","stop_name":"Brush Creek Rd + Faraway Rd Downhill","stop_desc":"","zone_id":"","stop_url":"","location_type":"0","parent_station":"","stop_timezone":"America/Denver","wheelchair_boarding":"0","platform_code":"","tts_stop_name":"","feed_id":"Colorado__Snowmass_Village_Transportation__mdb_mdb-164","agency_name":"Snowmass","route_count":1,"route_ids":"76719","route_short_names":"SMI-BC","route_types":"3","route_type_names":"Bus","routes_json":"[{\"route_id\":\"76719\",\"route_short_name\":\"SMI-BC\",\"route_long_name\":\"SM BC Park & Ride Depr\",\"route_type\":\"3\",\"route_type_name\":\"Bus\",\"route_color\":\"4CD975\",\"route_text_color\":\"000000\"}]","metadata_feed_id":"Colorado__Snowmass_Village_Transportation__mdb_mdb-164","metadata_agency_names":"Snowmass","metadata_ntd_id":"80263","metadata_ntd_match_method":"manual_override","metadata_ntd_agency":"Town of Snowmass Village, dba: Village Shuttle","metadata_ntd_city":"Snowmass Village","metadata_ntd_state":"CO","metadata_gtfs_route_count":2,"metadata_gtfs_trip_count":114,"metadata_gtfs_shape_count":2,"metadata_gtfs_stop_count":21,"metadata_ntd_agency_voms":24,"metadata_ntd_total_facilities":6,"metadata_ntd_maintenance_facilities":0,"metadata_ntd_passenger_stations":3,"metadata_tam_tier":"Tier II","metadata_route_types_json":"{\"3\":2}","metadata_ntd_facilities_json":"{\"maintenance_facilities\":0,\"administrative_and_other_non_passenger_facilities\":2,\"passenger_stations_and_terminals\":3,\"parking_and_other_passenger_facilities\":1,\"total_facilities\":6,\"bus_transfer_centers\":3,\"elevated_fixed_guideway_stations\":0,\"at_grade_fixed_guideway_stations\":0,\"underground_fixed_guideway_stations\":0,\"simple_at_grade_platform_stations\":0,\"exclusive_grade_separated_platform_stations\":0,\"ferryboat_terminals\":0,\"surface_parking_lots\":1,\"parking_structures\":0}","metadata_tam_modes_json":"{\"MB\":{\"total_units_2024\":37,\"units_under_threshold_2024\":0,\"voms_2024\":48,\"total_modal_vrm_2024\":0,\"total_modal_upt_2024\":0}}"},"geometry":{"type":"Point","coordinates":[-106.9420585,39.2112077]}},{"type":"Feature","properties":{"stop_id":"2421940","stop_code":"217","stop_name":"Brush Creek Rd + Owl Creek Rd Downhill","stop_desc":"","zone_id":"","stop_url":"","location_type":"0","parent_station":"","stop_timezone":"America/Denver","wheelchair_boarding":"0","platform_code":"","tts_stop_name":"","feed_id":"Colorado__Snowmass_Village_Transportation__mdb_mdb-164","agency_name":"Snowmass","route_count":1,"route_ids":"76719","route_short_names":"SMI-BC","route_types":"3","route_type_names":"Bus","routes_json":"[{\"route_id\":\"76719\",\"route_short_name\":\"SMI-BC\",\"route_long_name\":\"SM BC Park & Ride Depr\",\"route_type\":\"3\",\"route_type_name\":\"Bus\",\"route_color\":\"4CD975\",\"route_text_color\":\"000000\"}]","metadata_feed_id":"Colorado__Snowmass_Village_Transportation__mdb_mdb-164","metadata_agency_names":"Snowmass","metadata_ntd_id":"80263","metadata_ntd_match_method":"manual_override","metadata_ntd_agency":"Town of Snowmass Village, dba: Village Shuttle","metadata_ntd_city":"Snowmass Village","metadata_ntd_state":"CO","metadata_gtfs_route_count":2,"metadata_gtfs_trip_count":114,"metadata_gtfs_shape_count":2,"metadata_gtfs_stop_count":21,"metadata_ntd_agency_voms":24,"metadata_ntd_total_facilities":6,"metadata_ntd_maintenance_facilities":0,"metadata_ntd_passenger_stations":3,"metadata_tam_tier":"Tier II","metadata_route_types_json":"{\"3\":2}","metadata_ntd_facilities_json":"{\"maintenance_facilities\":0,\"administrative_and_other_non_passenger_facilities\":2,\"passenger_stations_and_terminals\":3,\"parking_and_other_passenger_facilities\":1,\"total_facilities\":6,\"bus_transfer_centers\":3,\"elevated_fixed_guideway_stations\":0,\"at_grade_fixed_guideway_stations\":0,\"underground_fixed_guideway_stations\":0,\"simple_at_grade_platform_stations\":0,\"exclusive_grade_separated_platform_stations\":0,\"ferryboat_terminals\":0,\"surface_parking_lots\":1,\"parking_structures\":0}","metadata_tam_modes_json":"{\"MB\":{\"total_units_2024\":37,\"units_under_threshold_2024\":0,\"voms_2024\":48,\"total_modal_vrm_2024\":0,\"total_modal_upt_2024\":0}}"},"geometry":{"type":"Point","coordinates":[-106.9392528,39.2136065]}},{"type":"Feature","properties":{"stop_id":"2421951","stop_code":"138","stop_name":"Brush Creek Rd + Sinclair Rd Downhill","stop_desc":"","zone_id":"","stop_url":"","location_type":"0","parent_station":"","stop_timezone":"America/Denver","wheelchair_boarding":"0","platform_code":"","tts_stop_name":"","feed_id":"Colorado__Snowmass_Village_Transportation__mdb_mdb-164","agency_name":"Snowmass","route_count":1,"route_ids":"76719","route_short_names":"SMI-BC","route_types":"3","route_type_names":"Bus","routes_json":"[{\"route_id\":\"76719\",\"route_short_name\":\"SMI-BC\",\"route_long_name\":\"SM BC Park & Ride Depr\",\"route_type\":\"3\",\"route_type_name\":\"Bus\",\"route_color\":\"4CD975\",\"route_text_color\":\"000000\"}]","metadata_feed_id":"Colorado__Snowmass_Village_Transportation__mdb_mdb-164","metadata_agency_names":"Snowmass","metadata_ntd_id":"80263","metadata_ntd_match_method":"manual_override","metadata_ntd_agency":"Town of Snowmass Village, dba: Village Shuttle","metadata_ntd_city":"Snowmass Village","metadata_ntd_state":"CO","metadata_gtfs_route_count":2,"metadata_gtfs_trip_count":114,"metadata_gtfs_shape_count":2,"metadata_gtfs_stop_count":21,"metadata_ntd_agency_voms":24,"metadata_ntd_total_facilities":6,"metadata_ntd_maintenance_facilities":0,"metadata_ntd_passenger_stations":3,"metadata_tam_tier":"Tier II","metadata_route_types_json":"{\"3\":2}","metadata_ntd_facilities_json":"{\"maintenance_facilities\":0,\"administrative_and_other_non_passenger_facilities\":2,\"passenger_stations_and_terminals\":3,\"parking_and_other_passenger_facilities\":1,\"total_facilities\":6,\"bus_transfer_centers\":3,\"elevated_fixed_guideway_stations\":0,\"at_grade_fixed_guideway_stations\":0,\"underground_fixed_guideway_stations\":0,\"simple_at_grade_platform_stations\":0,\"exclusive_grade_separated_platform_stations\":0,\"ferryboat_terminals\":0,\"surface_parking_lots\":1,\"parking_structures\":0}","metadata_tam_modes_json":"{\"MB\":{\"total_units_2024\":37,\"units_under_threshold_2024\":0,\"voms_2024\":48,\"total_modal_vrm_2024\":0,\"total_modal_upt_2024\":0}}"},"geometry":{"type":"Point","coordinates":[-106.9349678,39.217094]}},{"type":"Feature","properties":{"stop_id":"2421953","stop_code":"68","stop_name":"Brush Creek Rd + Meadow Rd Downhill","stop_desc":"","zone_id":"","stop_url":"","location_type":"0","parent_station":"","stop_timezone":"America/Denver","wheelchair_boarding":"0","platform_code":"","tts_stop_name":"","feed_id":"Colorado__Snowmass_Village_Transportation__mdb_mdb-164","agency_name":"Snowmass","route_count":1,"route_ids":"76719","route_short_names":"SMI-BC","route_types":"3","route_type_names":"Bus","routes_json":"[{\"route_id\":\"76719\",\"route_short_name\":\"SMI-BC\",\"route_long_name\":\"SM BC Park & Ride Depr\",\"route_type\":\"3\",\"route_type_name\":\"Bus\",\"route_color\":\"4CD975\",\"route_text_color\":\"000000\"}]","metadata_feed_id":"Colorado__Snowmass_Village_Transportation__mdb_mdb-164","metadata_agency_names":"Snowmass","metadata_ntd_id":"80263","metadata_ntd_match_method":"manual_override","metadata_ntd_agency":"Town of Snowmass Village, dba: Village Shuttle","metadata_ntd_city":"Snowmass Village","metadata_ntd_state":"CO","metadata_gtfs_route_count":2,"metadata_gtfs_trip_count":114,"metadata_gtfs_shape_count":2,"metadata_gtfs_stop_count":21,"metadata_ntd_agency_voms":24,"metadata_ntd_total_facilities":6,"metadata_ntd_maintenance_facilities":0,"metadata_ntd_passenger_stations":3,"metadata_tam_tier":"Tier II","metadata_route_types_json":"{\"3\":2}","metadata_ntd_facilities_json":"{\"maintenance_facilities\":0,\"administrative_and_other_non_passenger_facilities\":2,\"passenger_stations_and_terminals\":3,\"parking_and_other_passenger_facilities\":1,\"total_facilities\":6,\"bus_transfer_centers\":3,\"elevated_fixed_guideway_stations\":0,\"at_grade_fixed_guideway_stations\":0,\"underground_fixed_guideway_stations\":0,\"simple_at_grade_platform_stations\":0,\"exclusive_grade_separated_platform_stations\":0,\"ferryboat_terminals\":0,\"surface_parking_lots\":1,\"parking_structures\":0}","metadata_tam_modes_json":"{\"MB\":{\"total_units_2024\":37,\"units_under_threshold_2024\":0,\"voms_2024\":48,\"total_modal_vrm_2024\":0,\"total_modal_upt_2024\":0}}"},"geometry":{"type":"Point","coordinates":[-106.9322302,39.221685]}},{"type":"Feature","properties":{"stop_id":"2421970","stop_code":"135","stop_name":"Town Park Station Downhill","stop_desc":"","zone_id":"","stop_url":"","location_type":"0","parent_station":"","stop_timezone":"America/Denver","wheelchair_boarding":"0","platform_code":"","tts_stop_name":"","feed_id":"Colorado__Snowmass_Village_Transportation__mdb_mdb-164","agency_name":"Snowmass","route_count":1,"route_ids":"76719","route_short_names":"SMI-BC","route_types":"3","route_type_names":"Bus","routes_json":"[{\"route_id\":\"76719\",\"route_short_name\":\"SMI-BC\",\"route_long_name\":\"SM BC Park & Ride Depr\",\"route_type\":\"3\",\"route_type_name\":\"Bus\",\"route_color\":\"4CD975\",\"route_text_color\":\"000000\"}]","metadata_feed_id":"Colorado__Snowmass_Village_Transportation__mdb_mdb-164","metadata_agency_names":"Snowmass","metadata_ntd_id":"80263","metadata_ntd_match_method":"manual_override","metadata_ntd_agency":"Town of Snowmass Village, dba: Village Shuttle","metadata_ntd_city":"Snowmass Village","metadata_ntd_state":"CO","metadata_gtfs_route_count":2,"metadata_gtfs_trip_count":114,"metadata_gtfs_shape_count":2,"metadata_gtfs_stop_count":21,"metadata_ntd_agency_voms":24,"metadata_ntd_total_facilities":6,"metadata_ntd_maintenance_facilities":0,"metadata_ntd_passenger_stations":3,"metadata_tam_tier":"Tier II","metadata_route_types_json":"{\"3\":2}","metadata_ntd_facilities_json":"{\"maintenance_facilities\":0,\"administrative_and_other_non_passenger_facilities\":2,\"passenger_stations_and_terminals\":3,\"parking_and_other_passenger_facilities\":1,\"total_facilities\":6,\"bus_transfer_centers\":3,\"elevated_fixed_guideway_stations\":0,\"at_grade_fixed_guideway_stations\":0,\"underground_fixed_guideway_stations\":0,\"simple_at_grade_platform_stations\":0,\"exclusive_grade_separated_platform_stations\":0,\"ferryboat_terminals\":0,\"surface_parking_lots\":1,\"parking_structures\":0}","metadata_tam_modes_json":"{\"MB\":{\"total_units_2024\":37,\"units_under_threshold_2024\":0,\"voms_2024\":48,\"total_modal_vrm_2024\":0,\"total_modal_upt_2024\":0}}"},"geometry":{"type":"Point","coordinates":[-106.924154,39.2253084]}},{"type":"Feature","properties":{"stop_id":"4230271","stop_code":"","stop_name":"Brush Creek Ranch Downhill","stop_desc":"","zone_id":"","stop_url":"","location_type":"0","parent_station":"","stop_timezone":"America/Denver","wheelchair_boarding":"0","platform_code":"","tts_stop_name":"","feed_id":"Colorado__Snowmass_Village_Transportation__mdb_mdb-164","agency_name":"Snowmass","route_count":1,"route_ids":"76719","route_short_names":"SMI-BC","route_types":"3","route_type_names":"Bus","routes_json":"[{\"route_id\":\"76719\",\"route_short_name\":\"SMI-BC\",\"route_long_name\":\"SM BC Park & Ride Depr\",\"route_type\":\"3\",\"route_type_name\":\"Bus\",\"route_color\":\"4CD975\",\"route_text_color\":\"000000\"}]","metadata_feed_id":"Colorado__Snowmass_Village_Transportation__mdb_mdb-164","metadata_agency_names":"Snowmass","metadata_ntd_id":"80263","metadata_ntd_match_method":"manual_override","metadata_ntd_agency":"Town of Snowmass Village, dba: Village Shuttle","metadata_ntd_city":"Snowmass Village","metadata_ntd_state":"CO","metadata_gtfs_route_count":2,"metadata_gtfs_trip_count":114,"metadata_gtfs_shape_count":2,"metadata_gtfs_stop_count":21,"metadata_ntd_agency_voms":24,"metadata_ntd_total_facilities":6,"metadata_ntd_maintenance_facilities":0,"metadata_ntd_passenger_stations":3,"metadata_tam_tier":"Tier II","metadata_route_types_json":"{\"3\":2}","metadata_ntd_facilities_json":"{\"maintenance_facilities\":0,\"administrative_and_other_non_passenger_facilities\":2,\"passenger_stations_and_terminals\":3,\"parking_and_other_passenger_facilities\":1,\"total_facilities\":6,\"bus_transfer_centers\":3,\"elevated_fixed_guideway_stations\":0,\"at_grade_fixed_guideway_stations\":0,\"underground_fixed_guideway_stations\":0,\"simple_at_grade_platform_stations\":0,\"exclusive_grade_separated_platform_stations\":0,\"ferryboat_terminals\":0,\"surface_parking_lots\":1,\"parking_structures\":0}","metadata_tam_modes_json":"{\"MB\":{\"total_units_2024\":37,\"units_under_threshold_2024\":0,\"voms_2024\":48,\"total_modal_vrm_2024\":0,\"total_modal_upt_2024\":0}}"},"geometry":{"type":"Point","coordinates":[-106.8963172,39.2395362]}}],"metadata":{"feed_id":"Colorado__Snowmass_Village_Transportation__mdb_mdb-164","ntd_id":"80263","feature_metadata_embedded":true}}