{"type":"FeatureCollection","features":[{"type":"Feature","properties":{"stop_id":"2579379","stop_code":"","platform_code":"","stop_name":"Chinatown","stop_desc":"","zone_id":"2869","stop_url":"","location_type":"0","parent_station":"","stop_timezone":"America/Chicago","position":"","direction":"","wheelchair_boarding":"0","tts_stop_name":"","feed_id":"Illinois__Chicago_Water_Taxi__mdb_mdb-306","agency_name":"Chicago Water Taxi","route_count":1,"route_ids":"15434","route_short_names":"","route_types":"4","route_type_names":"Ferry","routes_json":"[{\"route_id\":\"15434\",\"route_short_name\":\"\",\"route_long_name\":\"Chicago Water Taxi\",\"route_type\":\"4\",\"route_type_name\":\"Ferry\",\"route_color\":\"E9F602\",\"route_text_color\":\"000000\"}]","metadata_feed_id":"Illinois__Chicago_Water_Taxi__mdb_mdb-306","metadata_agency_names":"Chicago Water Taxi","metadata_ntd_id":"50521","metadata_ntd_match_method":"manual_override","metadata_ntd_agency":"Chicago Water Taxi (Wendella)","metadata_ntd_city":"Chicago","metadata_ntd_state":"IL","metadata_gtfs_route_count":1,"metadata_gtfs_trip_count":2075,"metadata_gtfs_shape_count":4,"metadata_gtfs_stop_count":7,"metadata_ntd_agency_voms":3,"metadata_ntd_total_facilities":7,"metadata_ntd_maintenance_facilities":0,"metadata_ntd_passenger_stations":7,"metadata_tam_tier":"Tier II","metadata_service_area_sq_miles":89,"metadata_service_area_population":69764,"metadata_route_types_json":"{\"4\":1}","metadata_ntd_facilities_json":"{\"maintenance_facilities\":0,\"administrative_and_other_non_passenger_facilities\":0,\"passenger_stations_and_terminals\":7,\"parking_and_other_passenger_facilities\":0,\"total_facilities\":7,\"bus_transfer_centers\":0,\"elevated_fixed_guideway_stations\":0,\"at_grade_fixed_guideway_stations\":0,\"underground_fixed_guideway_stations\":0,\"simple_at_grade_platform_stations\":0,\"exclusive_grade_separated_platform_stations\":0,\"ferryboat_terminals\":7,\"surface_parking_lots\":0,\"parking_structures\":0}","metadata_tam_modes_json":"{\"FB\":{\"total_units_2024\":3,\"units_under_threshold_2024\":0,\"voms_2024\":3,\"total_modal_vrm_2024\":0,\"total_modal_upt_2024\":0}}"},"geometry":{"type":"Point","coordinates":[-87.6349770310276,41.8571416575835]}},{"type":"Feature","properties":{"stop_id":"2579380","stop_code":"","platform_code":"","stop_name":"Chicago Avenue","stop_desc":"","zone_id":"2868","stop_url":"","location_type":"0","parent_station":"","stop_timezone":"America/Chicago","position":"","direction":"","wheelchair_boarding":"0","tts_stop_name":"","feed_id":"Illinois__Chicago_Water_Taxi__mdb_mdb-306","agency_name":"Chicago Water Taxi","route_count":0,"route_ids":"","route_short_names":"","route_types":"","route_type_names":"","routes_json":"[]","metadata_feed_id":"Illinois__Chicago_Water_Taxi__mdb_mdb-306","metadata_agency_names":"Chicago Water Taxi","metadata_ntd_id":"50521","metadata_ntd_match_method":"manual_override","metadata_ntd_agency":"Chicago Water Taxi (Wendella)","metadata_ntd_city":"Chicago","metadata_ntd_state":"IL","metadata_gtfs_route_count":1,"metadata_gtfs_trip_count":2075,"metadata_gtfs_shape_count":4,"metadata_gtfs_stop_count":7,"metadata_ntd_agency_voms":3,"metadata_ntd_total_facilities":7,"metadata_ntd_maintenance_facilities":0,"metadata_ntd_passenger_stations":7,"metadata_tam_tier":"Tier II","metadata_service_area_sq_miles":89,"metadata_service_area_population":69764,"metadata_route_types_json":"{\"4\":1}","metadata_ntd_facilities_json":"{\"maintenance_facilities\":0,\"administrative_and_other_non_passenger_facilities\":0,\"passenger_stations_and_terminals\":7,\"parking_and_other_passenger_facilities\":0,\"total_facilities\":7,\"bus_transfer_centers\":0,\"elevated_fixed_guideway_stations\":0,\"at_grade_fixed_guideway_stations\":0,\"underground_fixed_guideway_stations\":0,\"simple_at_grade_platform_stations\":0,\"exclusive_grade_separated_platform_stations\":0,\"ferryboat_terminals\":7,\"surface_parking_lots\":0,\"parking_structures\":0}","metadata_tam_modes_json":"{\"FB\":{\"total_units_2024\":3,\"units_under_threshold_2024\":0,\"voms_2024\":3,\"total_modal_vrm_2024\":0,\"total_modal_upt_2024\":0}}"},"geometry":{"type":"Point","coordinates":[-87.6438571094576,41.8969063881015]}},{"type":"Feature","properties":{"stop_id":"2579381","stop_code":"","platform_code":"","stop_name":"Riverwalk","stop_desc":"","zone_id":"2873","stop_url":"","location_type":"0","parent_station":"","stop_timezone":"America/Chicago","position":"","direction":"","wheelchair_boarding":"0","tts_stop_name":"","feed_id":"Illinois__Chicago_Water_Taxi__mdb_mdb-306","agency_name":"Chicago Water Taxi","route_count":0,"route_ids":"","route_short_names":"","route_types":"","route_type_names":"","routes_json":"[]","metadata_feed_id":"Illinois__Chicago_Water_Taxi__mdb_mdb-306","metadata_agency_names":"Chicago Water Taxi","metadata_ntd_id":"50521","metadata_ntd_match_method":"manual_override","metadata_ntd_agency":"Chicago Water Taxi (Wendella)","metadata_ntd_city":"Chicago","metadata_ntd_state":"IL","metadata_gtfs_route_count":1,"metadata_gtfs_trip_count":2075,"metadata_gtfs_shape_count":4,"metadata_gtfs_stop_count":7,"metadata_ntd_agency_voms":3,"metadata_ntd_total_facilities":7,"metadata_ntd_maintenance_facilities":0,"metadata_ntd_passenger_stations":7,"metadata_tam_tier":"Tier II","metadata_service_area_sq_miles":89,"metadata_service_area_population":69764,"metadata_route_types_json":"{\"4\":1}","metadata_ntd_facilities_json":"{\"maintenance_facilities\":0,\"administrative_and_other_non_passenger_facilities\":0,\"passenger_stations_and_terminals\":7,\"parking_and_other_passenger_facilities\":0,\"total_facilities\":7,\"bus_transfer_centers\":0,\"elevated_fixed_guideway_stations\":0,\"at_grade_fixed_guideway_stations\":0,\"underground_fixed_guideway_stations\":0,\"simple_at_grade_platform_stations\":0,\"exclusive_grade_separated_platform_stations\":0,\"ferryboat_terminals\":7,\"surface_parking_lots\":0,\"parking_structures\":0}","metadata_tam_modes_json":"{\"FB\":{\"total_units_2024\":3,\"units_under_threshold_2024\":0,\"voms_2024\":3,\"total_modal_vrm_2024\":0,\"total_modal_upt_2024\":0}}"},"geometry":{"type":"Point","coordinates":[-87.631543143138,41.8871386698756]}},{"type":"Feature","properties":{"stop_id":"2579382","stop_code":"","platform_code":"","stop_name":"Goose Island","stop_desc":"","zone_id":"2870","stop_url":"","location_type":"0","parent_station":"","stop_timezone":"America/Chicago","position":"","direction":"","wheelchair_boarding":"0","tts_stop_name":"","feed_id":"Illinois__Chicago_Water_Taxi__mdb_mdb-306","agency_name":"Chicago Water Taxi","route_count":0,"route_ids":"","route_short_names":"","route_types":"","route_type_names":"","routes_json":"[]","metadata_feed_id":"Illinois__Chicago_Water_Taxi__mdb_mdb-306","metadata_agency_names":"Chicago Water Taxi","metadata_ntd_id":"50521","metadata_ntd_match_method":"manual_override","metadata_ntd_agency":"Chicago Water Taxi (Wendella)","metadata_ntd_city":"Chicago","metadata_ntd_state":"IL","metadata_gtfs_route_count":1,"metadata_gtfs_trip_count":2075,"metadata_gtfs_shape_count":4,"metadata_gtfs_stop_count":7,"metadata_ntd_agency_voms":3,"metadata_ntd_total_facilities":7,"metadata_ntd_maintenance_facilities":0,"metadata_ntd_passenger_stations":7,"metadata_tam_tier":"Tier II","metadata_service_area_sq_miles":89,"metadata_service_area_population":69764,"metadata_route_types_json":"{\"4\":1}","metadata_ntd_facilities_json":"{\"maintenance_facilities\":0,\"administrative_and_other_non_passenger_facilities\":0,\"passenger_stations_and_terminals\":7,\"parking_and_other_passenger_facilities\":0,\"total_facilities\":7,\"bus_transfer_centers\":0,\"elevated_fixed_guideway_stations\":0,\"at_grade_fixed_guideway_stations\":0,\"underground_fixed_guideway_stations\":0,\"simple_at_grade_platform_stations\":0,\"exclusive_grade_separated_platform_stations\":0,\"ferryboat_terminals\":7,\"surface_parking_lots\":0,\"parking_structures\":0}","metadata_tam_modes_json":"{\"FB\":{\"total_units_2024\":3,\"units_under_threshold_2024\":0,\"voms_2024\":3,\"total_modal_vrm_2024\":0,\"total_modal_upt_2024\":0}}"},"geometry":{"type":"Point","coordinates":[-87.655758,41.910022]}},{"type":"Feature","properties":{"stop_id":"2579383","stop_code":"","platform_code":"","stop_name":"River North","stop_desc":"","zone_id":"2872","stop_url":"","location_type":"0","parent_station":"","stop_timezone":"America/Chicago","position":"","direction":"","wheelchair_boarding":"0","tts_stop_name":"","feed_id":"Illinois__Chicago_Water_Taxi__mdb_mdb-306","agency_name":"Chicago Water Taxi","route_count":0,"route_ids":"","route_short_names":"","route_types":"","route_type_names":"","routes_json":"[]","metadata_feed_id":"Illinois__Chicago_Water_Taxi__mdb_mdb-306","metadata_agency_names":"Chicago Water Taxi","metadata_ntd_id":"50521","metadata_ntd_match_method":"manual_override","metadata_ntd_agency":"Chicago Water Taxi (Wendella)","metadata_ntd_city":"Chicago","metadata_ntd_state":"IL","metadata_gtfs_route_count":1,"metadata_gtfs_trip_count":2075,"metadata_gtfs_shape_count":4,"metadata_gtfs_stop_count":7,"metadata_ntd_agency_voms":3,"metadata_ntd_total_facilities":7,"metadata_ntd_maintenance_facilities":0,"metadata_ntd_passenger_stations":7,"metadata_tam_tier":"Tier II","metadata_service_area_sq_miles":89,"metadata_service_area_population":69764,"metadata_route_types_json":"{\"4\":1}","metadata_ntd_facilities_json":"{\"maintenance_facilities\":0,\"administrative_and_other_non_passenger_facilities\":0,\"passenger_stations_and_terminals\":7,\"parking_and_other_passenger_facilities\":0,\"total_facilities\":7,\"bus_transfer_centers\":0,\"elevated_fixed_guideway_stations\":0,\"at_grade_fixed_guideway_stations\":0,\"underground_fixed_guideway_stations\":0,\"simple_at_grade_platform_stations\":0,\"exclusive_grade_separated_platform_stations\":0,\"ferryboat_terminals\":7,\"surface_parking_lots\":0,\"parking_structures\":0}","metadata_tam_modes_json":"{\"FB\":{\"total_units_2024\":3,\"units_under_threshold_2024\":0,\"voms_2024\":3,\"total_modal_vrm_2024\":0,\"total_modal_upt_2024\":0}}"},"geometry":{"type":"Point","coordinates":[-87.631778,41.887823]}},{"type":"Feature","properties":{"stop_id":"2579384","stop_code":"","platform_code":"","stop_name":"Michigan Avenue","stop_desc":"","zone_id":"2871","stop_url":"","location_type":"0","parent_station":"","stop_timezone":"America/Chicago","position":"","direction":"","wheelchair_boarding":"0","tts_stop_name":"","feed_id":"Illinois__Chicago_Water_Taxi__mdb_mdb-306","agency_name":"Chicago Water Taxi","route_count":1,"route_ids":"15434","route_short_names":"","route_types":"4","route_type_names":"Ferry","routes_json":"[{\"route_id\":\"15434\",\"route_short_name\":\"\",\"route_long_name\":\"Chicago Water Taxi\",\"route_type\":\"4\",\"route_type_name\":\"Ferry\",\"route_color\":\"E9F602\",\"route_text_color\":\"000000\"}]","metadata_feed_id":"Illinois__Chicago_Water_Taxi__mdb_mdb-306","metadata_agency_names":"Chicago Water Taxi","metadata_ntd_id":"50521","metadata_ntd_match_method":"manual_override","metadata_ntd_agency":"Chicago Water Taxi (Wendella)","metadata_ntd_city":"Chicago","metadata_ntd_state":"IL","metadata_gtfs_route_count":1,"metadata_gtfs_trip_count":2075,"metadata_gtfs_shape_count":4,"metadata_gtfs_stop_count":7,"metadata_ntd_agency_voms":3,"metadata_ntd_total_facilities":7,"metadata_ntd_maintenance_facilities":0,"metadata_ntd_passenger_stations":7,"metadata_tam_tier":"Tier II","metadata_service_area_sq_miles":89,"metadata_service_area_population":69764,"metadata_route_types_json":"{\"4\":1}","metadata_ntd_facilities_json":"{\"maintenance_facilities\":0,\"administrative_and_other_non_passenger_facilities\":0,\"passenger_stations_and_terminals\":7,\"parking_and_other_passenger_facilities\":0,\"total_facilities\":7,\"bus_transfer_centers\":0,\"elevated_fixed_guideway_stations\":0,\"at_grade_fixed_guideway_stations\":0,\"underground_fixed_guideway_stations\":0,\"simple_at_grade_platform_stations\":0,\"exclusive_grade_separated_platform_stations\":0,\"ferryboat_terminals\":7,\"surface_parking_lots\":0,\"parking_structures\":0}","metadata_tam_modes_json":"{\"FB\":{\"total_units_2024\":3,\"units_under_threshold_2024\":0,\"voms_2024\":3,\"total_modal_vrm_2024\":0,\"total_modal_upt_2024\":0}}"},"geometry":{"type":"Point","coordinates":[-87.625214,41.8893]}},{"type":"Feature","properties":{"stop_id":"2579385","stop_code":"","platform_code":"","stop_name":"Ogilvie/Union","stop_desc":"","zone_id":"2874","stop_url":"","location_type":"0","parent_station":"","stop_timezone":"America/Chicago","position":"","direction":"","wheelchair_boarding":"0","tts_stop_name":"","feed_id":"Illinois__Chicago_Water_Taxi__mdb_mdb-306","agency_name":"Chicago Water Taxi","route_count":1,"route_ids":"15434","route_short_names":"","route_types":"4","route_type_names":"Ferry","routes_json":"[{\"route_id\":\"15434\",\"route_short_name\":\"\",\"route_long_name\":\"Chicago Water Taxi\",\"route_type\":\"4\",\"route_type_name\":\"Ferry\",\"route_color\":\"E9F602\",\"route_text_color\":\"000000\"}]","metadata_feed_id":"Illinois__Chicago_Water_Taxi__mdb_mdb-306","metadata_agency_names":"Chicago Water Taxi","metadata_ntd_id":"50521","metadata_ntd_match_method":"manual_override","metadata_ntd_agency":"Chicago Water Taxi (Wendella)","metadata_ntd_city":"Chicago","metadata_ntd_state":"IL","metadata_gtfs_route_count":1,"metadata_gtfs_trip_count":2075,"metadata_gtfs_shape_count":4,"metadata_gtfs_stop_count":7,"metadata_ntd_agency_voms":3,"metadata_ntd_total_facilities":7,"metadata_ntd_maintenance_facilities":0,"metadata_ntd_passenger_stations":7,"metadata_tam_tier":"Tier II","metadata_service_area_sq_miles":89,"metadata_service_area_population":69764,"metadata_route_types_json":"{\"4\":1}","metadata_ntd_facilities_json":"{\"maintenance_facilities\":0,\"administrative_and_other_non_passenger_facilities\":0,\"passenger_stations_and_terminals\":7,\"parking_and_other_passenger_facilities\":0,\"total_facilities\":7,\"bus_transfer_centers\":0,\"elevated_fixed_guideway_stations\":0,\"at_grade_fixed_guideway_stations\":0,\"underground_fixed_guideway_stations\":0,\"simple_at_grade_platform_stations\":0,\"exclusive_grade_separated_platform_stations\":0,\"ferryboat_terminals\":7,\"surface_parking_lots\":0,\"parking_structures\":0}","metadata_tam_modes_json":"{\"FB\":{\"total_units_2024\":3,\"units_under_threshold_2024\":0,\"voms_2024\":3,\"total_modal_vrm_2024\":0,\"total_modal_upt_2024\":0}}"},"geometry":{"type":"Point","coordinates":[-87.638598,41.882244]}}],"metadata":{"feed_id":"Illinois__Chicago_Water_Taxi__mdb_mdb-306","ntd_id":"50521","feature_metadata_embedded":true}}