{"type":"FeatureCollection","features":[{"type":"Feature","properties":{"stop_id":"786489","stop_code":"","platform_code":"","stop_name":"Point Judith Ferry Terminal, Narragansett, RI","stop_desc":"","zone_id":"","stop_url":"","location_type":"0","parent_station":"","stop_timezone":"America/New_York","position":"","direction":"","wheelchair_boarding":"0","tts_stop_name":"","feed_id":"Massachusetts__Block_Island_Ferry__mdb_mdb-554","agency_name":"Block Island Ferry","route_count":1,"route_ids":"2059","route_short_names":"Block Island Ferry","route_types":"4","route_type_names":"Ferry","routes_json":"[{\"route_id\":\"2059\",\"route_short_name\":\"Block Island Ferry\",\"route_long_name\":\"Pt. Judith - Block Island (Traditional)\",\"route_type\":\"4\",\"route_type_name\":\"Ferry\",\"route_color\":\"64748B\",\"route_text_color\":\"FFFFFF\"}]","metadata_feed_id":"Massachusetts__Block_Island_Ferry__mdb_mdb-554","metadata_agency_names":"Block Island Ferry","metadata_ntd_id":"90225","metadata_ntd_match_method":"manual_override","metadata_ntd_agency":"San Francisco Bay Area Water Emergency Transportation Authority, dba: San Francisco Bay Ferry","metadata_ntd_city":"San Francisco","metadata_ntd_state":"CA","metadata_gtfs_route_count":3,"metadata_gtfs_trip_count":237,"metadata_gtfs_shape_count":2,"metadata_gtfs_stop_count":4,"metadata_ntd_agency_voms":11,"metadata_ntd_total_facilities":22,"metadata_ntd_maintenance_facilities":0,"metadata_ntd_passenger_stations":14,"metadata_tam_tier":"Tier II","metadata_service_area_sq_miles":127,"metadata_service_area_population":345375,"metadata_route_types_json":"{\"4\":3}","metadata_ntd_facilities_json":"{\"maintenance_facilities\":0,\"administrative_and_other_non_passenger_facilities\":2,\"passenger_stations_and_terminals\":14,\"parking_and_other_passenger_facilities\":6,\"total_facilities\":22,\"bus_transfer_centers\":0,\"elevated_fixed_guideway_stations\":0,\"at_grade_fixed_guideway_stations\":0,\"underground_fixed_guideway_stations\":0,\"simple_at_grade_platform_stations\":0,\"exclusive_grade_separated_platform_stations\":0,\"ferryboat_terminals\":14,\"surface_parking_lots\":5,\"parking_structures\":0}","metadata_tam_modes_json":"{\"FB\":{\"total_units_2024\":42,\"units_under_threshold_2024\":4,\"voms_2024\":11,\"total_modal_vrm_2024\":529247,\"total_modal_upt_2024\":2388379}}"},"geometry":{"type":"Point","coordinates":[-71.5108851906357,41.3793284602002]}},{"type":"Feature","properties":{"stop_id":"786490","stop_code":"","platform_code":"","stop_name":"Perrotti Park, Newport, RI","stop_desc":"","zone_id":"","stop_url":"","location_type":"0","parent_station":"","stop_timezone":"America/New_York","position":"","direction":"","wheelchair_boarding":"0","tts_stop_name":"","feed_id":"Massachusetts__Block_Island_Ferry__mdb_mdb-554","agency_name":"Block Island Ferry","route_count":0,"route_ids":"","route_short_names":"","route_types":"","route_type_names":"","routes_json":"[]","metadata_feed_id":"Massachusetts__Block_Island_Ferry__mdb_mdb-554","metadata_agency_names":"Block Island Ferry","metadata_ntd_id":"90225","metadata_ntd_match_method":"manual_override","metadata_ntd_agency":"San Francisco Bay Area Water Emergency Transportation Authority, dba: San Francisco Bay Ferry","metadata_ntd_city":"San Francisco","metadata_ntd_state":"CA","metadata_gtfs_route_count":3,"metadata_gtfs_trip_count":237,"metadata_gtfs_shape_count":2,"metadata_gtfs_stop_count":4,"metadata_ntd_agency_voms":11,"metadata_ntd_total_facilities":22,"metadata_ntd_maintenance_facilities":0,"metadata_ntd_passenger_stations":14,"metadata_tam_tier":"Tier II","metadata_service_area_sq_miles":127,"metadata_service_area_population":345375,"metadata_route_types_json":"{\"4\":3}","metadata_ntd_facilities_json":"{\"maintenance_facilities\":0,\"administrative_and_other_non_passenger_facilities\":2,\"passenger_stations_and_terminals\":14,\"parking_and_other_passenger_facilities\":6,\"total_facilities\":22,\"bus_transfer_centers\":0,\"elevated_fixed_guideway_stations\":0,\"at_grade_fixed_guideway_stations\":0,\"underground_fixed_guideway_stations\":0,\"simple_at_grade_platform_stations\":0,\"exclusive_grade_separated_platform_stations\":0,\"ferryboat_terminals\":14,\"surface_parking_lots\":5,\"parking_structures\":0}","metadata_tam_modes_json":"{\"FB\":{\"total_units_2024\":42,\"units_under_threshold_2024\":4,\"voms_2024\":11,\"total_modal_vrm_2024\":529247,\"total_modal_upt_2024\":2388379}}"},"geometry":{"type":"Point","coordinates":[-71.31767494645692,41.48925185834795]}},{"type":"Feature","properties":{"stop_id":"786491","stop_code":"","platform_code":"","stop_name":"Fall River Line Pier, Fall River, MA","stop_desc":"","zone_id":"","stop_url":"","location_type":"0","parent_station":"","stop_timezone":"America/New_York","position":"","direction":"","wheelchair_boarding":"0","tts_stop_name":"","feed_id":"Massachusetts__Block_Island_Ferry__mdb_mdb-554","agency_name":"Block Island Ferry","route_count":0,"route_ids":"","route_short_names":"","route_types":"","route_type_names":"","routes_json":"[]","metadata_feed_id":"Massachusetts__Block_Island_Ferry__mdb_mdb-554","metadata_agency_names":"Block Island Ferry","metadata_ntd_id":"90225","metadata_ntd_match_method":"manual_override","metadata_ntd_agency":"San Francisco Bay Area Water Emergency Transportation Authority, dba: San Francisco Bay Ferry","metadata_ntd_city":"San Francisco","metadata_ntd_state":"CA","metadata_gtfs_route_count":3,"metadata_gtfs_trip_count":237,"metadata_gtfs_shape_count":2,"metadata_gtfs_stop_count":4,"metadata_ntd_agency_voms":11,"metadata_ntd_total_facilities":22,"metadata_ntd_maintenance_facilities":0,"metadata_ntd_passenger_stations":14,"metadata_tam_tier":"Tier II","metadata_service_area_sq_miles":127,"metadata_service_area_population":345375,"metadata_route_types_json":"{\"4\":3}","metadata_ntd_facilities_json":"{\"maintenance_facilities\":0,\"administrative_and_other_non_passenger_facilities\":2,\"passenger_stations_and_terminals\":14,\"parking_and_other_passenger_facilities\":6,\"total_facilities\":22,\"bus_transfer_centers\":0,\"elevated_fixed_guideway_stations\":0,\"at_grade_fixed_guideway_stations\":0,\"underground_fixed_guideway_stations\":0,\"simple_at_grade_platform_stations\":0,\"exclusive_grade_separated_platform_stations\":0,\"ferryboat_terminals\":14,\"surface_parking_lots\":5,\"parking_structures\":0}","metadata_tam_modes_json":"{\"FB\":{\"total_units_2024\":42,\"units_under_threshold_2024\":4,\"voms_2024\":11,\"total_modal_vrm_2024\":529247,\"total_modal_upt_2024\":2388379}}"},"geometry":{"type":"Point","coordinates":[-71.16424722638703,41.70459204255202]}},{"type":"Feature","properties":{"stop_id":"786492","stop_code":"","platform_code":"","stop_name":"Block Island Ferry, New Shoreham, RI","stop_desc":"","zone_id":"","stop_url":"","location_type":"0","parent_station":"","stop_timezone":"America/New_York","position":"","direction":"","wheelchair_boarding":"0","tts_stop_name":"","feed_id":"Massachusetts__Block_Island_Ferry__mdb_mdb-554","agency_name":"Block Island Ferry","route_count":1,"route_ids":"2059","route_short_names":"Block Island Ferry","route_types":"4","route_type_names":"Ferry","routes_json":"[{\"route_id\":\"2059\",\"route_short_name\":\"Block Island Ferry\",\"route_long_name\":\"Pt. Judith - Block Island (Traditional)\",\"route_type\":\"4\",\"route_type_name\":\"Ferry\",\"route_color\":\"64748B\",\"route_text_color\":\"FFFFFF\"}]","metadata_feed_id":"Massachusetts__Block_Island_Ferry__mdb_mdb-554","metadata_agency_names":"Block Island Ferry","metadata_ntd_id":"90225","metadata_ntd_match_method":"manual_override","metadata_ntd_agency":"San Francisco Bay Area Water Emergency Transportation Authority, dba: San Francisco Bay Ferry","metadata_ntd_city":"San Francisco","metadata_ntd_state":"CA","metadata_gtfs_route_count":3,"metadata_gtfs_trip_count":237,"metadata_gtfs_shape_count":2,"metadata_gtfs_stop_count":4,"metadata_ntd_agency_voms":11,"metadata_ntd_total_facilities":22,"metadata_ntd_maintenance_facilities":0,"metadata_ntd_passenger_stations":14,"metadata_tam_tier":"Tier II","metadata_service_area_sq_miles":127,"metadata_service_area_population":345375,"metadata_route_types_json":"{\"4\":3}","metadata_ntd_facilities_json":"{\"maintenance_facilities\":0,\"administrative_and_other_non_passenger_facilities\":2,\"passenger_stations_and_terminals\":14,\"parking_and_other_passenger_facilities\":6,\"total_facilities\":22,\"bus_transfer_centers\":0,\"elevated_fixed_guideway_stations\":0,\"at_grade_fixed_guideway_stations\":0,\"underground_fixed_guideway_stations\":0,\"simple_at_grade_platform_stations\":0,\"exclusive_grade_separated_platform_stations\":0,\"ferryboat_terminals\":14,\"surface_parking_lots\":5,\"parking_structures\":0}","metadata_tam_modes_json":"{\"FB\":{\"total_units_2024\":42,\"units_under_threshold_2024\":4,\"voms_2024\":11,\"total_modal_vrm_2024\":529247,\"total_modal_upt_2024\":2388379}}"},"geometry":{"type":"Point","coordinates":[-71.55667586293794,41.17370448125912]}}],"metadata":{"feed_id":"Massachusetts__Block_Island_Ferry__mdb_mdb-554","ntd_id":"90225","feature_metadata_embedded":true}}