{"type":"FeatureCollection","features":[{"type":"Feature","properties":{"stop_id":"2","stop_code":"BELFORD","stop_name":"Belford / Harbor Way","stop_url":"https://nywaterway.connexionz.net/RTT/Public/Transit.aspx?page=text&plt=2","location_type":"","platform_code":"","stop_desc":"","stop_timezone":"","wheelchair_boarding":"","feed_id":"New_Jersey__NY_Waterway__mdb_mdb-3192","agency_name":"NY Waterway","route_count":1,"route_ids":"60","route_short_names":"60","route_types":"4","route_type_names":"Ferry","routes_json":"[{\"route_id\":\"60\",\"route_short_name\":\"60\",\"route_long_name\":\"Belford\",\"route_type\":\"4\",\"route_type_name\":\"Ferry\",\"route_color\":\"00C0FF\",\"route_text_color\":\"FFFFFF\"}]","metadata_feed_id":"New_Jersey__NY_Waterway__mdb_mdb-3192","metadata_agency_names":"NY Waterway","metadata_ntd_id":"20190","metadata_ntd_match_method":"manual_override","metadata_ntd_agency":"Port Imperial Ferry Corporation, dba: NY Waterway","metadata_ntd_city":"Weehawken","metadata_ntd_state":"NJ","metadata_gtfs_route_count":14,"metadata_gtfs_trip_count":1036,"metadata_gtfs_shape_count":71,"metadata_gtfs_stop_count":15,"metadata_ntd_agency_voms":52,"metadata_ntd_total_facilities":14,"metadata_ntd_maintenance_facilities":3,"metadata_ntd_passenger_stations":11,"metadata_tam_tier":"Tier II","metadata_service_area_sq_miles":776,"metadata_service_area_population":3658455,"metadata_route_types_json":"{\"4\":14}","metadata_ntd_facilities_json":"{\"maintenance_facilities\":3,\"administrative_and_other_non_passenger_facilities\":0,\"passenger_stations_and_terminals\":11,\"parking_and_other_passenger_facilities\":0,\"total_facilities\":14,\"bus_transfer_centers\":0,\"elevated_fixed_guideway_stations\":0,\"at_grade_fixed_guideway_stations\":0,\"underground_fixed_guideway_stations\":0,\"simple_at_grade_platform_stations\":0,\"exclusive_grade_separated_platform_stations\":0,\"ferryboat_terminals\":11,\"surface_parking_lots\":0,\"parking_structures\":0}","metadata_tam_modes_json":"{\"FB\":{\"total_units_2024\":33,\"units_under_threshold_2024\":4,\"voms_2024\":19,\"total_modal_vrm_2024\":554554,\"total_modal_upt_2024\":4694357},\"MB\":{\"total_units_2024\":36,\"units_under_threshold_2024\":0,\"voms_2024\":33,\"total_modal_vrm_2024\":421926,\"total_modal_upt_2024\":1536407}}"},"geometry":{"type":"Point","coordinates":[-74.078873,40.433438]}},{"type":"Feature","properties":{"stop_id":"4","stop_code":"BPT","stop_name":"Brookfield Place Terminal","stop_url":"https://nywaterway.connexionz.net/RTT/Public/Transit.aspx?page=text&plt=4","location_type":"","platform_code":"","stop_desc":"","stop_timezone":"","wheelchair_boarding":"","feed_id":"New_Jersey__NY_Waterway__mdb_mdb-3192","agency_name":"NY Waterway","route_count":6,"route_ids":"12|16|1623|23|60|69","route_short_names":"12|16|1623|23|60|69","route_types":"4","route_type_names":"Ferry","routes_json":"[{\"route_id\":\"12\",\"route_short_name\":\"12\",\"route_long_name\":\"Pt Imp & H14 - BPT & P11\",\"route_type\":\"4\",\"route_type_name\":\"Ferry\",\"route_color\":\"9A4597\",\"route_text_color\":\"FFFFFF\"},{\"route_id\":\"16\",\"route_short_name\":\"16\",\"route_long_name\":\"Hoboken/NJT - BPT\",\"route_type\":\"4\",\"route_type_name\":\"Ferry\",\"route_color\":\"F47D38\",\"route_text_color\":\"FFFFFF\"},{\"route_id\":\"1623\",\"route_short_name\":\"1623\",\"route_long_name\":\"Hoboken/NJT & Paulus Hook to BPT\",\"route_type\":\"4\",\"route_type_name\":\"Ferry\",\"route_color\":\"000000\",\"route_text_color\":\"FFFFFF\"},{\"route_id\":\"23\",\"route_short_name\":\"23\",\"route_long_name\":\"Paulus Hk & H/NJT - BPT\",\"route_type\":\"4\",\"route_type_name\":\"Ferry\",\"route_color\":\"00B2E6\",\"route_text_color\":\"FFFFFF\"},{\"route_id\":\"60\",\"route_short_name\":\"60\",\"route_long_name\":\"Belford\",\"route_type\":\"4\",\"route_type_name\":\"Ferry\",\"route_color\":\"00C0FF\",\"route_text_color\":\"FFFFFF\"},{\"route_id\":\"69\",\"route_short_name\":\"69\",\"route_long_name\":\"South Amboy - Midtown/W39th\",\"route_type\":\"4\",\"route_type_name\":\"Ferry\",\"route_color\":\"64748B\",\"route_text_color\":\"FFFFFF\"}]","metadata_feed_id":"New_Jersey__NY_Waterway__mdb_mdb-3192","metadata_agency_names":"NY Waterway","metadata_ntd_id":"20190","metadata_ntd_match_method":"manual_override","metadata_ntd_agency":"Port Imperial Ferry Corporation, dba: NY Waterway","metadata_ntd_city":"Weehawken","metadata_ntd_state":"NJ","metadata_gtfs_route_count":14,"metadata_gtfs_trip_count":1036,"metadata_gtfs_shape_count":71,"metadata_gtfs_stop_count":15,"metadata_ntd_agency_voms":52,"metadata_ntd_total_facilities":14,"metadata_ntd_maintenance_facilities":3,"metadata_ntd_passenger_stations":11,"metadata_tam_tier":"Tier II","metadata_service_area_sq_miles":776,"metadata_service_area_population":3658455,"metadata_route_types_json":"{\"4\":14}","metadata_ntd_facilities_json":"{\"maintenance_facilities\":3,\"administrative_and_other_non_passenger_facilities\":0,\"passenger_stations_and_terminals\":11,\"parking_and_other_passenger_facilities\":0,\"total_facilities\":14,\"bus_transfer_centers\":0,\"elevated_fixed_guideway_stations\":0,\"at_grade_fixed_guideway_stations\":0,\"underground_fixed_guideway_stations\":0,\"simple_at_grade_platform_stations\":0,\"exclusive_grade_separated_platform_stations\":0,\"ferryboat_terminals\":11,\"surface_parking_lots\":0,\"parking_structures\":0}","metadata_tam_modes_json":"{\"FB\":{\"total_units_2024\":33,\"units_under_threshold_2024\":4,\"voms_2024\":19,\"total_modal_vrm_2024\":554554,\"total_modal_upt_2024\":4694357},\"MB\":{\"total_units_2024\":36,\"units_under_threshold_2024\":0,\"voms_2024\":33,\"total_modal_vrm_2024\":421926,\"total_modal_upt_2024\":1536407}}"},"geometry":{"type":"Point","coordinates":[-74.017775,40.715029]}},{"type":"Feature","properties":{"stop_id":"5","stop_code":"EGWATER","stop_name":"Edgewater Ferry Landing","stop_url":"https://nywaterway.connexionz.net/RTT/Public/Transit.aspx?page=text&plt=5","location_type":"","platform_code":"","stop_desc":"","stop_timezone":"","wheelchair_boarding":"","feed_id":"New_Jersey__NY_Waterway__mdb_mdb-3192","agency_name":"NY Waterway","route_count":1,"route_ids":"21","route_short_names":"21","route_types":"4","route_type_names":"Ferry","routes_json":"[{\"route_id\":\"21\",\"route_short_name\":\"21\",\"route_long_name\":\"Edgewater - Midtown/W39th\",\"route_type\":\"4\",\"route_type_name\":\"Ferry\",\"route_color\":\"F9AA8F\",\"route_text_color\":\"000000\"}]","metadata_feed_id":"New_Jersey__NY_Waterway__mdb_mdb-3192","metadata_agency_names":"NY Waterway","metadata_ntd_id":"20190","metadata_ntd_match_method":"manual_override","metadata_ntd_agency":"Port Imperial Ferry Corporation, dba: NY Waterway","metadata_ntd_city":"Weehawken","metadata_ntd_state":"NJ","metadata_gtfs_route_count":14,"metadata_gtfs_trip_count":1036,"metadata_gtfs_shape_count":71,"metadata_gtfs_stop_count":15,"metadata_ntd_agency_voms":52,"metadata_ntd_total_facilities":14,"metadata_ntd_maintenance_facilities":3,"metadata_ntd_passenger_stations":11,"metadata_tam_tier":"Tier II","metadata_service_area_sq_miles":776,"metadata_service_area_population":3658455,"metadata_route_types_json":"{\"4\":14}","metadata_ntd_facilities_json":"{\"maintenance_facilities\":3,\"administrative_and_other_non_passenger_facilities\":0,\"passenger_stations_and_terminals\":11,\"parking_and_other_passenger_facilities\":0,\"total_facilities\":14,\"bus_transfer_centers\":0,\"elevated_fixed_guideway_stations\":0,\"at_grade_fixed_guideway_stations\":0,\"underground_fixed_guideway_stations\":0,\"simple_at_grade_platform_stations\":0,\"exclusive_grade_separated_platform_stations\":0,\"ferryboat_terminals\":11,\"surface_parking_lots\":0,\"parking_structures\":0}","metadata_tam_modes_json":"{\"FB\":{\"total_units_2024\":33,\"units_under_threshold_2024\":4,\"voms_2024\":19,\"total_modal_vrm_2024\":554554,\"total_modal_upt_2024\":4694357},\"MB\":{\"total_units_2024\":36,\"units_under_threshold_2024\":0,\"voms_2024\":33,\"total_modal_vrm_2024\":421926,\"total_modal_upt_2024\":1536407}}"},"geometry":{"type":"Point","coordinates":[-73.969722,40.827934]}},{"type":"Feature","properties":{"stop_id":"8","stop_code":"HAVSTRW","stop_name":"Haverstraw","stop_url":"https://nywaterway.connexionz.net/RTT/Public/Transit.aspx?page=text&plt=8","location_type":"","platform_code":"","stop_desc":"","stop_timezone":"","wheelchair_boarding":"","feed_id":"New_Jersey__NY_Waterway__mdb_mdb-3192","agency_name":"NY Waterway","route_count":1,"route_ids":"50","route_short_names":"50","route_types":"4","route_type_names":"Ferry","routes_json":"[{\"route_id\":\"50\",\"route_short_name\":\"50\",\"route_long_name\":\"Haverstraw - Ossining\",\"route_type\":\"4\",\"route_type_name\":\"Ferry\",\"route_color\":\"204285\",\"route_text_color\":\"FFFFFF\"}]","metadata_feed_id":"New_Jersey__NY_Waterway__mdb_mdb-3192","metadata_agency_names":"NY Waterway","metadata_ntd_id":"20190","metadata_ntd_match_method":"manual_override","metadata_ntd_agency":"Port Imperial Ferry Corporation, dba: NY Waterway","metadata_ntd_city":"Weehawken","metadata_ntd_state":"NJ","metadata_gtfs_route_count":14,"metadata_gtfs_trip_count":1036,"metadata_gtfs_shape_count":71,"metadata_gtfs_stop_count":15,"metadata_ntd_agency_voms":52,"metadata_ntd_total_facilities":14,"metadata_ntd_maintenance_facilities":3,"metadata_ntd_passenger_stations":11,"metadata_tam_tier":"Tier II","metadata_service_area_sq_miles":776,"metadata_service_area_population":3658455,"metadata_route_types_json":"{\"4\":14}","metadata_ntd_facilities_json":"{\"maintenance_facilities\":3,\"administrative_and_other_non_passenger_facilities\":0,\"passenger_stations_and_terminals\":11,\"parking_and_other_passenger_facilities\":0,\"total_facilities\":14,\"bus_transfer_centers\":0,\"elevated_fixed_guideway_stations\":0,\"at_grade_fixed_guideway_stations\":0,\"underground_fixed_guideway_stations\":0,\"simple_at_grade_platform_stations\":0,\"exclusive_grade_separated_platform_stations\":0,\"ferryboat_terminals\":11,\"surface_parking_lots\":0,\"parking_structures\":0}","metadata_tam_modes_json":"{\"FB\":{\"total_units_2024\":33,\"units_under_threshold_2024\":4,\"voms_2024\":19,\"total_modal_vrm_2024\":554554,\"total_modal_upt_2024\":4694357},\"MB\":{\"total_units_2024\":36,\"units_under_threshold_2024\":0,\"voms_2024\":33,\"total_modal_vrm_2024\":421926,\"total_modal_upt_2024\":1536407}}"},"geometry":{"type":"Point","coordinates":[-73.957989,41.192803]}},{"type":"Feature","properties":{"stop_id":"9","stop_code":"HOB. NO.","stop_name":"Hoboken 14th Street","stop_url":"https://nywaterway.connexionz.net/RTT/Public/Transit.aspx?page=text&plt=9","location_type":"","platform_code":"","stop_desc":"","stop_timezone":"","wheelchair_boarding":"","feed_id":"New_Jersey__NY_Waterway__mdb_mdb-3192","agency_name":"NY Waterway","route_count":2,"route_ids":"12|18","route_short_names":"12|18","route_types":"4","route_type_names":"Ferry","routes_json":"[{\"route_id\":\"12\",\"route_short_name\":\"12\",\"route_long_name\":\"Pt Imp & H14 - BPT & P11\",\"route_type\":\"4\",\"route_type_name\":\"Ferry\",\"route_color\":\"9A4597\",\"route_text_color\":\"FFFFFF\"},{\"route_id\":\"18\",\"route_short_name\":\"18\",\"route_long_name\":\"Lin Har & H14 - Midtown/W39th\",\"route_type\":\"4\",\"route_type_name\":\"Ferry\",\"route_color\":\"EB859C\",\"route_text_color\":\"FFFFFF\"}]","metadata_feed_id":"New_Jersey__NY_Waterway__mdb_mdb-3192","metadata_agency_names":"NY Waterway","metadata_ntd_id":"20190","metadata_ntd_match_method":"manual_override","metadata_ntd_agency":"Port Imperial Ferry Corporation, dba: NY Waterway","metadata_ntd_city":"Weehawken","metadata_ntd_state":"NJ","metadata_gtfs_route_count":14,"metadata_gtfs_trip_count":1036,"metadata_gtfs_shape_count":71,"metadata_gtfs_stop_count":15,"metadata_ntd_agency_voms":52,"metadata_ntd_total_facilities":14,"metadata_ntd_maintenance_facilities":3,"metadata_ntd_passenger_stations":11,"metadata_tam_tier":"Tier II","metadata_service_area_sq_miles":776,"metadata_service_area_population":3658455,"metadata_route_types_json":"{\"4\":14}","metadata_ntd_facilities_json":"{\"maintenance_facilities\":3,\"administrative_and_other_non_passenger_facilities\":0,\"passenger_stations_and_terminals\":11,\"parking_and_other_passenger_facilities\":0,\"total_facilities\":14,\"bus_transfer_centers\":0,\"elevated_fixed_guideway_stations\":0,\"at_grade_fixed_guideway_stations\":0,\"underground_fixed_guideway_stations\":0,\"simple_at_grade_platform_stations\":0,\"exclusive_grade_separated_platform_stations\":0,\"ferryboat_terminals\":11,\"surface_parking_lots\":0,\"parking_structures\":0}","metadata_tam_modes_json":"{\"FB\":{\"total_units_2024\":33,\"units_under_threshold_2024\":4,\"voms_2024\":19,\"total_modal_vrm_2024\":554554,\"total_modal_upt_2024\":4694357},\"MB\":{\"total_units_2024\":36,\"units_under_threshold_2024\":0,\"voms_2024\":33,\"total_modal_vrm_2024\":421926,\"total_modal_upt_2024\":1536407}}"},"geometry":{"type":"Point","coordinates":[-74.021875,40.752562]}},{"type":"Feature","properties":{"stop_id":"10","stop_code":"HOB. SO.","stop_name":"Hoboken / NJ Transit Terminal","stop_url":"https://nywaterway.connexionz.net/RTT/Public/Transit.aspx?page=text&plt=10","location_type":"","platform_code":"","stop_desc":"","stop_timezone":"","wheelchair_boarding":"","feed_id":"New_Jersey__NY_Waterway__mdb_mdb-3192","agency_name":"NY Waterway","route_count":4,"route_ids":"15|16|1623|19","route_short_names":"15|16|1623|19","route_types":"4","route_type_names":"Ferry","routes_json":"[{\"route_id\":\"15\",\"route_short_name\":\"15\",\"route_long_name\":\"Hoboken/NJT - Pier 11/Wall St\",\"route_type\":\"4\",\"route_type_name\":\"Ferry\",\"route_color\":\"7D004E\",\"route_text_color\":\"FFFFFF\"},{\"route_id\":\"16\",\"route_short_name\":\"16\",\"route_long_name\":\"Hoboken/NJT - BPT\",\"route_type\":\"4\",\"route_type_name\":\"Ferry\",\"route_color\":\"F47D38\",\"route_text_color\":\"FFFFFF\"},{\"route_id\":\"1623\",\"route_short_name\":\"1623\",\"route_long_name\":\"Hoboken/NJT & Paulus Hook to BPT\",\"route_type\":\"4\",\"route_type_name\":\"Ferry\",\"route_color\":\"000000\",\"route_text_color\":\"FFFFFF\"},{\"route_id\":\"19\",\"route_short_name\":\"19\",\"route_long_name\":\"Paulus Hk & H/NJT - Midtown\",\"route_type\":\"4\",\"route_type_name\":\"Ferry\",\"route_color\":\"FF0000\",\"route_text_color\":\"FFFFFF\"}]","metadata_feed_id":"New_Jersey__NY_Waterway__mdb_mdb-3192","metadata_agency_names":"NY Waterway","metadata_ntd_id":"20190","metadata_ntd_match_method":"manual_override","metadata_ntd_agency":"Port Imperial Ferry Corporation, dba: NY Waterway","metadata_ntd_city":"Weehawken","metadata_ntd_state":"NJ","metadata_gtfs_route_count":14,"metadata_gtfs_trip_count":1036,"metadata_gtfs_shape_count":71,"metadata_gtfs_stop_count":15,"metadata_ntd_agency_voms":52,"metadata_ntd_total_facilities":14,"metadata_ntd_maintenance_facilities":3,"metadata_ntd_passenger_stations":11,"metadata_tam_tier":"Tier II","metadata_service_area_sq_miles":776,"metadata_service_area_population":3658455,"metadata_route_types_json":"{\"4\":14}","metadata_ntd_facilities_json":"{\"maintenance_facilities\":3,\"administrative_and_other_non_passenger_facilities\":0,\"passenger_stations_and_terminals\":11,\"parking_and_other_passenger_facilities\":0,\"total_facilities\":14,\"bus_transfer_centers\":0,\"elevated_fixed_guideway_stations\":0,\"at_grade_fixed_guideway_stations\":0,\"underground_fixed_guideway_stations\":0,\"simple_at_grade_platform_stations\":0,\"exclusive_grade_separated_platform_stations\":0,\"ferryboat_terminals\":11,\"surface_parking_lots\":0,\"parking_structures\":0}","metadata_tam_modes_json":"{\"FB\":{\"total_units_2024\":33,\"units_under_threshold_2024\":4,\"voms_2024\":19,\"total_modal_vrm_2024\":554554,\"total_modal_upt_2024\":4694357},\"MB\":{\"total_units_2024\":36,\"units_under_threshold_2024\":0,\"voms_2024\":33,\"total_modal_vrm_2024\":421926,\"total_modal_upt_2024\":1536407}}"},"geometry":{"type":"Point","coordinates":[-74.026492,40.735127]}},{"type":"Feature","properties":{"stop_id":"11","stop_code":"PORT IMP","stop_name":"Port Imperial / Weehawken","stop_url":"https://nywaterway.connexionz.net/RTT/Public/Transit.aspx?page=text&plt=11","location_type":"","platform_code":"","stop_desc":"","stop_timezone":"","wheelchair_boarding":"","feed_id":"New_Jersey__NY_Waterway__mdb_mdb-3192","agency_name":"NY Waterway","route_count":3,"route_ids":"11|12|21","route_short_names":"11|12|21","route_types":"4","route_type_names":"Ferry","routes_json":"[{\"route_id\":\"11\",\"route_short_name\":\"11\",\"route_long_name\":\"Port Imperial - Midtown/W39th\",\"route_type\":\"4\",\"route_type_name\":\"Ferry\",\"route_color\":\"4FBFA5\",\"route_text_color\":\"FFFFFF\"},{\"route_id\":\"12\",\"route_short_name\":\"12\",\"route_long_name\":\"Pt Imp & H14 - BPT & P11\",\"route_type\":\"4\",\"route_type_name\":\"Ferry\",\"route_color\":\"9A4597\",\"route_text_color\":\"FFFFFF\"},{\"route_id\":\"21\",\"route_short_name\":\"21\",\"route_long_name\":\"Edgewater - Midtown/W39th\",\"route_type\":\"4\",\"route_type_name\":\"Ferry\",\"route_color\":\"F9AA8F\",\"route_text_color\":\"000000\"}]","metadata_feed_id":"New_Jersey__NY_Waterway__mdb_mdb-3192","metadata_agency_names":"NY Waterway","metadata_ntd_id":"20190","metadata_ntd_match_method":"manual_override","metadata_ntd_agency":"Port Imperial Ferry Corporation, dba: NY Waterway","metadata_ntd_city":"Weehawken","metadata_ntd_state":"NJ","metadata_gtfs_route_count":14,"metadata_gtfs_trip_count":1036,"metadata_gtfs_shape_count":71,"metadata_gtfs_stop_count":15,"metadata_ntd_agency_voms":52,"metadata_ntd_total_facilities":14,"metadata_ntd_maintenance_facilities":3,"metadata_ntd_passenger_stations":11,"metadata_tam_tier":"Tier II","metadata_service_area_sq_miles":776,"metadata_service_area_population":3658455,"metadata_route_types_json":"{\"4\":14}","metadata_ntd_facilities_json":"{\"maintenance_facilities\":3,\"administrative_and_other_non_passenger_facilities\":0,\"passenger_stations_and_terminals\":11,\"parking_and_other_passenger_facilities\":0,\"total_facilities\":14,\"bus_transfer_centers\":0,\"elevated_fixed_guideway_stations\":0,\"at_grade_fixed_guideway_stations\":0,\"underground_fixed_guideway_stations\":0,\"simple_at_grade_platform_stations\":0,\"exclusive_grade_separated_platform_stations\":0,\"ferryboat_terminals\":11,\"surface_parking_lots\":0,\"parking_structures\":0}","metadata_tam_modes_json":"{\"FB\":{\"total_units_2024\":33,\"units_under_threshold_2024\":4,\"voms_2024\":19,\"total_modal_vrm_2024\":554554,\"total_modal_upt_2024\":4694357},\"MB\":{\"total_units_2024\":36,\"units_under_threshold_2024\":0,\"voms_2024\":33,\"total_modal_vrm_2024\":421926,\"total_modal_upt_2024\":1536407}}"},"geometry":{"type":"Point","coordinates":[-74.010043,40.776397]}},{"type":"Feature","properties":{"stop_id":"12","stop_code":"LIB HAR","stop_name":"Liberty Harbor / Marin Blvd.","stop_url":"https://nywaterway.connexionz.net/RTT/Public/Transit.aspx?page=text&plt=12","location_type":"","platform_code":"","stop_desc":"","stop_timezone":"","wheelchair_boarding":"","feed_id":"New_Jersey__NY_Waterway__mdb_mdb-3192","agency_name":"NY Waterway","route_count":1,"route_ids":"45","route_short_names":"45","route_types":"4","route_type_names":"Ferry","routes_json":"[{\"route_id\":\"45\",\"route_short_name\":\"45\",\"route_long_name\":\"Lib Har & Paulus Hk - Pier 11/Wall St\",\"route_type\":\"4\",\"route_type_name\":\"Ferry\",\"route_color\":\"85C557\",\"route_text_color\":\"FFFFFF\"}]","metadata_feed_id":"New_Jersey__NY_Waterway__mdb_mdb-3192","metadata_agency_names":"NY Waterway","metadata_ntd_id":"20190","metadata_ntd_match_method":"manual_override","metadata_ntd_agency":"Port Imperial Ferry Corporation, dba: NY Waterway","metadata_ntd_city":"Weehawken","metadata_ntd_state":"NJ","metadata_gtfs_route_count":14,"metadata_gtfs_trip_count":1036,"metadata_gtfs_shape_count":71,"metadata_gtfs_stop_count":15,"metadata_ntd_agency_voms":52,"metadata_ntd_total_facilities":14,"metadata_ntd_maintenance_facilities":3,"metadata_ntd_passenger_stations":11,"metadata_tam_tier":"Tier II","metadata_service_area_sq_miles":776,"metadata_service_area_population":3658455,"metadata_route_types_json":"{\"4\":14}","metadata_ntd_facilities_json":"{\"maintenance_facilities\":3,\"administrative_and_other_non_passenger_facilities\":0,\"passenger_stations_and_terminals\":11,\"parking_and_other_passenger_facilities\":0,\"total_facilities\":14,\"bus_transfer_centers\":0,\"elevated_fixed_guideway_stations\":0,\"at_grade_fixed_guideway_stations\":0,\"underground_fixed_guideway_stations\":0,\"simple_at_grade_platform_stations\":0,\"exclusive_grade_separated_platform_stations\":0,\"ferryboat_terminals\":11,\"surface_parking_lots\":0,\"parking_structures\":0}","metadata_tam_modes_json":"{\"FB\":{\"total_units_2024\":33,\"units_under_threshold_2024\":4,\"voms_2024\":19,\"total_modal_vrm_2024\":554554,\"total_modal_upt_2024\":4694357},\"MB\":{\"total_units_2024\":36,\"units_under_threshold_2024\":0,\"voms_2024\":33,\"total_modal_vrm_2024\":421926,\"total_modal_upt_2024\":1536407}}"},"geometry":{"type":"Point","coordinates":[-74.043438,40.711277]}},{"type":"Feature","properties":{"stop_id":"13","stop_code":"LIN HAR","stop_name":"Lincoln Harbor","stop_url":"https://nywaterway.connexionz.net/RTT/Public/Transit.aspx?page=text&plt=13","location_type":"","platform_code":"","stop_desc":"","stop_timezone":"","wheelchair_boarding":"","feed_id":"New_Jersey__NY_Waterway__mdb_mdb-3192","agency_name":"NY Waterway","route_count":1,"route_ids":"18","route_short_names":"18","route_types":"4","route_type_names":"Ferry","routes_json":"[{\"route_id\":\"18\",\"route_short_name\":\"18\",\"route_long_name\":\"Lin Har & H14 - Midtown/W39th\",\"route_type\":\"4\",\"route_type_name\":\"Ferry\",\"route_color\":\"EB859C\",\"route_text_color\":\"FFFFFF\"}]","metadata_feed_id":"New_Jersey__NY_Waterway__mdb_mdb-3192","metadata_agency_names":"NY Waterway","metadata_ntd_id":"20190","metadata_ntd_match_method":"manual_override","metadata_ntd_agency":"Port Imperial Ferry Corporation, dba: NY Waterway","metadata_ntd_city":"Weehawken","metadata_ntd_state":"NJ","metadata_gtfs_route_count":14,"metadata_gtfs_trip_count":1036,"metadata_gtfs_shape_count":71,"metadata_gtfs_stop_count":15,"metadata_ntd_agency_voms":52,"metadata_ntd_total_facilities":14,"metadata_ntd_maintenance_facilities":3,"metadata_ntd_passenger_stations":11,"metadata_tam_tier":"Tier II","metadata_service_area_sq_miles":776,"metadata_service_area_population":3658455,"metadata_route_types_json":"{\"4\":14}","metadata_ntd_facilities_json":"{\"maintenance_facilities\":3,\"administrative_and_other_non_passenger_facilities\":0,\"passenger_stations_and_terminals\":11,\"parking_and_other_passenger_facilities\":0,\"total_facilities\":14,\"bus_transfer_centers\":0,\"elevated_fixed_guideway_stations\":0,\"at_grade_fixed_guideway_stations\":0,\"underground_fixed_guideway_stations\":0,\"simple_at_grade_platform_stations\":0,\"exclusive_grade_separated_platform_stations\":0,\"ferryboat_terminals\":11,\"surface_parking_lots\":0,\"parking_structures\":0}","metadata_tam_modes_json":"{\"FB\":{\"total_units_2024\":33,\"units_under_threshold_2024\":4,\"voms_2024\":19,\"total_modal_vrm_2024\":554554,\"total_modal_upt_2024\":4694357},\"MB\":{\"total_units_2024\":36,\"units_under_threshold_2024\":0,\"voms_2024\":33,\"total_modal_vrm_2024\":421926,\"total_modal_upt_2024\":1536407}}"},"geometry":{"type":"Point","coordinates":[-74.02266,40.758716]}},{"type":"Feature","properties":{"stop_id":"14","stop_code":"MIDTOWN","stop_name":"Midtown / W. 39th St.","stop_url":"https://nywaterway.connexionz.net/RTT/Public/Transit.aspx?page=text&plt=14","location_type":"","platform_code":"","stop_desc":"","stop_timezone":"","wheelchair_boarding":"","feed_id":"New_Jersey__NY_Waterway__mdb_mdb-3192","agency_name":"NY Waterway","route_count":7,"route_ids":"11|12|18|19|21|60|69","route_short_names":"11|12|18|19|21|60|69","route_types":"4","route_type_names":"Ferry","routes_json":"[{\"route_id\":\"11\",\"route_short_name\":\"11\",\"route_long_name\":\"Port Imperial - Midtown/W39th\",\"route_type\":\"4\",\"route_type_name\":\"Ferry\",\"route_color\":\"4FBFA5\",\"route_text_color\":\"FFFFFF\"},{\"route_id\":\"12\",\"route_short_name\":\"12\",\"route_long_name\":\"Pt Imp & H14 - BPT & P11\",\"route_type\":\"4\",\"route_type_name\":\"Ferry\",\"route_color\":\"9A4597\",\"route_text_color\":\"FFFFFF\"},{\"route_id\":\"18\",\"route_short_name\":\"18\",\"route_long_name\":\"Lin Har & H14 - Midtown/W39th\",\"route_type\":\"4\",\"route_type_name\":\"Ferry\",\"route_color\":\"EB859C\",\"route_text_color\":\"FFFFFF\"},{\"route_id\":\"19\",\"route_short_name\":\"19\",\"route_long_name\":\"Paulus Hk & H/NJT - Midtown\",\"route_type\":\"4\",\"route_type_name\":\"Ferry\",\"route_color\":\"FF0000\",\"route_text_color\":\"FFFFFF\"},{\"route_id\":\"21\",\"route_short_name\":\"21\",\"route_long_name\":\"Edgewater - Midtown/W39th\",\"route_type\":\"4\",\"route_type_name\":\"Ferry\",\"route_color\":\"F9AA8F\",\"route_text_color\":\"000000\"},{\"route_id\":\"60\",\"route_short_name\":\"60\",\"route_long_name\":\"Belford\",\"route_type\":\"4\",\"route_type_name\":\"Ferry\",\"route_color\":\"00C0FF\",\"route_text_color\":\"FFFFFF\"},{\"route_id\":\"69\",\"route_short_name\":\"69\",\"route_long_name\":\"South Amboy - Midtown/W39th\",\"route_type\":\"4\",\"route_type_name\":\"Ferry\",\"route_color\":\"64748B\",\"route_text_color\":\"FFFFFF\"}]","metadata_feed_id":"New_Jersey__NY_Waterway__mdb_mdb-3192","metadata_agency_names":"NY Waterway","metadata_ntd_id":"20190","metadata_ntd_match_method":"manual_override","metadata_ntd_agency":"Port Imperial Ferry Corporation, dba: NY Waterway","metadata_ntd_city":"Weehawken","metadata_ntd_state":"NJ","metadata_gtfs_route_count":14,"metadata_gtfs_trip_count":1036,"metadata_gtfs_shape_count":71,"metadata_gtfs_stop_count":15,"metadata_ntd_agency_voms":52,"metadata_ntd_total_facilities":14,"metadata_ntd_maintenance_facilities":3,"metadata_ntd_passenger_stations":11,"metadata_tam_tier":"Tier II","metadata_service_area_sq_miles":776,"metadata_service_area_population":3658455,"metadata_route_types_json":"{\"4\":14}","metadata_ntd_facilities_json":"{\"maintenance_facilities\":3,\"administrative_and_other_non_passenger_facilities\":0,\"passenger_stations_and_terminals\":11,\"parking_and_other_passenger_facilities\":0,\"total_facilities\":14,\"bus_transfer_centers\":0,\"elevated_fixed_guideway_stations\":0,\"at_grade_fixed_guideway_stations\":0,\"underground_fixed_guideway_stations\":0,\"simple_at_grade_platform_stations\":0,\"exclusive_grade_separated_platform_stations\":0,\"ferryboat_terminals\":11,\"surface_parking_lots\":0,\"parking_structures\":0}","metadata_tam_modes_json":"{\"FB\":{\"total_units_2024\":33,\"units_under_threshold_2024\":4,\"voms_2024\":19,\"total_modal_vrm_2024\":554554,\"total_modal_upt_2024\":4694357},\"MB\":{\"total_units_2024\":36,\"units_under_threshold_2024\":0,\"voms_2024\":33,\"total_modal_vrm_2024\":421926,\"total_modal_upt_2024\":1536407}}"},"geometry":{"type":"Point","coordinates":[-74.003862,40.760595]}},{"type":"Feature","properties":{"stop_id":"16","stop_code":"OSSINING","stop_name":"Ossining","stop_url":"https://nywaterway.connexionz.net/RTT/Public/Transit.aspx?page=text&plt=16","location_type":"","platform_code":"","stop_desc":"","stop_timezone":"","wheelchair_boarding":"","feed_id":"New_Jersey__NY_Waterway__mdb_mdb-3192","agency_name":"NY Waterway","route_count":1,"route_ids":"50","route_short_names":"50","route_types":"4","route_type_names":"Ferry","routes_json":"[{\"route_id\":\"50\",\"route_short_name\":\"50\",\"route_long_name\":\"Haverstraw - Ossining\",\"route_type\":\"4\",\"route_type_name\":\"Ferry\",\"route_color\":\"204285\",\"route_text_color\":\"FFFFFF\"}]","metadata_feed_id":"New_Jersey__NY_Waterway__mdb_mdb-3192","metadata_agency_names":"NY Waterway","metadata_ntd_id":"20190","metadata_ntd_match_method":"manual_override","metadata_ntd_agency":"Port Imperial Ferry Corporation, dba: NY Waterway","metadata_ntd_city":"Weehawken","metadata_ntd_state":"NJ","metadata_gtfs_route_count":14,"metadata_gtfs_trip_count":1036,"metadata_gtfs_shape_count":71,"metadata_gtfs_stop_count":15,"metadata_ntd_agency_voms":52,"metadata_ntd_total_facilities":14,"metadata_ntd_maintenance_facilities":3,"metadata_ntd_passenger_stations":11,"metadata_tam_tier":"Tier II","metadata_service_area_sq_miles":776,"metadata_service_area_population":3658455,"metadata_route_types_json":"{\"4\":14}","metadata_ntd_facilities_json":"{\"maintenance_facilities\":3,\"administrative_and_other_non_passenger_facilities\":0,\"passenger_stations_and_terminals\":11,\"parking_and_other_passenger_facilities\":0,\"total_facilities\":14,\"bus_transfer_centers\":0,\"elevated_fixed_guideway_stations\":0,\"at_grade_fixed_guideway_stations\":0,\"underground_fixed_guideway_stations\":0,\"simple_at_grade_platform_stations\":0,\"exclusive_grade_separated_platform_stations\":0,\"ferryboat_terminals\":11,\"surface_parking_lots\":0,\"parking_structures\":0}","metadata_tam_modes_json":"{\"FB\":{\"total_units_2024\":33,\"units_under_threshold_2024\":4,\"voms_2024\":19,\"total_modal_vrm_2024\":554554,\"total_modal_upt_2024\":4694357},\"MB\":{\"total_units_2024\":36,\"units_under_threshold_2024\":0,\"voms_2024\":33,\"total_modal_vrm_2024\":421926,\"total_modal_upt_2024\":1536407}}"},"geometry":{"type":"Point","coordinates":[-73.871415,41.157038]}},{"type":"Feature","properties":{"stop_id":"17","stop_code":"PAULUS","stop_name":"Paulus Hook","stop_url":"https://nywaterway.connexionz.net/RTT/Public/Transit.aspx?page=text&plt=17","location_type":"","platform_code":"","stop_desc":"","stop_timezone":"","wheelchair_boarding":"","feed_id":"New_Jersey__NY_Waterway__mdb_mdb-3192","agency_name":"NY Waterway","route_count":5,"route_ids":"1623|19|23|45|60","route_short_names":"1623|19|23|45|60","route_types":"4","route_type_names":"Ferry","routes_json":"[{\"route_id\":\"1623\",\"route_short_name\":\"1623\",\"route_long_name\":\"Hoboken/NJT & Paulus Hook to BPT\",\"route_type\":\"4\",\"route_type_name\":\"Ferry\",\"route_color\":\"000000\",\"route_text_color\":\"FFFFFF\"},{\"route_id\":\"19\",\"route_short_name\":\"19\",\"route_long_name\":\"Paulus Hk & H/NJT - Midtown\",\"route_type\":\"4\",\"route_type_name\":\"Ferry\",\"route_color\":\"FF0000\",\"route_text_color\":\"FFFFFF\"},{\"route_id\":\"23\",\"route_short_name\":\"23\",\"route_long_name\":\"Paulus Hk & H/NJT - BPT\",\"route_type\":\"4\",\"route_type_name\":\"Ferry\",\"route_color\":\"00B2E6\",\"route_text_color\":\"FFFFFF\"},{\"route_id\":\"45\",\"route_short_name\":\"45\",\"route_long_name\":\"Lib Har & Paulus Hk - Pier 11/Wall St\",\"route_type\":\"4\",\"route_type_name\":\"Ferry\",\"route_color\":\"85C557\",\"route_text_color\":\"FFFFFF\"},{\"route_id\":\"60\",\"route_short_name\":\"60\",\"route_long_name\":\"Belford\",\"route_type\":\"4\",\"route_type_name\":\"Ferry\",\"route_color\":\"00C0FF\",\"route_text_color\":\"FFFFFF\"}]","metadata_feed_id":"New_Jersey__NY_Waterway__mdb_mdb-3192","metadata_agency_names":"NY Waterway","metadata_ntd_id":"20190","metadata_ntd_match_method":"manual_override","metadata_ntd_agency":"Port Imperial Ferry Corporation, dba: NY Waterway","metadata_ntd_city":"Weehawken","metadata_ntd_state":"NJ","metadata_gtfs_route_count":14,"metadata_gtfs_trip_count":1036,"metadata_gtfs_shape_count":71,"metadata_gtfs_stop_count":15,"metadata_ntd_agency_voms":52,"metadata_ntd_total_facilities":14,"metadata_ntd_maintenance_facilities":3,"metadata_ntd_passenger_stations":11,"metadata_tam_tier":"Tier II","metadata_service_area_sq_miles":776,"metadata_service_area_population":3658455,"metadata_route_types_json":"{\"4\":14}","metadata_ntd_facilities_json":"{\"maintenance_facilities\":3,\"administrative_and_other_non_passenger_facilities\":0,\"passenger_stations_and_terminals\":11,\"parking_and_other_passenger_facilities\":0,\"total_facilities\":14,\"bus_transfer_centers\":0,\"elevated_fixed_guideway_stations\":0,\"at_grade_fixed_guideway_stations\":0,\"underground_fixed_guideway_stations\":0,\"simple_at_grade_platform_stations\":0,\"exclusive_grade_separated_platform_stations\":0,\"ferryboat_terminals\":11,\"surface_parking_lots\":0,\"parking_structures\":0}","metadata_tam_modes_json":"{\"FB\":{\"total_units_2024\":33,\"units_under_threshold_2024\":4,\"voms_2024\":19,\"total_modal_vrm_2024\":554554,\"total_modal_upt_2024\":4694357},\"MB\":{\"total_units_2024\":36,\"units_under_threshold_2024\":0,\"voms_2024\":33,\"total_modal_vrm_2024\":421926,\"total_modal_upt_2024\":1536407}}"},"geometry":{"type":"Point","coordinates":[-74.032389,40.713836]}},{"type":"Feature","properties":{"stop_id":"18","stop_code":"PIER 11","stop_name":"Pier 11 / Wall St.","stop_url":"https://nywaterway.connexionz.net/RTT/Public/Transit.aspx?page=text&plt=18","location_type":"","platform_code":"","stop_desc":"","stop_timezone":"","wheelchair_boarding":"","feed_id":"New_Jersey__NY_Waterway__mdb_mdb-3192","agency_name":"NY Waterway","route_count":6,"route_ids":"12|15|32|45|60|69","route_short_names":"12|15|32|45|60|69","route_types":"4","route_type_names":"Ferry","routes_json":"[{\"route_id\":\"12\",\"route_short_name\":\"12\",\"route_long_name\":\"Pt Imp & H14 - BPT & P11\",\"route_type\":\"4\",\"route_type_name\":\"Ferry\",\"route_color\":\"9A4597\",\"route_text_color\":\"FFFFFF\"},{\"route_id\":\"15\",\"route_short_name\":\"15\",\"route_long_name\":\"Hoboken/NJT - Pier 11/Wall St\",\"route_type\":\"4\",\"route_type_name\":\"Ferry\",\"route_color\":\"7D004E\",\"route_text_color\":\"FFFFFF\"},{\"route_id\":\"32\",\"route_short_name\":\"32\",\"route_long_name\":\"Port Liberté - Pier 11\",\"route_type\":\"4\",\"route_type_name\":\"Ferry\",\"route_color\":\"C0ABD2\",\"route_text_color\":\"FFFFFF\"},{\"route_id\":\"45\",\"route_short_name\":\"45\",\"route_long_name\":\"Lib Har & Paulus Hk - Pier 11/Wall St\",\"route_type\":\"4\",\"route_type_name\":\"Ferry\",\"route_color\":\"85C557\",\"route_text_color\":\"FFFFFF\"},{\"route_id\":\"60\",\"route_short_name\":\"60\",\"route_long_name\":\"Belford\",\"route_type\":\"4\",\"route_type_name\":\"Ferry\",\"route_color\":\"00C0FF\",\"route_text_color\":\"FFFFFF\"},{\"route_id\":\"69\",\"route_short_name\":\"69\",\"route_long_name\":\"South Amboy - Midtown/W39th\",\"route_type\":\"4\",\"route_type_name\":\"Ferry\",\"route_color\":\"64748B\",\"route_text_color\":\"FFFFFF\"}]","metadata_feed_id":"New_Jersey__NY_Waterway__mdb_mdb-3192","metadata_agency_names":"NY Waterway","metadata_ntd_id":"20190","metadata_ntd_match_method":"manual_override","metadata_ntd_agency":"Port Imperial Ferry Corporation, dba: NY Waterway","metadata_ntd_city":"Weehawken","metadata_ntd_state":"NJ","metadata_gtfs_route_count":14,"metadata_gtfs_trip_count":1036,"metadata_gtfs_shape_count":71,"metadata_gtfs_stop_count":15,"metadata_ntd_agency_voms":52,"metadata_ntd_total_facilities":14,"metadata_ntd_maintenance_facilities":3,"metadata_ntd_passenger_stations":11,"metadata_tam_tier":"Tier II","metadata_service_area_sq_miles":776,"metadata_service_area_population":3658455,"metadata_route_types_json":"{\"4\":14}","metadata_ntd_facilities_json":"{\"maintenance_facilities\":3,\"administrative_and_other_non_passenger_facilities\":0,\"passenger_stations_and_terminals\":11,\"parking_and_other_passenger_facilities\":0,\"total_facilities\":14,\"bus_transfer_centers\":0,\"elevated_fixed_guideway_stations\":0,\"at_grade_fixed_guideway_stations\":0,\"underground_fixed_guideway_stations\":0,\"simple_at_grade_platform_stations\":0,\"exclusive_grade_separated_platform_stations\":0,\"ferryboat_terminals\":11,\"surface_parking_lots\":0,\"parking_structures\":0}","metadata_tam_modes_json":"{\"FB\":{\"total_units_2024\":33,\"units_under_threshold_2024\":4,\"voms_2024\":19,\"total_modal_vrm_2024\":554554,\"total_modal_upt_2024\":4694357},\"MB\":{\"total_units_2024\":36,\"units_under_threshold_2024\":0,\"voms_2024\":33,\"total_modal_vrm_2024\":421926,\"total_modal_upt_2024\":1536407}}"},"geometry":{"type":"Point","coordinates":[-74.006144,40.703161]}},{"type":"Feature","properties":{"stop_id":"20","stop_code":"PORT LIB","stop_name":"Port Liberté","stop_url":"https://nywaterway.connexionz.net/RTT/Public/Transit.aspx?page=text&plt=20","location_type":"","platform_code":"","stop_desc":"","stop_timezone":"","wheelchair_boarding":"","feed_id":"New_Jersey__NY_Waterway__mdb_mdb-3192","agency_name":"NY Waterway","route_count":1,"route_ids":"32","route_short_names":"32","route_types":"4","route_type_names":"Ferry","routes_json":"[{\"route_id\":\"32\",\"route_short_name\":\"32\",\"route_long_name\":\"Port Liberté - Pier 11\",\"route_type\":\"4\",\"route_type_name\":\"Ferry\",\"route_color\":\"C0ABD2\",\"route_text_color\":\"FFFFFF\"}]","metadata_feed_id":"New_Jersey__NY_Waterway__mdb_mdb-3192","metadata_agency_names":"NY Waterway","metadata_ntd_id":"20190","metadata_ntd_match_method":"manual_override","metadata_ntd_agency":"Port Imperial Ferry Corporation, dba: NY Waterway","metadata_ntd_city":"Weehawken","metadata_ntd_state":"NJ","metadata_gtfs_route_count":14,"metadata_gtfs_trip_count":1036,"metadata_gtfs_shape_count":71,"metadata_gtfs_stop_count":15,"metadata_ntd_agency_voms":52,"metadata_ntd_total_facilities":14,"metadata_ntd_maintenance_facilities":3,"metadata_ntd_passenger_stations":11,"metadata_tam_tier":"Tier II","metadata_service_area_sq_miles":776,"metadata_service_area_population":3658455,"metadata_route_types_json":"{\"4\":14}","metadata_ntd_facilities_json":"{\"maintenance_facilities\":3,\"administrative_and_other_non_passenger_facilities\":0,\"passenger_stations_and_terminals\":11,\"parking_and_other_passenger_facilities\":0,\"total_facilities\":14,\"bus_transfer_centers\":0,\"elevated_fixed_guideway_stations\":0,\"at_grade_fixed_guideway_stations\":0,\"underground_fixed_guideway_stations\":0,\"simple_at_grade_platform_stations\":0,\"exclusive_grade_separated_platform_stations\":0,\"ferryboat_terminals\":11,\"surface_parking_lots\":0,\"parking_structures\":0}","metadata_tam_modes_json":"{\"FB\":{\"total_units_2024\":33,\"units_under_threshold_2024\":4,\"voms_2024\":19,\"total_modal_vrm_2024\":554554,\"total_modal_upt_2024\":4694357},\"MB\":{\"total_units_2024\":36,\"units_under_threshold_2024\":0,\"voms_2024\":33,\"total_modal_vrm_2024\":421926,\"total_modal_upt_2024\":1536407}}"},"geometry":{"type":"Point","coordinates":[-74.075224,40.6873]}},{"type":"Feature","properties":{"stop_id":"30","stop_code":"SA","stop_name":"South Amboy","stop_url":"https://nywaterway.connexionz.net/RTT/Public/Transit.aspx?page=text&plt=30","location_type":"","platform_code":"","stop_desc":"","stop_timezone":"","wheelchair_boarding":"","feed_id":"New_Jersey__NY_Waterway__mdb_mdb-3192","agency_name":"NY Waterway","route_count":1,"route_ids":"69","route_short_names":"69","route_types":"4","route_type_names":"Ferry","routes_json":"[{\"route_id\":\"69\",\"route_short_name\":\"69\",\"route_long_name\":\"South Amboy - Midtown/W39th\",\"route_type\":\"4\",\"route_type_name\":\"Ferry\",\"route_color\":\"64748B\",\"route_text_color\":\"FFFFFF\"}]","metadata_feed_id":"New_Jersey__NY_Waterway__mdb_mdb-3192","metadata_agency_names":"NY Waterway","metadata_ntd_id":"20190","metadata_ntd_match_method":"manual_override","metadata_ntd_agency":"Port Imperial Ferry Corporation, dba: NY Waterway","metadata_ntd_city":"Weehawken","metadata_ntd_state":"NJ","metadata_gtfs_route_count":14,"metadata_gtfs_trip_count":1036,"metadata_gtfs_shape_count":71,"metadata_gtfs_stop_count":15,"metadata_ntd_agency_voms":52,"metadata_ntd_total_facilities":14,"metadata_ntd_maintenance_facilities":3,"metadata_ntd_passenger_stations":11,"metadata_tam_tier":"Tier II","metadata_service_area_sq_miles":776,"metadata_service_area_population":3658455,"metadata_route_types_json":"{\"4\":14}","metadata_ntd_facilities_json":"{\"maintenance_facilities\":3,\"administrative_and_other_non_passenger_facilities\":0,\"passenger_stations_and_terminals\":11,\"parking_and_other_passenger_facilities\":0,\"total_facilities\":14,\"bus_transfer_centers\":0,\"elevated_fixed_guideway_stations\":0,\"at_grade_fixed_guideway_stations\":0,\"underground_fixed_guideway_stations\":0,\"simple_at_grade_platform_stations\":0,\"exclusive_grade_separated_platform_stations\":0,\"ferryboat_terminals\":11,\"surface_parking_lots\":0,\"parking_structures\":0}","metadata_tam_modes_json":"{\"FB\":{\"total_units_2024\":33,\"units_under_threshold_2024\":4,\"voms_2024\":19,\"total_modal_vrm_2024\":554554,\"total_modal_upt_2024\":4694357},\"MB\":{\"total_units_2024\":36,\"units_under_threshold_2024\":0,\"voms_2024\":33,\"total_modal_vrm_2024\":421926,\"total_modal_upt_2024\":1536407}}"},"geometry":{"type":"Point","coordinates":[-74.274482,40.489683]}}],"metadata":{"feed_id":"New_Jersey__NY_Waterway__mdb_mdb-3192","ntd_id":"20190","feature_metadata_embedded":true}}