{"type":"FeatureCollection","features":[{"type":"Feature","properties":{"stop_id":"1","stop_code":"","stop_name":"Pier 33","stop_desc":"","zone_id":"","stop_url":"","location_type":"","parent_station":"","stop_timezone":"","wheelchair_boarding":"","feed_id":"California__Golden_Gate_National_Recreation_Area_(Alcatraz_Island)__mdb_mdb-3208","agency_name":"National Park Service","route_count":2,"route_ids":"day|night","route_short_names":"","route_types":"4","route_type_names":"Ferry","routes_json":"[{\"route_id\":\"day\",\"route_short_name\":\"\",\"route_long_name\":\"Alcatraz Day Tour\",\"route_type\":\"4\",\"route_type_name\":\"Ferry\",\"route_color\":\"C56C39\",\"route_text_color\":\"FFFFFF\"},{\"route_id\":\"night\",\"route_short_name\":\"\",\"route_long_name\":\"Alcatraz Night Tour\",\"route_type\":\"4\",\"route_type_name\":\"Ferry\",\"route_color\":\"C56C41\",\"route_text_color\":\"FFFFFF\"}]","metadata_feed_id":"California__Golden_Gate_National_Recreation_Area_(Alcatraz_Island)__mdb_mdb-3208","metadata_agency_names":"National Park Service","metadata_ntd_id":"99468","metadata_ntd_match_method":"manual_override","metadata_ntd_agency":"Jewish Family Service of San Diego","metadata_ntd_city":"San Diego","metadata_ntd_state":"CA","metadata_gtfs_route_count":2,"metadata_gtfs_trip_count":41,"metadata_gtfs_shape_count":2,"metadata_gtfs_stop_count":2,"metadata_ntd_total_facilities":0,"metadata_ntd_maintenance_facilities":0,"metadata_ntd_passenger_stations":0,"metadata_tam_tier":"Tier II","metadata_route_types_json":"{\"4\":2}","metadata_ntd_facilities_json":"{\"maintenance_facilities\":0,\"administrative_and_other_non_passenger_facilities\":0,\"passenger_stations_and_terminals\":0,\"parking_and_other_passenger_facilities\":0,\"total_facilities\":0,\"bus_transfer_centers\":null,\"elevated_fixed_guideway_stations\":null,\"at_grade_fixed_guideway_stations\":null,\"underground_fixed_guideway_stations\":null,\"simple_at_grade_platform_stations\":null,\"exclusive_grade_separated_platform_stations\":null,\"ferryboat_terminals\":null,\"surface_parking_lots\":null,\"parking_structures\":null}","metadata_tam_modes_json":"{\"DR\":{\"total_units_2024\":12,\"units_under_threshold_2024\":2,\"voms_2024\":0,\"total_modal_vrm_2024\":0,\"total_modal_upt_2024\":0}}"},"geometry":{"type":"Point","coordinates":[-122.404134227002,37.8070690749053]}},{"type":"Feature","properties":{"stop_id":"2","stop_code":"","stop_name":"Alcatraz Island","stop_desc":"","zone_id":"","stop_url":"","location_type":"","parent_station":"","stop_timezone":"","wheelchair_boarding":"","feed_id":"California__Golden_Gate_National_Recreation_Area_(Alcatraz_Island)__mdb_mdb-3208","agency_name":"National Park Service","route_count":2,"route_ids":"day|night","route_short_names":"","route_types":"4","route_type_names":"Ferry","routes_json":"[{\"route_id\":\"day\",\"route_short_name\":\"\",\"route_long_name\":\"Alcatraz Day Tour\",\"route_type\":\"4\",\"route_type_name\":\"Ferry\",\"route_color\":\"C56C39\",\"route_text_color\":\"FFFFFF\"},{\"route_id\":\"night\",\"route_short_name\":\"\",\"route_long_name\":\"Alcatraz Night Tour\",\"route_type\":\"4\",\"route_type_name\":\"Ferry\",\"route_color\":\"C56C41\",\"route_text_color\":\"FFFFFF\"}]","metadata_feed_id":"California__Golden_Gate_National_Recreation_Area_(Alcatraz_Island)__mdb_mdb-3208","metadata_agency_names":"National Park Service","metadata_ntd_id":"99468","metadata_ntd_match_method":"manual_override","metadata_ntd_agency":"Jewish Family Service of San Diego","metadata_ntd_city":"San Diego","metadata_ntd_state":"CA","metadata_gtfs_route_count":2,"metadata_gtfs_trip_count":41,"metadata_gtfs_shape_count":2,"metadata_gtfs_stop_count":2,"metadata_ntd_total_facilities":0,"metadata_ntd_maintenance_facilities":0,"metadata_ntd_passenger_stations":0,"metadata_tam_tier":"Tier II","metadata_route_types_json":"{\"4\":2}","metadata_ntd_facilities_json":"{\"maintenance_facilities\":0,\"administrative_and_other_non_passenger_facilities\":0,\"passenger_stations_and_terminals\":0,\"parking_and_other_passenger_facilities\":0,\"total_facilities\":0,\"bus_transfer_centers\":null,\"elevated_fixed_guideway_stations\":null,\"at_grade_fixed_guideway_stations\":null,\"underground_fixed_guideway_stations\":null,\"simple_at_grade_platform_stations\":null,\"exclusive_grade_separated_platform_stations\":null,\"ferryboat_terminals\":null,\"surface_parking_lots\":null,\"parking_structures\":null}","metadata_tam_modes_json":"{\"DR\":{\"total_units_2024\":12,\"units_under_threshold_2024\":2,\"voms_2024\":0,\"total_modal_vrm_2024\":0,\"total_modal_upt_2024\":0}}"},"geometry":{"type":"Point","coordinates":[-122.420794388134,37.8265689228523]}}],"metadata":{"feed_id":"California__Golden_Gate_National_Recreation_Area_(Alcatraz_Island)__mdb_mdb-3208","ntd_id":"99468","feature_metadata_embedded":true}}