{"type":"FeatureCollection","features":[{"type":"Feature","properties":{"stop_id":"10006","stop_code":"500","platform_code":"","stop_name":"Rainier Transit Center-Estby Station","stop_desc":"","zone_id":"2581","stop_url":"","location_type":"0","parent_station":"","stop_timezone":"America/Los_Angeles","position":"","direction":"","wheelchair_boarding":"0","tts_stop_name":"","feed_id":"Oregon__Columbia_County_Rider__mdb_mdb-3037","agency_name":"Columbia County Rider","route_count":1,"route_ids":"279","route_short_names":"1","route_types":"3","route_type_names":"Bus","routes_json":"[{\"route_id\":\"279\",\"route_short_name\":\"1\",\"route_long_name\":\"Downtown Portland\",\"route_type\":\"3\",\"route_type_name\":\"Bus\",\"route_color\":\"00A756\",\"route_text_color\":\"FFFFFF\"}]","metadata_feed_id":"Oregon__Columbia_County_Rider__mdb_mdb-3037","metadata_agency_names":"Columbia County Rider","metadata_ntd_id":"00375","metadata_ntd_match_method":"manual_override","metadata_ntd_agency":"Columbia County, dba: Columbia County Rider Transportation","metadata_ntd_city":"Saint Helens","metadata_ntd_state":"OR","metadata_gtfs_route_count":3,"metadata_gtfs_trip_count":59,"metadata_gtfs_shape_count":3,"metadata_gtfs_stop_count":11,"metadata_ntd_agency_voms":7,"metadata_ntd_total_facilities":3,"metadata_ntd_maintenance_facilities":1,"metadata_ntd_passenger_stations":1,"metadata_tam_tier":"Tier II","metadata_route_types_json":"{\"3\":3}","metadata_ntd_facilities_json":"{\"maintenance_facilities\":1,\"administrative_and_other_non_passenger_facilities\":1,\"passenger_stations_and_terminals\":1,\"parking_and_other_passenger_facilities\":0,\"total_facilities\":3,\"bus_transfer_centers\":1,\"elevated_fixed_guideway_stations\":0,\"at_grade_fixed_guideway_stations\":0,\"underground_fixed_guideway_stations\":0,\"simple_at_grade_platform_stations\":0,\"exclusive_grade_separated_platform_stations\":0,\"ferryboat_terminals\":0,\"surface_parking_lots\":0,\"parking_structures\":0}","metadata_tam_modes_json":"{\"CB\":{\"total_units_2024\":4,\"units_under_threshold_2024\":0,\"voms_2024\":4,\"total_modal_vrm_2024\":0,\"total_modal_upt_2024\":0},\"DR\":{\"total_units_2024\":12,\"units_under_threshold_2024\":4,\"voms_2024\":10,\"total_modal_vrm_2024\":0,\"total_modal_upt_2024\":0}}"},"geometry":{"type":"Point","coordinates":[-122.937366424041,46.0896034068933]}},{"type":"Feature","properties":{"stop_id":"10016","stop_code":"600","platform_code":"","stop_name":"St Helens Transit Center","stop_desc":"","zone_id":"2577","stop_url":"","location_type":"0","parent_station":"","stop_timezone":"America/Los_Angeles","position":"","direction":"","wheelchair_boarding":"0","tts_stop_name":"","feed_id":"Oregon__Columbia_County_Rider__mdb_mdb-3037","agency_name":"Columbia County Rider","route_count":1,"route_ids":"279","route_short_names":"1","route_types":"3","route_type_names":"Bus","routes_json":"[{\"route_id\":\"279\",\"route_short_name\":\"1\",\"route_long_name\":\"Downtown Portland\",\"route_type\":\"3\",\"route_type_name\":\"Bus\",\"route_color\":\"00A756\",\"route_text_color\":\"FFFFFF\"}]","metadata_feed_id":"Oregon__Columbia_County_Rider__mdb_mdb-3037","metadata_agency_names":"Columbia County Rider","metadata_ntd_id":"00375","metadata_ntd_match_method":"manual_override","metadata_ntd_agency":"Columbia County, dba: Columbia County Rider Transportation","metadata_ntd_city":"Saint Helens","metadata_ntd_state":"OR","metadata_gtfs_route_count":3,"metadata_gtfs_trip_count":59,"metadata_gtfs_shape_count":3,"metadata_gtfs_stop_count":11,"metadata_ntd_agency_voms":7,"metadata_ntd_total_facilities":3,"metadata_ntd_maintenance_facilities":1,"metadata_ntd_passenger_stations":1,"metadata_tam_tier":"Tier II","metadata_route_types_json":"{\"3\":3}","metadata_ntd_facilities_json":"{\"maintenance_facilities\":1,\"administrative_and_other_non_passenger_facilities\":1,\"passenger_stations_and_terminals\":1,\"parking_and_other_passenger_facilities\":0,\"total_facilities\":3,\"bus_transfer_centers\":1,\"elevated_fixed_guideway_stations\":0,\"at_grade_fixed_guideway_stations\":0,\"underground_fixed_guideway_stations\":0,\"simple_at_grade_platform_stations\":0,\"exclusive_grade_separated_platform_stations\":0,\"ferryboat_terminals\":0,\"surface_parking_lots\":0,\"parking_structures\":0}","metadata_tam_modes_json":"{\"CB\":{\"total_units_2024\":4,\"units_under_threshold_2024\":0,\"voms_2024\":4,\"total_modal_vrm_2024\":0,\"total_modal_upt_2024\":0},\"DR\":{\"total_units_2024\":12,\"units_under_threshold_2024\":4,\"voms_2024\":10,\"total_modal_vrm_2024\":0,\"total_modal_upt_2024\":0}}"},"geometry":{"type":"Point","coordinates":[-122.813538,45.870052]}},{"type":"Feature","properties":{"stop_id":"2335597","stop_code":"608","platform_code":"","stop_name":"Hwy 30/Havlik Dr","stop_desc":"","zone_id":"2577","stop_url":"","location_type":"0","parent_station":"","stop_timezone":"America/Los_Angeles","position":"","direction":"","wheelchair_boarding":"0","tts_stop_name":"","feed_id":"Oregon__Columbia_County_Rider__mdb_mdb-3037","agency_name":"Columbia County Rider","route_count":1,"route_ids":"279","route_short_names":"1","route_types":"3","route_type_names":"Bus","routes_json":"[{\"route_id\":\"279\",\"route_short_name\":\"1\",\"route_long_name\":\"Downtown Portland\",\"route_type\":\"3\",\"route_type_name\":\"Bus\",\"route_color\":\"00A756\",\"route_text_color\":\"FFFFFF\"}]","metadata_feed_id":"Oregon__Columbia_County_Rider__mdb_mdb-3037","metadata_agency_names":"Columbia County Rider","metadata_ntd_id":"00375","metadata_ntd_match_method":"manual_override","metadata_ntd_agency":"Columbia County, dba: Columbia County Rider Transportation","metadata_ntd_city":"Saint Helens","metadata_ntd_state":"OR","metadata_gtfs_route_count":3,"metadata_gtfs_trip_count":59,"metadata_gtfs_shape_count":3,"metadata_gtfs_stop_count":11,"metadata_ntd_agency_voms":7,"metadata_ntd_total_facilities":3,"metadata_ntd_maintenance_facilities":1,"metadata_ntd_passenger_stations":1,"metadata_tam_tier":"Tier II","metadata_route_types_json":"{\"3\":3}","metadata_ntd_facilities_json":"{\"maintenance_facilities\":1,\"administrative_and_other_non_passenger_facilities\":1,\"passenger_stations_and_terminals\":1,\"parking_and_other_passenger_facilities\":0,\"total_facilities\":3,\"bus_transfer_centers\":1,\"elevated_fixed_guideway_stations\":0,\"at_grade_fixed_guideway_stations\":0,\"underground_fixed_guideway_stations\":0,\"simple_at_grade_platform_stations\":0,\"exclusive_grade_separated_platform_stations\":0,\"ferryboat_terminals\":0,\"surface_parking_lots\":0,\"parking_structures\":0}","metadata_tam_modes_json":"{\"CB\":{\"total_units_2024\":4,\"units_under_threshold_2024\":0,\"voms_2024\":4,\"total_modal_vrm_2024\":0,\"total_modal_upt_2024\":0},\"DR\":{\"total_units_2024\":12,\"units_under_threshold_2024\":4,\"voms_2024\":10,\"total_modal_vrm_2024\":0,\"total_modal_upt_2024\":0}}"},"geometry":{"type":"Point","coordinates":[-122.87640808419,45.741835118356]}},{"type":"Feature","properties":{"stop_id":"2335598","stop_code":"603","platform_code":"","stop_name":"Hwy 30/Havlik Dr","stop_desc":"","zone_id":"2577","stop_url":"","location_type":"0","parent_station":"","stop_timezone":"America/Los_Angeles","position":"","direction":"","wheelchair_boarding":"0","tts_stop_name":"","feed_id":"Oregon__Columbia_County_Rider__mdb_mdb-3037","agency_name":"Columbia County Rider","route_count":1,"route_ids":"279","route_short_names":"1","route_types":"3","route_type_names":"Bus","routes_json":"[{\"route_id\":\"279\",\"route_short_name\":\"1\",\"route_long_name\":\"Downtown Portland\",\"route_type\":\"3\",\"route_type_name\":\"Bus\",\"route_color\":\"00A756\",\"route_text_color\":\"FFFFFF\"}]","metadata_feed_id":"Oregon__Columbia_County_Rider__mdb_mdb-3037","metadata_agency_names":"Columbia County Rider","metadata_ntd_id":"00375","metadata_ntd_match_method":"manual_override","metadata_ntd_agency":"Columbia County, dba: Columbia County Rider Transportation","metadata_ntd_city":"Saint Helens","metadata_ntd_state":"OR","metadata_gtfs_route_count":3,"metadata_gtfs_trip_count":59,"metadata_gtfs_shape_count":3,"metadata_gtfs_stop_count":11,"metadata_ntd_agency_voms":7,"metadata_ntd_total_facilities":3,"metadata_ntd_maintenance_facilities":1,"metadata_ntd_passenger_stations":1,"metadata_tam_tier":"Tier II","metadata_route_types_json":"{\"3\":3}","metadata_ntd_facilities_json":"{\"maintenance_facilities\":1,\"administrative_and_other_non_passenger_facilities\":1,\"passenger_stations_and_terminals\":1,\"parking_and_other_passenger_facilities\":0,\"total_facilities\":3,\"bus_transfer_centers\":1,\"elevated_fixed_guideway_stations\":0,\"at_grade_fixed_guideway_stations\":0,\"underground_fixed_guideway_stations\":0,\"simple_at_grade_platform_stations\":0,\"exclusive_grade_separated_platform_stations\":0,\"ferryboat_terminals\":0,\"surface_parking_lots\":0,\"parking_structures\":0}","metadata_tam_modes_json":"{\"CB\":{\"total_units_2024\":4,\"units_under_threshold_2024\":0,\"voms_2024\":4,\"total_modal_vrm_2024\":0,\"total_modal_upt_2024\":0},\"DR\":{\"total_units_2024\":12,\"units_under_threshold_2024\":4,\"voms_2024\":10,\"total_modal_vrm_2024\":0,\"total_modal_upt_2024\":0}}"},"geometry":{"type":"Point","coordinates":[-122.87678554782,45.7409706743]}},{"type":"Feature","properties":{"stop_id":"2517666","stop_code":"601","platform_code":"","stop_name":"Bowling Alley Lane","stop_desc":"","zone_id":"2577","stop_url":"","location_type":"0","parent_station":"","stop_timezone":"America/Los_Angeles","position":"","direction":"","wheelchair_boarding":"0","tts_stop_name":"","feed_id":"Oregon__Columbia_County_Rider__mdb_mdb-3037","agency_name":"Columbia County Rider","route_count":1,"route_ids":"279","route_short_names":"1","route_types":"3","route_type_names":"Bus","routes_json":"[{\"route_id\":\"279\",\"route_short_name\":\"1\",\"route_long_name\":\"Downtown Portland\",\"route_type\":\"3\",\"route_type_name\":\"Bus\",\"route_color\":\"00A756\",\"route_text_color\":\"FFFFFF\"}]","metadata_feed_id":"Oregon__Columbia_County_Rider__mdb_mdb-3037","metadata_agency_names":"Columbia County Rider","metadata_ntd_id":"00375","metadata_ntd_match_method":"manual_override","metadata_ntd_agency":"Columbia County, dba: Columbia County Rider Transportation","metadata_ntd_city":"Saint Helens","metadata_ntd_state":"OR","metadata_gtfs_route_count":3,"metadata_gtfs_trip_count":59,"metadata_gtfs_shape_count":3,"metadata_gtfs_stop_count":11,"metadata_ntd_agency_voms":7,"metadata_ntd_total_facilities":3,"metadata_ntd_maintenance_facilities":1,"metadata_ntd_passenger_stations":1,"metadata_tam_tier":"Tier II","metadata_route_types_json":"{\"3\":3}","metadata_ntd_facilities_json":"{\"maintenance_facilities\":1,\"administrative_and_other_non_passenger_facilities\":1,\"passenger_stations_and_terminals\":1,\"parking_and_other_passenger_facilities\":0,\"total_facilities\":3,\"bus_transfer_centers\":1,\"elevated_fixed_guideway_stations\":0,\"at_grade_fixed_guideway_stations\":0,\"underground_fixed_guideway_stations\":0,\"simple_at_grade_platform_stations\":0,\"exclusive_grade_separated_platform_stations\":0,\"ferryboat_terminals\":0,\"surface_parking_lots\":0,\"parking_structures\":0}","metadata_tam_modes_json":"{\"CB\":{\"total_units_2024\":4,\"units_under_threshold_2024\":0,\"voms_2024\":4,\"total_modal_vrm_2024\":0,\"total_modal_upt_2024\":0},\"DR\":{\"total_units_2024\":12,\"units_under_threshold_2024\":4,\"voms_2024\":10,\"total_modal_vrm_2024\":0,\"total_modal_upt_2024\":0}}"},"geometry":{"type":"Point","coordinates":[-122.831249727411,45.8506717570804]}},{"type":"Feature","properties":{"stop_id":"29483","stop_code":"632","platform_code":"","stop_name":"SE 2nd St at Goodwill - Scappoose","stop_desc":"","zone_id":"2577","stop_url":"","location_type":"0","parent_station":"","stop_timezone":"America/Los_Angeles","position":"","direction":"","wheelchair_boarding":"0","tts_stop_name":"","feed_id":"Oregon__Columbia_County_Rider__mdb_mdb-3037","agency_name":"Columbia County Rider","route_count":0,"route_ids":"","route_short_names":"","route_types":"","route_type_names":"","routes_json":"[]","metadata_feed_id":"Oregon__Columbia_County_Rider__mdb_mdb-3037","metadata_agency_names":"Columbia County Rider","metadata_ntd_id":"00375","metadata_ntd_match_method":"manual_override","metadata_ntd_agency":"Columbia County, dba: Columbia County Rider Transportation","metadata_ntd_city":"Saint Helens","metadata_ntd_state":"OR","metadata_gtfs_route_count":3,"metadata_gtfs_trip_count":59,"metadata_gtfs_shape_count":3,"metadata_gtfs_stop_count":11,"metadata_ntd_agency_voms":7,"metadata_ntd_total_facilities":3,"metadata_ntd_maintenance_facilities":1,"metadata_ntd_passenger_stations":1,"metadata_tam_tier":"Tier II","metadata_route_types_json":"{\"3\":3}","metadata_ntd_facilities_json":"{\"maintenance_facilities\":1,\"administrative_and_other_non_passenger_facilities\":1,\"passenger_stations_and_terminals\":1,\"parking_and_other_passenger_facilities\":0,\"total_facilities\":3,\"bus_transfer_centers\":1,\"elevated_fixed_guideway_stations\":0,\"at_grade_fixed_guideway_stations\":0,\"underground_fixed_guideway_stations\":0,\"simple_at_grade_platform_stations\":0,\"exclusive_grade_separated_platform_stations\":0,\"ferryboat_terminals\":0,\"surface_parking_lots\":0,\"parking_structures\":0}","metadata_tam_modes_json":"{\"CB\":{\"total_units_2024\":4,\"units_under_threshold_2024\":0,\"voms_2024\":4,\"total_modal_vrm_2024\":0,\"total_modal_upt_2024\":0},\"DR\":{\"total_units_2024\":12,\"units_under_threshold_2024\":4,\"voms_2024\":10,\"total_modal_vrm_2024\":0,\"total_modal_upt_2024\":0}}"},"geometry":{"type":"Point","coordinates":[-122.87522435188,45.744884493769]}},{"type":"Feature","properties":{"stop_id":"759430","stop_code":"606","platform_code":"","stop_name":"SW Salmon between 6th and 5th Avenues","stop_desc":"","zone_id":"2579","stop_url":"","location_type":"0","parent_station":"","stop_timezone":"America/Los_Angeles","position":"","direction":"","wheelchair_boarding":"0","tts_stop_name":"","feed_id":"Oregon__Columbia_County_Rider__mdb_mdb-3037","agency_name":"Columbia County Rider","route_count":1,"route_ids":"279","route_short_names":"1","route_types":"3","route_type_names":"Bus","routes_json":"[{\"route_id\":\"279\",\"route_short_name\":\"1\",\"route_long_name\":\"Downtown Portland\",\"route_type\":\"3\",\"route_type_name\":\"Bus\",\"route_color\":\"00A756\",\"route_text_color\":\"FFFFFF\"}]","metadata_feed_id":"Oregon__Columbia_County_Rider__mdb_mdb-3037","metadata_agency_names":"Columbia County Rider","metadata_ntd_id":"00375","metadata_ntd_match_method":"manual_override","metadata_ntd_agency":"Columbia County, dba: Columbia County Rider Transportation","metadata_ntd_city":"Saint Helens","metadata_ntd_state":"OR","metadata_gtfs_route_count":3,"metadata_gtfs_trip_count":59,"metadata_gtfs_shape_count":3,"metadata_gtfs_stop_count":11,"metadata_ntd_agency_voms":7,"metadata_ntd_total_facilities":3,"metadata_ntd_maintenance_facilities":1,"metadata_ntd_passenger_stations":1,"metadata_tam_tier":"Tier II","metadata_route_types_json":"{\"3\":3}","metadata_ntd_facilities_json":"{\"maintenance_facilities\":1,\"administrative_and_other_non_passenger_facilities\":1,\"passenger_stations_and_terminals\":1,\"parking_and_other_passenger_facilities\":0,\"total_facilities\":3,\"bus_transfer_centers\":1,\"elevated_fixed_guideway_stations\":0,\"at_grade_fixed_guideway_stations\":0,\"underground_fixed_guideway_stations\":0,\"simple_at_grade_platform_stations\":0,\"exclusive_grade_separated_platform_stations\":0,\"ferryboat_terminals\":0,\"surface_parking_lots\":0,\"parking_structures\":0}","metadata_tam_modes_json":"{\"CB\":{\"total_units_2024\":4,\"units_under_threshold_2024\":0,\"voms_2024\":4,\"total_modal_vrm_2024\":0,\"total_modal_upt_2024\":0},\"DR\":{\"total_units_2024\":12,\"units_under_threshold_2024\":4,\"voms_2024\":10,\"total_modal_vrm_2024\":0,\"total_modal_upt_2024\":0}}"},"geometry":{"type":"Point","coordinates":[-122.67917901277,45.516844455494]}},{"type":"Feature","properties":{"stop_id":"781808","stop_code":"604","platform_code":"","stop_name":"HWY 30/NW 112th Ave/Linnton","stop_desc":"","zone_id":"2579","stop_url":"","location_type":"0","parent_station":"","stop_timezone":"America/Los_Angeles","position":"","direction":"","wheelchair_boarding":"0","tts_stop_name":"","feed_id":"Oregon__Columbia_County_Rider__mdb_mdb-3037","agency_name":"Columbia County Rider","route_count":1,"route_ids":"279","route_short_names":"1","route_types":"3","route_type_names":"Bus","routes_json":"[{\"route_id\":\"279\",\"route_short_name\":\"1\",\"route_long_name\":\"Downtown Portland\",\"route_type\":\"3\",\"route_type_name\":\"Bus\",\"route_color\":\"00A756\",\"route_text_color\":\"FFFFFF\"}]","metadata_feed_id":"Oregon__Columbia_County_Rider__mdb_mdb-3037","metadata_agency_names":"Columbia County Rider","metadata_ntd_id":"00375","metadata_ntd_match_method":"manual_override","metadata_ntd_agency":"Columbia County, dba: Columbia County Rider Transportation","metadata_ntd_city":"Saint Helens","metadata_ntd_state":"OR","metadata_gtfs_route_count":3,"metadata_gtfs_trip_count":59,"metadata_gtfs_shape_count":3,"metadata_gtfs_stop_count":11,"metadata_ntd_agency_voms":7,"metadata_ntd_total_facilities":3,"metadata_ntd_maintenance_facilities":1,"metadata_ntd_passenger_stations":1,"metadata_tam_tier":"Tier II","metadata_route_types_json":"{\"3\":3}","metadata_ntd_facilities_json":"{\"maintenance_facilities\":1,\"administrative_and_other_non_passenger_facilities\":1,\"passenger_stations_and_terminals\":1,\"parking_and_other_passenger_facilities\":0,\"total_facilities\":3,\"bus_transfer_centers\":1,\"elevated_fixed_guideway_stations\":0,\"at_grade_fixed_guideway_stations\":0,\"underground_fixed_guideway_stations\":0,\"simple_at_grade_platform_stations\":0,\"exclusive_grade_separated_platform_stations\":0,\"ferryboat_terminals\":0,\"surface_parking_lots\":0,\"parking_structures\":0}","metadata_tam_modes_json":"{\"CB\":{\"total_units_2024\":4,\"units_under_threshold_2024\":0,\"voms_2024\":4,\"total_modal_vrm_2024\":0,\"total_modal_upt_2024\":0},\"DR\":{\"total_units_2024\":12,\"units_under_threshold_2024\":4,\"voms_2024\":10,\"total_modal_vrm_2024\":0,\"total_modal_upt_2024\":0}}"},"geometry":{"type":"Point","coordinates":[-122.788084189451,45.6017479103942]}},{"type":"Feature","properties":{"stop_id":"781809","stop_code":"607","platform_code":"","stop_name":"HWY 30/NW 111th Ave/Linnton","stop_desc":"","zone_id":"2579","stop_url":"","location_type":"0","parent_station":"","stop_timezone":"America/Los_Angeles","position":"","direction":"","wheelchair_boarding":"0","tts_stop_name":"","feed_id":"Oregon__Columbia_County_Rider__mdb_mdb-3037","agency_name":"Columbia County Rider","route_count":1,"route_ids":"279","route_short_names":"1","route_types":"3","route_type_names":"Bus","routes_json":"[{\"route_id\":\"279\",\"route_short_name\":\"1\",\"route_long_name\":\"Downtown Portland\",\"route_type\":\"3\",\"route_type_name\":\"Bus\",\"route_color\":\"00A756\",\"route_text_color\":\"FFFFFF\"}]","metadata_feed_id":"Oregon__Columbia_County_Rider__mdb_mdb-3037","metadata_agency_names":"Columbia County Rider","metadata_ntd_id":"00375","metadata_ntd_match_method":"manual_override","metadata_ntd_agency":"Columbia County, dba: Columbia County Rider Transportation","metadata_ntd_city":"Saint Helens","metadata_ntd_state":"OR","metadata_gtfs_route_count":3,"metadata_gtfs_trip_count":59,"metadata_gtfs_shape_count":3,"metadata_gtfs_stop_count":11,"metadata_ntd_agency_voms":7,"metadata_ntd_total_facilities":3,"metadata_ntd_maintenance_facilities":1,"metadata_ntd_passenger_stations":1,"metadata_tam_tier":"Tier II","metadata_route_types_json":"{\"3\":3}","metadata_ntd_facilities_json":"{\"maintenance_facilities\":1,\"administrative_and_other_non_passenger_facilities\":1,\"passenger_stations_and_terminals\":1,\"parking_and_other_passenger_facilities\":0,\"total_facilities\":3,\"bus_transfer_centers\":1,\"elevated_fixed_guideway_stations\":0,\"at_grade_fixed_guideway_stations\":0,\"underground_fixed_guideway_stations\":0,\"simple_at_grade_platform_stations\":0,\"exclusive_grade_separated_platform_stations\":0,\"ferryboat_terminals\":0,\"surface_parking_lots\":0,\"parking_structures\":0}","metadata_tam_modes_json":"{\"CB\":{\"total_units_2024\":4,\"units_under_threshold_2024\":0,\"voms_2024\":4,\"total_modal_vrm_2024\":0,\"total_modal_upt_2024\":0},\"DR\":{\"total_units_2024\":12,\"units_under_threshold_2024\":4,\"voms_2024\":10,\"total_modal_vrm_2024\":0,\"total_modal_upt_2024\":0}}"},"geometry":{"type":"Point","coordinates":[-122.787356714117,45.6012269715534]}},{"type":"Feature","properties":{"stop_id":"819978","stop_code":"605","platform_code":"","stop_name":"SW Salmon St/SW 14th Ave","stop_desc":"","zone_id":"2579","stop_url":"","location_type":"0","parent_station":"","stop_timezone":"America/Los_Angeles","position":"","direction":"","wheelchair_boarding":"0","tts_stop_name":"","feed_id":"Oregon__Columbia_County_Rider__mdb_mdb-3037","agency_name":"Columbia County Rider","route_count":0,"route_ids":"","route_short_names":"","route_types":"","route_type_names":"","routes_json":"[]","metadata_feed_id":"Oregon__Columbia_County_Rider__mdb_mdb-3037","metadata_agency_names":"Columbia County Rider","metadata_ntd_id":"00375","metadata_ntd_match_method":"manual_override","metadata_ntd_agency":"Columbia County, dba: Columbia County Rider Transportation","metadata_ntd_city":"Saint Helens","metadata_ntd_state":"OR","metadata_gtfs_route_count":3,"metadata_gtfs_trip_count":59,"metadata_gtfs_shape_count":3,"metadata_gtfs_stop_count":11,"metadata_ntd_agency_voms":7,"metadata_ntd_total_facilities":3,"metadata_ntd_maintenance_facilities":1,"metadata_ntd_passenger_stations":1,"metadata_tam_tier":"Tier II","metadata_route_types_json":"{\"3\":3}","metadata_ntd_facilities_json":"{\"maintenance_facilities\":1,\"administrative_and_other_non_passenger_facilities\":1,\"passenger_stations_and_terminals\":1,\"parking_and_other_passenger_facilities\":0,\"total_facilities\":3,\"bus_transfer_centers\":1,\"elevated_fixed_guideway_stations\":0,\"at_grade_fixed_guideway_stations\":0,\"underground_fixed_guideway_stations\":0,\"simple_at_grade_platform_stations\":0,\"exclusive_grade_separated_platform_stations\":0,\"ferryboat_terminals\":0,\"surface_parking_lots\":0,\"parking_structures\":0}","metadata_tam_modes_json":"{\"CB\":{\"total_units_2024\":4,\"units_under_threshold_2024\":0,\"voms_2024\":4,\"total_modal_vrm_2024\":0,\"total_modal_upt_2024\":0},\"DR\":{\"total_units_2024\":12,\"units_under_threshold_2024\":4,\"voms_2024\":10,\"total_modal_vrm_2024\":0,\"total_modal_upt_2024\":0}}"},"geometry":{"type":"Point","coordinates":[-122.68747883195,45.519105660856]}},{"type":"Feature","properties":{"stop_id":"9991","stop_code":"602","platform_code":"","stop_name":"NE 1st & Prairie St - Scappoose","stop_desc":"","zone_id":"2577","stop_url":"","location_type":"0","parent_station":"","stop_timezone":"America/Los_Angeles","position":"","direction":"","wheelchair_boarding":"0","tts_stop_name":"","feed_id":"Oregon__Columbia_County_Rider__mdb_mdb-3037","agency_name":"Columbia County Rider","route_count":1,"route_ids":"279","route_short_names":"1","route_types":"3","route_type_names":"Bus","routes_json":"[{\"route_id\":\"279\",\"route_short_name\":\"1\",\"route_long_name\":\"Downtown Portland\",\"route_type\":\"3\",\"route_type_name\":\"Bus\",\"route_color\":\"00A756\",\"route_text_color\":\"FFFFFF\"}]","metadata_feed_id":"Oregon__Columbia_County_Rider__mdb_mdb-3037","metadata_agency_names":"Columbia County Rider","metadata_ntd_id":"00375","metadata_ntd_match_method":"manual_override","metadata_ntd_agency":"Columbia County, dba: Columbia County Rider Transportation","metadata_ntd_city":"Saint Helens","metadata_ntd_state":"OR","metadata_gtfs_route_count":3,"metadata_gtfs_trip_count":59,"metadata_gtfs_shape_count":3,"metadata_gtfs_stop_count":11,"metadata_ntd_agency_voms":7,"metadata_ntd_total_facilities":3,"metadata_ntd_maintenance_facilities":1,"metadata_ntd_passenger_stations":1,"metadata_tam_tier":"Tier II","metadata_route_types_json":"{\"3\":3}","metadata_ntd_facilities_json":"{\"maintenance_facilities\":1,\"administrative_and_other_non_passenger_facilities\":1,\"passenger_stations_and_terminals\":1,\"parking_and_other_passenger_facilities\":0,\"total_facilities\":3,\"bus_transfer_centers\":1,\"elevated_fixed_guideway_stations\":0,\"at_grade_fixed_guideway_stations\":0,\"underground_fixed_guideway_stations\":0,\"simple_at_grade_platform_stations\":0,\"exclusive_grade_separated_platform_stations\":0,\"ferryboat_terminals\":0,\"surface_parking_lots\":0,\"parking_structures\":0}","metadata_tam_modes_json":"{\"CB\":{\"total_units_2024\":4,\"units_under_threshold_2024\":0,\"voms_2024\":4,\"total_modal_vrm_2024\":0,\"total_modal_upt_2024\":0},\"DR\":{\"total_units_2024\":12,\"units_under_threshold_2024\":4,\"voms_2024\":10,\"total_modal_vrm_2024\":0,\"total_modal_upt_2024\":0}}"},"geometry":{"type":"Point","coordinates":[-122.876678522414,45.7583883376789]}}],"metadata":{"feed_id":"Oregon__Columbia_County_Rider__mdb_mdb-3037","ntd_id":"00375","feature_metadata_embedded":true}}