{"type":"FeatureCollection","features":[{"type":"Feature","properties":{"stop_id":"2335772","stop_code":"","platform_code":"Door to Door Service Available","stop_name":"Denver International Airport","stop_desc":"CME Shuttles depart from East Side of Jeppesen Terminal, Level 5. The exact door number varies (At the discretion of DIA staff) but it is usually #504 or #508. All Shuttles depart from here (to Aspen, Vail Area, and Summit County (Breckenridge, Keystone, Copper)","zone_id":"1121","stop_url":"","location_type":"0","parent_station":"","stop_timezone":"America/Denver","position":"","direction":"","wheelchair_boarding":"0","tts_stop_name":"","feed_id":"Colorado__Colorado_Mountain_Express__mdb_mdb-172","agency_name":"Epic Mountain Express","route_count":2,"route_ids":"6325|6326","route_short_names":"Epic Mountain Express|Epic Mountain Express","route_types":"3","route_type_names":"Bus","routes_json":"[{\"route_id\":\"6325\",\"route_short_name\":\"Epic Mountain Express\",\"route_long_name\":\"DEN to Vail / Beaver Creek\",\"route_type\":\"3\",\"route_type_name\":\"Bus\",\"route_color\":\"E8561C\",\"route_text_color\":\"FFFFFF\"},{\"route_id\":\"6326\",\"route_short_name\":\"Epic Mountain Express\",\"route_long_name\":\"Denver Int'l Airport to Breckenridge, Keystone, Dillon, Frisco\",\"route_type\":\"3\",\"route_type_name\":\"Bus\",\"route_color\":\"E8561C\",\"route_text_color\":\"FFFFFF\"}]","metadata_feed_id":"Colorado__Colorado_Mountain_Express__mdb_mdb-172","metadata_agency_names":"Epic Mountain Express","metadata_ntd_id":"80159","metadata_ntd_match_method":"manual_override","metadata_ntd_agency":"Mountain Express","metadata_ntd_city":"Crested Butte","metadata_ntd_state":"CO","metadata_gtfs_route_count":3,"metadata_gtfs_trip_count":450,"metadata_gtfs_shape_count":10,"metadata_gtfs_stop_count":26,"metadata_ntd_agency_voms":18,"metadata_ntd_total_facilities":0,"metadata_ntd_maintenance_facilities":0,"metadata_ntd_passenger_stations":0,"metadata_tam_tier":"Tier II","metadata_route_types_json":"{\"3\":3}","metadata_ntd_facilities_json":"{\"maintenance_facilities\":0,\"administrative_and_other_non_passenger_facilities\":0,\"passenger_stations_and_terminals\":0,\"parking_and_other_passenger_facilities\":0,\"total_facilities\":0,\"bus_transfer_centers\":null,\"elevated_fixed_guideway_stations\":null,\"at_grade_fixed_guideway_stations\":null,\"underground_fixed_guideway_stations\":null,\"simple_at_grade_platform_stations\":null,\"exclusive_grade_separated_platform_stations\":null,\"ferryboat_terminals\":null,\"surface_parking_lots\":null,\"parking_structures\":null}","metadata_tam_modes_json":"{\"DR\":{\"total_units_2024\":2,\"units_under_threshold_2024\":0,\"voms_2024\":4,\"total_modal_vrm_2024\":190440,\"total_modal_upt_2024\":129806},\"MB\":{\"total_units_2024\":26,\"units_under_threshold_2024\":3,\"voms_2024\":11,\"total_modal_vrm_2024\":173815,\"total_modal_upt_2024\":600507}}"},"geometry":{"type":"Point","coordinates":[-104.67285727756,39.848793529552]}},{"type":"Feature","properties":{"stop_id":"2335773","stop_code":"","platform_code":"","stop_name":"Vail Transportation Center","stop_desc":"Shuttles provide door to door service to all lodging locations in the Vail  Village/ Lionshead/ West Vail and East Vail area. Call to reserve 970-754-7433 (SKI-RIDE)","zone_id":"1119","stop_url":"https://www.epicmountainexpress.com/point-to-point","location_type":"0","parent_station":"","stop_timezone":"America/Denver","position":"","direction":"","wheelchair_boarding":"0","tts_stop_name":"Vail Transportation Center","feed_id":"Colorado__Colorado_Mountain_Express__mdb_mdb-172","agency_name":"Epic Mountain Express","route_count":2,"route_ids":"6325|6328","route_short_names":"Epic Mountain Express|Epic Mountain Express","route_types":"3","route_type_names":"Bus","routes_json":"[{\"route_id\":\"6325\",\"route_short_name\":\"Epic Mountain Express\",\"route_long_name\":\"DEN to Vail / Beaver Creek\",\"route_type\":\"3\",\"route_type_name\":\"Bus\",\"route_color\":\"E8561C\",\"route_text_color\":\"FFFFFF\"},{\"route_id\":\"6328\",\"route_short_name\":\"Epic Mountain Express\",\"route_long_name\":\"EGE to Vail/ BC\",\"route_type\":\"3\",\"route_type_name\":\"Bus\",\"route_color\":\"E8561C\",\"route_text_color\":\"FFFFFF\"}]","metadata_feed_id":"Colorado__Colorado_Mountain_Express__mdb_mdb-172","metadata_agency_names":"Epic Mountain Express","metadata_ntd_id":"80159","metadata_ntd_match_method":"manual_override","metadata_ntd_agency":"Mountain Express","metadata_ntd_city":"Crested Butte","metadata_ntd_state":"CO","metadata_gtfs_route_count":3,"metadata_gtfs_trip_count":450,"metadata_gtfs_shape_count":10,"metadata_gtfs_stop_count":26,"metadata_ntd_agency_voms":18,"metadata_ntd_total_facilities":0,"metadata_ntd_maintenance_facilities":0,"metadata_ntd_passenger_stations":0,"metadata_tam_tier":"Tier II","metadata_route_types_json":"{\"3\":3}","metadata_ntd_facilities_json":"{\"maintenance_facilities\":0,\"administrative_and_other_non_passenger_facilities\":0,\"passenger_stations_and_terminals\":0,\"parking_and_other_passenger_facilities\":0,\"total_facilities\":0,\"bus_transfer_centers\":null,\"elevated_fixed_guideway_stations\":null,\"at_grade_fixed_guideway_stations\":null,\"underground_fixed_guideway_stations\":null,\"simple_at_grade_platform_stations\":null,\"exclusive_grade_separated_platform_stations\":null,\"ferryboat_terminals\":null,\"surface_parking_lots\":null,\"parking_structures\":null}","metadata_tam_modes_json":"{\"DR\":{\"total_units_2024\":2,\"units_under_threshold_2024\":0,\"voms_2024\":4,\"total_modal_vrm_2024\":190440,\"total_modal_upt_2024\":129806},\"MB\":{\"total_units_2024\":26,\"units_under_threshold_2024\":3,\"voms_2024\":11,\"total_modal_vrm_2024\":173815,\"total_modal_upt_2024\":600507}}"},"geometry":{"type":"Point","coordinates":[-106.373,39.64236]}},{"type":"Feature","properties":{"stop_id":"2335774","stop_code":"","platform_code":"","stop_name":"Avon / Beaver Creek","stop_desc":"Epic Mountain Express door to door shuttles serve all lodging locations in Beaver Creek, Bachelor Gulch, Arrowhead and throughout Avon, Colorado.","zone_id":"1119","stop_url":"","location_type":"0","parent_station":"","stop_timezone":"America/Denver","position":"","direction":"","wheelchair_boarding":"0","tts_stop_name":"","feed_id":"Colorado__Colorado_Mountain_Express__mdb_mdb-172","agency_name":"Epic Mountain Express","route_count":2,"route_ids":"6325|6328","route_short_names":"Epic Mountain Express|Epic Mountain Express","route_types":"3","route_type_names":"Bus","routes_json":"[{\"route_id\":\"6325\",\"route_short_name\":\"Epic Mountain Express\",\"route_long_name\":\"DEN to Vail / Beaver Creek\",\"route_type\":\"3\",\"route_type_name\":\"Bus\",\"route_color\":\"E8561C\",\"route_text_color\":\"FFFFFF\"},{\"route_id\":\"6328\",\"route_short_name\":\"Epic Mountain Express\",\"route_long_name\":\"EGE to Vail/ BC\",\"route_type\":\"3\",\"route_type_name\":\"Bus\",\"route_color\":\"E8561C\",\"route_text_color\":\"FFFFFF\"}]","metadata_feed_id":"Colorado__Colorado_Mountain_Express__mdb_mdb-172","metadata_agency_names":"Epic Mountain Express","metadata_ntd_id":"80159","metadata_ntd_match_method":"manual_override","metadata_ntd_agency":"Mountain Express","metadata_ntd_city":"Crested Butte","metadata_ntd_state":"CO","metadata_gtfs_route_count":3,"metadata_gtfs_trip_count":450,"metadata_gtfs_shape_count":10,"metadata_gtfs_stop_count":26,"metadata_ntd_agency_voms":18,"metadata_ntd_total_facilities":0,"metadata_ntd_maintenance_facilities":0,"metadata_ntd_passenger_stations":0,"metadata_tam_tier":"Tier II","metadata_route_types_json":"{\"3\":3}","metadata_ntd_facilities_json":"{\"maintenance_facilities\":0,\"administrative_and_other_non_passenger_facilities\":0,\"passenger_stations_and_terminals\":0,\"parking_and_other_passenger_facilities\":0,\"total_facilities\":0,\"bus_transfer_centers\":null,\"elevated_fixed_guideway_stations\":null,\"at_grade_fixed_guideway_stations\":null,\"underground_fixed_guideway_stations\":null,\"simple_at_grade_platform_stations\":null,\"exclusive_grade_separated_platform_stations\":null,\"ferryboat_terminals\":null,\"surface_parking_lots\":null,\"parking_structures\":null}","metadata_tam_modes_json":"{\"DR\":{\"total_units_2024\":2,\"units_under_threshold_2024\":0,\"voms_2024\":4,\"total_modal_vrm_2024\":190440,\"total_modal_upt_2024\":129806},\"MB\":{\"total_units_2024\":26,\"units_under_threshold_2024\":3,\"voms_2024\":11,\"total_modal_vrm_2024\":173815,\"total_modal_upt_2024\":600507}}"},"geometry":{"type":"Point","coordinates":[-106.52192,39.63649]}},{"type":"Feature","properties":{"stop_id":"2335775","stop_code":"","platform_code":"Door to Door Service Available","stop_name":"Breckenridge Transfer Center","stop_desc":"","zone_id":"1120","stop_url":"","location_type":"0","parent_station":"","stop_timezone":"America/Denver","position":"","direction":"","wheelchair_boarding":"0","tts_stop_name":"","feed_id":"Colorado__Colorado_Mountain_Express__mdb_mdb-172","agency_name":"Epic Mountain Express","route_count":1,"route_ids":"6326","route_short_names":"Epic Mountain Express","route_types":"3","route_type_names":"Bus","routes_json":"[{\"route_id\":\"6326\",\"route_short_name\":\"Epic Mountain Express\",\"route_long_name\":\"Denver Int'l Airport to Breckenridge, Keystone, Dillon, Frisco\",\"route_type\":\"3\",\"route_type_name\":\"Bus\",\"route_color\":\"E8561C\",\"route_text_color\":\"FFFFFF\"}]","metadata_feed_id":"Colorado__Colorado_Mountain_Express__mdb_mdb-172","metadata_agency_names":"Epic Mountain Express","metadata_ntd_id":"80159","metadata_ntd_match_method":"manual_override","metadata_ntd_agency":"Mountain Express","metadata_ntd_city":"Crested Butte","metadata_ntd_state":"CO","metadata_gtfs_route_count":3,"metadata_gtfs_trip_count":450,"metadata_gtfs_shape_count":10,"metadata_gtfs_stop_count":26,"metadata_ntd_agency_voms":18,"metadata_ntd_total_facilities":0,"metadata_ntd_maintenance_facilities":0,"metadata_ntd_passenger_stations":0,"metadata_tam_tier":"Tier II","metadata_route_types_json":"{\"3\":3}","metadata_ntd_facilities_json":"{\"maintenance_facilities\":0,\"administrative_and_other_non_passenger_facilities\":0,\"passenger_stations_and_terminals\":0,\"parking_and_other_passenger_facilities\":0,\"total_facilities\":0,\"bus_transfer_centers\":null,\"elevated_fixed_guideway_stations\":null,\"at_grade_fixed_guideway_stations\":null,\"underground_fixed_guideway_stations\":null,\"simple_at_grade_platform_stations\":null,\"exclusive_grade_separated_platform_stations\":null,\"ferryboat_terminals\":null,\"surface_parking_lots\":null,\"parking_structures\":null}","metadata_tam_modes_json":"{\"DR\":{\"total_units_2024\":2,\"units_under_threshold_2024\":0,\"voms_2024\":4,\"total_modal_vrm_2024\":190440,\"total_modal_upt_2024\":129806},\"MB\":{\"total_units_2024\":26,\"units_under_threshold_2024\":3,\"voms_2024\":11,\"total_modal_vrm_2024\":173815,\"total_modal_upt_2024\":600507}}"},"geometry":{"type":"Point","coordinates":[-106.04766,39.48478]}},{"type":"Feature","properties":{"stop_id":"2335776","stop_code":"","platform_code":"Door to Door Service Available","stop_name":"Keystone","stop_desc":"Keystone Condo Check Inn - From here, Epic Mountain Express Keystone bound shuttles will deliver guests to the door of their lodging","zone_id":"1120","stop_url":"","location_type":"0","parent_station":"","stop_timezone":"America/Denver","position":"","direction":"","wheelchair_boarding":"0","tts_stop_name":"","feed_id":"Colorado__Colorado_Mountain_Express__mdb_mdb-172","agency_name":"Epic Mountain Express","route_count":1,"route_ids":"6326","route_short_names":"Epic Mountain Express","route_types":"3","route_type_names":"Bus","routes_json":"[{\"route_id\":\"6326\",\"route_short_name\":\"Epic Mountain Express\",\"route_long_name\":\"Denver Int'l Airport to Breckenridge, Keystone, Dillon, Frisco\",\"route_type\":\"3\",\"route_type_name\":\"Bus\",\"route_color\":\"E8561C\",\"route_text_color\":\"FFFFFF\"}]","metadata_feed_id":"Colorado__Colorado_Mountain_Express__mdb_mdb-172","metadata_agency_names":"Epic Mountain Express","metadata_ntd_id":"80159","metadata_ntd_match_method":"manual_override","metadata_ntd_agency":"Mountain Express","metadata_ntd_city":"Crested Butte","metadata_ntd_state":"CO","metadata_gtfs_route_count":3,"metadata_gtfs_trip_count":450,"metadata_gtfs_shape_count":10,"metadata_gtfs_stop_count":26,"metadata_ntd_agency_voms":18,"metadata_ntd_total_facilities":0,"metadata_ntd_maintenance_facilities":0,"metadata_ntd_passenger_stations":0,"metadata_tam_tier":"Tier II","metadata_route_types_json":"{\"3\":3}","metadata_ntd_facilities_json":"{\"maintenance_facilities\":0,\"administrative_and_other_non_passenger_facilities\":0,\"passenger_stations_and_terminals\":0,\"parking_and_other_passenger_facilities\":0,\"total_facilities\":0,\"bus_transfer_centers\":null,\"elevated_fixed_guideway_stations\":null,\"at_grade_fixed_guideway_stations\":null,\"underground_fixed_guideway_stations\":null,\"simple_at_grade_platform_stations\":null,\"exclusive_grade_separated_platform_stations\":null,\"ferryboat_terminals\":null,\"surface_parking_lots\":null,\"parking_structures\":null}","metadata_tam_modes_json":"{\"DR\":{\"total_units_2024\":2,\"units_under_threshold_2024\":0,\"voms_2024\":4,\"total_modal_vrm_2024\":190440,\"total_modal_upt_2024\":129806},\"MB\":{\"total_units_2024\":26,\"units_under_threshold_2024\":3,\"voms_2024\":11,\"total_modal_vrm_2024\":173815,\"total_modal_upt_2024\":600507}}"},"geometry":{"type":"Point","coordinates":[-105.97702,39.60525]}},{"type":"Feature","properties":{"stop_id":"2335777","stop_code":"","platform_code":"Door to Door Service Available","stop_name":"Copper Mountain","stop_desc":"Copper Mountain check in location, Epic Mountain Express's door to door shuttles deliver guests right to their lodging destination","zone_id":"1120","stop_url":"","location_type":"0","parent_station":"","stop_timezone":"America/Denver","position":"","direction":"","wheelchair_boarding":"0","tts_stop_name":"","feed_id":"Colorado__Colorado_Mountain_Express__mdb_mdb-172","agency_name":"Epic Mountain Express","route_count":0,"route_ids":"","route_short_names":"","route_types":"","route_type_names":"","routes_json":"[]","metadata_feed_id":"Colorado__Colorado_Mountain_Express__mdb_mdb-172","metadata_agency_names":"Epic Mountain Express","metadata_ntd_id":"80159","metadata_ntd_match_method":"manual_override","metadata_ntd_agency":"Mountain Express","metadata_ntd_city":"Crested Butte","metadata_ntd_state":"CO","metadata_gtfs_route_count":3,"metadata_gtfs_trip_count":450,"metadata_gtfs_shape_count":10,"metadata_gtfs_stop_count":26,"metadata_ntd_agency_voms":18,"metadata_ntd_total_facilities":0,"metadata_ntd_maintenance_facilities":0,"metadata_ntd_passenger_stations":0,"metadata_tam_tier":"Tier II","metadata_route_types_json":"{\"3\":3}","metadata_ntd_facilities_json":"{\"maintenance_facilities\":0,\"administrative_and_other_non_passenger_facilities\":0,\"passenger_stations_and_terminals\":0,\"parking_and_other_passenger_facilities\":0,\"total_facilities\":0,\"bus_transfer_centers\":null,\"elevated_fixed_guideway_stations\":null,\"at_grade_fixed_guideway_stations\":null,\"underground_fixed_guideway_stations\":null,\"simple_at_grade_platform_stations\":null,\"exclusive_grade_separated_platform_stations\":null,\"ferryboat_terminals\":null,\"surface_parking_lots\":null,\"parking_structures\":null}","metadata_tam_modes_json":"{\"DR\":{\"total_units_2024\":2,\"units_under_threshold_2024\":0,\"voms_2024\":4,\"total_modal_vrm_2024\":190440,\"total_modal_upt_2024\":129806},\"MB\":{\"total_units_2024\":26,\"units_under_threshold_2024\":3,\"voms_2024\":11,\"total_modal_vrm_2024\":173815,\"total_modal_upt_2024\":600507}}"},"geometry":{"type":"Point","coordinates":[-106.1513,39.50182]}},{"type":"Feature","properties":{"stop_id":"2335778","stop_code":"","platform_code":"","stop_name":"Eagle Kum & Go","stop_desc":"This is the only stop in Eagle, Colorado. It is served by the Aspen/ Snowmass Shuttle routes.","zone_id":"1118","stop_url":"","location_type":"0","parent_station":"","stop_timezone":"America/Denver","position":"","direction":"","wheelchair_boarding":"0","tts_stop_name":"","feed_id":"Colorado__Colorado_Mountain_Express__mdb_mdb-172","agency_name":"Epic Mountain Express","route_count":0,"route_ids":"","route_short_names":"","route_types":"","route_type_names":"","routes_json":"[]","metadata_feed_id":"Colorado__Colorado_Mountain_Express__mdb_mdb-172","metadata_agency_names":"Epic Mountain Express","metadata_ntd_id":"80159","metadata_ntd_match_method":"manual_override","metadata_ntd_agency":"Mountain Express","metadata_ntd_city":"Crested Butte","metadata_ntd_state":"CO","metadata_gtfs_route_count":3,"metadata_gtfs_trip_count":450,"metadata_gtfs_shape_count":10,"metadata_gtfs_stop_count":26,"metadata_ntd_agency_voms":18,"metadata_ntd_total_facilities":0,"metadata_ntd_maintenance_facilities":0,"metadata_ntd_passenger_stations":0,"metadata_tam_tier":"Tier II","metadata_route_types_json":"{\"3\":3}","metadata_ntd_facilities_json":"{\"maintenance_facilities\":0,\"administrative_and_other_non_passenger_facilities\":0,\"passenger_stations_and_terminals\":0,\"parking_and_other_passenger_facilities\":0,\"total_facilities\":0,\"bus_transfer_centers\":null,\"elevated_fixed_guideway_stations\":null,\"at_grade_fixed_guideway_stations\":null,\"underground_fixed_guideway_stations\":null,\"simple_at_grade_platform_stations\":null,\"exclusive_grade_separated_platform_stations\":null,\"ferryboat_terminals\":null,\"surface_parking_lots\":null,\"parking_structures\":null}","metadata_tam_modes_json":"{\"DR\":{\"total_units_2024\":2,\"units_under_threshold_2024\":0,\"voms_2024\":4,\"total_modal_vrm_2024\":190440,\"total_modal_upt_2024\":129806},\"MB\":{\"total_units_2024\":26,\"units_under_threshold_2024\":3,\"voms_2024\":11,\"total_modal_vrm_2024\":173815,\"total_modal_upt_2024\":600507}}"},"geometry":{"type":"Point","coordinates":[-106.8285,39.66136]}},{"type":"Feature","properties":{"stop_id":"2335780","stop_code":"","platform_code":"","stop_name":"Snowmass Village","stop_desc":"Door to door service is provided by CME shuttles in Snowmass Village.","zone_id":"1118","stop_url":"","location_type":"0","parent_station":"","stop_timezone":"America/Denver","position":"","direction":"","wheelchair_boarding":"0","tts_stop_name":"","feed_id":"Colorado__Colorado_Mountain_Express__mdb_mdb-172","agency_name":"Epic Mountain Express","route_count":0,"route_ids":"","route_short_names":"","route_types":"","route_type_names":"","routes_json":"[]","metadata_feed_id":"Colorado__Colorado_Mountain_Express__mdb_mdb-172","metadata_agency_names":"Epic Mountain Express","metadata_ntd_id":"80159","metadata_ntd_match_method":"manual_override","metadata_ntd_agency":"Mountain Express","metadata_ntd_city":"Crested Butte","metadata_ntd_state":"CO","metadata_gtfs_route_count":3,"metadata_gtfs_trip_count":450,"metadata_gtfs_shape_count":10,"metadata_gtfs_stop_count":26,"metadata_ntd_agency_voms":18,"metadata_ntd_total_facilities":0,"metadata_ntd_maintenance_facilities":0,"metadata_ntd_passenger_stations":0,"metadata_tam_tier":"Tier II","metadata_route_types_json":"{\"3\":3}","metadata_ntd_facilities_json":"{\"maintenance_facilities\":0,\"administrative_and_other_non_passenger_facilities\":0,\"passenger_stations_and_terminals\":0,\"parking_and_other_passenger_facilities\":0,\"total_facilities\":0,\"bus_transfer_centers\":null,\"elevated_fixed_guideway_stations\":null,\"at_grade_fixed_guideway_stations\":null,\"underground_fixed_guideway_stations\":null,\"simple_at_grade_platform_stations\":null,\"exclusive_grade_separated_platform_stations\":null,\"ferryboat_terminals\":null,\"surface_parking_lots\":null,\"parking_structures\":null}","metadata_tam_modes_json":"{\"DR\":{\"total_units_2024\":2,\"units_under_threshold_2024\":0,\"voms_2024\":4,\"total_modal_vrm_2024\":190440,\"total_modal_upt_2024\":129806},\"MB\":{\"total_units_2024\":26,\"units_under_threshold_2024\":3,\"voms_2024\":11,\"total_modal_vrm_2024\":173815,\"total_modal_upt_2024\":600507}}"},"geometry":{"type":"Point","coordinates":[-106.95359,39.20638]}},{"type":"Feature","properties":{"stop_id":"2335781","stop_code":"","platform_code":"","stop_name":"Aspen","stop_desc":"Door to door service is provided by CME shuttles in Aspen.","zone_id":"1118","stop_url":"","location_type":"0","parent_station":"","stop_timezone":"America/Denver","position":"","direction":"","wheelchair_boarding":"0","tts_stop_name":"","feed_id":"Colorado__Colorado_Mountain_Express__mdb_mdb-172","agency_name":"Epic Mountain Express","route_count":0,"route_ids":"","route_short_names":"","route_types":"","route_type_names":"","routes_json":"[]","metadata_feed_id":"Colorado__Colorado_Mountain_Express__mdb_mdb-172","metadata_agency_names":"Epic Mountain Express","metadata_ntd_id":"80159","metadata_ntd_match_method":"manual_override","metadata_ntd_agency":"Mountain Express","metadata_ntd_city":"Crested Butte","metadata_ntd_state":"CO","metadata_gtfs_route_count":3,"metadata_gtfs_trip_count":450,"metadata_gtfs_shape_count":10,"metadata_gtfs_stop_count":26,"metadata_ntd_agency_voms":18,"metadata_ntd_total_facilities":0,"metadata_ntd_maintenance_facilities":0,"metadata_ntd_passenger_stations":0,"metadata_tam_tier":"Tier II","metadata_route_types_json":"{\"3\":3}","metadata_ntd_facilities_json":"{\"maintenance_facilities\":0,\"administrative_and_other_non_passenger_facilities\":0,\"passenger_stations_and_terminals\":0,\"parking_and_other_passenger_facilities\":0,\"total_facilities\":0,\"bus_transfer_centers\":null,\"elevated_fixed_guideway_stations\":null,\"at_grade_fixed_guideway_stations\":null,\"underground_fixed_guideway_stations\":null,\"simple_at_grade_platform_stations\":null,\"exclusive_grade_separated_platform_stations\":null,\"ferryboat_terminals\":null,\"surface_parking_lots\":null,\"parking_structures\":null}","metadata_tam_modes_json":"{\"DR\":{\"total_units_2024\":2,\"units_under_threshold_2024\":0,\"voms_2024\":4,\"total_modal_vrm_2024\":190440,\"total_modal_upt_2024\":129806},\"MB\":{\"total_units_2024\":26,\"units_under_threshold_2024\":3,\"voms_2024\":11,\"total_modal_vrm_2024\":173815,\"total_modal_upt_2024\":600507}}"},"geometry":{"type":"Point","coordinates":[-106.81979,39.18745]}},{"type":"Feature","properties":{"stop_id":"2335782","stop_code":"","platform_code":"","stop_name":"Edwards","stop_desc":"Eagle-Vail Airport shuttles provide door to door service throughout Edwards, Colorado. The Epic Mountain Express office is located here as well.","zone_id":"1119","stop_url":"","location_type":"0","parent_station":"","stop_timezone":"America/Denver","position":"","direction":"","wheelchair_boarding":"0","tts_stop_name":"","feed_id":"Colorado__Colorado_Mountain_Express__mdb_mdb-172","agency_name":"Epic Mountain Express","route_count":2,"route_ids":"6325|6328","route_short_names":"Epic Mountain Express|Epic Mountain Express","route_types":"3","route_type_names":"Bus","routes_json":"[{\"route_id\":\"6325\",\"route_short_name\":\"Epic Mountain Express\",\"route_long_name\":\"DEN to Vail / Beaver Creek\",\"route_type\":\"3\",\"route_type_name\":\"Bus\",\"route_color\":\"E8561C\",\"route_text_color\":\"FFFFFF\"},{\"route_id\":\"6328\",\"route_short_name\":\"Epic Mountain Express\",\"route_long_name\":\"EGE to Vail/ BC\",\"route_type\":\"3\",\"route_type_name\":\"Bus\",\"route_color\":\"E8561C\",\"route_text_color\":\"FFFFFF\"}]","metadata_feed_id":"Colorado__Colorado_Mountain_Express__mdb_mdb-172","metadata_agency_names":"Epic Mountain Express","metadata_ntd_id":"80159","metadata_ntd_match_method":"manual_override","metadata_ntd_agency":"Mountain Express","metadata_ntd_city":"Crested Butte","metadata_ntd_state":"CO","metadata_gtfs_route_count":3,"metadata_gtfs_trip_count":450,"metadata_gtfs_shape_count":10,"metadata_gtfs_stop_count":26,"metadata_ntd_agency_voms":18,"metadata_ntd_total_facilities":0,"metadata_ntd_maintenance_facilities":0,"metadata_ntd_passenger_stations":0,"metadata_tam_tier":"Tier II","metadata_route_types_json":"{\"3\":3}","metadata_ntd_facilities_json":"{\"maintenance_facilities\":0,\"administrative_and_other_non_passenger_facilities\":0,\"passenger_stations_and_terminals\":0,\"parking_and_other_passenger_facilities\":0,\"total_facilities\":0,\"bus_transfer_centers\":null,\"elevated_fixed_guideway_stations\":null,\"at_grade_fixed_guideway_stations\":null,\"underground_fixed_guideway_stations\":null,\"simple_at_grade_platform_stations\":null,\"exclusive_grade_separated_platform_stations\":null,\"ferryboat_terminals\":null,\"surface_parking_lots\":null,\"parking_structures\":null}","metadata_tam_modes_json":"{\"DR\":{\"total_units_2024\":2,\"units_under_threshold_2024\":0,\"voms_2024\":4,\"total_modal_vrm_2024\":190440,\"total_modal_upt_2024\":129806},\"MB\":{\"total_units_2024\":26,\"units_under_threshold_2024\":3,\"voms_2024\":11,\"total_modal_vrm_2024\":173815,\"total_modal_upt_2024\":600507}}"},"geometry":{"type":"Point","coordinates":[-106.58746,39.64842]}},{"type":"Feature","properties":{"stop_id":"2335784","stop_code":"","platform_code":"","stop_name":"Eagle County Regional Airport (EGE)","stop_desc":"Epic Mountain Express has a guest service counter where guests check in for shuttles and SUVs. Tickets are available for purchase as space allows. Reservations are required to guarantee a seat. 970-754-7433 (SKI-RIDE)","zone_id":"1119","stop_url":"","location_type":"0","parent_station":"","stop_timezone":"America/Denver","position":"","direction":"","wheelchair_boarding":"0","tts_stop_name":"","feed_id":"Colorado__Colorado_Mountain_Express__mdb_mdb-172","agency_name":"Epic Mountain Express","route_count":1,"route_ids":"6328","route_short_names":"Epic Mountain Express","route_types":"3","route_type_names":"Bus","routes_json":"[{\"route_id\":\"6328\",\"route_short_name\":\"Epic Mountain Express\",\"route_long_name\":\"EGE to Vail/ BC\",\"route_type\":\"3\",\"route_type_name\":\"Bus\",\"route_color\":\"E8561C\",\"route_text_color\":\"FFFFFF\"}]","metadata_feed_id":"Colorado__Colorado_Mountain_Express__mdb_mdb-172","metadata_agency_names":"Epic Mountain Express","metadata_ntd_id":"80159","metadata_ntd_match_method":"manual_override","metadata_ntd_agency":"Mountain Express","metadata_ntd_city":"Crested Butte","metadata_ntd_state":"CO","metadata_gtfs_route_count":3,"metadata_gtfs_trip_count":450,"metadata_gtfs_shape_count":10,"metadata_gtfs_stop_count":26,"metadata_ntd_agency_voms":18,"metadata_ntd_total_facilities":0,"metadata_ntd_maintenance_facilities":0,"metadata_ntd_passenger_stations":0,"metadata_tam_tier":"Tier II","metadata_route_types_json":"{\"3\":3}","metadata_ntd_facilities_json":"{\"maintenance_facilities\":0,\"administrative_and_other_non_passenger_facilities\":0,\"passenger_stations_and_terminals\":0,\"parking_and_other_passenger_facilities\":0,\"total_facilities\":0,\"bus_transfer_centers\":null,\"elevated_fixed_guideway_stations\":null,\"at_grade_fixed_guideway_stations\":null,\"underground_fixed_guideway_stations\":null,\"simple_at_grade_platform_stations\":null,\"exclusive_grade_separated_platform_stations\":null,\"ferryboat_terminals\":null,\"surface_parking_lots\":null,\"parking_structures\":null}","metadata_tam_modes_json":"{\"DR\":{\"total_units_2024\":2,\"units_under_threshold_2024\":0,\"voms_2024\":4,\"total_modal_vrm_2024\":190440,\"total_modal_upt_2024\":129806},\"MB\":{\"total_units_2024\":26,\"units_under_threshold_2024\":3,\"voms_2024\":11,\"total_modal_vrm_2024\":173815,\"total_modal_upt_2024\":600507}}"},"geometry":{"type":"Point","coordinates":[-106.91398,39.64003]}},{"type":"Feature","properties":{"stop_id":"2335785","stop_code":"","platform_code":"Door to Door Service Available","stop_name":"Frisco Transfer Station","stop_desc":"","zone_id":"1120","stop_url":"","location_type":"0","parent_station":"","stop_timezone":"America/Denver","position":"","direction":"","wheelchair_boarding":"0","tts_stop_name":"","feed_id":"Colorado__Colorado_Mountain_Express__mdb_mdb-172","agency_name":"Epic Mountain Express","route_count":1,"route_ids":"6326","route_short_names":"Epic Mountain Express","route_types":"3","route_type_names":"Bus","routes_json":"[{\"route_id\":\"6326\",\"route_short_name\":\"Epic Mountain Express\",\"route_long_name\":\"Denver Int'l Airport to Breckenridge, Keystone, Dillon, Frisco\",\"route_type\":\"3\",\"route_type_name\":\"Bus\",\"route_color\":\"E8561C\",\"route_text_color\":\"FFFFFF\"}]","metadata_feed_id":"Colorado__Colorado_Mountain_Express__mdb_mdb-172","metadata_agency_names":"Epic Mountain Express","metadata_ntd_id":"80159","metadata_ntd_match_method":"manual_override","metadata_ntd_agency":"Mountain Express","metadata_ntd_city":"Crested Butte","metadata_ntd_state":"CO","metadata_gtfs_route_count":3,"metadata_gtfs_trip_count":450,"metadata_gtfs_shape_count":10,"metadata_gtfs_stop_count":26,"metadata_ntd_agency_voms":18,"metadata_ntd_total_facilities":0,"metadata_ntd_maintenance_facilities":0,"metadata_ntd_passenger_stations":0,"metadata_tam_tier":"Tier II","metadata_route_types_json":"{\"3\":3}","metadata_ntd_facilities_json":"{\"maintenance_facilities\":0,\"administrative_and_other_non_passenger_facilities\":0,\"passenger_stations_and_terminals\":0,\"parking_and_other_passenger_facilities\":0,\"total_facilities\":0,\"bus_transfer_centers\":null,\"elevated_fixed_guideway_stations\":null,\"at_grade_fixed_guideway_stations\":null,\"underground_fixed_guideway_stations\":null,\"simple_at_grade_platform_stations\":null,\"exclusive_grade_separated_platform_stations\":null,\"ferryboat_terminals\":null,\"surface_parking_lots\":null,\"parking_structures\":null}","metadata_tam_modes_json":"{\"DR\":{\"total_units_2024\":2,\"units_under_threshold_2024\":0,\"voms_2024\":4,\"total_modal_vrm_2024\":190440,\"total_modal_upt_2024\":129806},\"MB\":{\"total_units_2024\":26,\"units_under_threshold_2024\":3,\"voms_2024\":11,\"total_modal_vrm_2024\":173815,\"total_modal_upt_2024\":600507}}"},"geometry":{"type":"Point","coordinates":[-106.09788636762,39.588870677933]}},{"type":"Feature","properties":{"stop_id":"2335788","stop_code":"","platform_code":"","stop_name":"Silverthorne","stop_desc":"","zone_id":"1120","stop_url":"","location_type":"0","parent_station":"","stop_timezone":"America/Denver","position":"","direction":"","wheelchair_boarding":"0","tts_stop_name":"","feed_id":"Colorado__Colorado_Mountain_Express__mdb_mdb-172","agency_name":"Epic Mountain Express","route_count":0,"route_ids":"","route_short_names":"","route_types":"","route_type_names":"","routes_json":"[]","metadata_feed_id":"Colorado__Colorado_Mountain_Express__mdb_mdb-172","metadata_agency_names":"Epic Mountain Express","metadata_ntd_id":"80159","metadata_ntd_match_method":"manual_override","metadata_ntd_agency":"Mountain Express","metadata_ntd_city":"Crested Butte","metadata_ntd_state":"CO","metadata_gtfs_route_count":3,"metadata_gtfs_trip_count":450,"metadata_gtfs_shape_count":10,"metadata_gtfs_stop_count":26,"metadata_ntd_agency_voms":18,"metadata_ntd_total_facilities":0,"metadata_ntd_maintenance_facilities":0,"metadata_ntd_passenger_stations":0,"metadata_tam_tier":"Tier II","metadata_route_types_json":"{\"3\":3}","metadata_ntd_facilities_json":"{\"maintenance_facilities\":0,\"administrative_and_other_non_passenger_facilities\":0,\"passenger_stations_and_terminals\":0,\"parking_and_other_passenger_facilities\":0,\"total_facilities\":0,\"bus_transfer_centers\":null,\"elevated_fixed_guideway_stations\":null,\"at_grade_fixed_guideway_stations\":null,\"underground_fixed_guideway_stations\":null,\"simple_at_grade_platform_stations\":null,\"exclusive_grade_separated_platform_stations\":null,\"ferryboat_terminals\":null,\"surface_parking_lots\":null,\"parking_structures\":null}","metadata_tam_modes_json":"{\"DR\":{\"total_units_2024\":2,\"units_under_threshold_2024\":0,\"voms_2024\":4,\"total_modal_vrm_2024\":190440,\"total_modal_upt_2024\":129806},\"MB\":{\"total_units_2024\":26,\"units_under_threshold_2024\":3,\"voms_2024\":11,\"total_modal_vrm_2024\":173815,\"total_modal_upt_2024\":600507}}"},"geometry":{"type":"Point","coordinates":[-106.075196,39.631799]}},{"type":"Feature","properties":{"stop_id":"2335789","stop_code":"","platform_code":"Door to Door Service Available","stop_name":"Dillon","stop_desc":"","zone_id":"1120","stop_url":"","location_type":"0","parent_station":"","stop_timezone":"America/Denver","position":"","direction":"","wheelchair_boarding":"0","tts_stop_name":"","feed_id":"Colorado__Colorado_Mountain_Express__mdb_mdb-172","agency_name":"Epic Mountain Express","route_count":1,"route_ids":"6326","route_short_names":"Epic Mountain Express","route_types":"3","route_type_names":"Bus","routes_json":"[{\"route_id\":\"6326\",\"route_short_name\":\"Epic Mountain Express\",\"route_long_name\":\"Denver Int'l Airport to Breckenridge, Keystone, Dillon, Frisco\",\"route_type\":\"3\",\"route_type_name\":\"Bus\",\"route_color\":\"E8561C\",\"route_text_color\":\"FFFFFF\"}]","metadata_feed_id":"Colorado__Colorado_Mountain_Express__mdb_mdb-172","metadata_agency_names":"Epic Mountain Express","metadata_ntd_id":"80159","metadata_ntd_match_method":"manual_override","metadata_ntd_agency":"Mountain Express","metadata_ntd_city":"Crested Butte","metadata_ntd_state":"CO","metadata_gtfs_route_count":3,"metadata_gtfs_trip_count":450,"metadata_gtfs_shape_count":10,"metadata_gtfs_stop_count":26,"metadata_ntd_agency_voms":18,"metadata_ntd_total_facilities":0,"metadata_ntd_maintenance_facilities":0,"metadata_ntd_passenger_stations":0,"metadata_tam_tier":"Tier II","metadata_route_types_json":"{\"3\":3}","metadata_ntd_facilities_json":"{\"maintenance_facilities\":0,\"administrative_and_other_non_passenger_facilities\":0,\"passenger_stations_and_terminals\":0,\"parking_and_other_passenger_facilities\":0,\"total_facilities\":0,\"bus_transfer_centers\":null,\"elevated_fixed_guideway_stations\":null,\"at_grade_fixed_guideway_stations\":null,\"underground_fixed_guideway_stations\":null,\"simple_at_grade_platform_stations\":null,\"exclusive_grade_separated_platform_stations\":null,\"ferryboat_terminals\":null,\"surface_parking_lots\":null,\"parking_structures\":null}","metadata_tam_modes_json":"{\"DR\":{\"total_units_2024\":2,\"units_under_threshold_2024\":0,\"voms_2024\":4,\"total_modal_vrm_2024\":190440,\"total_modal_upt_2024\":129806},\"MB\":{\"total_units_2024\":26,\"units_under_threshold_2024\":3,\"voms_2024\":11,\"total_modal_vrm_2024\":173815,\"total_modal_upt_2024\":600507}}"},"geometry":{"type":"Point","coordinates":[-106.04554380395,39.630236559835]}},{"type":"Feature","properties":{"stop_id":"2335790","stop_code":"","platform_code":"","stop_name":"Minturn USFS Building","stop_desc":"Epic Mountain Express Vail Valley Route serves Minturn - USFS station, Turntable Restaurant and Bunkhouse","zone_id":"1119","stop_url":"","location_type":"0","parent_station":"","stop_timezone":"America/Denver","position":"","direction":"","wheelchair_boarding":"0","tts_stop_name":"","feed_id":"Colorado__Colorado_Mountain_Express__mdb_mdb-172","agency_name":"Epic Mountain Express","route_count":0,"route_ids":"","route_short_names":"","route_types":"","route_type_names":"","routes_json":"[]","metadata_feed_id":"Colorado__Colorado_Mountain_Express__mdb_mdb-172","metadata_agency_names":"Epic Mountain Express","metadata_ntd_id":"80159","metadata_ntd_match_method":"manual_override","metadata_ntd_agency":"Mountain Express","metadata_ntd_city":"Crested Butte","metadata_ntd_state":"CO","metadata_gtfs_route_count":3,"metadata_gtfs_trip_count":450,"metadata_gtfs_shape_count":10,"metadata_gtfs_stop_count":26,"metadata_ntd_agency_voms":18,"metadata_ntd_total_facilities":0,"metadata_ntd_maintenance_facilities":0,"metadata_ntd_passenger_stations":0,"metadata_tam_tier":"Tier II","metadata_route_types_json":"{\"3\":3}","metadata_ntd_facilities_json":"{\"maintenance_facilities\":0,\"administrative_and_other_non_passenger_facilities\":0,\"passenger_stations_and_terminals\":0,\"parking_and_other_passenger_facilities\":0,\"total_facilities\":0,\"bus_transfer_centers\":null,\"elevated_fixed_guideway_stations\":null,\"at_grade_fixed_guideway_stations\":null,\"underground_fixed_guideway_stations\":null,\"simple_at_grade_platform_stations\":null,\"exclusive_grade_separated_platform_stations\":null,\"ferryboat_terminals\":null,\"surface_parking_lots\":null,\"parking_structures\":null}","metadata_tam_modes_json":"{\"DR\":{\"total_units_2024\":2,\"units_under_threshold_2024\":0,\"voms_2024\":4,\"total_modal_vrm_2024\":190440,\"total_modal_upt_2024\":129806},\"MB\":{\"total_units_2024\":26,\"units_under_threshold_2024\":3,\"voms_2024\":11,\"total_modal_vrm_2024\":173815,\"total_modal_upt_2024\":600507}}"},"geometry":{"type":"Point","coordinates":[-106.44632,39.60684]}},{"type":"Feature","properties":{"stop_id":"2335841","stop_code":"","platform_code":"","stop_name":"Glenwood Springs","stop_desc":"Glenwood Springs stop on the Aspen/Snowmass shuttle route.","zone_id":"1118","stop_url":"","location_type":"0","parent_station":"","stop_timezone":"America/Denver","position":"","direction":"","wheelchair_boarding":"0","tts_stop_name":"","feed_id":"Colorado__Colorado_Mountain_Express__mdb_mdb-172","agency_name":"Epic Mountain Express","route_count":0,"route_ids":"","route_short_names":"","route_types":"","route_type_names":"","routes_json":"[]","metadata_feed_id":"Colorado__Colorado_Mountain_Express__mdb_mdb-172","metadata_agency_names":"Epic Mountain Express","metadata_ntd_id":"80159","metadata_ntd_match_method":"manual_override","metadata_ntd_agency":"Mountain Express","metadata_ntd_city":"Crested Butte","metadata_ntd_state":"CO","metadata_gtfs_route_count":3,"metadata_gtfs_trip_count":450,"metadata_gtfs_shape_count":10,"metadata_gtfs_stop_count":26,"metadata_ntd_agency_voms":18,"metadata_ntd_total_facilities":0,"metadata_ntd_maintenance_facilities":0,"metadata_ntd_passenger_stations":0,"metadata_tam_tier":"Tier II","metadata_route_types_json":"{\"3\":3}","metadata_ntd_facilities_json":"{\"maintenance_facilities\":0,\"administrative_and_other_non_passenger_facilities\":0,\"passenger_stations_and_terminals\":0,\"parking_and_other_passenger_facilities\":0,\"total_facilities\":0,\"bus_transfer_centers\":null,\"elevated_fixed_guideway_stations\":null,\"at_grade_fixed_guideway_stations\":null,\"underground_fixed_guideway_stations\":null,\"simple_at_grade_platform_stations\":null,\"exclusive_grade_separated_platform_stations\":null,\"ferryboat_terminals\":null,\"surface_parking_lots\":null,\"parking_structures\":null}","metadata_tam_modes_json":"{\"DR\":{\"total_units_2024\":2,\"units_under_threshold_2024\":0,\"voms_2024\":4,\"total_modal_vrm_2024\":190440,\"total_modal_upt_2024\":129806},\"MB\":{\"total_units_2024\":26,\"units_under_threshold_2024\":3,\"voms_2024\":11,\"total_modal_vrm_2024\":173815,\"total_modal_upt_2024\":600507}}"},"geometry":{"type":"Point","coordinates":[-107.32773,39.55049]}},{"type":"Feature","properties":{"stop_id":"2335842","stop_code":"","platform_code":"","stop_name":"Colorado Mountain Express Glenwood Springs Office","stop_desc":"Pick Up/ Drop Off point in Glenwood Springs for airport shuttles. There is not door to door service in Glenwood Springs.","zone_id":"1118","stop_url":"","location_type":"0","parent_station":"","stop_timezone":"America/Denver","position":"","direction":"","wheelchair_boarding":"0","tts_stop_name":"","feed_id":"Colorado__Colorado_Mountain_Express__mdb_mdb-172","agency_name":"Epic Mountain Express","route_count":0,"route_ids":"","route_short_names":"","route_types":"","route_type_names":"","routes_json":"[]","metadata_feed_id":"Colorado__Colorado_Mountain_Express__mdb_mdb-172","metadata_agency_names":"Epic Mountain Express","metadata_ntd_id":"80159","metadata_ntd_match_method":"manual_override","metadata_ntd_agency":"Mountain Express","metadata_ntd_city":"Crested Butte","metadata_ntd_state":"CO","metadata_gtfs_route_count":3,"metadata_gtfs_trip_count":450,"metadata_gtfs_shape_count":10,"metadata_gtfs_stop_count":26,"metadata_ntd_agency_voms":18,"metadata_ntd_total_facilities":0,"metadata_ntd_maintenance_facilities":0,"metadata_ntd_passenger_stations":0,"metadata_tam_tier":"Tier II","metadata_route_types_json":"{\"3\":3}","metadata_ntd_facilities_json":"{\"maintenance_facilities\":0,\"administrative_and_other_non_passenger_facilities\":0,\"passenger_stations_and_terminals\":0,\"parking_and_other_passenger_facilities\":0,\"total_facilities\":0,\"bus_transfer_centers\":null,\"elevated_fixed_guideway_stations\":null,\"at_grade_fixed_guideway_stations\":null,\"underground_fixed_guideway_stations\":null,\"simple_at_grade_platform_stations\":null,\"exclusive_grade_separated_platform_stations\":null,\"ferryboat_terminals\":null,\"surface_parking_lots\":null,\"parking_structures\":null}","metadata_tam_modes_json":"{\"DR\":{\"total_units_2024\":2,\"units_under_threshold_2024\":0,\"voms_2024\":4,\"total_modal_vrm_2024\":190440,\"total_modal_upt_2024\":129806},\"MB\":{\"total_units_2024\":26,\"units_under_threshold_2024\":3,\"voms_2024\":11,\"total_modal_vrm_2024\":173815,\"total_modal_upt_2024\":600507}}"},"geometry":{"type":"Point","coordinates":[-107.32358,39.52564]}},{"type":"Feature","properties":{"stop_id":"2335843","stop_code":"","platform_code":"","stop_name":"Glenwood Springs Conoco Carwash","stop_desc":"Pick Up/ Drop Off point in Glenwood Springs for airport shuttles. There is not door to door service in Glenwood Springs.","zone_id":"1118","stop_url":"","location_type":"0","parent_station":"","stop_timezone":"America/Denver","position":"","direction":"","wheelchair_boarding":"0","tts_stop_name":"","feed_id":"Colorado__Colorado_Mountain_Express__mdb_mdb-172","agency_name":"Epic Mountain Express","route_count":0,"route_ids":"","route_short_names":"","route_types":"","route_type_names":"","routes_json":"[]","metadata_feed_id":"Colorado__Colorado_Mountain_Express__mdb_mdb-172","metadata_agency_names":"Epic Mountain Express","metadata_ntd_id":"80159","metadata_ntd_match_method":"manual_override","metadata_ntd_agency":"Mountain Express","metadata_ntd_city":"Crested Butte","metadata_ntd_state":"CO","metadata_gtfs_route_count":3,"metadata_gtfs_trip_count":450,"metadata_gtfs_shape_count":10,"metadata_gtfs_stop_count":26,"metadata_ntd_agency_voms":18,"metadata_ntd_total_facilities":0,"metadata_ntd_maintenance_facilities":0,"metadata_ntd_passenger_stations":0,"metadata_tam_tier":"Tier II","metadata_route_types_json":"{\"3\":3}","metadata_ntd_facilities_json":"{\"maintenance_facilities\":0,\"administrative_and_other_non_passenger_facilities\":0,\"passenger_stations_and_terminals\":0,\"parking_and_other_passenger_facilities\":0,\"total_facilities\":0,\"bus_transfer_centers\":null,\"elevated_fixed_guideway_stations\":null,\"at_grade_fixed_guideway_stations\":null,\"underground_fixed_guideway_stations\":null,\"simple_at_grade_platform_stations\":null,\"exclusive_grade_separated_platform_stations\":null,\"ferryboat_terminals\":null,\"surface_parking_lots\":null,\"parking_structures\":null}","metadata_tam_modes_json":"{\"DR\":{\"total_units_2024\":2,\"units_under_threshold_2024\":0,\"voms_2024\":4,\"total_modal_vrm_2024\":190440,\"total_modal_upt_2024\":129806},\"MB\":{\"total_units_2024\":26,\"units_under_threshold_2024\":3,\"voms_2024\":11,\"total_modal_vrm_2024\":173815,\"total_modal_upt_2024\":600507}}"},"geometry":{"type":"Point","coordinates":[-107.32085,39.52112]}},{"type":"Feature","properties":{"stop_id":"2335844","stop_code":"","platform_code":"","stop_name":"Thunder River Market","stop_desc":"Pick Up/ Drop Off point in Glenwood Springs for airport shuttles. There is not door to door service in Glenwood Springs.","zone_id":"1118","stop_url":"","location_type":"0","parent_station":"","stop_timezone":"America/Denver","position":"","direction":"","wheelchair_boarding":"0","tts_stop_name":"","feed_id":"Colorado__Colorado_Mountain_Express__mdb_mdb-172","agency_name":"Epic Mountain Express","route_count":0,"route_ids":"","route_short_names":"","route_types":"","route_type_names":"","routes_json":"[]","metadata_feed_id":"Colorado__Colorado_Mountain_Express__mdb_mdb-172","metadata_agency_names":"Epic Mountain Express","metadata_ntd_id":"80159","metadata_ntd_match_method":"manual_override","metadata_ntd_agency":"Mountain Express","metadata_ntd_city":"Crested Butte","metadata_ntd_state":"CO","metadata_gtfs_route_count":3,"metadata_gtfs_trip_count":450,"metadata_gtfs_shape_count":10,"metadata_gtfs_stop_count":26,"metadata_ntd_agency_voms":18,"metadata_ntd_total_facilities":0,"metadata_ntd_maintenance_facilities":0,"metadata_ntd_passenger_stations":0,"metadata_tam_tier":"Tier II","metadata_route_types_json":"{\"3\":3}","metadata_ntd_facilities_json":"{\"maintenance_facilities\":0,\"administrative_and_other_non_passenger_facilities\":0,\"passenger_stations_and_terminals\":0,\"parking_and_other_passenger_facilities\":0,\"total_facilities\":0,\"bus_transfer_centers\":null,\"elevated_fixed_guideway_stations\":null,\"at_grade_fixed_guideway_stations\":null,\"underground_fixed_guideway_stations\":null,\"simple_at_grade_platform_stations\":null,\"exclusive_grade_separated_platform_stations\":null,\"ferryboat_terminals\":null,\"surface_parking_lots\":null,\"parking_structures\":null}","metadata_tam_modes_json":"{\"DR\":{\"total_units_2024\":2,\"units_under_threshold_2024\":0,\"voms_2024\":4,\"total_modal_vrm_2024\":190440,\"total_modal_upt_2024\":129806},\"MB\":{\"total_units_2024\":26,\"units_under_threshold_2024\":3,\"voms_2024\":11,\"total_modal_vrm_2024\":173815,\"total_modal_upt_2024\":600507}}"},"geometry":{"type":"Point","coordinates":[-107.26946,39.47334]}},{"type":"Feature","properties":{"stop_id":"2335845","stop_code":"","platform_code":"","stop_name":"Cowen Center","stop_desc":"","zone_id":"1118","stop_url":"","location_type":"0","parent_station":"","stop_timezone":"America/Denver","position":"","direction":"","wheelchair_boarding":"0","tts_stop_name":"","feed_id":"Colorado__Colorado_Mountain_Express__mdb_mdb-172","agency_name":"Epic Mountain Express","route_count":0,"route_ids":"","route_short_names":"","route_types":"","route_type_names":"","routes_json":"[]","metadata_feed_id":"Colorado__Colorado_Mountain_Express__mdb_mdb-172","metadata_agency_names":"Epic Mountain Express","metadata_ntd_id":"80159","metadata_ntd_match_method":"manual_override","metadata_ntd_agency":"Mountain Express","metadata_ntd_city":"Crested Butte","metadata_ntd_state":"CO","metadata_gtfs_route_count":3,"metadata_gtfs_trip_count":450,"metadata_gtfs_shape_count":10,"metadata_gtfs_stop_count":26,"metadata_ntd_agency_voms":18,"metadata_ntd_total_facilities":0,"metadata_ntd_maintenance_facilities":0,"metadata_ntd_passenger_stations":0,"metadata_tam_tier":"Tier II","metadata_route_types_json":"{\"3\":3}","metadata_ntd_facilities_json":"{\"maintenance_facilities\":0,\"administrative_and_other_non_passenger_facilities\":0,\"passenger_stations_and_terminals\":0,\"parking_and_other_passenger_facilities\":0,\"total_facilities\":0,\"bus_transfer_centers\":null,\"elevated_fixed_guideway_stations\":null,\"at_grade_fixed_guideway_stations\":null,\"underground_fixed_guideway_stations\":null,\"simple_at_grade_platform_stations\":null,\"exclusive_grade_separated_platform_stations\":null,\"ferryboat_terminals\":null,\"surface_parking_lots\":null,\"parking_structures\":null}","metadata_tam_modes_json":"{\"DR\":{\"total_units_2024\":2,\"units_under_threshold_2024\":0,\"voms_2024\":4,\"total_modal_vrm_2024\":190440,\"total_modal_upt_2024\":129806},\"MB\":{\"total_units_2024\":26,\"units_under_threshold_2024\":3,\"voms_2024\":11,\"total_modal_vrm_2024\":173815,\"total_modal_upt_2024\":600507}}"},"geometry":{"type":"Point","coordinates":[-107.22124,39.41381]}},{"type":"Feature","properties":{"stop_id":"2335846","stop_code":"","platform_code":"","stop_name":"Element Hotel","stop_desc":"This is a pick Up/ drop off point in Basalt El Jebel for airport shuttles. There is not door to door service.","zone_id":"1118","stop_url":"","location_type":"0","parent_station":"","stop_timezone":"America/Denver","position":"","direction":"","wheelchair_boarding":"0","tts_stop_name":"","feed_id":"Colorado__Colorado_Mountain_Express__mdb_mdb-172","agency_name":"Epic Mountain Express","route_count":0,"route_ids":"","route_short_names":"","route_types":"","route_type_names":"","routes_json":"[]","metadata_feed_id":"Colorado__Colorado_Mountain_Express__mdb_mdb-172","metadata_agency_names":"Epic Mountain Express","metadata_ntd_id":"80159","metadata_ntd_match_method":"manual_override","metadata_ntd_agency":"Mountain Express","metadata_ntd_city":"Crested Butte","metadata_ntd_state":"CO","metadata_gtfs_route_count":3,"metadata_gtfs_trip_count":450,"metadata_gtfs_shape_count":10,"metadata_gtfs_stop_count":26,"metadata_ntd_agency_voms":18,"metadata_ntd_total_facilities":0,"metadata_ntd_maintenance_facilities":0,"metadata_ntd_passenger_stations":0,"metadata_tam_tier":"Tier II","metadata_route_types_json":"{\"3\":3}","metadata_ntd_facilities_json":"{\"maintenance_facilities\":0,\"administrative_and_other_non_passenger_facilities\":0,\"passenger_stations_and_terminals\":0,\"parking_and_other_passenger_facilities\":0,\"total_facilities\":0,\"bus_transfer_centers\":null,\"elevated_fixed_guideway_stations\":null,\"at_grade_fixed_guideway_stations\":null,\"underground_fixed_guideway_stations\":null,\"simple_at_grade_platform_stations\":null,\"exclusive_grade_separated_platform_stations\":null,\"ferryboat_terminals\":null,\"surface_parking_lots\":null,\"parking_structures\":null}","metadata_tam_modes_json":"{\"DR\":{\"total_units_2024\":2,\"units_under_threshold_2024\":0,\"voms_2024\":4,\"total_modal_vrm_2024\":190440,\"total_modal_upt_2024\":129806},\"MB\":{\"total_units_2024\":26,\"units_under_threshold_2024\":3,\"voms_2024\":11,\"total_modal_vrm_2024\":173815,\"total_modal_upt_2024\":600507}}"},"geometry":{"type":"Point","coordinates":[-107.08202,39.38587]}},{"type":"Feature","properties":{"stop_id":"2335847","stop_code":"","platform_code":"","stop_name":"Valero Station","stop_desc":"This is a pick up/ drop off point in Basalt for airport shuttles. There is not door to door service in Basalt.","zone_id":"1118","stop_url":"","location_type":"0","parent_station":"","stop_timezone":"America/Denver","position":"","direction":"","wheelchair_boarding":"0","tts_stop_name":"","feed_id":"Colorado__Colorado_Mountain_Express__mdb_mdb-172","agency_name":"Epic Mountain Express","route_count":0,"route_ids":"","route_short_names":"","route_types":"","route_type_names":"","routes_json":"[]","metadata_feed_id":"Colorado__Colorado_Mountain_Express__mdb_mdb-172","metadata_agency_names":"Epic Mountain Express","metadata_ntd_id":"80159","metadata_ntd_match_method":"manual_override","metadata_ntd_agency":"Mountain Express","metadata_ntd_city":"Crested Butte","metadata_ntd_state":"CO","metadata_gtfs_route_count":3,"metadata_gtfs_trip_count":450,"metadata_gtfs_shape_count":10,"metadata_gtfs_stop_count":26,"metadata_ntd_agency_voms":18,"metadata_ntd_total_facilities":0,"metadata_ntd_maintenance_facilities":0,"metadata_ntd_passenger_stations":0,"metadata_tam_tier":"Tier II","metadata_route_types_json":"{\"3\":3}","metadata_ntd_facilities_json":"{\"maintenance_facilities\":0,\"administrative_and_other_non_passenger_facilities\":0,\"passenger_stations_and_terminals\":0,\"parking_and_other_passenger_facilities\":0,\"total_facilities\":0,\"bus_transfer_centers\":null,\"elevated_fixed_guideway_stations\":null,\"at_grade_fixed_guideway_stations\":null,\"underground_fixed_guideway_stations\":null,\"simple_at_grade_platform_stations\":null,\"exclusive_grade_separated_platform_stations\":null,\"ferryboat_terminals\":null,\"surface_parking_lots\":null,\"parking_structures\":null}","metadata_tam_modes_json":"{\"DR\":{\"total_units_2024\":2,\"units_under_threshold_2024\":0,\"voms_2024\":4,\"total_modal_vrm_2024\":190440,\"total_modal_upt_2024\":129806},\"MB\":{\"total_units_2024\":26,\"units_under_threshold_2024\":3,\"voms_2024\":11,\"total_modal_vrm_2024\":173815,\"total_modal_upt_2024\":600507}}"},"geometry":{"type":"Point","coordinates":[-107.03421,39.3647]}},{"type":"Feature","properties":{"stop_id":"2335848","stop_code":"","platform_code":"","stop_name":"Old Snowmass Deli","stop_desc":"This is a pick up/ drop off point in Basalt for airport shuttles. There is not door to door service in Basalt.","zone_id":"1118","stop_url":"","location_type":"0","parent_station":"","stop_timezone":"America/Denver","position":"","direction":"","wheelchair_boarding":"0","tts_stop_name":"","feed_id":"Colorado__Colorado_Mountain_Express__mdb_mdb-172","agency_name":"Epic Mountain Express","route_count":0,"route_ids":"","route_short_names":"","route_types":"","route_type_names":"","routes_json":"[]","metadata_feed_id":"Colorado__Colorado_Mountain_Express__mdb_mdb-172","metadata_agency_names":"Epic Mountain Express","metadata_ntd_id":"80159","metadata_ntd_match_method":"manual_override","metadata_ntd_agency":"Mountain Express","metadata_ntd_city":"Crested Butte","metadata_ntd_state":"CO","metadata_gtfs_route_count":3,"metadata_gtfs_trip_count":450,"metadata_gtfs_shape_count":10,"metadata_gtfs_stop_count":26,"metadata_ntd_agency_voms":18,"metadata_ntd_total_facilities":0,"metadata_ntd_maintenance_facilities":0,"metadata_ntd_passenger_stations":0,"metadata_tam_tier":"Tier II","metadata_route_types_json":"{\"3\":3}","metadata_ntd_facilities_json":"{\"maintenance_facilities\":0,\"administrative_and_other_non_passenger_facilities\":0,\"passenger_stations_and_terminals\":0,\"parking_and_other_passenger_facilities\":0,\"total_facilities\":0,\"bus_transfer_centers\":null,\"elevated_fixed_guideway_stations\":null,\"at_grade_fixed_guideway_stations\":null,\"underground_fixed_guideway_stations\":null,\"simple_at_grade_platform_stations\":null,\"exclusive_grade_separated_platform_stations\":null,\"ferryboat_terminals\":null,\"surface_parking_lots\":null,\"parking_structures\":null}","metadata_tam_modes_json":"{\"DR\":{\"total_units_2024\":2,\"units_under_threshold_2024\":0,\"voms_2024\":4,\"total_modal_vrm_2024\":190440,\"total_modal_upt_2024\":129806},\"MB\":{\"total_units_2024\":26,\"units_under_threshold_2024\":3,\"voms_2024\":11,\"total_modal_vrm_2024\":173815,\"total_modal_upt_2024\":600507}}"},"geometry":{"type":"Point","coordinates":[-106.98459,39.3307]}},{"type":"Feature","properties":{"stop_id":"2335849","stop_code":"","platform_code":"","stop_name":"Brush Creek & HWY 82 Intercept Lot","stop_desc":"Colorado Mountain Express's point to point transfer point for Snowmass/Aspen shuttle route. Door to door service is available to lodging in Snowmass Village and the City of Aspen.","zone_id":"1118","stop_url":"","location_type":"0","parent_station":"","stop_timezone":"America/Denver","position":"","direction":"","wheelchair_boarding":"0","tts_stop_name":"","feed_id":"Colorado__Colorado_Mountain_Express__mdb_mdb-172","agency_name":"Epic Mountain Express","route_count":0,"route_ids":"","route_short_names":"","route_types":"","route_type_names":"","routes_json":"[]","metadata_feed_id":"Colorado__Colorado_Mountain_Express__mdb_mdb-172","metadata_agency_names":"Epic Mountain Express","metadata_ntd_id":"80159","metadata_ntd_match_method":"manual_override","metadata_ntd_agency":"Mountain Express","metadata_ntd_city":"Crested Butte","metadata_ntd_state":"CO","metadata_gtfs_route_count":3,"metadata_gtfs_trip_count":450,"metadata_gtfs_shape_count":10,"metadata_gtfs_stop_count":26,"metadata_ntd_agency_voms":18,"metadata_ntd_total_facilities":0,"metadata_ntd_maintenance_facilities":0,"metadata_ntd_passenger_stations":0,"metadata_tam_tier":"Tier II","metadata_route_types_json":"{\"3\":3}","metadata_ntd_facilities_json":"{\"maintenance_facilities\":0,\"administrative_and_other_non_passenger_facilities\":0,\"passenger_stations_and_terminals\":0,\"parking_and_other_passenger_facilities\":0,\"total_facilities\":0,\"bus_transfer_centers\":null,\"elevated_fixed_guideway_stations\":null,\"at_grade_fixed_guideway_stations\":null,\"underground_fixed_guideway_stations\":null,\"simple_at_grade_platform_stations\":null,\"exclusive_grade_separated_platform_stations\":null,\"ferryboat_terminals\":null,\"surface_parking_lots\":null,\"parking_structures\":null}","metadata_tam_modes_json":"{\"DR\":{\"total_units_2024\":2,\"units_under_threshold_2024\":0,\"voms_2024\":4,\"total_modal_vrm_2024\":190440,\"total_modal_upt_2024\":129806},\"MB\":{\"total_units_2024\":26,\"units_under_threshold_2024\":3,\"voms_2024\":11,\"total_modal_vrm_2024\":173815,\"total_modal_upt_2024\":600507}}"},"geometry":{"type":"Point","coordinates":[-106.88278,39.25007]}},{"type":"Feature","properties":{"stop_id":"2371252","stop_code":"","platform_code":"","stop_name":"Beaver Creek Resort","stop_desc":"","zone_id":"1119","stop_url":"","location_type":"0","parent_station":"","stop_timezone":"America/Denver","position":"","direction":"","wheelchair_boarding":"0","tts_stop_name":"","feed_id":"Colorado__Colorado_Mountain_Express__mdb_mdb-172","agency_name":"Epic Mountain Express","route_count":2,"route_ids":"6325|6328","route_short_names":"Epic Mountain Express|Epic Mountain Express","route_types":"3","route_type_names":"Bus","routes_json":"[{\"route_id\":\"6325\",\"route_short_name\":\"Epic Mountain Express\",\"route_long_name\":\"DEN to Vail / Beaver Creek\",\"route_type\":\"3\",\"route_type_name\":\"Bus\",\"route_color\":\"E8561C\",\"route_text_color\":\"FFFFFF\"},{\"route_id\":\"6328\",\"route_short_name\":\"Epic Mountain Express\",\"route_long_name\":\"EGE to Vail/ BC\",\"route_type\":\"3\",\"route_type_name\":\"Bus\",\"route_color\":\"E8561C\",\"route_text_color\":\"FFFFFF\"}]","metadata_feed_id":"Colorado__Colorado_Mountain_Express__mdb_mdb-172","metadata_agency_names":"Epic Mountain Express","metadata_ntd_id":"80159","metadata_ntd_match_method":"manual_override","metadata_ntd_agency":"Mountain Express","metadata_ntd_city":"Crested Butte","metadata_ntd_state":"CO","metadata_gtfs_route_count":3,"metadata_gtfs_trip_count":450,"metadata_gtfs_shape_count":10,"metadata_gtfs_stop_count":26,"metadata_ntd_agency_voms":18,"metadata_ntd_total_facilities":0,"metadata_ntd_maintenance_facilities":0,"metadata_ntd_passenger_stations":0,"metadata_tam_tier":"Tier II","metadata_route_types_json":"{\"3\":3}","metadata_ntd_facilities_json":"{\"maintenance_facilities\":0,\"administrative_and_other_non_passenger_facilities\":0,\"passenger_stations_and_terminals\":0,\"parking_and_other_passenger_facilities\":0,\"total_facilities\":0,\"bus_transfer_centers\":null,\"elevated_fixed_guideway_stations\":null,\"at_grade_fixed_guideway_stations\":null,\"underground_fixed_guideway_stations\":null,\"simple_at_grade_platform_stations\":null,\"exclusive_grade_separated_platform_stations\":null,\"ferryboat_terminals\":null,\"surface_parking_lots\":null,\"parking_structures\":null}","metadata_tam_modes_json":"{\"DR\":{\"total_units_2024\":2,\"units_under_threshold_2024\":0,\"voms_2024\":4,\"total_modal_vrm_2024\":190440,\"total_modal_upt_2024\":129806},\"MB\":{\"total_units_2024\":26,\"units_under_threshold_2024\":3,\"voms_2024\":11,\"total_modal_vrm_2024\":173815,\"total_modal_upt_2024\":600507}}"},"geometry":{"type":"Point","coordinates":[-106.51559816186,39.604789402531]}},{"type":"Feature","properties":{"stop_id":"2430989","stop_code":"","platform_code":"Door to Door Service Available","stop_name":"Silverthorne","stop_desc":"","zone_id":"1120","stop_url":"","location_type":"0","parent_station":"","stop_timezone":"America/Denver","position":"","direction":"","wheelchair_boarding":"0","tts_stop_name":"","feed_id":"Colorado__Colorado_Mountain_Express__mdb_mdb-172","agency_name":"Epic Mountain Express","route_count":1,"route_ids":"6326","route_short_names":"Epic Mountain Express","route_types":"3","route_type_names":"Bus","routes_json":"[{\"route_id\":\"6326\",\"route_short_name\":\"Epic Mountain Express\",\"route_long_name\":\"Denver Int'l Airport to Breckenridge, Keystone, Dillon, Frisco\",\"route_type\":\"3\",\"route_type_name\":\"Bus\",\"route_color\":\"E8561C\",\"route_text_color\":\"FFFFFF\"}]","metadata_feed_id":"Colorado__Colorado_Mountain_Express__mdb_mdb-172","metadata_agency_names":"Epic Mountain Express","metadata_ntd_id":"80159","metadata_ntd_match_method":"manual_override","metadata_ntd_agency":"Mountain Express","metadata_ntd_city":"Crested Butte","metadata_ntd_state":"CO","metadata_gtfs_route_count":3,"metadata_gtfs_trip_count":450,"metadata_gtfs_shape_count":10,"metadata_gtfs_stop_count":26,"metadata_ntd_agency_voms":18,"metadata_ntd_total_facilities":0,"metadata_ntd_maintenance_facilities":0,"metadata_ntd_passenger_stations":0,"metadata_tam_tier":"Tier II","metadata_route_types_json":"{\"3\":3}","metadata_ntd_facilities_json":"{\"maintenance_facilities\":0,\"administrative_and_other_non_passenger_facilities\":0,\"passenger_stations_and_terminals\":0,\"parking_and_other_passenger_facilities\":0,\"total_facilities\":0,\"bus_transfer_centers\":null,\"elevated_fixed_guideway_stations\":null,\"at_grade_fixed_guideway_stations\":null,\"underground_fixed_guideway_stations\":null,\"simple_at_grade_platform_stations\":null,\"exclusive_grade_separated_platform_stations\":null,\"ferryboat_terminals\":null,\"surface_parking_lots\":null,\"parking_structures\":null}","metadata_tam_modes_json":"{\"DR\":{\"total_units_2024\":2,\"units_under_threshold_2024\":0,\"voms_2024\":4,\"total_modal_vrm_2024\":190440,\"total_modal_upt_2024\":129806},\"MB\":{\"total_units_2024\":26,\"units_under_threshold_2024\":3,\"voms_2024\":11,\"total_modal_vrm_2024\":173815,\"total_modal_upt_2024\":600507}}"},"geometry":{"type":"Point","coordinates":[-106.07109195269,39.633366091852]}}],"metadata":{"feed_id":"Colorado__Colorado_Mountain_Express__mdb_mdb-172","ntd_id":"80159","feature_metadata_embedded":true}}