{"type":"FeatureCollection","features":[{"type":"Feature","properties":{"stop_id":"FHSU Tiger","stop_code":"","stop_name":"FHSU Tiger Stop","stop_desc":"","zone_id":"","stop_url":"","location_type":"","parent_station":"","stop_timezone":"","wheelchair_boarding":"1","feed_id":"Kansas__Developmental_Services_of_NW_Kansas_ACCESS_Transportation__mdb_ntd-70060","agency_name":"Developmental Services of NW Kansas/ACCESS Transportation","route_count":1,"route_ids":"Tiger","route_short_names":"","route_types":"3","route_type_names":"Bus","routes_json":"[{\"route_id\":\"Tiger\",\"route_short_name\":\"\",\"route_long_name\":\"Tiger Route\",\"route_type\":\"3\",\"route_type_name\":\"Bus\",\"route_color\":\"CC0033\",\"route_text_color\":\"FFFFFF\"}]","metadata_feed_id":"Kansas__Developmental_Services_of_NW_Kansas_ACCESS_Transportation__mdb_ntd-70060","metadata_agency_names":"Developmental Services of NW Kansas/ACCESS Transportation","metadata_ntd_id":"70060","metadata_ntd_match_method":"manual_override","metadata_ntd_agency":"Developmental Services of Northwest Kansas, Inc., dba: Access Transportation","metadata_ntd_city":"Hays","metadata_ntd_state":"KS","metadata_gtfs_route_count":1,"metadata_gtfs_trip_count":236,"metadata_gtfs_shape_count":3,"metadata_gtfs_stop_count":3,"metadata_ntd_agency_voms":11,"metadata_ntd_total_facilities":1,"metadata_ntd_maintenance_facilities":0,"metadata_ntd_passenger_stations":0,"metadata_tam_tier":"Tier II","metadata_route_types_json":"{\"3\":1}","metadata_ntd_facilities_json":"{\"maintenance_facilities\":0,\"administrative_and_other_non_passenger_facilities\":1,\"passenger_stations_and_terminals\":0,\"parking_and_other_passenger_facilities\":0,\"total_facilities\":1,\"bus_transfer_centers\":0,\"elevated_fixed_guideway_stations\":0,\"at_grade_fixed_guideway_stations\":0,\"underground_fixed_guideway_stations\":0,\"simple_at_grade_platform_stations\":0,\"exclusive_grade_separated_platform_stations\":0,\"ferryboat_terminals\":0,\"surface_parking_lots\":0,\"parking_structures\":0}","metadata_tam_modes_json":"{\"DR\":{\"total_units_2024\":11,\"units_under_threshold_2024\":4,\"voms_2024\":10,\"total_modal_vrm_2024\":91884,\"total_modal_upt_2024\":22888},\"MB\":{\"total_units_2024\":1,\"units_under_threshold_2024\":0,\"voms_2024\":1,\"total_modal_vrm_2024\":9070,\"total_modal_upt_2024\":4495}}"},"geometry":{"type":"Point","coordinates":[-99.342112,38.869107]}},{"type":"Feature","properties":{"stop_id":"WalMart Tiger","stop_code":"","stop_name":"WalMart Tiger Stop","stop_desc":"","zone_id":"","stop_url":"","location_type":"","parent_station":"","stop_timezone":"","wheelchair_boarding":"1","feed_id":"Kansas__Developmental_Services_of_NW_Kansas_ACCESS_Transportation__mdb_ntd-70060","agency_name":"Developmental Services of NW Kansas/ACCESS Transportation","route_count":1,"route_ids":"Tiger","route_short_names":"","route_types":"3","route_type_names":"Bus","routes_json":"[{\"route_id\":\"Tiger\",\"route_short_name\":\"\",\"route_long_name\":\"Tiger Route\",\"route_type\":\"3\",\"route_type_name\":\"Bus\",\"route_color\":\"CC0033\",\"route_text_color\":\"FFFFFF\"}]","metadata_feed_id":"Kansas__Developmental_Services_of_NW_Kansas_ACCESS_Transportation__mdb_ntd-70060","metadata_agency_names":"Developmental Services of NW Kansas/ACCESS Transportation","metadata_ntd_id":"70060","metadata_ntd_match_method":"manual_override","metadata_ntd_agency":"Developmental Services of Northwest Kansas, Inc., dba: Access Transportation","metadata_ntd_city":"Hays","metadata_ntd_state":"KS","metadata_gtfs_route_count":1,"metadata_gtfs_trip_count":236,"metadata_gtfs_shape_count":3,"metadata_gtfs_stop_count":3,"metadata_ntd_agency_voms":11,"metadata_ntd_total_facilities":1,"metadata_ntd_maintenance_facilities":0,"metadata_ntd_passenger_stations":0,"metadata_tam_tier":"Tier II","metadata_route_types_json":"{\"3\":1}","metadata_ntd_facilities_json":"{\"maintenance_facilities\":0,\"administrative_and_other_non_passenger_facilities\":1,\"passenger_stations_and_terminals\":0,\"parking_and_other_passenger_facilities\":0,\"total_facilities\":1,\"bus_transfer_centers\":0,\"elevated_fixed_guideway_stations\":0,\"at_grade_fixed_guideway_stations\":0,\"underground_fixed_guideway_stations\":0,\"simple_at_grade_platform_stations\":0,\"exclusive_grade_separated_platform_stations\":0,\"ferryboat_terminals\":0,\"surface_parking_lots\":0,\"parking_structures\":0}","metadata_tam_modes_json":"{\"DR\":{\"total_units_2024\":11,\"units_under_threshold_2024\":4,\"voms_2024\":10,\"total_modal_vrm_2024\":91884,\"total_modal_upt_2024\":22888},\"MB\":{\"total_units_2024\":1,\"units_under_threshold_2024\":0,\"voms_2024\":1,\"total_modal_vrm_2024\":9070,\"total_modal_upt_2024\":4495}}"},"geometry":{"type":"Point","coordinates":[-99.320559,38.90372]}},{"type":"Feature","properties":{"stop_id":"mall","stop_code":"","stop_name":"Big Creek Mall","stop_desc":"","zone_id":"","stop_url":"","location_type":"","parent_station":"","stop_timezone":"","wheelchair_boarding":"","feed_id":"Kansas__Developmental_Services_of_NW_Kansas_ACCESS_Transportation__mdb_ntd-70060","agency_name":"Developmental Services of NW Kansas/ACCESS Transportation","route_count":1,"route_ids":"Tiger","route_short_names":"","route_types":"3","route_type_names":"Bus","routes_json":"[{\"route_id\":\"Tiger\",\"route_short_name\":\"\",\"route_long_name\":\"Tiger Route\",\"route_type\":\"3\",\"route_type_name\":\"Bus\",\"route_color\":\"CC0033\",\"route_text_color\":\"FFFFFF\"}]","metadata_feed_id":"Kansas__Developmental_Services_of_NW_Kansas_ACCESS_Transportation__mdb_ntd-70060","metadata_agency_names":"Developmental Services of NW Kansas/ACCESS Transportation","metadata_ntd_id":"70060","metadata_ntd_match_method":"manual_override","metadata_ntd_agency":"Developmental Services of Northwest Kansas, Inc., dba: Access Transportation","metadata_ntd_city":"Hays","metadata_ntd_state":"KS","metadata_gtfs_route_count":1,"metadata_gtfs_trip_count":236,"metadata_gtfs_shape_count":3,"metadata_gtfs_stop_count":3,"metadata_ntd_agency_voms":11,"metadata_ntd_total_facilities":1,"metadata_ntd_maintenance_facilities":0,"metadata_ntd_passenger_stations":0,"metadata_tam_tier":"Tier II","metadata_route_types_json":"{\"3\":1}","metadata_ntd_facilities_json":"{\"maintenance_facilities\":0,\"administrative_and_other_non_passenger_facilities\":1,\"passenger_stations_and_terminals\":0,\"parking_and_other_passenger_facilities\":0,\"total_facilities\":1,\"bus_transfer_centers\":0,\"elevated_fixed_guideway_stations\":0,\"at_grade_fixed_guideway_stations\":0,\"underground_fixed_guideway_stations\":0,\"simple_at_grade_platform_stations\":0,\"exclusive_grade_separated_platform_stations\":0,\"ferryboat_terminals\":0,\"surface_parking_lots\":0,\"parking_structures\":0}","metadata_tam_modes_json":"{\"DR\":{\"total_units_2024\":11,\"units_under_threshold_2024\":4,\"voms_2024\":10,\"total_modal_vrm_2024\":91884,\"total_modal_upt_2024\":22888},\"MB\":{\"total_units_2024\":1,\"units_under_threshold_2024\":0,\"voms_2024\":1,\"total_modal_vrm_2024\":9070,\"total_modal_upt_2024\":4495}}"},"geometry":{"type":"Point","coordinates":[-99.31625,38.89086]}}],"metadata":{"feed_id":"Kansas__Developmental_Services_of_NW_Kansas_ACCESS_Transportation__mdb_ntd-70060","ntd_id":"70060","feature_metadata_embedded":true}}