{"type":"FeatureCollection","features":[{"type":"Feature","properties":{"stop_id":"3972","stop_code":"","stop_name":"Ardsley-on-Hudson Train Station","stop_desc":"","stop_url":"","location_type":"","stop_timezone":"","wheelchair_boarding":"0","platform_code":"","parent_station":"","feed_id":"New_York__Mercy_College__mdb_tld-4465","agency_name":"Mercy College","route_count":1,"route_ids":"7277","route_short_names":"","route_types":"3","route_type_names":"Bus","routes_json":"[{\"route_id\":\"7277\",\"route_short_name\":\"\",\"route_long_name\":\"Train\",\"route_type\":\"3\",\"route_type_name\":\"Bus\",\"route_color\":\"1F77B4\",\"route_text_color\":\"FFFFFF\"}]","metadata_feed_id":"New_York__Mercy_College__mdb_tld-4465","metadata_agency_names":"Mercy College","metadata_ntd_id":"88140","metadata_ntd_match_method":"manual_override","metadata_ntd_agency":"Sitting Bull College","metadata_ntd_city":"Fort Yates","metadata_ntd_state":"ND","metadata_gtfs_route_count":7,"metadata_gtfs_trip_count":114,"metadata_gtfs_shape_count":7,"metadata_gtfs_stop_count":7,"metadata_ntd_agency_voms":14,"metadata_ntd_total_facilities":1,"metadata_ntd_maintenance_facilities":1,"metadata_ntd_passenger_stations":0,"metadata_tam_tier":"Tier II","metadata_service_area_sq_miles":3563,"metadata_service_area_population":8645,"metadata_route_types_json":"{\"3\":7}","metadata_ntd_facilities_json":"{\"maintenance_facilities\":1,\"administrative_and_other_non_passenger_facilities\":0,\"passenger_stations_and_terminals\":0,\"parking_and_other_passenger_facilities\":0,\"total_facilities\":1,\"bus_transfer_centers\":0,\"elevated_fixed_guideway_stations\":0,\"at_grade_fixed_guideway_stations\":0,\"underground_fixed_guideway_stations\":0,\"simple_at_grade_platform_stations\":0,\"exclusive_grade_separated_platform_stations\":0,\"ferryboat_terminals\":0,\"surface_parking_lots\":0,\"parking_structures\":0}","metadata_tam_modes_json":"{\"DR\":{\"total_units_2024\":21,\"units_under_threshold_2024\":3,\"voms_2024\":42,\"total_modal_vrm_2024\":603333,\"total_modal_upt_2024\":52434}}"},"geometry":{"type":"Point","coordinates":[-73.876344627,41.027101654]}},{"type":"Feature","properties":{"stop_id":"3973","stop_code":"","stop_name":"Bronx","stop_desc":"","stop_url":"","location_type":"","stop_timezone":"","wheelchair_boarding":"0","platform_code":"","parent_station":"","feed_id":"New_York__Mercy_College__mdb_tld-4465","agency_name":"Mercy College","route_count":3,"route_ids":"7409|8185|7278","route_short_names":"","route_types":"3","route_type_names":"Bus","routes_json":"[{\"route_id\":\"7409\",\"route_short_name\":\"\",\"route_long_name\":\"Bronx to Dobbs Ferry\",\"route_type\":\"3\",\"route_type_name\":\"Bus\",\"route_color\":\"D62728\",\"route_text_color\":\"FFFFFF\"},{\"route_id\":\"8185\",\"route_short_name\":\"\",\"route_long_name\":\"Bronx to Dobbs Ferry\",\"route_type\":\"3\",\"route_type_name\":\"Bus\",\"route_color\":\"D62728\",\"route_text_color\":\"FFFFFF\"},{\"route_id\":\"7278\",\"route_short_name\":\"\",\"route_long_name\":\"Westchester Square\",\"route_type\":\"3\",\"route_type_name\":\"Bus\",\"route_color\":\"7B4173\",\"route_text_color\":\"FFFFFF\"}]","metadata_feed_id":"New_York__Mercy_College__mdb_tld-4465","metadata_agency_names":"Mercy College","metadata_ntd_id":"88140","metadata_ntd_match_method":"manual_override","metadata_ntd_agency":"Sitting Bull College","metadata_ntd_city":"Fort Yates","metadata_ntd_state":"ND","metadata_gtfs_route_count":7,"metadata_gtfs_trip_count":114,"metadata_gtfs_shape_count":7,"metadata_gtfs_stop_count":7,"metadata_ntd_agency_voms":14,"metadata_ntd_total_facilities":1,"metadata_ntd_maintenance_facilities":1,"metadata_ntd_passenger_stations":0,"metadata_tam_tier":"Tier II","metadata_service_area_sq_miles":3563,"metadata_service_area_population":8645,"metadata_route_types_json":"{\"3\":7}","metadata_ntd_facilities_json":"{\"maintenance_facilities\":1,\"administrative_and_other_non_passenger_facilities\":0,\"passenger_stations_and_terminals\":0,\"parking_and_other_passenger_facilities\":0,\"total_facilities\":1,\"bus_transfer_centers\":0,\"elevated_fixed_guideway_stations\":0,\"at_grade_fixed_guideway_stations\":0,\"underground_fixed_guideway_stations\":0,\"simple_at_grade_platform_stations\":0,\"exclusive_grade_separated_platform_stations\":0,\"ferryboat_terminals\":0,\"surface_parking_lots\":0,\"parking_structures\":0}","metadata_tam_modes_json":"{\"DR\":{\"total_units_2024\":21,\"units_under_threshold_2024\":3,\"voms_2024\":42,\"total_modal_vrm_2024\":603333,\"total_modal_upt_2024\":52434}}"},"geometry":{"type":"Point","coordinates":[-73.837229319,40.853836965]}},{"type":"Feature","properties":{"stop_id":"3974","stop_code":"","stop_name":"Dobbs","stop_desc":"","stop_url":"","location_type":"","stop_timezone":"","wheelchair_boarding":"0","platform_code":"","parent_station":"","feed_id":"New_York__Mercy_College__mdb_tld-4465","agency_name":"Mercy College","route_count":6,"route_ids":"7409|8185|7430|6924|7276|7277","route_short_names":"","route_types":"3","route_type_names":"Bus","routes_json":"[{\"route_id\":\"7409\",\"route_short_name\":\"\",\"route_long_name\":\"Bronx to Dobbs Ferry\",\"route_type\":\"3\",\"route_type_name\":\"Bus\",\"route_color\":\"D62728\",\"route_text_color\":\"FFFFFF\"},{\"route_id\":\"8185\",\"route_short_name\":\"\",\"route_long_name\":\"Bronx to Dobbs Ferry\",\"route_type\":\"3\",\"route_type_name\":\"Bus\",\"route_color\":\"D62728\",\"route_text_color\":\"FFFFFF\"},{\"route_id\":\"7430\",\"route_short_name\":\"\",\"route_long_name\":\"Hotel\",\"route_type\":\"3\",\"route_type_name\":\"Bus\",\"route_color\":\"E7CB94\",\"route_text_color\":\"FFFFFF\"},{\"route_id\":\"6924\",\"route_short_name\":\"\",\"route_long_name\":\"Palisades Lot\",\"route_type\":\"3\",\"route_type_name\":\"Bus\",\"route_color\":\"2CA02C\",\"route_text_color\":\"FFFFFF\"},{\"route_id\":\"7276\",\"route_short_name\":\"\",\"route_long_name\":\"Tarrytown\",\"route_type\":\"3\",\"route_type_name\":\"Bus\",\"route_color\":\"FF7F0E\",\"route_text_color\":\"FFFFFF\"},{\"route_id\":\"7277\",\"route_short_name\":\"\",\"route_long_name\":\"Train\",\"route_type\":\"3\",\"route_type_name\":\"Bus\",\"route_color\":\"1F77B4\",\"route_text_color\":\"FFFFFF\"}]","metadata_feed_id":"New_York__Mercy_College__mdb_tld-4465","metadata_agency_names":"Mercy College","metadata_ntd_id":"88140","metadata_ntd_match_method":"manual_override","metadata_ntd_agency":"Sitting Bull College","metadata_ntd_city":"Fort Yates","metadata_ntd_state":"ND","metadata_gtfs_route_count":7,"metadata_gtfs_trip_count":114,"metadata_gtfs_shape_count":7,"metadata_gtfs_stop_count":7,"metadata_ntd_agency_voms":14,"metadata_ntd_total_facilities":1,"metadata_ntd_maintenance_facilities":1,"metadata_ntd_passenger_stations":0,"metadata_tam_tier":"Tier II","metadata_service_area_sq_miles":3563,"metadata_service_area_population":8645,"metadata_route_types_json":"{\"3\":7}","metadata_ntd_facilities_json":"{\"maintenance_facilities\":1,\"administrative_and_other_non_passenger_facilities\":0,\"passenger_stations_and_terminals\":0,\"parking_and_other_passenger_facilities\":0,\"total_facilities\":1,\"bus_transfer_centers\":0,\"elevated_fixed_guideway_stations\":0,\"at_grade_fixed_guideway_stations\":0,\"underground_fixed_guideway_stations\":0,\"simple_at_grade_platform_stations\":0,\"exclusive_grade_separated_platform_stations\":0,\"ferryboat_terminals\":0,\"surface_parking_lots\":0,\"parking_structures\":0}","metadata_tam_modes_json":"{\"DR\":{\"total_units_2024\":21,\"units_under_threshold_2024\":3,\"voms_2024\":42,\"total_modal_vrm_2024\":603333,\"total_modal_upt_2024\":52434}}"},"geometry":{"type":"Point","coordinates":[-73.87396295,41.022368891]}},{"type":"Feature","properties":{"stop_id":"21055","stop_code":"","stop_name":"Palisades Lot","stop_desc":"","stop_url":"","location_type":"","stop_timezone":"","wheelchair_boarding":"0","platform_code":"","parent_station":"","feed_id":"New_York__Mercy_College__mdb_tld-4465","agency_name":"Mercy College","route_count":1,"route_ids":"6924","route_short_names":"","route_types":"3","route_type_names":"Bus","routes_json":"[{\"route_id\":\"6924\",\"route_short_name\":\"\",\"route_long_name\":\"Palisades Lot\",\"route_type\":\"3\",\"route_type_name\":\"Bus\",\"route_color\":\"2CA02C\",\"route_text_color\":\"FFFFFF\"}]","metadata_feed_id":"New_York__Mercy_College__mdb_tld-4465","metadata_agency_names":"Mercy College","metadata_ntd_id":"88140","metadata_ntd_match_method":"manual_override","metadata_ntd_agency":"Sitting Bull College","metadata_ntd_city":"Fort Yates","metadata_ntd_state":"ND","metadata_gtfs_route_count":7,"metadata_gtfs_trip_count":114,"metadata_gtfs_shape_count":7,"metadata_gtfs_stop_count":7,"metadata_ntd_agency_voms":14,"metadata_ntd_total_facilities":1,"metadata_ntd_maintenance_facilities":1,"metadata_ntd_passenger_stations":0,"metadata_tam_tier":"Tier II","metadata_service_area_sq_miles":3563,"metadata_service_area_population":8645,"metadata_route_types_json":"{\"3\":7}","metadata_ntd_facilities_json":"{\"maintenance_facilities\":1,\"administrative_and_other_non_passenger_facilities\":0,\"passenger_stations_and_terminals\":0,\"parking_and_other_passenger_facilities\":0,\"total_facilities\":1,\"bus_transfer_centers\":0,\"elevated_fixed_guideway_stations\":0,\"at_grade_fixed_guideway_stations\":0,\"underground_fixed_guideway_stations\":0,\"simple_at_grade_platform_stations\":0,\"exclusive_grade_separated_platform_stations\":0,\"ferryboat_terminals\":0,\"surface_parking_lots\":0,\"parking_structures\":0}","metadata_tam_modes_json":"{\"DR\":{\"total_units_2024\":21,\"units_under_threshold_2024\":3,\"voms_2024\":42,\"total_modal_vrm_2024\":603333,\"total_modal_upt_2024\":52434}}"},"geometry":{"type":"Point","coordinates":[-73.876379,41.016871]}},{"type":"Feature","properties":{"stop_id":"21056","stop_code":"","stop_name":"Tarrytown Campus","stop_desc":"","stop_url":"","location_type":"","stop_timezone":"","wheelchair_boarding":"0","platform_code":"","parent_station":"","feed_id":"New_York__Mercy_College__mdb_tld-4465","agency_name":"Mercy College","route_count":2,"route_ids":"7430|7276","route_short_names":"","route_types":"3","route_type_names":"Bus","routes_json":"[{\"route_id\":\"7430\",\"route_short_name\":\"\",\"route_long_name\":\"Hotel\",\"route_type\":\"3\",\"route_type_name\":\"Bus\",\"route_color\":\"E7CB94\",\"route_text_color\":\"FFFFFF\"},{\"route_id\":\"7276\",\"route_short_name\":\"\",\"route_long_name\":\"Tarrytown\",\"route_type\":\"3\",\"route_type_name\":\"Bus\",\"route_color\":\"FF7F0E\",\"route_text_color\":\"FFFFFF\"}]","metadata_feed_id":"New_York__Mercy_College__mdb_tld-4465","metadata_agency_names":"Mercy College","metadata_ntd_id":"88140","metadata_ntd_match_method":"manual_override","metadata_ntd_agency":"Sitting Bull College","metadata_ntd_city":"Fort Yates","metadata_ntd_state":"ND","metadata_gtfs_route_count":7,"metadata_gtfs_trip_count":114,"metadata_gtfs_shape_count":7,"metadata_gtfs_stop_count":7,"metadata_ntd_agency_voms":14,"metadata_ntd_total_facilities":1,"metadata_ntd_maintenance_facilities":1,"metadata_ntd_passenger_stations":0,"metadata_tam_tier":"Tier II","metadata_service_area_sq_miles":3563,"metadata_service_area_population":8645,"metadata_route_types_json":"{\"3\":7}","metadata_ntd_facilities_json":"{\"maintenance_facilities\":1,\"administrative_and_other_non_passenger_facilities\":0,\"passenger_stations_and_terminals\":0,\"parking_and_other_passenger_facilities\":0,\"total_facilities\":1,\"bus_transfer_centers\":0,\"elevated_fixed_guideway_stations\":0,\"at_grade_fixed_guideway_stations\":0,\"underground_fixed_guideway_stations\":0,\"simple_at_grade_platform_stations\":0,\"exclusive_grade_separated_platform_stations\":0,\"ferryboat_terminals\":0,\"surface_parking_lots\":0,\"parking_structures\":0}","metadata_tam_modes_json":"{\"DR\":{\"total_units_2024\":21,\"units_under_threshold_2024\":3,\"voms_2024\":42,\"total_modal_vrm_2024\":603333,\"total_modal_upt_2024\":52434}}"},"geometry":{"type":"Point","coordinates":[-73.860068481,41.04942527]}},{"type":"Feature","properties":{"stop_id":"21059","stop_code":"","stop_name":"Westchester Marriott Hotel","stop_desc":"","stop_url":"","location_type":"","stop_timezone":"","wheelchair_boarding":"0","platform_code":"","parent_station":"","feed_id":"New_York__Mercy_College__mdb_tld-4465","agency_name":"Mercy College","route_count":1,"route_ids":"7430","route_short_names":"","route_types":"3","route_type_names":"Bus","routes_json":"[{\"route_id\":\"7430\",\"route_short_name\":\"\",\"route_long_name\":\"Hotel\",\"route_type\":\"3\",\"route_type_name\":\"Bus\",\"route_color\":\"E7CB94\",\"route_text_color\":\"FFFFFF\"}]","metadata_feed_id":"New_York__Mercy_College__mdb_tld-4465","metadata_agency_names":"Mercy College","metadata_ntd_id":"88140","metadata_ntd_match_method":"manual_override","metadata_ntd_agency":"Sitting Bull College","metadata_ntd_city":"Fort Yates","metadata_ntd_state":"ND","metadata_gtfs_route_count":7,"metadata_gtfs_trip_count":114,"metadata_gtfs_shape_count":7,"metadata_gtfs_stop_count":7,"metadata_ntd_agency_voms":14,"metadata_ntd_total_facilities":1,"metadata_ntd_maintenance_facilities":1,"metadata_ntd_passenger_stations":0,"metadata_tam_tier":"Tier II","metadata_service_area_sq_miles":3563,"metadata_service_area_population":8645,"metadata_route_types_json":"{\"3\":7}","metadata_ntd_facilities_json":"{\"maintenance_facilities\":1,\"administrative_and_other_non_passenger_facilities\":0,\"passenger_stations_and_terminals\":0,\"parking_and_other_passenger_facilities\":0,\"total_facilities\":1,\"bus_transfer_centers\":0,\"elevated_fixed_guideway_stations\":0,\"at_grade_fixed_guideway_stations\":0,\"underground_fixed_guideway_stations\":0,\"simple_at_grade_platform_stations\":0,\"exclusive_grade_separated_platform_stations\":0,\"ferryboat_terminals\":0,\"surface_parking_lots\":0,\"parking_structures\":0}","metadata_tam_modes_json":"{\"DR\":{\"total_units_2024\":21,\"units_under_threshold_2024\":3,\"voms_2024\":42,\"total_modal_vrm_2024\":603333,\"total_modal_upt_2024\":52434}}"},"geometry":{"type":"Point","coordinates":[-73.832538816,41.059922204]}},{"type":"Feature","properties":{"stop_id":"21058","stop_code":"","stop_name":"Westchester Square","stop_desc":"","stop_url":"","location_type":"","stop_timezone":"","wheelchair_boarding":"0","platform_code":"","parent_station":"","feed_id":"New_York__Mercy_College__mdb_tld-4465","agency_name":"Mercy College","route_count":1,"route_ids":"7278","route_short_names":"","route_types":"3","route_type_names":"Bus","routes_json":"[{\"route_id\":\"7278\",\"route_short_name\":\"\",\"route_long_name\":\"Westchester Square\",\"route_type\":\"3\",\"route_type_name\":\"Bus\",\"route_color\":\"7B4173\",\"route_text_color\":\"FFFFFF\"}]","metadata_feed_id":"New_York__Mercy_College__mdb_tld-4465","metadata_agency_names":"Mercy College","metadata_ntd_id":"88140","metadata_ntd_match_method":"manual_override","metadata_ntd_agency":"Sitting Bull College","metadata_ntd_city":"Fort Yates","metadata_ntd_state":"ND","metadata_gtfs_route_count":7,"metadata_gtfs_trip_count":114,"metadata_gtfs_shape_count":7,"metadata_gtfs_stop_count":7,"metadata_ntd_agency_voms":14,"metadata_ntd_total_facilities":1,"metadata_ntd_maintenance_facilities":1,"metadata_ntd_passenger_stations":0,"metadata_tam_tier":"Tier II","metadata_service_area_sq_miles":3563,"metadata_service_area_population":8645,"metadata_route_types_json":"{\"3\":7}","metadata_ntd_facilities_json":"{\"maintenance_facilities\":1,\"administrative_and_other_non_passenger_facilities\":0,\"passenger_stations_and_terminals\":0,\"parking_and_other_passenger_facilities\":0,\"total_facilities\":1,\"bus_transfer_centers\":0,\"elevated_fixed_guideway_stations\":0,\"at_grade_fixed_guideway_stations\":0,\"underground_fixed_guideway_stations\":0,\"simple_at_grade_platform_stations\":0,\"exclusive_grade_separated_platform_stations\":0,\"ferryboat_terminals\":0,\"surface_parking_lots\":0,\"parking_structures\":0}","metadata_tam_modes_json":"{\"DR\":{\"total_units_2024\":21,\"units_under_threshold_2024\":3,\"voms_2024\":42,\"total_modal_vrm_2024\":603333,\"total_modal_upt_2024\":52434}}"},"geometry":{"type":"Point","coordinates":[-73.841973,40.840753]}}],"metadata":{"feed_id":"New_York__Mercy_College__mdb_tld-4465","ntd_id":"88140","feature_metadata_embedded":true}}