{"type":"FeatureCollection","features":[{"type":"Feature","properties":{"stop_id":"EI","stop_code":"","stop_name":"Ellis Island","stop_desc":"","zone_id":"","stop_url":"","location_type":"","parent_station":"","stop_timezone":"","wheelchair_boarding":"1","feed_id":"New_Jersey__Statue_of_Liberty_National_Monument__mdb_tld-6909","agency_name":"National Park Service","route_count":5,"route_ids":"NY|EIBP|EILILSP|LSPClr|NJ","route_short_names":"","route_types":"4","route_type_names":"Ferry","routes_json":"[{\"route_id\":\"NY\",\"route_short_name\":\"\",\"route_long_name\":\"Battery Park Full Loop\",\"route_type\":\"4\",\"route_type_name\":\"Ferry\",\"route_color\":\"64748B\",\"route_text_color\":\"FFFFFF\"},{\"route_id\":\"EIBP\",\"route_short_name\":\"\",\"route_long_name\":\"Ellis Island - Battery Park Evening Return ONLY\",\"route_type\":\"4\",\"route_type_name\":\"Ferry\",\"route_color\":\"64748B\",\"route_text_color\":\"FFFFFF\"},{\"route_id\":\"EILILSP\",\"route_short_name\":\"\",\"route_long_name\":\"Ellis Island Liberty State Park Evening Return ONLY\",\"route_type\":\"4\",\"route_type_name\":\"Ferry\",\"route_color\":\"64748B\",\"route_text_color\":\"FFFFFF\"},{\"route_id\":\"LSPClr\",\"route_short_name\":\"\",\"route_long_name\":\"Liberty Island Liberty State Park Evening Return ONLY\",\"route_type\":\"4\",\"route_type_name\":\"Ferry\",\"route_color\":\"64748B\",\"route_text_color\":\"FFFFFF\"},{\"route_id\":\"NJ\",\"route_short_name\":\"\",\"route_long_name\":\"Liberty State Park Loop\",\"route_type\":\"4\",\"route_type_name\":\"Ferry\",\"route_color\":\"64748B\",\"route_text_color\":\"FFFFFF\"}]","metadata_feed_id":"New_Jersey__Statue_of_Liberty_National_Monument__mdb_tld-6909","metadata_agency_names":"National Park Service","metadata_ntd_id":"22981","metadata_ntd_match_method":"manual_override","metadata_ntd_agency":"City of East Orange","metadata_ntd_city":"East Orange","metadata_ntd_state":"NJ","metadata_gtfs_route_count":6,"metadata_gtfs_trip_count":62,"metadata_gtfs_shape_count":6,"metadata_gtfs_stop_count":4,"metadata_ntd_total_facilities":0,"metadata_ntd_maintenance_facilities":0,"metadata_ntd_passenger_stations":0,"metadata_tam_tier":"Tier II","metadata_route_types_json":"{\"4\":6}","metadata_ntd_facilities_json":"{\"maintenance_facilities\":0,\"administrative_and_other_non_passenger_facilities\":0,\"passenger_stations_and_terminals\":0,\"parking_and_other_passenger_facilities\":0,\"total_facilities\":0,\"bus_transfer_centers\":null,\"elevated_fixed_guideway_stations\":null,\"at_grade_fixed_guideway_stations\":null,\"underground_fixed_guideway_stations\":null,\"simple_at_grade_platform_stations\":null,\"exclusive_grade_separated_platform_stations\":null,\"ferryboat_terminals\":null,\"surface_parking_lots\":null,\"parking_structures\":null}","metadata_tam_modes_json":"{\"DR\":{\"total_units_2024\":8,\"units_under_threshold_2024\":2,\"voms_2024\":0,\"total_modal_vrm_2024\":0,\"total_modal_upt_2024\":0}}"},"geometry":{"type":"Point","coordinates":[-74.040506,40.698939]}},{"type":"Feature","properties":{"stop_id":"LI","stop_code":"","stop_name":"Liberty Island","stop_desc":"","zone_id":"","stop_url":"","location_type":"","parent_station":"","stop_timezone":"","wheelchair_boarding":"1","feed_id":"New_Jersey__Statue_of_Liberty_National_Monument__mdb_tld-6909","agency_name":"National Park Service","route_count":5,"route_ids":"NY|EILILSP|LIBP|LSPClr|NJ","route_short_names":"","route_types":"4","route_type_names":"Ferry","routes_json":"[{\"route_id\":\"NY\",\"route_short_name\":\"\",\"route_long_name\":\"Battery Park Full Loop\",\"route_type\":\"4\",\"route_type_name\":\"Ferry\",\"route_color\":\"64748B\",\"route_text_color\":\"FFFFFF\"},{\"route_id\":\"EILILSP\",\"route_short_name\":\"\",\"route_long_name\":\"Ellis Island Liberty State Park Evening Return ONLY\",\"route_type\":\"4\",\"route_type_name\":\"Ferry\",\"route_color\":\"64748B\",\"route_text_color\":\"FFFFFF\"},{\"route_id\":\"LIBP\",\"route_short_name\":\"\",\"route_long_name\":\"Liberty Island - Battery Park Evening Return ONLY\",\"route_type\":\"4\",\"route_type_name\":\"Ferry\",\"route_color\":\"64748B\",\"route_text_color\":\"FFFFFF\"},{\"route_id\":\"LSPClr\",\"route_short_name\":\"\",\"route_long_name\":\"Liberty Island Liberty State Park Evening Return ONLY\",\"route_type\":\"4\",\"route_type_name\":\"Ferry\",\"route_color\":\"64748B\",\"route_text_color\":\"FFFFFF\"},{\"route_id\":\"NJ\",\"route_short_name\":\"\",\"route_long_name\":\"Liberty State Park Loop\",\"route_type\":\"4\",\"route_type_name\":\"Ferry\",\"route_color\":\"64748B\",\"route_text_color\":\"FFFFFF\"}]","metadata_feed_id":"New_Jersey__Statue_of_Liberty_National_Monument__mdb_tld-6909","metadata_agency_names":"National Park Service","metadata_ntd_id":"22981","metadata_ntd_match_method":"manual_override","metadata_ntd_agency":"City of East Orange","metadata_ntd_city":"East Orange","metadata_ntd_state":"NJ","metadata_gtfs_route_count":6,"metadata_gtfs_trip_count":62,"metadata_gtfs_shape_count":6,"metadata_gtfs_stop_count":4,"metadata_ntd_total_facilities":0,"metadata_ntd_maintenance_facilities":0,"metadata_ntd_passenger_stations":0,"metadata_tam_tier":"Tier II","metadata_route_types_json":"{\"4\":6}","metadata_ntd_facilities_json":"{\"maintenance_facilities\":0,\"administrative_and_other_non_passenger_facilities\":0,\"passenger_stations_and_terminals\":0,\"parking_and_other_passenger_facilities\":0,\"total_facilities\":0,\"bus_transfer_centers\":null,\"elevated_fixed_guideway_stations\":null,\"at_grade_fixed_guideway_stations\":null,\"underground_fixed_guideway_stations\":null,\"simple_at_grade_platform_stations\":null,\"exclusive_grade_separated_platform_stations\":null,\"ferryboat_terminals\":null,\"surface_parking_lots\":null,\"parking_structures\":null}","metadata_tam_modes_json":"{\"DR\":{\"total_units_2024\":8,\"units_under_threshold_2024\":2,\"voms_2024\":0,\"total_modal_vrm_2024\":0,\"total_modal_upt_2024\":0}}"},"geometry":{"type":"Point","coordinates":[-74.047706,40.689834]}},{"type":"Feature","properties":{"stop_id":"BP","stop_code":"","stop_name":"Battery Park","stop_desc":"","zone_id":"","stop_url":"","location_type":"","parent_station":"","stop_timezone":"","wheelchair_boarding":"1","feed_id":"New_Jersey__Statue_of_Liberty_National_Monument__mdb_tld-6909","agency_name":"National Park Service","route_count":3,"route_ids":"NY|EIBP|LIBP","route_short_names":"","route_types":"4","route_type_names":"Ferry","routes_json":"[{\"route_id\":\"NY\",\"route_short_name\":\"\",\"route_long_name\":\"Battery Park Full Loop\",\"route_type\":\"4\",\"route_type_name\":\"Ferry\",\"route_color\":\"64748B\",\"route_text_color\":\"FFFFFF\"},{\"route_id\":\"EIBP\",\"route_short_name\":\"\",\"route_long_name\":\"Ellis Island - Battery Park Evening Return ONLY\",\"route_type\":\"4\",\"route_type_name\":\"Ferry\",\"route_color\":\"64748B\",\"route_text_color\":\"FFFFFF\"},{\"route_id\":\"LIBP\",\"route_short_name\":\"\",\"route_long_name\":\"Liberty Island - Battery Park Evening Return ONLY\",\"route_type\":\"4\",\"route_type_name\":\"Ferry\",\"route_color\":\"64748B\",\"route_text_color\":\"FFFFFF\"}]","metadata_feed_id":"New_Jersey__Statue_of_Liberty_National_Monument__mdb_tld-6909","metadata_agency_names":"National Park Service","metadata_ntd_id":"22981","metadata_ntd_match_method":"manual_override","metadata_ntd_agency":"City of East Orange","metadata_ntd_city":"East Orange","metadata_ntd_state":"NJ","metadata_gtfs_route_count":6,"metadata_gtfs_trip_count":62,"metadata_gtfs_shape_count":6,"metadata_gtfs_stop_count":4,"metadata_ntd_total_facilities":0,"metadata_ntd_maintenance_facilities":0,"metadata_ntd_passenger_stations":0,"metadata_tam_tier":"Tier II","metadata_route_types_json":"{\"4\":6}","metadata_ntd_facilities_json":"{\"maintenance_facilities\":0,\"administrative_and_other_non_passenger_facilities\":0,\"passenger_stations_and_terminals\":0,\"parking_and_other_passenger_facilities\":0,\"total_facilities\":0,\"bus_transfer_centers\":null,\"elevated_fixed_guideway_stations\":null,\"at_grade_fixed_guideway_stations\":null,\"underground_fixed_guideway_stations\":null,\"simple_at_grade_platform_stations\":null,\"exclusive_grade_separated_platform_stations\":null,\"ferryboat_terminals\":null,\"surface_parking_lots\":null,\"parking_structures\":null}","metadata_tam_modes_json":"{\"DR\":{\"total_units_2024\":8,\"units_under_threshold_2024\":2,\"voms_2024\":0,\"total_modal_vrm_2024\":0,\"total_modal_upt_2024\":0}}"},"geometry":{"type":"Point","coordinates":[-74.016198,40.701617]}},{"type":"Feature","properties":{"stop_id":"LSP","stop_code":"","stop_name":"Liberty State Park","stop_desc":"","zone_id":"","stop_url":"","location_type":"","parent_station":"","stop_timezone":"","wheelchair_boarding":"1","feed_id":"New_Jersey__Statue_of_Liberty_National_Monument__mdb_tld-6909","agency_name":"National Park Service","route_count":3,"route_ids":"EILILSP|LSPClr|NJ","route_short_names":"","route_types":"4","route_type_names":"Ferry","routes_json":"[{\"route_id\":\"EILILSP\",\"route_short_name\":\"\",\"route_long_name\":\"Ellis Island Liberty State Park Evening Return ONLY\",\"route_type\":\"4\",\"route_type_name\":\"Ferry\",\"route_color\":\"64748B\",\"route_text_color\":\"FFFFFF\"},{\"route_id\":\"LSPClr\",\"route_short_name\":\"\",\"route_long_name\":\"Liberty Island Liberty State Park Evening Return ONLY\",\"route_type\":\"4\",\"route_type_name\":\"Ferry\",\"route_color\":\"64748B\",\"route_text_color\":\"FFFFFF\"},{\"route_id\":\"NJ\",\"route_short_name\":\"\",\"route_long_name\":\"Liberty State Park Loop\",\"route_type\":\"4\",\"route_type_name\":\"Ferry\",\"route_color\":\"64748B\",\"route_text_color\":\"FFFFFF\"}]","metadata_feed_id":"New_Jersey__Statue_of_Liberty_National_Monument__mdb_tld-6909","metadata_agency_names":"National Park Service","metadata_ntd_id":"22981","metadata_ntd_match_method":"manual_override","metadata_ntd_agency":"City of East Orange","metadata_ntd_city":"East Orange","metadata_ntd_state":"NJ","metadata_gtfs_route_count":6,"metadata_gtfs_trip_count":62,"metadata_gtfs_shape_count":6,"metadata_gtfs_stop_count":4,"metadata_ntd_total_facilities":0,"metadata_ntd_maintenance_facilities":0,"metadata_ntd_passenger_stations":0,"metadata_tam_tier":"Tier II","metadata_route_types_json":"{\"4\":6}","metadata_ntd_facilities_json":"{\"maintenance_facilities\":0,\"administrative_and_other_non_passenger_facilities\":0,\"passenger_stations_and_terminals\":0,\"parking_and_other_passenger_facilities\":0,\"total_facilities\":0,\"bus_transfer_centers\":null,\"elevated_fixed_guideway_stations\":null,\"at_grade_fixed_guideway_stations\":null,\"underground_fixed_guideway_stations\":null,\"simple_at_grade_platform_stations\":null,\"exclusive_grade_separated_platform_stations\":null,\"ferryboat_terminals\":null,\"surface_parking_lots\":null,\"parking_structures\":null}","metadata_tam_modes_json":"{\"DR\":{\"total_units_2024\":8,\"units_under_threshold_2024\":2,\"voms_2024\":0,\"total_modal_vrm_2024\":0,\"total_modal_upt_2024\":0}}"},"geometry":{"type":"Point","coordinates":[-74.033775,40.707675]}}],"metadata":{"feed_id":"New_Jersey__Statue_of_Liberty_National_Monument__mdb_tld-6909","ntd_id":"22981","feature_metadata_embedded":true}}