{"type":"FeatureCollection","features":[{"type":"Feature","properties":{"stop_id":"4149571","stop_code":"","platform_code":"","stop_name":"9th Ave & Alder St","stop_desc":"","zone_id":"","stop_url":"","location_type":"0","parent_station":"","stop_timezone":"America/Los_Angeles","position":"","direction":"","wheelchair_boarding":"0","tts_stop_name":"","feed_id":"Washington__Solid_Ground__mdb_tld-5755","agency_name":"Solid Ground","route_count":1,"route_ids":"74514","route_short_names":"","route_types":"3","route_type_names":"Bus","routes_json":"[{\"route_id\":\"74514\",\"route_short_name\":\"\",\"route_long_name\":\"Easy Loop\",\"route_type\":\"3\",\"route_type_name\":\"Bus\",\"route_color\":\"A19400\",\"route_text_color\":\"000000\"}]","metadata_feed_id":"Washington__Solid_Ground__mdb_tld-5755","metadata_agency_names":"Solid Ground","metadata_ntd_id":"88265","metadata_ntd_match_method":"manual_override","metadata_ntd_agency":"Common Ground Outdoor Adventures","metadata_ntd_city":"Logan","metadata_ntd_state":"UT","metadata_gtfs_route_count":1,"metadata_gtfs_trip_count":18,"metadata_gtfs_shape_count":1,"metadata_gtfs_stop_count":8,"metadata_ntd_agency_voms":0,"metadata_ntd_total_facilities":1,"metadata_ntd_maintenance_facilities":0,"metadata_ntd_passenger_stations":0,"metadata_route_types_json":"{\"3\":1}","metadata_ntd_facilities_json":"{\"maintenance_facilities\":0,\"administrative_and_other_non_passenger_facilities\":1,\"passenger_stations_and_terminals\":0,\"parking_and_other_passenger_facilities\":0,\"total_facilities\":1,\"bus_transfer_centers\":0,\"elevated_fixed_guideway_stations\":0,\"at_grade_fixed_guideway_stations\":0,\"underground_fixed_guideway_stations\":0,\"simple_at_grade_platform_stations\":0,\"exclusive_grade_separated_platform_stations\":0,\"ferryboat_terminals\":0,\"surface_parking_lots\":0,\"parking_structures\":0}","metadata_tam_modes_json":"{}"},"geometry":{"type":"Point","coordinates":[-122.323091911199,47.6036850620532]}},{"type":"Feature","properties":{"stop_id":"4149572","stop_code":"","platform_code":"","stop_name":"Yesler Way & 4th Ave","stop_desc":"","zone_id":"","stop_url":"","location_type":"0","parent_station":"","stop_timezone":"America/Los_Angeles","position":"","direction":"","wheelchair_boarding":"0","tts_stop_name":"","feed_id":"Washington__Solid_Ground__mdb_tld-5755","agency_name":"Solid Ground","route_count":1,"route_ids":"74514","route_short_names":"","route_types":"3","route_type_names":"Bus","routes_json":"[{\"route_id\":\"74514\",\"route_short_name\":\"\",\"route_long_name\":\"Easy Loop\",\"route_type\":\"3\",\"route_type_name\":\"Bus\",\"route_color\":\"A19400\",\"route_text_color\":\"000000\"}]","metadata_feed_id":"Washington__Solid_Ground__mdb_tld-5755","metadata_agency_names":"Solid Ground","metadata_ntd_id":"88265","metadata_ntd_match_method":"manual_override","metadata_ntd_agency":"Common Ground Outdoor Adventures","metadata_ntd_city":"Logan","metadata_ntd_state":"UT","metadata_gtfs_route_count":1,"metadata_gtfs_trip_count":18,"metadata_gtfs_shape_count":1,"metadata_gtfs_stop_count":8,"metadata_ntd_agency_voms":0,"metadata_ntd_total_facilities":1,"metadata_ntd_maintenance_facilities":0,"metadata_ntd_passenger_stations":0,"metadata_route_types_json":"{\"3\":1}","metadata_ntd_facilities_json":"{\"maintenance_facilities\":0,\"administrative_and_other_non_passenger_facilities\":1,\"passenger_stations_and_terminals\":0,\"parking_and_other_passenger_facilities\":0,\"total_facilities\":1,\"bus_transfer_centers\":0,\"elevated_fixed_guideway_stations\":0,\"at_grade_fixed_guideway_stations\":0,\"underground_fixed_guideway_stations\":0,\"simple_at_grade_platform_stations\":0,\"exclusive_grade_separated_platform_stations\":0,\"ferryboat_terminals\":0,\"surface_parking_lots\":0,\"parking_structures\":0}","metadata_tam_modes_json":"{}"},"geometry":{"type":"Point","coordinates":[-122.3294654518904,47.601750650739376]}},{"type":"Feature","properties":{"stop_id":"4149573","stop_code":"","platform_code":"","stop_name":"1st Ave S & Yesler Way (Snow Stop)","stop_desc":"","zone_id":"","stop_url":"","location_type":"0","parent_station":"","stop_timezone":"America/Los_Angeles","position":"","direction":"","wheelchair_boarding":"0","tts_stop_name":"","feed_id":"Washington__Solid_Ground__mdb_tld-5755","agency_name":"Solid Ground","route_count":0,"route_ids":"","route_short_names":"","route_types":"","route_type_names":"","routes_json":"[]","metadata_feed_id":"Washington__Solid_Ground__mdb_tld-5755","metadata_agency_names":"Solid Ground","metadata_ntd_id":"88265","metadata_ntd_match_method":"manual_override","metadata_ntd_agency":"Common Ground Outdoor Adventures","metadata_ntd_city":"Logan","metadata_ntd_state":"UT","metadata_gtfs_route_count":1,"metadata_gtfs_trip_count":18,"metadata_gtfs_shape_count":1,"metadata_gtfs_stop_count":8,"metadata_ntd_agency_voms":0,"metadata_ntd_total_facilities":1,"metadata_ntd_maintenance_facilities":0,"metadata_ntd_passenger_stations":0,"metadata_route_types_json":"{\"3\":1}","metadata_ntd_facilities_json":"{\"maintenance_facilities\":0,\"administrative_and_other_non_passenger_facilities\":1,\"passenger_stations_and_terminals\":0,\"parking_and_other_passenger_facilities\":0,\"total_facilities\":1,\"bus_transfer_centers\":0,\"elevated_fixed_guideway_stations\":0,\"at_grade_fixed_guideway_stations\":0,\"underground_fixed_guideway_stations\":0,\"simple_at_grade_platform_stations\":0,\"exclusive_grade_separated_platform_stations\":0,\"ferryboat_terminals\":0,\"surface_parking_lots\":0,\"parking_structures\":0}","metadata_tam_modes_json":"{}"},"geometry":{"type":"Point","coordinates":[-122.334082145032,47.6016076806847]}},{"type":"Feature","properties":{"stop_id":"4149574","stop_code":"","platform_code":"","stop_name":"1st Ave & Marion St","stop_desc":"","zone_id":"","stop_url":"","location_type":"0","parent_station":"","stop_timezone":"America/Los_Angeles","position":"","direction":"","wheelchair_boarding":"0","tts_stop_name":"","feed_id":"Washington__Solid_Ground__mdb_tld-5755","agency_name":"Solid Ground","route_count":1,"route_ids":"74514","route_short_names":"","route_types":"3","route_type_names":"Bus","routes_json":"[{\"route_id\":\"74514\",\"route_short_name\":\"\",\"route_long_name\":\"Easy Loop\",\"route_type\":\"3\",\"route_type_name\":\"Bus\",\"route_color\":\"A19400\",\"route_text_color\":\"000000\"}]","metadata_feed_id":"Washington__Solid_Ground__mdb_tld-5755","metadata_agency_names":"Solid Ground","metadata_ntd_id":"88265","metadata_ntd_match_method":"manual_override","metadata_ntd_agency":"Common Ground Outdoor Adventures","metadata_ntd_city":"Logan","metadata_ntd_state":"UT","metadata_gtfs_route_count":1,"metadata_gtfs_trip_count":18,"metadata_gtfs_shape_count":1,"metadata_gtfs_stop_count":8,"metadata_ntd_agency_voms":0,"metadata_ntd_total_facilities":1,"metadata_ntd_maintenance_facilities":0,"metadata_ntd_passenger_stations":0,"metadata_route_types_json":"{\"3\":1}","metadata_ntd_facilities_json":"{\"maintenance_facilities\":0,\"administrative_and_other_non_passenger_facilities\":1,\"passenger_stations_and_terminals\":0,\"parking_and_other_passenger_facilities\":0,\"total_facilities\":1,\"bus_transfer_centers\":0,\"elevated_fixed_guideway_stations\":0,\"at_grade_fixed_guideway_stations\":0,\"underground_fixed_guideway_stations\":0,\"simple_at_grade_platform_stations\":0,\"exclusive_grade_separated_platform_stations\":0,\"ferryboat_terminals\":0,\"surface_parking_lots\":0,\"parking_structures\":0}","metadata_tam_modes_json":"{}"},"geometry":{"type":"Point","coordinates":[-122.33567510810543,47.60416524506712]}},{"type":"Feature","properties":{"stop_id":"4149575","stop_code":"","platform_code":"","stop_name":"1st Ave & Pine St","stop_desc":"","zone_id":"","stop_url":"","location_type":"0","parent_station":"","stop_timezone":"America/Los_Angeles","position":"","direction":"","wheelchair_boarding":"0","tts_stop_name":"","feed_id":"Washington__Solid_Ground__mdb_tld-5755","agency_name":"Solid Ground","route_count":1,"route_ids":"74514","route_short_names":"","route_types":"3","route_type_names":"Bus","routes_json":"[{\"route_id\":\"74514\",\"route_short_name\":\"\",\"route_long_name\":\"Easy Loop\",\"route_type\":\"3\",\"route_type_name\":\"Bus\",\"route_color\":\"A19400\",\"route_text_color\":\"000000\"}]","metadata_feed_id":"Washington__Solid_Ground__mdb_tld-5755","metadata_agency_names":"Solid Ground","metadata_ntd_id":"88265","metadata_ntd_match_method":"manual_override","metadata_ntd_agency":"Common Ground Outdoor Adventures","metadata_ntd_city":"Logan","metadata_ntd_state":"UT","metadata_gtfs_route_count":1,"metadata_gtfs_trip_count":18,"metadata_gtfs_shape_count":1,"metadata_gtfs_stop_count":8,"metadata_ntd_agency_voms":0,"metadata_ntd_total_facilities":1,"metadata_ntd_maintenance_facilities":0,"metadata_ntd_passenger_stations":0,"metadata_route_types_json":"{\"3\":1}","metadata_ntd_facilities_json":"{\"maintenance_facilities\":0,\"administrative_and_other_non_passenger_facilities\":1,\"passenger_stations_and_terminals\":0,\"parking_and_other_passenger_facilities\":0,\"total_facilities\":1,\"bus_transfer_centers\":0,\"elevated_fixed_guideway_stations\":0,\"at_grade_fixed_guideway_stations\":0,\"underground_fixed_guideway_stations\":0,\"simple_at_grade_platform_stations\":0,\"exclusive_grade_separated_platform_stations\":0,\"ferryboat_terminals\":0,\"surface_parking_lots\":0,\"parking_structures\":0}","metadata_tam_modes_json":"{}"},"geometry":{"type":"Point","coordinates":[-122.34073880941654,47.60974249998364]}},{"type":"Feature","properties":{"stop_id":"4149576","stop_code":"","platform_code":"","stop_name":"1st Ave & Bell St","stop_desc":"","zone_id":"","stop_url":"","location_type":"0","parent_station":"","stop_timezone":"America/Los_Angeles","position":"","direction":"","wheelchair_boarding":"0","tts_stop_name":"","feed_id":"Washington__Solid_Ground__mdb_tld-5755","agency_name":"Solid Ground","route_count":1,"route_ids":"74514","route_short_names":"","route_types":"3","route_type_names":"Bus","routes_json":"[{\"route_id\":\"74514\",\"route_short_name\":\"\",\"route_long_name\":\"Easy Loop\",\"route_type\":\"3\",\"route_type_name\":\"Bus\",\"route_color\":\"A19400\",\"route_text_color\":\"000000\"}]","metadata_feed_id":"Washington__Solid_Ground__mdb_tld-5755","metadata_agency_names":"Solid Ground","metadata_ntd_id":"88265","metadata_ntd_match_method":"manual_override","metadata_ntd_agency":"Common Ground Outdoor Adventures","metadata_ntd_city":"Logan","metadata_ntd_state":"UT","metadata_gtfs_route_count":1,"metadata_gtfs_trip_count":18,"metadata_gtfs_shape_count":1,"metadata_gtfs_stop_count":8,"metadata_ntd_agency_voms":0,"metadata_ntd_total_facilities":1,"metadata_ntd_maintenance_facilities":0,"metadata_ntd_passenger_stations":0,"metadata_route_types_json":"{\"3\":1}","metadata_ntd_facilities_json":"{\"maintenance_facilities\":0,\"administrative_and_other_non_passenger_facilities\":1,\"passenger_stations_and_terminals\":0,\"parking_and_other_passenger_facilities\":0,\"total_facilities\":1,\"bus_transfer_centers\":0,\"elevated_fixed_guideway_stations\":0,\"at_grade_fixed_guideway_stations\":0,\"underground_fixed_guideway_stations\":0,\"simple_at_grade_platform_stations\":0,\"exclusive_grade_separated_platform_stations\":0,\"ferryboat_terminals\":0,\"surface_parking_lots\":0,\"parking_structures\":0}","metadata_tam_modes_json":"{}"},"geometry":{"type":"Point","coordinates":[-122.34691118524331,47.61371055184429]}},{"type":"Feature","properties":{"stop_id":"4149577","stop_code":"","platform_code":"","stop_name":"Virginia St & 9th Ave","stop_desc":"","zone_id":"","stop_url":"","location_type":"0","parent_station":"","stop_timezone":"America/Los_Angeles","position":"","direction":"","wheelchair_boarding":"0","tts_stop_name":"","feed_id":"Washington__Solid_Ground__mdb_tld-5755","agency_name":"Solid Ground","route_count":1,"route_ids":"74514","route_short_names":"","route_types":"3","route_type_names":"Bus","routes_json":"[{\"route_id\":\"74514\",\"route_short_name\":\"\",\"route_long_name\":\"Easy Loop\",\"route_type\":\"3\",\"route_type_name\":\"Bus\",\"route_color\":\"A19400\",\"route_text_color\":\"000000\"}]","metadata_feed_id":"Washington__Solid_Ground__mdb_tld-5755","metadata_agency_names":"Solid Ground","metadata_ntd_id":"88265","metadata_ntd_match_method":"manual_override","metadata_ntd_agency":"Common Ground Outdoor Adventures","metadata_ntd_city":"Logan","metadata_ntd_state":"UT","metadata_gtfs_route_count":1,"metadata_gtfs_trip_count":18,"metadata_gtfs_shape_count":1,"metadata_gtfs_stop_count":8,"metadata_ntd_agency_voms":0,"metadata_ntd_total_facilities":1,"metadata_ntd_maintenance_facilities":0,"metadata_ntd_passenger_stations":0,"metadata_route_types_json":"{\"3\":1}","metadata_ntd_facilities_json":"{\"maintenance_facilities\":0,\"administrative_and_other_non_passenger_facilities\":1,\"passenger_stations_and_terminals\":0,\"parking_and_other_passenger_facilities\":0,\"total_facilities\":1,\"bus_transfer_centers\":0,\"elevated_fixed_guideway_stations\":0,\"at_grade_fixed_guideway_stations\":0,\"underground_fixed_guideway_stations\":0,\"simple_at_grade_platform_stations\":0,\"exclusive_grade_separated_platform_stations\":0,\"ferryboat_terminals\":0,\"surface_parking_lots\":0,\"parking_structures\":0}","metadata_tam_modes_json":"{}"},"geometry":{"type":"Point","coordinates":[-122.33545094952116,47.61652855655973]}},{"type":"Feature","properties":{"stop_id":"4149578","stop_code":"","platform_code":"","stop_name":"Boren Ave & Seneca St","stop_desc":"","zone_id":"","stop_url":"","location_type":"0","parent_station":"","stop_timezone":"America/Los_Angeles","position":"","direction":"","wheelchair_boarding":"0","tts_stop_name":"","feed_id":"Washington__Solid_Ground__mdb_tld-5755","agency_name":"Solid Ground","route_count":1,"route_ids":"74514","route_short_names":"","route_types":"3","route_type_names":"Bus","routes_json":"[{\"route_id\":\"74514\",\"route_short_name\":\"\",\"route_long_name\":\"Easy Loop\",\"route_type\":\"3\",\"route_type_name\":\"Bus\",\"route_color\":\"A19400\",\"route_text_color\":\"000000\"}]","metadata_feed_id":"Washington__Solid_Ground__mdb_tld-5755","metadata_agency_names":"Solid Ground","metadata_ntd_id":"88265","metadata_ntd_match_method":"manual_override","metadata_ntd_agency":"Common Ground Outdoor Adventures","metadata_ntd_city":"Logan","metadata_ntd_state":"UT","metadata_gtfs_route_count":1,"metadata_gtfs_trip_count":18,"metadata_gtfs_shape_count":1,"metadata_gtfs_stop_count":8,"metadata_ntd_agency_voms":0,"metadata_ntd_total_facilities":1,"metadata_ntd_maintenance_facilities":0,"metadata_ntd_passenger_stations":0,"metadata_route_types_json":"{\"3\":1}","metadata_ntd_facilities_json":"{\"maintenance_facilities\":0,\"administrative_and_other_non_passenger_facilities\":1,\"passenger_stations_and_terminals\":0,\"parking_and_other_passenger_facilities\":0,\"total_facilities\":1,\"bus_transfer_centers\":0,\"elevated_fixed_guideway_stations\":0,\"at_grade_fixed_guideway_stations\":0,\"underground_fixed_guideway_stations\":0,\"simple_at_grade_platform_stations\":0,\"exclusive_grade_separated_platform_stations\":0,\"ferryboat_terminals\":0,\"surface_parking_lots\":0,\"parking_structures\":0}","metadata_tam_modes_json":"{}"},"geometry":{"type":"Point","coordinates":[-122.32613771295696,47.61035233592355]}}],"metadata":{"feed_id":"Washington__Solid_Ground__mdb_tld-5755","ntd_id":"88265","feature_metadata_embedded":true}}