{"type":"FeatureCollection","features":[{"type":"Feature","properties":{"agency":"Avon Transit","shape_id":"1"},"geometry":{"type":"LineString","coordinates":[[-106.5377701,39.63592415300008],[-106.5376876,39.63599250800007],[-106.5376405,39.63603147700008],[-106.5375122,39.636071300000026],[-106.536612,39.63637600000004],[-106.536465,39.63643400000007],[-106.5362937,39.63651850000008],[-106.535851,39.63674800000007],[-106.5355661,39.63691980000005],[-106.535327,39.63706400000007],[-106.535191,39.637248000000056],[-106.5351141,39.637396600000045],[-106.535071,39.63749300000006],[-106.5348972,39.63802588100003],[-106.534796,39.63833600000004],[-106.5344807,39.63913559800005],[-106.534473,39.63915500000007],[-106.5344564,39.63916895700004],[-106.5338291,39.639695491000055],[-106.5337423,39.63973764700006],[-106.5336361,39.63978527900008],[-106.533589,39.63980640400007],[-106.5334185,39.639839015000064],[-106.5328858,39.63987481100003],[-106.532763,39.63987930900004],[-106.5325015,39.63988888500006],[-106.5323792,39.63989053100005],[-106.5321468,39.639882906000025],[-106.5316718,39.63986732800004],[-106.5312155,39.63985059200007],[-106.5306784,39.63981123000008],[-106.5305929,39.63980410000005],[-106.5304391,39.63979629500005],[-106.5299249,39.63974492800003],[-106.5295868,39.63970194900003],[-106.5286071,39.63954152900004],[-106.5276804,39.63934489000008],[-106.5275729,39.63931941200008],[-106.5269737,39.639177362000055],[-106.5266841,39.63909174400004],[-106.5264951,39.63901043100003],[-106.5263732,39.638943641000026],[-106.5262856,39.63889559300003],[-106.5262463,39.63886914400007],[-106.5260993,39.63877018100004],[-106.5259331,39.63862633300005],[-106.5258887,39.63858794300006],[-106.5258712,39.63856670000007],[-106.5257566,39.638456200000064],[-106.5252321,39.63772530000006],[-106.5250362,39.63741090000008],[-106.5249702,39.637293330000034],[-106.5248265,39.63703725900007],[-106.5245588,39.636611327000026],[-106.5245261,39.63656021100008],[-106.5243451,39.63632698500004],[-106.5240365,39.63592943000003],[-106.5237159,39.63574216200004],[-106.5233661,39.63558464000005],[-106.5227447,39.635403266000026],[-106.5226039,39.63533895300003],[-106.5225099,39.635284065000064],[-106.5224318,39.63516349700007],[-106.5223654,39.63497073600007],[-106.5222891,39.63467975300006],[-106.5222909,39.63450606200007],[-106.5223532,39.63442031900007],[-106.5224205,39.63438696400004],[-106.5225092,39.63436653000008],[-106.5226322,39.634372014000064],[-106.5227341,39.63438751100006],[-106.5228575,39.63442248300004],[-106.5230872,39.63447946800005],[-106.5232103,39.63449150400004],[-106.5233204,39.634483991000025],[-106.5233658,39.63447388900005],[-106.5239745,39.63429478400008],[-106.5242024,39.634227259000056],[-106.5245475,39.63435205000008],[-106.5246665,39.63437395100004],[-106.5247633,39.634330506000026],[-106.5248002,39.63424170800005],[-106.5247619,39.63417257100008],[-106.5246283,39.634123403000046],[-106.5246023,39.634120954000025],[-106.524506,39.63411188500004],[-106.5242103,39.63419730500004],[-106.5241522,39.63421408700003],[-106.5239145,39.63428272400006],[-106.5236715,39.63435614700006],[-106.5234012,39.63442351600003],[-106.5232197,39.63445223000008],[-106.5230286,39.63442206000008],[-106.5228157,39.63436190200008],[-106.5226046,39.63428996500005],[-106.52249,39.63424689300007],[-106.5223969,39.63418462200008],[-106.5223472,39.63413355300003],[-106.522271,39.63410308100004],[-106.5221599,39.63410780000004],[-106.5220607,39.63413441400007],[-106.5219685,39.634138817000064],[-106.5218943,39.63412867700004],[-106.5218515,39.63410090000008],[-106.5217657,39.63384503000003],[-106.5217163,39.633737696000026],[-106.5216802,39.63365926600005],[-106.5216571,39.63363167800003],[-106.5216129,39.63359943900008],[-106.5215687,39.63356720100006],[-106.5214931,39.63352436100007],[-106.5213893,39.63347934900003],[-106.5209607,39.63334533400007],[-106.5208323,39.633325909000064],[-106.5207713,39.63332160500005],[-106.5206979,39.63332224300007],[-106.5206214,39.63333136500006],[-106.5205467,39.63335376300006],[-106.5204799,39.63337609200005],[-106.5199782,39.63364474600007],[-106.5198193,39.63372980600008],[-106.5197743,39.63375073700007],[-106.5197323,39.63376560000006],[-106.5196546,39.63379285700006],[-106.5195597,39.63381905400007],[-106.5194849,39.63383480600004],[-106.5194101,39.63385055800006],[-106.5193228,39.63386460700008],[-106.5192885,39.633867321000025],[-106.5192525,39.63386280000003],[-106.519232,39.63385331200004],[-106.5192052,39.63383421300006],[-106.5191672,39.63380312700008],[-106.5188271,39.63347520700006],[-106.5183758,39.63302664600008],[-106.518345,39.633005713000045],[-106.5182438,39.632936836000056],[-106.5174427,39.63267596500003],[-106.5169114,39.632539079000026],[-106.5160099,39.63252319500003],[-106.5158179,39.63251918200007],[-106.5157924,39.63251832500004],[-106.5157679,39.63250891300004],[-106.5157524,39.63249607900008],[-106.5157413,39.63248409800008],[-106.5157335,39.63246784000006],[-106.5157324,39.63244388100003],[-106.515733,39.63232759800008],[-106.51574,39.63224947900005],[-106.5157313,39.63218262800007],[-106.5157122,39.632109092000064],[-106.5156864,39.63204846600007],[-106.5156775,39.63202753500008],[-106.5156393,39.63194998700004],[-106.5155525,39.63184035100005],[-106.5155039,39.63178018400004],[-106.5154327,39.63170664800003],[-106.5151071,39.631435416000045],[-106.5147042,39.63108224900003],[-106.5144762,39.63090395500007],[-106.5143599,39.63083166600006],[-106.5142746,39.63078089800007],[-106.5141561,39.63073239900007],[-106.5140272,39.630678045000025],[-106.513834,39.63060641900006],[-106.513592,39.63051936700003],[-106.5134754,39.63048083600006],[-106.513132,39.63037127300004],[-106.5129147,39.630287947000056],[-106.5128248,39.63022646000008],[-106.5125414,39.629970025000034],[-106.5123702,39.62985025500007],[-106.5120421,39.62972855800007],[-106.5103338,39.62910753900008],[-106.5098739,39.62894764700008],[-106.5095591,39.62886515300005],[-106.5089719,39.62867629000005],[-106.5089518,39.62866929900008],[-106.5089317,39.62866230800006],[-106.5087091,39.62857528800004],[-106.5081214,39.628298296000025],[-106.5080183,39.62825560100004],[-106.5076242,39.62810447000004],[-106.5069081,39.62782932100004],[-106.5066329,39.62775046300004],[-106.5065431,39.62774528800003],[-106.5063894,39.62774462400006],[-106.506172,39.62776629600006],[-106.505952,39.62778600800005],[-106.5058445,39.62779089100008],[-106.5057624,39.62778169000006],[-106.5056981,39.62776837300004],[-106.5055901,39.62773958400004],[-106.5053533,39.62766039300004],[-106.5050341,39.62754823200004],[-106.5047333,39.62747354900006],[-106.5046152,39.62745871200008],[-106.5044965,39.62745334400006],[-106.5040605,39.62744151600003],[-106.5037654,39.62744403700003],[-106.5034905,39.62744120100007],[-106.5034342,39.62743563600003],[-106.5033779,39.62743007100005],[-106.5033662,39.62741822500004],[-106.5033518,39.62740621200004],[-106.5033401,39.62739806100007],[-106.5033146,39.62738392900008],[-106.5032942,39.62737547000006],[-106.5032731,39.62736889900003],[-106.5032648,39.62736490100008],[-106.5032112,39.62735504200003],[-106.5031494,39.62735450800005],[-106.5031028,39.62736340200007],[-106.5030618,39.62737861800008],[-106.5030319,39.62740223600008],[-106.5030171,39.62741935400004],[-106.5030011,39.62745559700005],[-106.5029916,39.62751421800005],[-106.5030008,39.62755894000003],[-106.5030295,39.62761677000003],[-106.5030604,39.62767624000003],[-106.5030806,39.62773912100005],[-106.5030836,39.62780048900004],[-106.5030841,39.62786208500006],[-106.5030782,39.62792176600004],[-106.5030298,39.62804921900005],[-106.5029517,39.62821840700008],[-106.5028697,39.628343554000026],[-106.5027706,39.62845069700006],[-106.502655,39.628570946000025],[-106.5025655,39.62864171100006],[-106.5024559,39.62871524000008],[-106.5023395,39.62878364100004],[-106.5022129,39.62884175900007],[-106.5020829,39.62889472100005],[-106.5020128,39.62891087600008],[-106.5019424,39.62891147600004],[-106.5018951,39.62889113700004],[-106.5018544,39.628855188000045],[-106.5016963,39.62858431000007],[-106.5015928,39.62838037400007],[-106.5015546,39.62828995700005],[-106.5015321,39.62812162800003],[-106.5015636,39.62798135700007],[-106.5016312,39.627781147000064],[-106.501804,39.627437446000044],[-106.501904,39.62722344200006],[-106.5019341,39.62715892400007],[-106.5020255,39.626981845000046],[-106.5020783,39.626924357000064],[-106.5021546,39.62686666800005],[-106.5022413,39.62683481600004],[-106.5023049,39.62682649600004],[-106.5023553,39.626831252000045],[-106.5023926,39.62686204600004],[-106.5024236,39.626918819000025],[-106.5024495,39.62708971200004],[-106.5024684,39.62724510800007],[-106.5024967,39.62734338800004],[-106.5025414,39.62742337800006],[-106.5025458,39.62742778100005],[-106.5025958,39.62747735800008],[-106.502677,39.62753111100005],[-106.5028084,39.62757406400005],[-106.5029549,39.62760036900005],[-106.5030295,39.62761677000003],[-106.5030836,39.62764617500005],[-106.5031318,39.62766262200006],[-106.5031896,39.62767274800007],[-106.5032349,39.62767129900004],[-106.5032843,39.62766663000008],[-106.5032899,39.627664657000025],[-106.5033184,39.62765465700005],[-106.5033416,39.62764277700006],[-106.5033579,39.62762989500004],[-106.5033735,39.62761958200008],[-106.5034261,39.62759639200005],[-106.5034953,39.62757522900006],[-106.5039379,39.62754356900007],[-106.5044121,39.62751657700005],[-106.5046284,39.62752455900005],[-106.5049172,39.62757451900006],[-106.5054707,39.62775656800005],[-106.5057685,39.62783266600008],[-106.5059128,39.62784781500005],[-106.5062641,39.62782186700008],[-106.5064926,39.62779697100007],[-106.5067049,39.62782464500003],[-106.5070496,39.62792655200008],[-106.5078133,39.62822858200008],[-106.5081364,39.62835633900005],[-106.5087166,39.62862989700005],[-106.5091045,39.62878713500004],[-106.5096745,39.628932977000034],[-106.5101726,39.629092541000034],[-106.5110715,39.62941905500003],[-106.512013,39.62976485600007],[-106.5122602,39.62986431100006],[-106.5124825,39.62999674900004],[-106.5127101,39.630204510000056],[-106.5127958,39.63027258700004],[-106.512877,39.63032104100006],[-106.5130475,39.63038838700004],[-106.5130968,39.63040493100005],[-106.5132567,39.63045866500005],[-106.5139035,39.63067592500005],[-106.5142189,39.630801003000045],[-106.5143729,39.63090453500007],[-106.51475,39.63119292500005],[-106.5154495,39.63179638900005],[-106.5155404,39.63192668100004],[-106.5156533,39.63211248900007],[-106.5156611,39.632361468000056],[-106.5156662,39.63258059000003],[-106.5156728,39.63286651300007],[-106.5156699,39.63290196100007],[-106.5156611,39.63313784000008],[-106.5156642,39.63325506800004],[-106.515667,39.63335927700007],[-106.5156968,39.63346164100005],[-106.5157402,39.63355773700005],[-106.5157588,39.63358315300008],[-106.5157823,39.63361518700003],[-106.5158243,39.63367263500004],[-106.5159247,39.63376664200007],[-106.5160467,39.63385229300008],[-106.516356,39.63401523800008],[-106.5170016,39.634336948000055],[-106.5171359,39.63441174100007],[-106.5176282,39.63468581500007],[-106.5178473,39.63480165400006],[-106.517858,39.634806199000025],[-106.5181888,39.63494083300003],[-106.5183958,39.63502318100007],[-106.5184824,39.63505762800003],[-106.5185913,39.63509217400008],[-106.5186841,39.63512291600006],[-106.5187552,39.63513724400008],[-106.518834,39.63515048800008],[-106.5188585,39.63515461200007],[-106.5190219,39.63516813800004],[-106.5191658,39.63516689000005],[-106.5192772,39.63515098100004],[-106.5194462,39.635106344000064],[-106.51982,39.634968609000055],[-106.5199909,39.63490569200008],[-106.5201944,39.63487237800007],[-106.5203209,39.63486131700006],[-106.5204304,39.634860366000055],[-106.520613,39.63486044000007],[-106.5207083,39.634875874000045],[-106.5208174,39.63489353200004],[-106.5210892,39.634977510000056],[-106.5211945,39.63501273800006],[-106.5213698,39.63507137300007],[-106.5217993,39.63521270100006],[-106.5218698,39.63523888500004],[-106.5219139,39.63525815300005],[-106.522058,39.635336722000034],[-106.52206,39.63533851400007],[-106.5221139,39.63538692600008],[-106.5221439,39.635416392000025],[-106.5221858,39.63544575700007],[-106.5222086,39.63545699100007],[-106.5222364,39.63546970800007],[-106.5222592,39.63547560800004],[-106.5222858,39.63547918800003],[-106.5223125,39.63548200500003],[-106.5223529,39.63547936600003],[-106.522415,39.63547882600005],[-106.5225075,39.63546811200007],[-106.5225627,39.63546763100004],[-106.5226396,39.63547077300007],[-106.5227059,39.63548467900006],[-106.5229441,39.63552529100008],[-106.5231238,39.63556741300005],[-106.5235421,39.63571418400005],[-106.5238427,39.635866760000056],[-106.5239991,39.635989134000056],[-106.5241918,39.63618459400004],[-106.5244029,39.63652460200007],[-106.5246336,39.63686631500008],[-106.524743,39.637039542000025],[-106.5248524,39.63721276900003],[-106.5248967,39.63727529900007],[-106.524916,39.63729820000003],[-106.5249432,39.63730215800007],[-106.5249702,39.637293330000034],[-106.5249953,39.63728515100007],[-106.5253877,39.63709484800006],[-106.5254186,39.63707934500008],[-106.5255103,39.63703344500004],[-106.5259074,39.63683444900005],[-106.5261307,39.63673965600003],[-106.5269144,39.636402847000056],[-106.526969,39.63637937300007],[-106.5269711,39.63637857400005],[-106.5270183,39.63636040000006],[-106.5270233,39.63635577800005],[-106.5270386,39.63634910800005],[-106.5271258,39.63631142400004],[-106.5272007,39.63626908300006],[-106.5272432,39.63622821700005],[-106.5273066,39.63613595400005],[-106.5274387,39.63590374000006],[-106.5275932,39.63564936800003],[-106.5278012,39.63529285000004],[-106.5278386,39.63523207800006],[-106.5278583,39.63520570300005],[-106.5278597,39.63519378200005],[-106.5278594,39.63517949100003],[-106.5278485,39.63516886700006],[-106.5278283,39.63515356100004],[-106.5277895,39.63513603500007],[-106.5272731,39.63497611700007],[-106.5269064,39.63485740400006],[-106.5263218,39.634658269000056],[-106.5259104,39.63451764200005],[-106.5256559,39.634433572000034],[-106.5248672,39.63417301300007],[-106.5247929,39.63414745800003],[-106.5246504,39.634098135000045],[-106.5246011,39.63409117900005],[-106.5245517,39.63408422300006],[-106.5244622,39.63408290600006],[-106.524257,39.634145516000046],[-106.5237657,39.63430499300006],[-106.5234063,39.63439830500005],[-106.5233008,39.63442229300006],[-106.5231544,39.63442356900004],[-106.5229721,39.63438740500004],[-106.5226995,39.63429330600008],[-106.522539,39.63423648400004],[-106.5224839,39.63421352200004],[-106.5224709,39.634208890000025],[-106.5224252,39.63417036300007],[-106.5223971,39.63414510600006],[-106.5223826,39.63410496500006],[-106.5223548,39.63398172200005],[-106.5223494,39.63391885200008],[-106.5223528,39.63371293500006],[-106.5223578,39.63346217400005],[-106.5223551,39.63327623500004],[-106.5223495,39.63304050900007],[-106.5223595,39.632882196000025],[-106.5223901,39.63258189200008],[-106.5223927,39.63255840800008],[-106.5224186,39.63233092600007],[-106.5224559,39.63209150600005],[-106.5224676,39.63200838600005],[-106.5225233,39.63170239100003],[-106.5225754,39.63145121900004],[-106.5225955,39.63135308200003],[-106.5226099,39.63131144700003],[-106.5226225,39.631288092000034],[-106.5226458,39.63126796500006],[-106.5226735,39.63125278000007],[-106.5227055,39.63123755800007],[-106.5227547,39.63122716700008],[-106.5227998,39.63122511500006],[-106.5228792,39.63122442300005],[-106.5231049,39.63124072200003],[-106.5232835,39.63126407300007],[-106.5239057,39.63137819900004],[-106.5240206,39.63140397600006],[-106.5240914,39.63141985500005],[-106.5242588,39.631457400000045],[-106.5245269,39.63150829400007],[-106.5245579,39.630883761000064],[-106.5246868,39.63089259200007],[-106.5246517,39.63154241400008],[-106.5250183,39.631683517000056],[-106.5251246,39.63172153100004],[-106.5255665,39.63190584500006],[-106.5255935,39.63191707100003],[-106.5263388,39.63229765400007],[-106.5268459,39.63259289900003],[-106.5271258,39.632764579000025],[-106.5273007,39.63287180300006],[-106.5277436,39.63312460000003],[-106.5279632,39.63323416300005],[-106.5283108,39.63338668000006],[-106.5283675,39.63340914200006],[-106.5286952,39.63353887200003],[-106.5288886,39.63360672500005],[-106.5291266,39.63368546700008],[-106.5294734,39.63378354200006],[-106.5298536,39.63387354500003],[-106.5302336,39.63395058500004],[-106.530269,39.63395732700008],[-106.5318401,39.63425424200005],[-106.5318966,39.63426500000003],[-106.5335792,39.63458480000003],[-106.534649,39.63478920000006],[-106.536307,39.63504870000003],[-106.5365985,39.63508311700008],[-106.5369404,39.63513086500007],[-106.5379138,39.63519745700006],[-106.5379765,39.63520239500008],[-106.5380165,39.63521160000005],[-106.538051,39.63522722300007],[-106.5380774,39.635247167000045],[-106.5380879,39.63525977400008],[-106.5381027,39.635283051000044],[-106.538107,39.63529363200007],[-106.5381156,39.63532329000003],[-106.5381162,39.63535939100007],[-106.538106,39.63541844600008],[-106.5381023,39.63544022200006],[-106.5380738,39.63555622600006],[-106.5380067,39.63566832200007],[-106.5379895,39.63569129000007],[-106.5379219,39.635781638000026],[-106.5378873,39.63581871800005],[-106.5378259,39.635877943000025],[-106.5377701,39.63592415300008]]}},{"type":"Feature","properties":{"agency":"Avon Transit","shape_id":"2"},"geometry":{"type":"LineString","coordinates":[[-106.5071402,39.633338329000026],[-106.5068862,39.63324867500006],[-106.5062334,39.63298293700007],[-106.5058215,39.63284902400005],[-106.5051768,39.632680986000025],[-106.5043848,39.63245802400007],[-106.5039687,39.63239236000004],[-106.5035527,39.63233371500007],[-106.5033743,39.63228708400004],[-106.5032333,39.63222809600006],[-106.5026655,39.631803569000056],[-106.5022446,39.63149716800007],[-106.5021206,39.63143787400003],[-106.5020459,39.63141473900004],[-106.5019585,39.63139171400008],[-106.5018275,39.63136708000008],[-106.5012212,39.63124547100006],[-106.5008873,39.63118492700005],[-106.5006069,39.63115234500003],[-106.5001806,39.63106749900004],[-106.4994927,39.630864950000046],[-106.4992724,39.63073881900005],[-106.4989784,39.63055187200007],[-106.498825,39.63047637400007],[-106.4982804,39.63036323800003],[-106.4978018,39.63023417900007],[-106.4975816,39.63011316500007],[-106.4972256,39.62994646100003],[-106.497122,39.62992250000008],[-106.4966056,39.62992688200006],[-106.4961773,39.63007388000005],[-106.4957955,39.630203564000055],[-106.4953657,39.63028044500004],[-106.4949341,39.63019193800005],[-106.4947069,39.63006444900003],[-106.4938452,39.62921730000005],[-106.4937847,39.62915203500006],[-106.4937716,39.62913797300007],[-106.4935933,39.62894564900006],[-106.4933296,39.62863873900005],[-106.4933152,39.62855693700004],[-106.4933139,39.62846990400004],[-106.4933917,39.62835148200003],[-106.4938572,39.62809293200007],[-106.4945336,39.62773750000008],[-106.4946633,39.62775351500005],[-106.4947576,39.62772510000008],[-106.494806,39.62768500000004],[-106.495211,39.62748400000004],[-106.4956039,39.62734640000008],[-106.4960047,39.62728970000006],[-106.4962327,39.62727050000007],[-106.4963078,39.62718400000006],[-106.496366,39.62719016400007],[-106.4965066,39.62715257700006],[-106.4967317,39.62715066800007],[-106.4969113,39.62720546600008],[-106.497796,39.62786222100004],[-106.4982967,39.62824334200008],[-106.4989445,39.62863720900003],[-106.4995837,39.62888266200008],[-106.5001754,39.62905171200004],[-106.5008259,39.62916393700005],[-106.5013359,39.62917495200003],[-106.5014388,39.629182730000025],[-106.501781,39.62922700000007],[-106.5018273,39.62923238500008],[-106.5019263,39.62925184000005],[-106.5020579,39.629189276000034],[-106.5020896,39.629091722000055],[-106.5020348,39.62896418400004],[-106.5018415,39.62887367000008],[-106.5016646,39.62854236600003],[-106.5015157,39.62831322700004],[-106.5014912,39.62818221900005],[-106.5015224,39.62809177200006],[-106.5016485,39.62779918200005],[-106.5017429,39.62757988200008],[-106.5017745,39.62750659200003],[-106.5019004,39.62724745700007],[-106.5019536,39.62713804900005],[-106.5020861,39.62691461300005],[-106.5021772,39.62683833500006],[-106.5022554,39.626810404000025],[-106.5023611,39.62680530700004],[-106.5024078,39.62684685300008],[-106.5024403,39.62695193300004],[-106.5025266,39.62737644000004],[-106.5025765,39.62745151400003],[-106.5026842,39.62749501900004],[-106.5027667,39.62752799000003],[-106.502862,39.62756283300007],[-106.502921,39.62757223400007],[-106.5030151,39.62758785500006],[-106.5030575,39.62761317400003],[-106.5030935,39.627630717000045],[-106.5031367,39.62764333100006],[-106.5031693,39.62765197800008],[-106.5032009,39.62765576500004],[-106.5032709,39.62765111500005],[-106.5034098,39.627615099000025],[-106.5034462,39.62761061600003],[-106.5035008,39.62760218300008],[-106.5036971,39.62756362400006],[-106.5037951,39.62754640000003],[-106.5039895,39.62752441400005],[-106.5041446,39.627510277000056],[-106.5043186,39.62749888500008],[-106.5044057,39.62749814000006],[-106.5045031,39.62750127000004],[-106.5045877,39.62750450800007],[-106.504737,39.62752723400007],[-106.5047915,39.62753806300003],[-106.5051892,39.62765189300006],[-106.5054853,39.62775632900008],[-106.505632,39.62780063300005],[-106.505763,39.62782922500003],[-106.5058603,39.627841217000025],[-106.5059144,39.62784179600004],[-106.5059605,39.62784140100007],[-106.5061549,39.62782388900007],[-106.5063774,39.62780019300004],[-106.5064926,39.62779128300008],[-106.506572,39.62779060200006],[-106.5066181,39.62779218800006],[-106.5067081,39.62781320700003],[-106.5068135,39.62784201700004],[-106.507514,39.628103434000025],[-106.5078159,39.62822033600003],[-106.5079494,39.62827203900008],[-106.5080255,39.62830902300004],[-106.5085424,39.62853505100003],[-106.5090359,39.62871746700006],[-106.509453,39.628866982000034],[-106.5099267,39.62899293900006],[-106.5107038,39.62928196500008],[-106.5119199,39.62972869400005],[-106.5122525,39.629845372000034],[-106.5124494,39.629956925000045],[-106.5126879,39.63014805400008],[-106.5128775,39.63030557000008],[-106.5130278,39.63038187200005],[-106.5134763,39.63052491100007],[-106.5135468,39.63054883600006],[-106.5138675,39.63066484000007],[-106.5140363,39.63072590500008],[-106.5141237,39.63076445200005],[-106.5142194,39.63080546200007],[-106.5142789,39.63083537600005],[-106.5143351,39.63087038800006],[-106.5143761,39.63089529100006],[-106.5144278,39.63092663900005],[-106.5145339,39.63101066300004],[-106.5147198,39.63116753100008],[-106.5148249,39.63125677000005],[-106.5149772,39.63139132600003],[-106.5154446,39.63181432800008],[-106.5154482,39.63181809500003],[-106.5155543,39.63194597600005],[-106.5155803,39.63200346700006],[-106.5156254,39.63210508100008],[-106.5156463,39.63219733500006],[-106.5156584,39.63230028500004],[-106.5156648,39.63242061200003],[-106.5156654,39.63250351200003],[-106.5156654,39.63253693700005],[-106.5156706,39.632554319000064],[-106.5156862,39.63256100300004],[-106.5157001,39.63256234100004],[-106.5157654,39.63256294400003],[-106.5161878,39.632563971000025],[-106.5164183,39.63256453200006],[-106.5164244,39.63256454700007],[-106.5167235,39.63256277100004],[-106.516842,39.63257163400005],[-106.5169192,39.63258110700008],[-106.5170524,39.63260657800004],[-106.517434,39.63270627100008],[-106.5174704,39.63271579100007],[-106.518123,39.63294047900007],[-106.5182416,39.63299293500006],[-106.5183114,39.63304453100005],[-106.5183581,39.63307908500008],[-106.5184958,39.63321061200003],[-106.5186662,39.63338100500005],[-106.519132,39.63382266800005],[-106.5192414,39.63392698100006],[-106.519252,39.633930064000026],[-106.5192904,39.633941236000055],[-106.5194446,39.63391263400007],[-106.5194747,39.63390360100004],[-106.5196822,39.633841363000045],[-106.5198631,39.63377897400005],[-106.5200136,39.633697692000055],[-106.5200949,39.63365379600003],[-106.5201591,39.63361911200008],[-106.5205359,39.63341869900006],[-106.5206926,39.63337539300005],[-106.5208038,39.63337442700004],[-106.5209532,39.63339200400003],[-106.521245,39.63349852400006],[-106.5214795,39.63358666500005],[-106.5215917,39.63365070500004],[-106.5216604,39.63371302400003],[-106.5217023,39.63379445200008],[-106.5217196,39.63386980200005],[-106.5217506,39.63399615700007],[-106.5217642,39.63405169900005],[-106.5218224,39.63421914700007],[-106.5218772,39.63426271100008],[-106.5219512,39.63431449800004],[-106.5220252,39.634366285000056],[-106.5221345,39.63441776600007],[-106.5222459,39.63443357400007],[-106.52233,39.63443284200008],[-106.5224203,39.634393258000046],[-106.5224489,39.63436124500004],[-106.5224773,39.63430362900005],[-106.5224713,39.63419960700003],[-106.5224535,39.63414539600007],[-106.5223862,39.63401290600007],[-106.5223425,39.63380146600008],[-106.5223183,39.63325639600004],[-106.5223263,39.63287463100005],[-106.5223487,39.632549365000045],[-106.5223523,39.63242769300007],[-106.5223542,39.63236895400007],[-106.5223373,39.63232925300008],[-106.5223152,39.63230008500005],[-106.5222515,39.63228465000003],[-106.5221982,39.63227174200006],[-106.5220185,39.632250000000056],[-106.521785,39.63222000000008],[-106.5207825,39.63178399500004],[-106.5204272,39.63172088400006],[-106.5198993,39.63160173200004],[-106.5196669,39.63151957400004],[-106.5195522,39.63147902200007],[-106.5192052,39.63135631200004],[-106.5189614,39.63127011800003],[-106.5186483,39.63118684600005],[-106.5173335,39.63104094700003],[-106.51699,39.63098400000007],[-106.515865,39.63062800000006],[-106.5149219,39.63029684400004],[-106.5149049,39.63029088700006],[-106.5147315,39.63023000000004],[-106.5131191,39.62966380000006],[-106.5128412,39.629566200000056],[-106.5120821,39.62929810000003],[-106.5123488,39.62883160000007],[-106.5124755,39.62859110000005],[-106.5125274,39.62846090000005],[-106.5125499,39.62838439500007],[-106.512572,39.62830900000006],[-106.512592,39.62820700000003],[-106.512624,39.62807900000007],[-106.512639,39.62801500000006],[-106.512652,39.62792700000006],[-106.5127613,39.62754390000004],[-106.5150896,39.62845180000005],[-106.516696,39.629108400000064],[-106.5171525,39.62929320000006],[-106.5176504,39.62949650000007],[-106.5177123,39.62952080000008],[-106.5177799,39.62954670000005],[-106.5179628,39.62961248300008],[-106.5179861,39.62962120100008],[-106.5182113,39.629705400000034],[-106.5186739,39.62986870000003],[-106.5188349,39.62992750000007],[-106.5208379,39.63067420000005],[-106.5210777,39.63074930000005],[-106.5212061,39.63078949800007],[-106.5213175,39.63082440000005],[-106.521503,39.630877000000055],[-106.521833,39.63095700000008],[-106.5220194,39.63099600000004],[-106.5223889,39.631083800000056],[-106.522483,39.63121400000006],[-106.522625,39.63124800000003],[-106.522781,39.63120000000004],[-106.52292,39.631218500000045],[-106.5232911,39.63124250000004],[-106.523355,39.63125500000007],[-106.5234072,39.63126270000004],[-106.5237537,39.63132490000004],[-106.5240673,39.63138140000007],[-106.5245738,39.63151720000008],[-106.5246595,39.63152734100004],[-106.5246997,39.63089307700005],[-106.52458,39.63087819400005],[-106.5245246,39.63145843600006],[-106.5240885,39.63135711800004],[-106.5231261,39.63116527600005],[-106.5228407,39.63107710000003],[-106.522756,39.630956000000026],[-106.522628,39.63091800000007],[-106.522438,39.63097300000004],[-106.5224243,39.63108332600007],[-106.5224428,39.63122491900003],[-106.5224393,39.63138087200008],[-106.5224086,39.63149810000005],[-106.5223674,39.63165370000007],[-106.522258,39.63212710000005],[-106.522252,39.63228000000004],[-106.5222515,39.63228465000003],[-106.522168,39.63301000000007],[-106.522173,39.63389500000005],[-106.5221726,39.63392671100007],[-106.5221644,39.63398863500004],[-106.5221562,39.63405056000005],[-106.5221293,39.63411389200007],[-106.5220802,39.63422948700003],[-106.5220702,39.63428829600008],[-106.5220707,39.634326042000055],[-106.522104,39.63437398900004],[-106.5221831,39.63440475900006],[-106.5222969,39.63439957400004],[-106.5223695,39.63437700000003],[-106.522424,39.63435000000004],[-106.5224547,39.63434935400005],[-106.5225755,39.63434681600006],[-106.5227276,39.63436017300006],[-106.523057,39.63444119400003],[-106.5231659,39.63446541300005],[-106.5232391,39.63446897000006],[-106.5233474,39.63445544300004],[-106.5236122,39.63438392700005],[-106.524093,39.63424761200002],[-106.5241902,39.63421740300004],[-106.524258,39.634216812000034],[-106.5245308,39.63432349000004],[-106.5246613,39.63434542100004],[-106.5247315,39.63432174000008],[-106.5247551,39.634264908000034],[-106.5247596,39.63420195200007],[-106.5247535,39.634157963000064],[-106.5246907,39.63412915000004],[-106.5246199,39.63410879500003],[-106.5245737,39.63410290600007],[-106.5245275,39.634097017000045],[-106.5244598,39.63410390000007],[-106.5243086,39.63414716300008],[-106.5240547,39.63422487600008],[-106.5235578,39.63437181900008],[-106.5232983,39.63443070500006],[-106.5229882,39.63437048800006],[-106.5228558,39.63432558700004],[-106.5226535,39.63425691400005],[-106.5225356,39.63421690800004],[-106.5224713,39.63419960700003],[-106.522443,39.63419200000004],[-106.5223536,39.63410440000007],[-106.5221706,39.63409870000004],[-106.5221293,39.63411389200007],[-106.5220825,39.63413111300008],[-106.5219406,39.63414052000008],[-106.5218531,39.63409723900003],[-106.5218268,39.63406076600006],[-106.5217927,39.63395095900006],[-106.5217848,39.63387762400004],[-106.5217291,39.63373141000005],[-106.5217172,39.63369994800007],[-106.5216019,39.63360867100005],[-106.5212743,39.63346471300008],[-106.5208983,39.63334634200004],[-106.5206786,39.633344056000055],[-106.5203413,39.63346652800004],[-106.5198247,39.633749945000034],[-106.519522,39.63382387900003],[-106.5194871,39.63383567200003],[-106.5193438,39.63388414700006],[-106.519252,39.633930064000026],[-106.5189938,39.63405915700002],[-106.5183204,39.63445507000006],[-106.5181423,39.63455979300005],[-106.5178534,39.63472966900008],[-106.5178432,39.63476960600008],[-106.5183291,39.63498770100006],[-106.5187409,39.635137230000055],[-106.5189747,39.635177146000046],[-106.5193376,39.63514044300007],[-106.519872,39.63495334600003],[-106.5202317,39.63488311200007],[-106.5204891,39.634864099000026],[-106.5206547,39.634871049000026],[-106.5209785,39.63494163900003],[-106.5211952,39.63502049800008],[-106.521412,39.63509935800005],[-106.5218756,39.63526729900008],[-106.5220015,39.63534589900007],[-106.5220758,39.63541655900008],[-106.5221205,39.63550635100006],[-106.5221703,39.63569903700005],[-106.522179,39.63581000000005],[-106.5221752,39.635892700000056],[-106.5220448,39.63641430000007],[-106.5217518,39.63668190000004],[-106.521684,39.63667900000007],[-106.5214843,39.63707320000003],[-106.521399,39.63714100000004],[-106.521128,39.63743900000003],[-106.5210418,39.63754310000007],[-106.5206656,39.63775020000003],[-106.520632,39.63790200000005],[-106.5206231,39.63797600000004],[-106.5211397,39.63846630000006],[-106.521234,39.63851400000004],[-106.5212813,39.63855300000006],[-106.5213884,39.63864080000008],[-106.5214474,39.638691900000026],[-106.5215648,39.638793648000046],[-106.5215907,39.63881607200005],[-106.5217279,39.63893500000006],[-106.5218421,39.63903400000004],[-106.521379,39.63929900000005],[-106.520816,39.63914200000005],[-106.519108,39.63746500000008],[-106.517347,39.63635600000004],[-106.516543,39.63576800000004],[-106.516512,39.63573590000004],[-106.516481,39.63570380000005],[-106.5158968,39.63520060000008],[-106.5146298,39.63479780000006],[-106.5114333,39.63391750000005],[-106.5102864,39.633897700000034],[-106.5094807,39.63393780000007],[-106.5093861,39.63394200000005],[-106.508888,39.63392600000003],[-106.5081564,39.63370825200008],[-106.5077489,39.63358696000006],[-106.5074339,39.63346221500007],[-106.5071402,39.633338329000026]]}},{"type":"Feature","properties":{"agency":"Avon Transit","shape_id":"3"},"geometry":{"type":"LineString","coordinates":[[-106.5245275,39.63409702],[-106.5235223,39.63437846],[-106.5232458,39.63445556],[-106.5230518,39.63441568],[-106.5224802,39.63421096],[-106.5223313,39.63406208],[-106.5222994,39.63354366],[-106.5225679,39.63132905],[-106.5227912,39.63082126],[-106.5229793,39.63055673],[-106.5235193,39.6301704],[-106.5242048,39.63012886],[-106.5254593,39.63047365],[-106.5274781,39.63128784],[-106.5278271,39.63134184],[-106.5281719,39.63133354],[-106.528471,39.6311466],[-106.5286371,39.63090151],[-106.5286454,39.63066473],[-106.528579,39.63046534],[-106.5282799,39.63016625],[-106.5276069,39.62946006],[-106.5274034,39.62893665],[-106.5272585,39.62769926],[-106.5271352,39.62617394],[-106.5267328,39.62416182],[-106.5262914,39.62288315],[-106.5261291,39.62249371],[-106.5260512,39.62130591],[-106.5259214,39.62058544],[-106.5254411,39.61926134],[-106.5248115,39.61840457],[-106.5238768,39.61749587],[-106.5228708,39.61563304],[-106.5224359,39.61453611],[-106.5224229,39.61362092],[-106.5223256,39.61217998],[-106.5216635,39.61053783],[-106.5197098,39.60868798],[-106.5194697,39.60836344],[-106.5194047,39.60799347],[-106.5194761,39.60718863],[-106.5194826,39.60673428],[-106.5193891,39.60637401],[-106.5187674,39.60488489],[-106.5186518,39.60389784],[-106.5187629,39.60390433],[-106.5188294,39.60445682],[-106.5188942,39.60518858],[-106.5193891,39.60637401],[-106.5194826,39.60673428],[-106.5194761,39.60718863],[-106.5194047,39.60799347],[-106.5194697,39.60836344],[-106.5197098,39.60868798],[-106.5216635,39.61053783],[-106.5223256,39.61217998],[-106.5224229,39.61362092],[-106.5224359,39.61453611],[-106.5228708,39.61563304],[-106.5238768,39.61749587],[-106.5248115,39.61840457],[-106.5254411,39.61926134],[-106.5259214,39.62058545],[-106.5260512,39.62130591],[-106.5261291,39.62249371],[-106.5262914,39.62288316],[-106.5267328,39.62416182],[-106.5271352,39.62617394],[-106.5272585,39.62769926],[-106.5274034,39.62893665],[-106.5276069,39.62946006],[-106.5282799,39.63016625],[-106.528579,39.63046534],[-106.5286454,39.63066473],[-106.5286371,39.63090151],[-106.528471,39.6311466],[-106.5281719,39.63133354],[-106.5278271,39.63134184],[-106.5274781,39.63128784],[-106.5254593,39.63047365],[-106.5242048,39.63012886],[-106.5235193,39.6301704],[-106.5229793,39.63055673],[-106.5227912,39.63082126],[-106.5227347,39.63094968],[-106.5226056,39.63124335],[-106.5225679,39.63132905],[-106.5225271,39.63166553],[-106.5223204,39.63330446],[-106.5223225,39.63335252],[-106.5222994,39.63354366],[-106.5223242,39.63394791],[-106.5224562,39.63423755],[-106.5229162,39.63441036],[-106.5232432,39.63447948],[-106.5244651,39.63414824],[-106.5245838,39.63415586],[-106.5246187,39.63413408],[-106.5246034,39.63410795],[-106.5245675,39.63409161]]}},{"type":"Feature","properties":{"agency":"Avon Transit","shape_id":"4"},"geometry":{"type":"LineString","coordinates":[[-106.5245675,39.63409161],[-106.5246034,39.63410795],[-106.5246187,39.63413408],[-106.5245838,39.63415586],[-106.5244651,39.63414824],[-106.5232432,39.63447948],[-106.5229162,39.63441036],[-106.5224562,39.63423755],[-106.5223242,39.63394791],[-106.5222994,39.63354366],[-106.5223225,39.63335252],[-106.5223204,39.63330446],[-106.5225271,39.63166553],[-106.5225679,39.63132905],[-106.5226056,39.63124335],[-106.5227347,39.63094968],[-106.5227912,39.63082126],[-106.5229793,39.63055673],[-106.5235193,39.6301704],[-106.5242048,39.63012886],[-106.5254593,39.63047365],[-106.5274781,39.63128784],[-106.5278271,39.63134184],[-106.5281719,39.63133354],[-106.528471,39.6311466],[-106.5286371,39.63090151],[-106.5286454,39.63066473],[-106.528579,39.63046534],[-106.5282799,39.63016625],[-106.5276069,39.62946006],[-106.5274034,39.62893665],[-106.5272585,39.62769926],[-106.5271352,39.62617394],[-106.5267328,39.62416182],[-106.5262914,39.62288316],[-106.5261291,39.62249371],[-106.5260512,39.62130591],[-106.5259214,39.62058545],[-106.5254411,39.61926134],[-106.5248115,39.61840457],[-106.5238768,39.61749587],[-106.5228708,39.61563304],[-106.5224359,39.61453611],[-106.5224229,39.61362092],[-106.5223256,39.61217998],[-106.5216635,39.61053783],[-106.5197098,39.60868798],[-106.5194697,39.60836344],[-106.5194047,39.60799347],[-106.5194761,39.60718863],[-106.5194826,39.60673428],[-106.5193891,39.60637401],[-106.5188942,39.60518858],[-106.5188294,39.60445682],[-106.5187629,39.60390433],[-106.5186518,39.60389784],[-106.5187674,39.60488489],[-106.5193891,39.60637401],[-106.5194826,39.60673428],[-106.5194761,39.60718863],[-106.5194047,39.60799347],[-106.5194697,39.60836344],[-106.5197098,39.60868798],[-106.5216635,39.61053783],[-106.5223256,39.61217998],[-106.5224229,39.61362092],[-106.5224359,39.61453611],[-106.5228708,39.61563304],[-106.5238768,39.61749587],[-106.5248115,39.61840457],[-106.5254411,39.61926134],[-106.5259214,39.62058544],[-106.5260512,39.62130591],[-106.5261291,39.62249371],[-106.5262914,39.62288315],[-106.5267328,39.62416182],[-106.5271352,39.62617394],[-106.5272585,39.62769926],[-106.5274034,39.62893665],[-106.5276069,39.62946006],[-106.5282799,39.63016625],[-106.528579,39.63046534],[-106.5286454,39.63066473],[-106.5286371,39.63090151],[-106.528471,39.6311466],[-106.5281719,39.63133354],[-106.5278271,39.63134184],[-106.5274781,39.63128784],[-106.5254593,39.63047365],[-106.5242048,39.63012886],[-106.5235193,39.6301704],[-106.5229793,39.63055673],[-106.5227912,39.63082126],[-106.5225679,39.63132905],[-106.5222994,39.63354366],[-106.5223313,39.63406208],[-106.5224802,39.63421096],[-106.5230518,39.63441568],[-106.5232458,39.63445556],[-106.5235223,39.63437846],[-106.5245275,39.63409702]]}}]}