{"type":"FeatureCollection","features":[{"type":"Feature","properties":{"agency":"Baldwin Park, CA","shape_id":"1"},"geometry":{"type":"LineString","coordinates":[[-117.9573,34.086253],[-117.9573381,34.08613347],[-117.9588943,34.08464777],[-117.9590194,34.08452432],[-117.9592089,34.08433422],[-117.9596184,34.08466171],[-117.9576452,34.08649152],[-117.9576105,34.0866202],[-117.9576805,34.08704654],[-117.9565876,34.08731747],[-117.9555939,34.08747955],[-117.94968,34.08721469],[-117.9497256,34.08672342],[-117.94979,34.086659],[-117.9497477,34.08655953],[-117.9501721,34.0818972],[-117.9501979,34.08167794],[-117.9502494,34.08129331],[-117.952554,34.07918253],[-117.9527422,34.07899351],[-117.9553801,34.07655536],[-117.9555832,34.07632822],[-117.957453,34.0745567],[-117.9584012,34.07369313],[-117.9592321,34.0729192],[-117.959371,34.072874],[-117.9593777,34.07277144],[-117.9600757,34.07211362],[-117.9602279,34.07197346],[-117.9636269,34.06875072],[-117.9638692,34.06860602],[-117.9640953,34.06841688],[-117.964291,34.06823476],[-117.9661097,34.06647852],[-117.9679499,34.06474001],[-117.9681193,34.06459269],[-117.9683474,34.06439173],[-117.9704207,34.06590944],[-117.9705712,34.06602437],[-117.9707243,34.06612362],[-117.9731814,34.06792928],[-117.9744073,34.06883654],[-117.9750229,34.06930127],[-117.9755641,34.06967584],[-117.975601,34.069806],[-117.975755,34.06982098],[-117.9768781,34.07064831],[-117.9771151,34.07081676],[-117.9777932,34.07131383],[-117.9778949,34.07137684],[-117.9780126,34.07136876],[-117.9782222,34.07120422],[-117.978287,34.071173],[-117.978319,34.07109674],[-117.9794133,34.07007213],[-117.9795269,34.06995754],[-117.9820943,34.06735307],[-117.9824304,34.06703412],[-117.9826753,34.06671516],[-117.9836685,34.06570741],[-117.9846242,34.06470853],[-117.9849445,34.06490759],[-117.985195,34.06496],[-117.9853438,34.06484681],[-117.9855891,34.06459142],[-117.9855897,34.06450039],[-117.9855699,34.06445821],[-117.9855126,34.06444713],[-117.9851122,34.0648627],[-117.9850161,34.06488494],[-117.9846704,34.06467386],[-117.9845714,34.0646361],[-117.9836183,34.06565265],[-117.9834971,34.06578749],[-117.9831239,34.06616117],[-117.9831162,34.06620948],[-117.9831381,34.06624223],[-117.9835901,34.06654881],[-117.9838604,34.06672321],[-117.9841146,34.06685317],[-117.9842836,34.06690868],[-117.9844983,34.06690971],[-117.9855834,34.06676025],[-117.9865832,34.06663108],[-117.9867272,34.06660949],[-117.9885631,34.06635443],[-117.9887139,34.06632023],[-117.9915162,34.06592785],[-117.9917224,34.06576498],[-117.9920788,34.06536659],[-117.9925586,34.06487488],[-117.9926867,34.0647352],[-117.9927657,34.06466902],[-117.9928822,34.06473172],[-117.9930161,34.06481774],[-117.9931018,34.06493932],[-117.9932785,34.06520025],[-117.9935347,34.06624396],[-117.9937325,34.06726796],[-117.993748,34.06744764],[-117.9936993,34.0677019],[-117.9935864,34.06793393],[-117.9931837,34.06838149],[-117.99306,34.068438],[-117.9930273,34.06856129],[-117.9906049,34.0710825],[-117.9905579,34.07115664],[-117.9906255,34.07120705],[-117.990661,34.071293],[-117.9907755,34.07130636],[-117.9911412,34.07153521],[-117.9915284,34.07171963],[-117.9932147,34.0719485],[-117.9947686,34.07224956],[-117.994842,34.072324],[-117.9949424,34.07228134],[-117.9969641,34.07270659],[-117.9972315,34.07276302],[-117.9972005,34.07286256],[-117.997132,34.072891],[-117.9971447,34.07301947],[-117.9963892,34.075622],[-117.9963151,34.07584129],[-117.9959074,34.07725236],[-117.995827,34.077326],[-117.9958568,34.07738396],[-117.9956721,34.07811284],[-117.9936473,34.0785818],[-117.9934566,34.07862909],[-117.9909243,34.07919582],[-117.9885182,34.07973689],[-117.9883048,34.07980408],[-117.9867967,34.08012921],[-117.9852098,34.08049988],[-117.9822066,34.08124021],[-117.980641,34.081554],[-117.9788355,34.08198666],[-117.9771495,34.08239404],[-117.9768792,34.08246207],[-117.9728315,34.08335648],[-117.9726825,34.08340493],[-117.9726649,34.08344228],[-117.9727586,34.08359305],[-117.9731673,34.08397375],[-117.9734044,34.08430723],[-117.9734318,34.08451834],[-117.9734405,34.08474277],[-117.9734441,34.08484562],[-117.9734492,34.08493501],[-117.9734677,34.08677708],[-117.9734715,34.08770144],[-117.9734815,34.08816361],[-117.9734798,34.08856129],[-117.9734889,34.0886895],[-117.9735131,34.09019263],[-117.9735199,34.09097938],[-117.97353,34.09160709],[-117.9735337,34.09171992],[-117.973516,34.091775],[-117.9735407,34.091826],[-117.973544,34.09208469],[-117.9735842,34.09214179],[-117.9736538,34.09216114],[-117.9758403,34.09214986],[-117.9777248,34.09212423],[-117.97802,34.09211208],[-117.9820372,34.09208106],[-117.9823186,34.09207568],[-117.9843764,34.09207022],[-117.9843888,34.09222409],[-117.9843367,34.09242239],[-117.9837349,34.09327816],[-117.9832784,34.09394926],[-117.9831996,34.09406285],[-117.9826896,34.09479139],[-117.9825216,34.09511901],[-117.9824675,34.09529781],[-117.9824484,34.0959908],[-117.982471,34.09812749],[-117.982474,34.09827005],[-117.9824866,34.09837264],[-117.9825442,34.09840234],[-117.9829423,34.09842205],[-117.983319,34.09850618],[-117.9836862,34.09877659],[-117.9840132,34.09908255],[-117.9795575,34.10255732],[-117.9790047,34.10205038],[-117.9787417,34.10179469],[-117.9785861,34.10162909],[-117.9784231,34.10156363],[-117.978279,34.10155938],[-117.9781443,34.10158512],[-117.9780551,34.10162641],[-117.975601,34.10307154],[-117.9732555,34.10447592],[-117.973104,34.10449],[-117.973064,34.10459491],[-117.9727505,34.10494189],[-117.9726703,34.10519449],[-117.9726489,34.10532745],[-117.9726464,34.10546929],[-117.9726447,34.10645524],[-117.9716448,34.10656067],[-117.9712515,34.10658729],[-117.9708581,34.10659392],[-117.9700785,34.10660611],[-117.9693273,34.1066172],[-117.9693096,34.10659386],[-117.9693367,34.10599919],[-117.969396,34.105902],[-117.9693248,34.10580975],[-117.9693045,34.10311681],[-117.9692789,34.10308013],[-117.9692292,34.10306787],[-117.965474,34.10309],[-117.964056,34.103146],[-117.9634985,34.10341005],[-117.9631769,34.10353986],[-117.9629679,34.10359859],[-117.9626369,34.10362068],[-117.9621074,34.10362501],[-117.961279,34.103607],[-117.9606498,34.10361479],[-117.960539,34.10369863],[-117.9605051,34.10518859],[-117.9605257,34.10553947],[-117.9578525,34.10557525],[-117.9568518,34.1055837],[-117.9563124,34.10552553],[-117.95547,34.10551178],[-117.955254,34.10551833],[-117.9550649,34.10550268],[-117.9550941,34.1052179],[-117.9550672,34.10327653],[-117.9550134,34.10322294],[-117.9548443,34.10322502],[-117.9546592,34.10323383],[-117.94659,34.10329],[-117.944956,34.103305],[-117.9447866,34.10331359],[-117.9448006,34.10173441],[-117.9447942,34.10094703],[-117.944828,34.10015742],[-117.9448216,34.09996423],[-117.9448227,34.0999032],[-117.9448225,34.09984217],[-117.9448207,34.09978007],[-117.9487372,34.09975139],[-117.949056,34.09974024],[-117.9518752,34.09971681],[-117.9521718,34.09970546],[-117.9545314,34.0996782],[-117.9547804,34.09966325],[-117.9580991,34.09963079],[-117.9582795,34.09960722],[-117.9588432,34.09960321],[-117.9593371,34.09962585],[-117.9603486,34.09961517],[-117.9604053,34.09964892],[-117.9605409,34.09960177],[-117.9605585,34.09952575],[-117.96056,34.09936089],[-117.960658,34.099256],[-117.9605419,34.09913348],[-117.9605693,34.09710166],[-117.9605644,34.09507423],[-117.9605493,34.09477538],[-117.9605144,34.09202668],[-117.9605291,34.09180734],[-117.9604949,34.08951357],[-117.960568,34.08937],[-117.9605273,34.08917883],[-117.960449,34.08662636],[-117.9613283,34.08643074],[-117.9614957,34.08695047],[-117.9615208,34.08696656],[-117.9615593,34.08696931],[-117.9625808,34.08675882],[-117.9626149,34.0866851],[-117.9625954,34.08661803],[-117.962626,34.086535],[-117.9625468,34.08648756],[-117.9624515,34.08617799],[-117.9624092,34.08612428],[-117.9623562,34.08607501],[-117.9623085,34.08604352],[-117.9622341,34.08602535],[-117.9600506,34.08652358],[-117.95973293750382,34.08659968976191],[-117.95648651255036,34.08735490532818],[-117.95645116781044,34.08709942266772],[-117.95650323287484,34.086962795556914],[-117.9566089421196,34.08682616822553],[-117.95712613243676,34.08633521701327],[-117.9573,34.086253]]}},{"type":"Feature","properties":{"agency":"Baldwin Park, CA","shape_id":"2"},"geometry":{"type":"LineString","coordinates":[[-117.9573,34.086253],[-117.95730171398964,34.086152107467626],[-117.958875202462,34.08465616605679],[-117.95899063751908,34.084551372057135],[-117.95920456853943,34.084355137177894],[-117.95962578701152,34.08465574981208],[-117.95761960632515,34.08652689474379],[-117.95767766277388,34.08703070633489],[-117.95767704283332,34.08716907061324],[-117.95771397381895,34.08721413732769],[-117.95776368271446,34.08721977375444],[-117.95785094253615,34.08720763925001],[-117.958173,34.08713689],[-117.959200025795,34.08692248906617],[-117.95952786679536,34.08685100162749],[-117.95979011177828,34.086780321006906],[-117.9601948,34.08668929],[-117.9605469881134,34.08661157253175],[-117.9613246,34.08642584],[-117.9613985,34.08664401],[-117.9614288,34.08673104],[-117.9614536,34.08681696],[-117.9614935,34.08693933],[-117.9615168,34.0869572],[-117.9615536,34.08696174],[-117.9624998,34.08677332],[-117.9625541,34.08676261],[-117.9625817,34.0867408],[-117.9625985,34.08670343],[-117.9625986,34.08665854],[-117.9625827,34.08660255],[-117.962626,34.086535],[-117.9625578,34.08652251],[-117.9625411,34.0864774],[-117.9625272,34.08642561],[-117.9624444,34.0861785],[-117.9624131,34.08611826],[-117.9623603,34.08606245],[-117.9622807,34.08604885],[-117.9621636,34.08605303],[-117.9612344,34.08625969],[-117.9604957,34.08642969],[-117.9603892,34.08652692],[-117.9603712,34.08665079],[-117.9603997,34.08877833],[-117.960353,34.08888],[-117.9604119,34.0889567],[-117.9604178,34.08937],[-117.9603984,34.08997782],[-117.9604316,34.09170112],[-117.9604299,34.09181178],[-117.9604286,34.09192343],[-117.9604366,34.09203334],[-117.9604554,34.0947776],[-117.9604607,34.09495521],[-117.9604625,34.09508089],[-117.9604888,34.09709277],[-117.9604703,34.09894827],[-117.960425,34.099058],[-117.9604802,34.0991357],[-117.9604729,34.09928265],[-117.9604768,34.09942308],[-117.960478,34.09951021],[-117.9604712,34.09954624],[-117.960408,34.09954675],[-117.9603406,34.09954854],[-117.9593371,34.09955255],[-117.9585347,34.09953657],[-117.9582634,34.09954281],[-117.9580293,34.09955305],[-117.9547804,34.09960328],[-117.95463,34.09960206],[-117.954518,34.09960712],[-117.9521745,34.09963217],[-117.9520203,34.0996334],[-117.9518135,34.09963685],[-117.9490318,34.09966917],[-117.9488811,34.09967162],[-117.9487345,34.09967365],[-117.9448542,34.09972122],[-117.9447889,34.09975222],[-117.9447771,34.09979548],[-117.944776,34.09996312],[-117.9447755,34.10004955],[-117.9447743,34.10016408],[-117.9447709,34.10055667],[-117.9447459,34.10094925],[-117.9447416,34.10172775],[-117.9447343,34.1033147],[-117.944752,34.10334372],[-117.9447884,34.10335497],[-117.944903,34.10335723],[-117.94496,34.103425],[-117.9450186,34.10335417],[-117.94659670674592,34.10336884131389],[-117.95049235337297,34.10332273038405],[-117.9547396,34.10326714],[-117.9548737,34.10326707],[-117.9549489,34.1032661],[-117.9550201,34.10326181],[-117.9550202,34.10329874],[-117.9550163,34.10522678],[-117.9550192,34.10548914],[-117.9550729,34.10554376],[-117.9553573,34.1055572],[-117.9555987,34.10556286],[-117.9563527,34.10555884],[-117.9568598,34.1056148],[-117.9578981,34.10561523],[-117.9605123,34.10558611],[-117.9605789254631,34.10556821620123],[-117.960608,34.10551923],[-117.9606043,34.10520192],[-117.9605826,34.10368975],[-117.960631,34.10366642],[-117.9613326,34.1036703],[-117.9621409,34.1036672],[-117.9626811,34.10366399],[-117.962856,34.10365572],[-117.9630336,34.10363635],[-117.9632305,34.10356873],[-117.9635549,34.10343115],[-117.9637981,34.10330079],[-117.9640761,34.10320819],[-117.9643153,34.1031717],[-117.96475830674592,34.10317963326988],[-117.9654512245369,34.10317106422154],[-117.9692279,34.10310008],[-117.9692575,34.10309901],[-117.9692562,34.10315124],[-117.9692711,34.10581753],[-117.9692713,34.10591977],[-117.969221,34.105962],[-117.9692724,34.10599364],[-117.9692734,34.10659941],[-117.9692916,34.10670047],[-117.9693662,34.10678154],[-117.9702931,34.10677489],[-117.9709842,34.10677381],[-117.9713802,34.10676496],[-117.9723556,34.10667616],[-117.9726678,34.10661567],[-117.9726957,34.10644414],[-117.9727,34.10545597],[-117.9727026,34.10528525],[-117.9727239,34.10516784],[-117.9728162,34.10494522],[-117.9729321,34.10478395],[-117.9731029,34.10462156],[-117.9732247,34.10454663],[-117.9732796,34.10454921],[-117.973342,34.104555],[-117.973407,34.10443964],[-117.978094,34.10165972],[-117.9781711,34.10161955],[-117.9782897,34.10159381],[-117.9784245,34.10160583],[-117.978523,34.10164339],[-117.9785914,34.1016935],[-117.9787243,34.10183023],[-117.978843,34.1019664],[-117.9789752,34.10209591],[-117.979528,34.10259729],[-117.9796409,34.10259896],[-117.9840776,34.09924246],[-117.9840843,34.09914154],[-117.9840482,34.09904062],[-117.9837345,34.09874994],[-117.9833351,34.09846398],[-117.9829531,34.09836431],[-117.9825173,34.09836125],[-117.9825161,34.09831933],[-117.9825142,34.09826783],[-117.9825122,34.09820633],[-117.9825139,34.09812083],[-117.9825075,34.09599524],[-117.9825076,34.09564541],[-117.9825238,34.09529115],[-117.9825415,34.09519841],[-117.9825752,34.09510568],[-117.9827352,34.09481138],[-117.9832318,34.09408728],[-117.9833401,34.09394038],[-117.9837912,34.09328927],[-117.9843569,34.09246126],[-117.984433,34.0922252],[-117.9844262,34.09206053],[-117.9843523,34.09200025],[-117.9823307,34.09200349],[-117.9822041,34.09200228],[-117.9780119,34.09204988],[-117.9778284,34.09205306],[-117.9777047,34.09205426],[-117.9758256,34.09207767],[-117.973627,34.09211005],[-117.9736137,34.09204248],[-117.9736118,34.09181934],[-117.9736112,34.09176389],[-117.9736102,34.09166994],[-117.9736078,34.09159487],[-117.9736072,34.09148817],[-117.973726,34.091447],[-117.9736017,34.09139808],[-117.9735842,34.09018708],[-117.97356,34.08867617],[-117.9735586,34.0886069],[-117.9735603,34.08855019],[-117.9735553,34.08815028],[-117.9735547,34.08769366],[-117.9735387,34.08678264],[-117.9735189,34.08491946],[-117.9735178,34.08483452],[-117.9735168,34.08477734],[-117.9735156,34.08472056],[-117.9735056,34.08449279],[-117.9734581,34.08425503],[-117.9733569,34.08410495],[-117.9731955,34.08391821],[-117.9728149,34.0835564],[-117.972854,34.08354113],[-117.9729682,34.08351601],[-117.9730367,34.08349977],[-117.9771554,34.08257204],[-117.9773822,34.08252233],[-117.9789314,34.08216993],[-117.9796038,34.08201192],[-117.9807825,34.08175116],[-117.9822763,34.08140349],[-117.9825516,34.08132983],[-117.9830132,34.08119286],[-117.9837716,34.08102111],[-117.9852668,34.08068093],[-117.9853745,34.08065704],[-117.9854694,34.08062556],[-117.9862098,34.08046486],[-117.9869141,34.0802986],[-117.9884121,34.0799496],[-117.9885207,34.07993027],[-117.9886698,34.07990017],[-117.9910222,34.07934911],[-117.993478,34.07878794],[-117.9935926,34.07876194],[-117.9937036,34.0787362],[-117.9957042,34.07828835],[-117.9959351,34.07744389],[-117.995989,34.077377],[-117.9959628,34.07732842],[-117.9959933,34.07722269],[-117.9960147,34.07715239],[-117.9964224,34.07574067],[-117.9966829,34.07489551],[-117.9972265,34.07301836],[-117.9972554,34.07292099],[-117.9972944,34.0728059],[-117.9972329,34.07272414],[-117.9969721,34.0726666],[-117.9949599,34.0722458],[-117.9948688,34.07222735],[-117.994778,34.07220846],[-117.9932093,34.07191295],[-117.9920913,34.07176852],[-117.9918139,34.0717263],[-117.991566,34.07166853],[-117.9913663,34.07159132],[-117.9911587,34.07149855],[-117.9908064,34.07127636],[-117.9907321,34.07122857],[-117.9906537,34.07117816],[-117.9905994,34.07114331],[-117.9906331,34.07110582],[-117.9930527,34.06858462],[-117.9931217,34.06851577],[-117.9932239,34.06841038],[-117.9934541,34.06817604],[-117.993644,34.06793504],[-117.9937597,34.06768301],[-117.9937962,34.06742209],[-117.9937795,34.06723241],[-117.9935709,34.06622619],[-117.9934448,34.06562379],[-117.9933241,34.06518136],[-117.9931474,34.06489155],[-117.9930309,34.06476886],[-117.9929238,34.06462839],[-117.9927951,34.06458316],[-117.9927013,34.06465124],[-117.9926438,34.06471409],[-117.9925838,34.06476867],[-117.9925063,34.06484488],[-117.992332,34.064981],[-117.9920238,34.06534993],[-117.9916862,34.0657461],[-117.9915884,34.06582086],[-117.9915014,34.06586675],[-117.9887206,34.06629024],[-117.9886072,34.0663049],[-117.9885483,34.06631554],[-117.9867098,34.06657727],[-117.986653,34.066553],[-117.9866268,34.06658634],[-117.9865618,34.06659442],[-117.9855525,34.06672359],[-117.9844809,34.06686861],[-117.9843729,34.0668742],[-117.9842863,34.06685758],[-117.9841266,34.06680651],[-117.9838778,34.06668877],[-117.9835,34.066366],[-117.9831729,34.06621779],[-117.9831843,34.0661845],[-117.9835561,34.06581527],[-117.9836188,34.06575377],[-117.9836827,34.06568931],[-117.9841518,34.06519937],[-117.9846183,34.06469165],[-117.9846918,34.06474274],[-117.9849089,34.06488272],[-117.9849786,34.06490716],[-117.9850333,34.0649127],[-117.9851095,34.0649027],[-117.9851595,34.06486489],[-117.985195,34.06496],[-117.9852703,34.06487487],[-117.9853489,34.06485375],[-117.9856034,34.06458264],[-117.9855993,34.06448596],[-117.9855623,34.06443707],[-117.98552,34.06444151],[-117.9854577,34.06450477],[-117.9853397,34.0646224],[-117.9852366,34.06473336],[-117.9851403,34.06484093],[-117.9850709,34.06487199],[-117.9850043,34.06488083],[-117.9849428,34.06485803],[-117.9846587,34.06467303],[-117.9846012,34.06466467],[-117.9845491,34.06467187],[-117.9834539,34.06579851],[-117.9826109,34.06666628],[-117.9823986,34.06680687],[-117.9822775,34.06693413],[-117.9819549,34.06725531],[-117.98027689073793,34.06897637380771],[-117.9793499,34.06983534],[-117.9792764,34.06992069],[-117.9791853,34.07000548],[-117.9781903,34.07094788],[-117.9781234,34.07101303],[-117.9780425,34.07108647],[-117.9778866,34.07123545],[-117.977852,34.07126797],[-117.977812,34.07124051],[-117.977671,34.071074],[-117.9771553,34.07075899],[-117.9770463,34.0706758],[-117.9760788,34.06995511],[-117.976048,34.069862],[-117.9759079,34.06984319],[-117.9757485,34.06971491],[-117.9756231,34.06962251],[-117.9750846,34.06924128],[-117.9744958,34.0687921],[-117.9732458,34.06787373],[-117.970786,34.0660814],[-117.9706168,34.06595771],[-117.9705468,34.06589846],[-117.9704637,34.06583612],[-117.96841923822174,34.0643271633867],[-117.96819094120102,34.06427926376321],[-117.967909,34.064498],[-117.964131,34.068028],[-117.96349402845,34.06879868445733],[-117.959177,34.07278],[-117.955617,34.076129],[-117.952536,34.078999],[-117.95015311639403,34.08137140532225],[-117.95008283795929,34.082495381358086],[-117.94997259688948,34.08343945669931],[-117.949916,34.083646],[-117.94993930290984,34.08386954264158],[-117.94963001190185,34.08716751331322],[-117.9496873465576,34.08730358901452],[-117.94981441864776,34.08738635182849],[-117.950317,34.087478],[-117.954011,34.087625],[-117.95580420966338,34.08764189323413],[-117.9564494338684,34.087543275939346],[-117.95649309623336,34.08733844112662],[-117.9564720120716,34.087160497062335],[-117.95648311441803,34.086982552624065],[-117.95660686954308,34.086822378827186],[-117.95718123578264,34.0862890119153],[-117.9573,34.086253]]}},{"type":"Feature","properties":{"agency":"Baldwin Park, CA","shape_id":"3"},"geometry":{"type":"LineString","coordinates":[[-117.9573,34.086253],[-117.95721792154026,34.08625237760378],[-117.95711519150304,34.08628094449219],[-117.9565005625913,34.086897222623136],[-117.95641969327356,34.08705145242814],[-117.95643149212933,34.087337386372354],[-117.95646555475189,34.087449253944726],[-117.95654253271866,34.08752557964492],[-117.9607798807926,34.0865558171255],[-117.960951,34.086599],[-117.96112882604216,34.08647629481506],[-117.96531079001998,34.0855263825425],[-117.965566,34.085545],[-117.96568203768156,34.085413211446145],[-117.96647632289697,34.08512406455164],[-117.96640332053803,34.08491349397027],[-117.96629439971518,34.08477377631845],[-117.96594408008096,34.08366106471011],[-117.9657962672274,34.08319812146598],[-117.96565113658284,34.0830106392484],[-117.970272,34.078688],[-117.97255058680534,34.07649236900242],[-117.97487745337295,34.07434111518112],[-117.97718286226844,34.07216758911632],[-117.9783355667162,34.071085248749895],[-117.97941617423488,34.07008193695455],[-117.979499,34.070034],[-117.98048786444856,34.06900821863962],[-117.9814418601799,34.06801353104599],[-117.98206843646716,34.06740309488944],[-117.98248096634435,34.0669645614136],[-117.98260381764794,34.06677043531142],[-117.98424426894282,34.065111238105125],[-117.98506449459026,34.06425274173091],[-117.9858863264978,34.063387981099034],[-117.9859504343586,34.06335090782021],[-117.9858701165676,34.06328355498539],[-117.98582349166202,34.06337441209544],[-117.98272183068848,34.06654711224096],[-117.98235401125336,34.06684404739358],[-117.97953617228318,34.06965874881315],[-117.979422,34.069745],[-117.969615,34.078944],[-117.96485872485351,34.08345506463438],[-117.96456057455636,34.08392174231383],[-117.96447319021512,34.0841484158488],[-117.96443945005416,34.0844195175832],[-117.96451702156732,34.08474615424683],[-117.96468042376898,34.08503724688156],[-117.9647175495987,34.08548170172533],[-117.963879,34.085629],[-117.96241194774628,34.08597321226752],[-117.962286,34.085962],[-117.96216602778628,34.0860436356827],[-117.96044745899964,34.08643626601236],[-117.96044026472283,34.08538373845358],[-117.96034723975754,34.08513979885469],[-117.95922778108978,34.08430537319294],[-117.95744849900434,34.085998928301976],[-117.9573,34.086253]]}},{"type":"Feature","properties":{"agency":"Baldwin Park, CA","shape_id":"4"},"geometry":{"type":"LineString","coordinates":[[-117.9573,34.086253],[-117.95713591443156,34.086262962737585],[-117.95677870981407,34.0866283473045],[-117.956499289258,34.08689154711213],[-117.95645345629548,34.0869676124054],[-117.95641835216904,34.087065891336216],[-117.95641646889496,34.08734564943629],[-117.95647721806527,34.087457761144044],[-117.9565808825798,34.08751656011674],[-117.96071322503472,34.08656907837842],[-117.960951,34.086599],[-117.96111273278808,34.0864718520434],[-117.96528128572082,34.08552860395316],[-117.965566,34.085545],[-117.96570885977172,34.08541321144635],[-117.96632746029664,34.085178489354654],[-117.96645306512453,34.08502919225079],[-117.96638555090333,34.08493320913053],[-117.96616246855926,34.08439738186266],[-117.96578918251036,34.08321288404451],[-117.96564342523192,34.08299869881037],[-117.970272,34.078688],[-117.9777122705307,34.07164824322416],[-117.97792407640458,34.07144754977357],[-117.97790931317522,34.07135525416757],[-117.979499,34.070034],[-117.97783017692949,34.071254071321256],[-117.97771750199128,34.07115390756143],[-117.977696,34.071078],[-117.97759243849944,34.071066194213046],[-117.97549331349182,34.06952578290748],[-117.973362001976,34.06794979365378],[-117.973355,34.067858],[-117.97326207371904,34.06787080061288],[-117.97308331674958,34.06775473246553],[-117.97376554887389,34.067124297406465],[-117.97490706656836,34.06792598672295],[-117.97496284128476,34.06796022054149],[-117.9750347092552,34.067972235637846],[-117.97512910434484,34.06792832802223],[-117.97524495710655,34.06781776415466],[-117.97598628234287,34.06713448348274],[-117.97690030450438,34.066265616227795],[-117.97765101747228,34.06553566241646],[-117.97858412065315,34.06457906268907],[-117.97867232799436,34.06450901961574],[-117.97877662858964,34.06446119611944],[-117.97896874924028,34.064450490095595],[-117.9792467005794,34.06452421865122],[-117.97995280696249,34.06470722688533],[-117.98117190067958,34.06503324710978],[-117.98211605311272,34.06564342178623],[-117.98219116982509,34.06578032259714],[-117.98227433316444,34.0658294571032],[-117.98251573569075,34.06588451280918],[-117.98274640938102,34.065992894648936],[-117.98306425486426,34.06620570653473],[-117.98310784261824,34.0662265685196],[-117.9831836168804,34.066185216818255],[-117.98451807530496,34.06481084679534],[-117.98518664562177,34.064114765535905],[-117.98577171732305,34.063523415448586],[-117.9859491674938,34.063339451338486],[-117.98588084540368,34.06328244398833],[-117.98310647787096,34.066161708896765],[-117.9828367600298,34.06596717443912],[-117.98258849986075,34.06583485351865],[-117.979422,34.069745],[-117.98222340776442,34.06575129849487],[-117.98214278565884,34.065611755955246],[-117.98170811196329,34.0653211213564],[-117.98134854012014,34.06508381250245],[-117.98121971616985,34.06501292973742],[-117.98107479896544,34.064953156665254],[-117.9791724894333,34.06444608504856],[-117.97892407342913,34.06439919108287],[-117.9787614881134,34.06442784390336],[-117.97862353379011,34.06449022026126],[-117.97852313039304,34.06458814793863],[-117.97773339927912,34.06538598916199],[-117.97689538840294,34.06617937903703],[-117.97599184284688,34.06705068923636],[-117.97501855985642,34.067930877965175],[-117.9737572982788,34.067061656055685],[-117.97318,34.06759],[-117.97306555290224,34.067694840637714],[-117.97304319807051,34.06775170466182],[-117.9730878984642,34.067855228018786],[-117.9767298850918,34.070554063533685],[-117.976885,34.07072],[-117.97776683998109,34.071330642076724],[-117.969615,34.078944],[-117.9647799589691,34.08355656672857],[-117.96451533628462,34.083998807893735],[-117.96444739795874,34.08422881338963],[-117.96446529032136,34.08444993250543],[-117.96451805140116,34.08480655835631],[-117.96467810084154,34.08515429702383],[-117.9646924278946,34.08546768803314],[-117.963879,34.085629],[-117.96244949867248,34.08597321226752],[-117.962286,34.085962],[-117.96218480324936,34.0860525212707],[-117.9604742810898,34.08644959433221],[-117.96043825306609,34.08631450598467],[-117.96042368271446,34.0853574978164],[-117.960295698133,34.085078917930616],[-117.96010334053516,34.08492473710219],[-117.95925728538894,34.08432092329065],[-117.9591997996931,34.08432689324145],[-117.95914767841528,34.084350634725965],[-117.9575157360277,34.08595047386266],[-117.9573,34.086253]]}}]}