{"type":"FeatureCollection","features":[{"type":"Feature","properties":{"agency":"Brightline","shape_id":"1"},"geometry":{"type":"LineString","coordinates":[[-80.19589,25.78015],[-80.19609,25.78284],[-80.19611,25.78378],[-80.19614,25.78469],[-80.19623,25.78715],[-80.19622,25.78807],[-80.19562,25.79086],[-80.19484,25.79408],[-80.19403,25.79734],[-80.19325,25.8007],[-80.19249,25.80425],[-80.19163,25.80788],[-80.19071,25.81169],[-80.18994,25.81548],[-80.1891,25.81926],[-80.18829,25.823],[-80.18762,25.82552],[-80.18777,25.82878],[-80.18789,25.83209],[-80.18812,25.83545],[-80.1883,25.83885],[-80.18848,25.84225],[-80.18865,25.84564],[-80.18883,25.84904],[-80.18887,25.85084],[-80.18857,25.85195],[-80.18753,25.85418],[-80.18613,25.85725],[-80.18473,25.8603],[-80.18332,25.86335],[-80.18192,25.8664],[-80.18051,25.86945],[-80.1791,25.8725],[-80.1777,25.87555],[-80.17629,25.8786],[-80.17489,25.88165],[-80.17348,25.8847],[-80.17208,25.88775],[-80.17067,25.8908],[-80.16927,25.89373],[-80.16834,25.89503],[-80.16637,25.89709],[-80.16428,25.89912],[-80.1622,25.90126],[-80.16021,25.90341],[-80.15985,25.90394],[-80.15958,25.9045],[-80.1593,25.90512],[-80.15903,25.90586],[-80.15887,25.90673],[-80.15875,25.90763],[-80.15854,25.90928],[-80.15832,25.91093],[-80.15811,25.91258],[-80.15789,25.91423],[-80.15767,25.91522],[-80.15726,25.91647],[-80.15685,25.91771],[-80.15647,25.919],[-80.15548,25.92215],[-80.15449,25.9253],[-80.15351,25.92844],[-80.15252,25.93159],[-80.15153,25.93473],[-80.15054,25.93788],[-80.14956,25.94102],[-80.14857,25.94417],[-80.14758,25.94731],[-80.1472,25.94875],[-80.14705,25.94953],[-80.14703,25.95066],[-80.14711,25.95295],[-80.1472,25.95571],[-80.14728,25.95846],[-80.14737,25.96122],[-80.14745,25.96398],[-80.14754,25.96674],[-80.14763,25.9695],[-80.14771,25.97226],[-80.14781,25.97502],[-80.14791,25.97778],[-80.148,25.98053],[-80.1481,25.98329],[-80.1482,25.98605],[-80.14829,25.98881],[-80.14839,25.99157],[-80.14848,25.99432],[-80.14858,25.99708],[-80.14868,25.99984],[-80.14877,26.0026],[-80.14887,26.00536],[-80.14897,26.00811],[-80.14906,26.01087],[-80.14915,26.01364],[-80.14924,26.0168],[-80.14932,26.01996],[-80.14943,26.02315],[-80.14955,26.02633],[-80.14967,26.02951],[-80.14978,26.03269],[-80.1499,26.03587],[-80.14985,26.03787],[-80.14956,26.0392],[-80.14927,26.04053],[-80.14885,26.04192],[-80.14818,26.04462],[-80.14751,26.04732],[-80.14678,26.05003],[-80.14607,26.05275],[-80.14538,26.05544],[-80.1447,26.05828],[-80.14401,26.06113],[-80.14368,26.06228],[-80.14324,26.06311],[-80.14253,26.06395],[-80.14162,26.06485],[-80.1406,26.06577],[-80.13958,26.06669],[-80.13856,26.0676],[-80.13754,26.06852],[-80.13704,26.06905],[-80.13662,26.0696],[-80.13624,26.07015],[-80.13592,26.07074],[-80.13565,26.0715],[-80.13542,26.07246],[-80.13535,26.07343],[-80.13539,26.07442],[-80.1356,26.07542],[-80.136,26.07649],[-80.13655,26.07743],[-80.13729,26.07834],[-80.13822,26.07926],[-80.13895,26.08044],[-80.13957,26.08184],[-80.14003,26.08338],[-80.14047,26.08547],[-80.14096,26.08781],[-80.14153,26.09031],[-80.14208,26.09291],[-80.14262,26.09549],[-80.14315,26.09847],[-80.1439,26.10167],[-80.14441,26.10422],[-80.14492,26.10676],[-80.14499,26.10768],[-80.14513,26.11073],[-80.14523,26.11384],[-80.14532,26.11697],[-80.1454,26.1201],[-80.14549,26.12324],[-80.14563,26.12637],[-80.14564,26.12727],[-80.14553,26.12811],[-80.14535,26.12893],[-80.14502,26.12973],[-80.14457,26.1305],[-80.14407,26.13126],[-80.14332,26.1321],[-80.14241,26.13299],[-80.14145,26.13399],[-80.14042,26.13507],[-80.13938,26.13618],[-80.13833,26.13729],[-80.13724,26.1384],[-80.13615,26.1395],[-80.13505,26.14061],[-80.13395,26.14177],[-80.13286,26.14293],[-80.13221,26.1438],[-80.13183,26.1443],[-80.13151,26.1449],[-80.13124,26.1456],[-80.13103,26.14643],[-80.13088,26.14727],[-80.13085,26.14815],[-80.13086,26.14914],[-80.13091,26.15203],[-80.131,26.15487],[-80.13107,26.15771],[-80.13115,26.16055],[-80.13122,26.16339],[-80.1313,26.16623],[-80.13137,26.16906],[-80.13145,26.17189],[-80.13156,26.17474],[-80.13164,26.17764],[-80.13169,26.18055],[-80.13175,26.18344],[-80.13182,26.18634],[-80.1319,26.18924],[-80.13197,26.19214],[-80.13205,26.19504],[-80.13212,26.19793],[-80.1322,26.20083],[-80.13229,26.20376],[-80.13239,26.20668],[-80.13236,26.20819],[-80.13215,26.20918],[-80.13169,26.21085],[-80.13094,26.21348],[-80.13018,26.21631],[-80.12933,26.21915],[-80.12851,26.22207],[-80.12751,26.22562],[-80.12651,26.22914],[-80.12555,26.23267],[-80.12453,26.23618],[-80.12351,26.2397],[-80.12255,26.24325],[-80.12155,26.24681],[-80.1204,26.25098],[-80.11938,26.25449],[-80.11839,26.258],[-80.11739,26.26151],[-80.11637,26.26502],[-80.11535,26.26854],[-80.11433,26.27207],[-80.11331,26.27559],[-80.11231,26.27914],[-80.11139,26.28237],[-80.11047,26.28561],[-80.10954,26.28885],[-80.10862,26.29209],[-80.1077,26.29534],[-80.10679,26.29863],[-80.10587,26.30191],[-80.1049,26.30522],[-80.10399,26.30864],[-80.10297,26.31209],[-80.10202,26.31553],[-80.10102,26.31898],[-80.10068,26.32002],[-80.10025,26.3209],[-80.0989,26.32271],[-80.09716,26.32484],[-80.09543,26.32699],[-80.09367,26.32913],[-80.0919,26.33127],[-80.09154,26.33185],[-80.09121,26.3324],[-80.09094,26.33304],[-80.0907,26.33373],[-80.09054,26.3345],[-80.09037,26.33552],[-80.08987,26.33864],[-80.08936,26.34177],[-80.08887,26.34489],[-80.08835,26.34801],[-80.08784,26.35114],[-80.08741,26.35428],[-80.08687,26.35743],[-80.08639,26.36056],[-80.08586,26.36369],[-80.08538,26.36683],[-80.0849,26.36996],[-80.08436,26.37312],[-80.08386,26.3763],[-80.08338,26.37944],[-80.08289,26.38258],[-80.08237,26.38573],[-80.08187,26.38887],[-80.08138,26.39201],[-80.08089,26.39514],[-80.0804,26.39828],[-80.07992,26.40141],[-80.07944,26.40454],[-80.07895,26.40767],[-80.07847,26.41081],[-80.07798,26.41394],[-80.07742,26.41708],[-80.07691,26.42023],[-80.0764,26.42338],[-80.07591,26.42652],[-80.07541,26.42966],[-80.07492,26.4328],[-80.07443,26.43594],[-80.07393,26.43908],[-80.0734,26.44224],[-80.07286,26.4454],[-80.0724,26.44857],[-80.07187,26.45184],[-80.07135,26.45511],[-80.07082,26.45837],[-80.0703,26.46164],[-80.06977,26.4649],[-80.06925,26.46817],[-80.06872,26.47143],[-80.06819,26.4747],[-80.06769,26.47796],[-80.06715,26.48124],[-80.06658,26.4848],[-80.06603,26.48836],[-80.06547,26.49191],[-80.06488,26.49547],[-80.0644,26.49855],[-80.06391,26.50163],[-80.06341,26.50472],[-80.0629,26.50779],[-80.06241,26.51085],[-80.06193,26.51391],[-80.06143,26.51698],[-80.06094,26.52004],[-80.06045,26.5231],[-80.05998,26.52616],[-80.0595,26.52923],[-80.05898,26.53231],[-80.05845,26.53539],[-80.05799,26.53854],[-80.05748,26.54169],[-80.05697,26.54485],[-80.05648,26.548],[-80.05598,26.55115],[-80.05549,26.5543],[-80.05497,26.55744],[-80.05444,26.56059],[-80.05435,26.56145],[-80.05427,26.56289],[-80.05417,26.56465],[-80.05402,26.56877],[-80.05381,26.57274],[-80.05363,26.57672],[-80.05355,26.57791],[-80.05339,26.57869],[-80.05315,26.57948],[-80.0524,26.58197],[-80.05225,26.58263],[-80.05223,26.58324],[-80.05222,26.58581],[-80.05224,26.58864],[-80.05229,26.5902],[-80.05236,26.59092],[-80.05253,26.59167],[-80.05279,26.59244],[-80.05312,26.59322],[-80.05521,26.59712],[-80.05728,26.60092],[-80.05918,26.60461],[-80.05948,26.60545],[-80.05963,26.60626],[-80.05966,26.60695],[-80.05969,26.60763],[-80.0596,26.60949],[-80.05957,26.61227],[-80.05947,26.61512],[-80.0594,26.61796],[-80.05932,26.62079],[-80.05925,26.62363],[-80.05917,26.62647],[-80.0591,26.62931],[-80.05902,26.63215],[-80.05898,26.63499],[-80.05891,26.63782],[-80.05885,26.64063],[-80.05878,26.64343],[-80.05872,26.64623],[-80.05866,26.64903],[-80.05859,26.65183],[-80.05852,26.65463],[-80.05844,26.65743],[-80.05837,26.66023],[-80.05829,26.66303],[-80.05822,26.66583],[-80.05814,26.66863],[-80.05807,26.67143],[-80.05806,26.67446],[-80.05801,26.67608],[-80.05784,26.67711],[-80.05755,26.67803],[-80.05706,26.6793],[-80.05662,26.68054],[-80.05625,26.68161],[-80.05612,26.68232],[-80.05604,26.68305],[-80.05603,26.68386],[-80.05602,26.68472],[-80.0559,26.68765],[-80.05586,26.69061],[-80.05581,26.69357],[-80.05568,26.69658],[-80.05562,26.69959],[-80.05554,26.70252],[-80.05547,26.70546],[-80.05539,26.70839],[-80.05532,26.71197],[-80.05528,26.71567],[-80.05602,26.72088],[-80.0573,26.72995],[-80.05801,26.73432],[-80.05814,26.73533],[-80.0583,26.73642],[-80.05834,26.7367],[-80.05849,26.73798],[-80.05875,26.73972],[-80.05959,26.74553],[-80.05996,26.74822],[-80.06029,26.7499],[-80.06032,26.75082],[-80.06009,26.75511],[-80.05948,26.76307],[-80.05944,26.76453],[-80.05985,26.7661],[-80.06221,26.77192],[-80.06983,26.79019],[-80.07732,26.80813],[-80.08006,26.81443],[-80.08085,26.81592],[-80.08826,26.82419],[-80.09072,26.82701],[-80.09139,26.82856],[-80.09496,26.84181],[-80.09649,26.84745],[-80.09673,26.84917],[-80.09655,26.85403],[-80.09646,26.85671],[-80.0963,26.86149],[-80.09623,26.86365],[-80.09605,26.86888],[-80.09559,26.88268],[-80.09526,26.89243],[-80.09499,26.90052],[-80.09436,26.91886],[-80.09389,26.93262],[-80.09355,26.94282],[-80.09347,26.94347],[-80.09312,26.94418],[-80.08776,26.95068],[-80.08709,26.95216],[-80.08687,26.95375],[-80.08724,26.95513],[-80.09002,26.96144],[-80.09765,26.97813],[-80.09948,26.98192],[-80.10074,26.98398],[-80.10407,26.9897],[-80.10762,26.99817],[-80.11596,27.01816],[-80.11777,27.02245],[-80.11802,27.02372],[-80.11755,27.03639],[-80.11748,27.0383],[-80.11735,27.04444],[-80.1175,27.04553],[-80.11845,27.04747],[-80.11945,27.04905],[-80.12079,27.05096],[-80.12212,27.05252],[-80.12964,27.061],[-80.13451,27.06636],[-80.13582,27.06793],[-80.13632,27.0689],[-80.14014,27.07773],[-80.14892,27.09788],[-80.1607,27.11618],[-80.17079,27.13148],[-80.17134,27.13208],[-80.17205,27.13264],[-80.17312,27.13314],[-80.18054,27.13564],[-80.18533,27.13729],[-80.18647,27.13772],[-80.18766,27.13846],[-80.20618,27.15179],[-80.20996,27.1546],[-80.21113,27.1556],[-80.21215,27.15672],[-80.21734,27.16192],[-80.21953,27.16412],[-80.21953,27.16413],[-80.21952,27.16413],[-80.21951,27.16414],[-80.21952,27.16412],[-80.21953,27.16412],[-80.21953,27.16413],[-80.21953,27.16412],[-80.21954,27.16412],[-80.21952,27.16413],[-80.21953,27.16412],[-80.21953,27.16413],[-80.21954,27.16414],[-80.21953,27.16413],[-80.21951,27.16413],[-80.21953,27.16413],[-80.21952,27.16413],[-80.21953,27.16413],[-80.21953,27.16414],[-80.21953,27.16413],[-80.21954,27.16413],[-80.21952,27.16413],[-80.21953,27.16413],[-80.21952,27.16413],[-80.21952,27.16412],[-80.21954,27.16412],[-80.21951,27.16412],[-80.21952,27.16411],[-80.21952,27.16412],[-80.21954,27.16412],[-80.21953,27.16411],[-80.21953,27.16413],[-80.21952,27.16412],[-80.21951,27.16411],[-80.21953,27.16411],[-80.21952,27.16411],[-80.21951,27.16412],[-80.21952,27.16413],[-80.21951,27.16412],[-80.22002,27.16463],[-80.22262,27.16724],[-80.22416,27.16879],[-80.23492,27.17962],[-80.24685,27.1916],[-80.25431,27.19885],[-80.25884,27.20262],[-80.26115,27.20459],[-80.26167,27.20509],[-80.26186,27.20581],[-80.26159,27.20703],[-80.25981,27.21233],[-80.25909,27.21363],[-80.25779,27.21536],[-80.25584,27.21667],[-80.2517,27.2182],[-80.23837,27.22267],[-80.23104,27.22516],[-80.2269,27.22662],[-80.22551,27.22768],[-80.22451,27.22897],[-80.22381,27.23086],[-80.22367,27.23286],[-80.22702,27.24294],[-80.23009,27.25262],[-80.23107,27.25573],[-80.23561,27.2615],[-80.23978,27.26667],[-80.24227,27.27155],[-80.24513,27.27552],[-80.24736,27.27983],[-80.25067,27.28597],[-80.25716,27.29958],[-80.25998,27.30497],[-80.26771,27.32104],[-80.27024,27.32621],[-80.27185,27.33038],[-80.27701,27.33942],[-80.28009,27.34461],[-80.28677,27.35883],[-80.29094,27.36787],[-80.29477,27.37722],[-80.29926,27.3878],[-80.2999,27.38915],[-80.30328,27.39476],[-80.30867,27.4032],[-80.30997,27.40559],[-80.3126,27.41175],[-80.31354,27.41399],[-80.31451,27.41916],[-80.31666,27.42347],[-80.31859,27.42955],[-80.32384,27.44462],[-80.32565,27.44946],[-80.32644,27.45187],[-80.32655,27.45442],[-80.32806,27.45775],[-80.32907,27.46327],[-80.3297,27.46568],[-80.3335,27.4748],[-80.33595,27.48068],[-80.34364,27.49918],[-80.35149,27.51792],[-80.3596,27.53685],[-80.36147,27.54079],[-80.36806,27.55748],[-80.37139,27.56597],[-80.37533,27.576],[-80.3772,27.58071],[-80.37918,27.58606],[-80.38058,27.59506],[-80.38254,27.60286],[-80.38355,27.60701],[-80.38397,27.60811],[-80.38658,27.61237],[-80.38902,27.61644],[-80.39403,27.63018],[-80.39736,27.63922],[-80.39904,27.64376],[-80.40033,27.64826],[-80.40137,27.65227],[-80.40211,27.65468],[-80.40469,27.6609],[-80.4063,27.66455],[-80.40718,27.66707],[-80.41344,27.68777],[-80.41882,27.70555],[-80.41988,27.70904],[-80.42253,27.7176],[-80.4244,27.72366],[-80.42484,27.72498],[-80.42717,27.72941],[-80.43169,27.73779],[-80.43817,27.74984],[-80.44842,27.76885],[-80.45428,27.77995],[-80.458,27.78835],[-80.45963,27.79206],[-80.467,27.80877],[-80.46834,27.8118],[-80.47,27.81544],[-80.47119,27.81792],[-80.47247,27.82006],[-80.47362,27.82157],[-80.47496,27.82302],[-80.47661,27.82458],[-80.47848,27.82602],[-80.49128,27.8345],[-80.49407,27.83636],[-80.49724,27.83851],[-80.50019,27.8407],[-80.50082,27.84163],[-80.50124,27.84266],[-80.50155,27.84937],[-80.50156,27.84967],[-80.50229,27.86798],[-80.50273,27.87572],[-80.50329,27.87837],[-80.50787,27.88824],[-80.51741,27.90836],[-80.52329,27.92075],[-80.52692,27.92838],[-80.53659,27.94876],[-80.54613,27.96865],[-80.55243,27.97786],[-80.55587,27.98277],[-80.55724,27.98484],[-80.55831,27.98703],[-80.56757,28.00674],[-80.57138,28.01467],[-80.5764,28.0214],[-80.5789,28.02587],[-80.58894,28.04523],[-80.59808,28.06308],[-80.60037,28.06735],[-80.60133,28.06929],[-80.60189,28.07112],[-80.60238,28.07352],[-80.6038,28.077],[-80.60575,28.08074],[-80.60874,28.08662],[-80.61032,28.08879],[-80.61742,28.09607],[-80.62726,28.10611],[-80.63199,28.11089],[-80.63305,28.11288],[-80.63337,28.1148],[-80.6338,28.12362],[-80.63466,28.14167],[-80.63494,28.14271],[-80.6355,28.14372],[-80.64096,28.1512],[-80.64198,28.15286],[-80.6451,28.15965],[-80.65107,28.17234],[-80.65244,28.17466],[-80.65403,28.17698],[-80.65853,28.18371],[-80.65951,28.18577],[-80.66029,28.1877],[-80.66364,28.1967],[-80.67134,28.21687],[-80.67944,28.23811],[-80.68716,28.25839],[-80.69302,28.27382],[-80.69498,28.27892],[-80.7028,28.29978],[-80.70694,28.30677],[-80.70841,28.30927],[-80.71044,28.31169],[-80.71205,28.31418],[-80.71296,28.317],[-80.71435,28.32021],[-80.72506,28.33317],[-80.72613,28.33493],[-80.73202,28.35113],[-80.73546,28.36077],[-80.73696,28.36483],[-80.7373,28.36688],[-80.73725,28.36897],[-80.73735,28.37313],[-80.73754,28.37504],[-80.73854,28.37704],[-80.74027,28.37959],[-80.74306,28.38395],[-80.74963,28.39409],[-80.753,28.3994],[-80.75426,28.40039],[-80.76048,28.40302],[-80.76268,28.40363],[-80.76406,28.40368],[-80.769,28.40306],[-80.77103,28.40325],[-80.77776,28.40489],[-80.78358,28.40627],[-80.79665,28.40939],[-80.80388,28.41092],[-80.8067,28.41174],[-80.80844,28.41206],[-80.80982,28.4122],[-80.81112,28.41222],[-80.81509,28.41193],[-80.82662,28.41133],[-80.82987,28.4113],[-80.83282,28.41159],[-80.83615,28.4125],[-80.83822,28.41345],[-80.84047,28.41484],[-80.8429,28.41699],[-80.84972,28.42456],[-80.86505,28.4415],[-80.86707,28.44372],[-80.87109,28.44804],[-80.87342,28.44979],[-80.87558,28.4509],[-80.87804,28.45185],[-80.88082,28.45246],[-80.88291,28.45261],[-80.88638,28.45254],[-80.91212,28.45248],[-80.93408,28.45241],[-80.95805,28.45233],[-80.98091,28.45147],[-81.00517,28.45175],[-81.02814,28.45164],[-81.05288,28.45135],[-81.07863,28.45095],[-81.09789,28.45003],[-81.10619,28.45052],[-81.13407,28.45068],[-81.15762,28.45095],[-81.15896,28.45096],[-81.17295,28.45099],[-81.18374,28.45094],[-81.19736,28.45087],[-81.20331,28.45078],[-81.21431,28.4499],[-81.21749,28.44921],[-81.2205,28.44812],[-81.22505,28.44647],[-81.22802,28.44609],[-81.23133,28.44636],[-81.2405,28.45016],[-81.24348,28.45067],[-81.24684,28.45076],[-81.25026,28.45004],[-81.25493,28.44861],[-81.25812,28.44822],[-81.27634,28.44802],[-81.2812,28.44812],[-81.2914,28.44943],[-81.30169,28.45112],[-81.30407,28.45128],[-81.30578,28.45075],[-81.30679,28.44936],[-81.30627,28.44722],[-81.30607,28.44607],[-81.30611,28.44493],[-81.30745,28.44025],[-81.30756,28.43901],[-81.30515,28.43368],[-81.3045,28.4326],[-81.3041,28.43121],[-81.30425,28.43036],[-81.30463,28.42952],[-81.30605,28.42704],[-81.30624,28.42628],[-81.3063,28.42561],[-81.30629,28.42466],[-81.306,28.42079],[-81.30591,28.41978],[-81.30587,28.41886],[-81.30591,28.4184],[-81.30602,28.41806],[-81.3063,28.41765],[-81.30661,28.41733],[-81.30785,28.41593],[-81.30821,28.41539],[-81.30841,28.41483],[-81.30842,28.41423],[-81.30839,28.41308],[-81.30835,28.4108]]}},{"type":"Feature","properties":{"agency":"Brightline","shape_id":"2"},"geometry":{"type":"LineString","coordinates":[[-81.30835,28.4108],[-81.30839,28.41308],[-81.30842,28.41423],[-81.30841,28.41483],[-81.30821,28.41539],[-81.30785,28.41593],[-81.30661,28.41733],[-81.3063,28.41765],[-81.30602,28.41806],[-81.30591,28.4184],[-81.30587,28.41886],[-81.30591,28.41978],[-81.306,28.42079],[-81.30629,28.42466],[-81.3063,28.42561],[-81.30624,28.42628],[-81.30605,28.42704],[-81.30463,28.42952],[-81.30425,28.43036],[-81.3041,28.43121],[-81.3045,28.4326],[-81.30515,28.43368],[-81.30756,28.43901],[-81.30745,28.44025],[-81.30611,28.44493],[-81.30607,28.44607],[-81.30627,28.44722],[-81.30679,28.44936],[-81.30578,28.45075],[-81.30407,28.45128],[-81.30169,28.45112],[-81.2914,28.44943],[-81.2812,28.44812],[-81.27634,28.44802],[-81.25812,28.44822],[-81.25493,28.44861],[-81.25026,28.45004],[-81.24684,28.45076],[-81.24348,28.45067],[-81.2405,28.45016],[-81.23133,28.44636],[-81.22802,28.44609],[-81.22505,28.44647],[-81.2205,28.44812],[-81.21749,28.44921],[-81.21431,28.4499],[-81.20331,28.45078],[-81.19736,28.45087],[-81.18374,28.45094],[-81.17295,28.45099],[-81.15896,28.45096],[-81.15762,28.45095],[-81.13407,28.45068],[-81.10619,28.45052],[-81.09789,28.45003],[-81.07863,28.45095],[-81.05288,28.45135],[-81.02814,28.45164],[-81.00517,28.45175],[-80.98091,28.45147],[-80.95805,28.45233],[-80.93408,28.45241],[-80.91212,28.45248],[-80.88638,28.45254],[-80.88291,28.45261],[-80.88082,28.45246],[-80.87804,28.45185],[-80.87558,28.4509],[-80.87342,28.44979],[-80.87109,28.44804],[-80.86707,28.44372],[-80.86505,28.4415],[-80.84972,28.42456],[-80.8429,28.41699],[-80.84047,28.41484],[-80.83822,28.41345],[-80.83615,28.4125],[-80.83282,28.41159],[-80.82987,28.4113],[-80.82662,28.41133],[-80.81509,28.41193],[-80.81112,28.41222],[-80.80982,28.4122],[-80.80844,28.41206],[-80.8067,28.41174],[-80.80388,28.41092],[-80.79665,28.40939],[-80.78358,28.40627],[-80.77776,28.40489],[-80.77103,28.40325],[-80.769,28.40306],[-80.76406,28.40368],[-80.76268,28.40363],[-80.76048,28.40302],[-80.75426,28.40039],[-80.753,28.3994],[-80.74963,28.39409],[-80.74306,28.38395],[-80.74027,28.37959],[-80.73854,28.37704],[-80.73754,28.37504],[-80.73735,28.37313],[-80.73725,28.36897],[-80.7373,28.36688],[-80.73696,28.36483],[-80.73546,28.36077],[-80.73202,28.35113],[-80.72613,28.33493],[-80.72506,28.33317],[-80.71435,28.32021],[-80.71296,28.317],[-80.71205,28.31418],[-80.71044,28.31169],[-80.70841,28.30927],[-80.70694,28.30677],[-80.7028,28.29978],[-80.69498,28.27892],[-80.69302,28.27382],[-80.68716,28.25839],[-80.67944,28.23811],[-80.67134,28.21687],[-80.66364,28.1967],[-80.66029,28.1877],[-80.65951,28.18577],[-80.65853,28.18371],[-80.65403,28.17698],[-80.65244,28.17466],[-80.65107,28.17234],[-80.6451,28.15965],[-80.64198,28.15286],[-80.64096,28.1512],[-80.6355,28.14372],[-80.63494,28.14271],[-80.63466,28.14167],[-80.6338,28.12362],[-80.63337,28.1148],[-80.63305,28.11288],[-80.63199,28.11089],[-80.62726,28.10611],[-80.61742,28.09607],[-80.61032,28.08879],[-80.60874,28.08662],[-80.60575,28.08074],[-80.6038,28.077],[-80.60238,28.07352],[-80.60189,28.07112],[-80.60133,28.06929],[-80.60037,28.06735],[-80.59808,28.06308],[-80.58894,28.04523],[-80.5789,28.02587],[-80.5764,28.0214],[-80.57138,28.01467],[-80.56757,28.00674],[-80.55831,27.98703],[-80.55724,27.98484],[-80.55587,27.98277],[-80.55243,27.97786],[-80.54613,27.96865],[-80.53659,27.94876],[-80.52692,27.92838],[-80.52329,27.92075],[-80.51741,27.90836],[-80.50787,27.88824],[-80.50329,27.87837],[-80.50273,27.87572],[-80.50229,27.86798],[-80.50156,27.84967],[-80.50155,27.84937],[-80.50124,27.84266],[-80.50082,27.84163],[-80.50019,27.8407],[-80.49724,27.83851],[-80.49407,27.83636],[-80.49128,27.8345],[-80.47848,27.82602],[-80.47661,27.82458],[-80.47496,27.82302],[-80.47362,27.82157],[-80.47247,27.82006],[-80.47119,27.81792],[-80.47,27.81544],[-80.46834,27.8118],[-80.467,27.80877],[-80.45963,27.79206],[-80.458,27.78835],[-80.45428,27.77995],[-80.44842,27.76885],[-80.43817,27.74984],[-80.43169,27.73779],[-80.42717,27.72941],[-80.42484,27.72498],[-80.4244,27.72366],[-80.42253,27.7176],[-80.41988,27.70904],[-80.41882,27.70555],[-80.41344,27.68777],[-80.40718,27.66707],[-80.4063,27.66455],[-80.40469,27.6609],[-80.40211,27.65468],[-80.40137,27.65227],[-80.40033,27.64826],[-80.39904,27.64376],[-80.39736,27.63922],[-80.39403,27.63018],[-80.38902,27.61644],[-80.38658,27.61237],[-80.38397,27.60811],[-80.38355,27.60701],[-80.38254,27.60286],[-80.38058,27.59506],[-80.37918,27.58606],[-80.3772,27.58071],[-80.37533,27.576],[-80.37139,27.56597],[-80.36806,27.55748],[-80.36147,27.54079],[-80.3596,27.53685],[-80.35149,27.51792],[-80.34364,27.49918],[-80.33595,27.48068],[-80.3335,27.4748],[-80.3297,27.46568],[-80.32907,27.46327],[-80.32806,27.45775],[-80.32655,27.45442],[-80.32644,27.45187],[-80.32565,27.44946],[-80.32384,27.44462],[-80.31859,27.42955],[-80.31666,27.42347],[-80.31451,27.41916],[-80.31354,27.41399],[-80.3126,27.41175],[-80.30997,27.40559],[-80.30867,27.4032],[-80.30328,27.39476],[-80.2999,27.38915],[-80.29926,27.3878],[-80.29477,27.37722],[-80.29094,27.36787],[-80.28677,27.35883],[-80.28009,27.34461],[-80.27701,27.33942],[-80.27185,27.33038],[-80.27024,27.32621],[-80.26771,27.32104],[-80.25998,27.30497],[-80.25716,27.29958],[-80.25067,27.28597],[-80.24736,27.27983],[-80.24513,27.27552],[-80.24227,27.27155],[-80.23978,27.26667],[-80.23561,27.2615],[-80.23107,27.25573],[-80.23009,27.25262],[-80.22702,27.24294],[-80.22367,27.23286],[-80.22381,27.23086],[-80.22451,27.22897],[-80.22551,27.22768],[-80.2269,27.22662],[-80.23104,27.22516],[-80.23837,27.22267],[-80.2517,27.2182],[-80.25584,27.21667],[-80.25779,27.21536],[-80.25909,27.21363],[-80.25981,27.21233],[-80.26159,27.20703],[-80.26186,27.20581],[-80.26167,27.20509],[-80.26115,27.20459],[-80.25884,27.20262],[-80.25431,27.19885],[-80.24685,27.1916],[-80.23492,27.17962],[-80.22416,27.16879],[-80.22262,27.16724],[-80.22002,27.16463],[-80.21951,27.16412],[-80.21952,27.16413],[-80.21951,27.16412],[-80.21952,27.16411],[-80.21953,27.16411],[-80.21951,27.16411],[-80.21952,27.16412],[-80.21953,27.16413],[-80.21953,27.16411],[-80.21954,27.16412],[-80.21952,27.16412],[-80.21952,27.16411],[-80.21951,27.16412],[-80.21954,27.16412],[-80.21952,27.16412],[-80.21952,27.16413],[-80.21953,27.16413],[-80.21952,27.16413],[-80.21954,27.16413],[-80.21953,27.16413],[-80.21953,27.16414],[-80.21953,27.16413],[-80.21952,27.16413],[-80.21953,27.16413],[-80.21951,27.16413],[-80.21953,27.16413],[-80.21954,27.16414],[-80.21953,27.16413],[-80.21953,27.16412],[-80.21952,27.16413],[-80.21954,27.16412],[-80.21953,27.16412],[-80.21953,27.16413],[-80.21953,27.16412],[-80.21952,27.16412],[-80.21951,27.16414],[-80.21952,27.16413],[-80.21953,27.16413],[-80.21953,27.16412],[-80.21734,27.16192],[-80.21215,27.15672],[-80.21113,27.1556],[-80.20996,27.1546],[-80.20618,27.15179],[-80.18766,27.13846],[-80.18647,27.13772],[-80.18533,27.13729],[-80.18054,27.13564],[-80.17312,27.13314],[-80.17205,27.13264],[-80.17134,27.13208],[-80.17079,27.13148],[-80.1607,27.11618],[-80.14892,27.09788],[-80.14014,27.07773],[-80.13632,27.0689],[-80.13582,27.06793],[-80.13451,27.06636],[-80.12964,27.061],[-80.12212,27.05252],[-80.12079,27.05096],[-80.11945,27.04905],[-80.11845,27.04747],[-80.1175,27.04553],[-80.11735,27.04444],[-80.11748,27.0383],[-80.11755,27.03639],[-80.11802,27.02372],[-80.11777,27.02245],[-80.11596,27.01816],[-80.10762,26.99817],[-80.10407,26.9897],[-80.10074,26.98398],[-80.09948,26.98192],[-80.09765,26.97813],[-80.09002,26.96144],[-80.08724,26.95513],[-80.08687,26.95375],[-80.08709,26.95216],[-80.08776,26.95068],[-80.09312,26.94418],[-80.09347,26.94347],[-80.09355,26.94282],[-80.09389,26.93262],[-80.09436,26.91886],[-80.09499,26.90052],[-80.09526,26.89243],[-80.09559,26.88268],[-80.09605,26.86888],[-80.09623,26.86365],[-80.0963,26.86149],[-80.09646,26.85671],[-80.09655,26.85403],[-80.09673,26.84917],[-80.09649,26.84745],[-80.09496,26.84181],[-80.09139,26.82856],[-80.09072,26.82701],[-80.08826,26.82419],[-80.08085,26.81592],[-80.08006,26.81443],[-80.07732,26.80813],[-80.06983,26.79019],[-80.06221,26.77192],[-80.05985,26.7661],[-80.05944,26.76453],[-80.05948,26.76307],[-80.06032,26.75082],[-80.06029,26.7499],[-80.05996,26.74822],[-80.05959,26.74553],[-80.05875,26.73972],[-80.05849,26.73798],[-80.05834,26.7367],[-80.0583,26.73642],[-80.05814,26.73533],[-80.05801,26.73432],[-80.0573,26.72995],[-80.05602,26.72088],[-80.05528,26.71567],[-80.05532,26.71197],[-80.05539,26.70839],[-80.05547,26.70546],[-80.05554,26.70252],[-80.05562,26.69959],[-80.05568,26.69658],[-80.05581,26.69357],[-80.05586,26.69061],[-80.0559,26.68765],[-80.05602,26.68472],[-80.05603,26.68386],[-80.05604,26.68305],[-80.05612,26.68232],[-80.05625,26.68161],[-80.05662,26.68054],[-80.05706,26.6793],[-80.05755,26.67803],[-80.05784,26.67711],[-80.05801,26.67608],[-80.05806,26.67446],[-80.05807,26.67143],[-80.05814,26.66863],[-80.05822,26.66583],[-80.05829,26.66303],[-80.05837,26.66023],[-80.05844,26.65743],[-80.05852,26.65463],[-80.05859,26.65183],[-80.05866,26.64903],[-80.05872,26.64623],[-80.05878,26.64343],[-80.05885,26.64063],[-80.05891,26.63782],[-80.05898,26.63499],[-80.05902,26.63215],[-80.0591,26.62931],[-80.05917,26.62647],[-80.05925,26.62363],[-80.05932,26.62079],[-80.0594,26.61796],[-80.05947,26.61512],[-80.05957,26.61227],[-80.0596,26.60949],[-80.05969,26.60763],[-80.05966,26.60695],[-80.05963,26.60626],[-80.05948,26.60545],[-80.05918,26.60461],[-80.05728,26.60092],[-80.05521,26.59712],[-80.05312,26.59322],[-80.05279,26.59244],[-80.05253,26.59167],[-80.05236,26.59092],[-80.05229,26.5902],[-80.05224,26.58864],[-80.05222,26.58581],[-80.05223,26.58324],[-80.05225,26.58263],[-80.0524,26.58197],[-80.05315,26.57948],[-80.05339,26.57869],[-80.05355,26.57791],[-80.05363,26.57672],[-80.05381,26.57274],[-80.05402,26.56877],[-80.05417,26.56465],[-80.05427,26.56289],[-80.05435,26.56145],[-80.05444,26.56059],[-80.05497,26.55744],[-80.05549,26.5543],[-80.05598,26.55115],[-80.05648,26.548],[-80.05697,26.54485],[-80.05748,26.54169],[-80.05799,26.53854],[-80.05845,26.53539],[-80.05898,26.53231],[-80.0595,26.52923],[-80.05998,26.52616],[-80.06045,26.5231],[-80.06094,26.52004],[-80.06143,26.51698],[-80.06193,26.51391],[-80.06241,26.51085],[-80.0629,26.50779],[-80.06341,26.50472],[-80.06391,26.50163],[-80.0644,26.49855],[-80.06488,26.49547],[-80.06547,26.49191],[-80.06603,26.48836],[-80.06658,26.4848],[-80.06715,26.48124],[-80.06769,26.47796],[-80.06819,26.4747],[-80.06872,26.47143],[-80.06925,26.46817],[-80.06977,26.4649],[-80.0703,26.46164],[-80.07082,26.45837],[-80.07135,26.45511],[-80.07187,26.45184],[-80.0724,26.44857],[-80.07286,26.4454],[-80.0734,26.44224],[-80.07393,26.43908],[-80.07443,26.43594],[-80.07492,26.4328],[-80.07541,26.42966],[-80.07591,26.42652],[-80.0764,26.42338],[-80.07691,26.42023],[-80.07742,26.41708],[-80.07798,26.41394],[-80.07847,26.41081],[-80.07895,26.40767],[-80.07944,26.40454],[-80.07992,26.40141],[-80.0804,26.39828],[-80.08089,26.39514],[-80.08138,26.39201],[-80.08187,26.38887],[-80.08237,26.38573],[-80.08289,26.38258],[-80.08338,26.37944],[-80.08386,26.3763],[-80.08436,26.37312],[-80.0849,26.36996],[-80.08538,26.36683],[-80.08586,26.36369],[-80.08639,26.36056],[-80.08687,26.35743],[-80.08741,26.35428],[-80.08784,26.35114],[-80.08835,26.34801],[-80.08887,26.34489],[-80.08936,26.34177],[-80.08987,26.33864],[-80.09037,26.33552],[-80.09054,26.3345],[-80.0907,26.33373],[-80.09094,26.33304],[-80.09121,26.3324],[-80.09154,26.33185],[-80.0919,26.33127],[-80.09367,26.32913],[-80.09543,26.32699],[-80.09716,26.32484],[-80.0989,26.32271],[-80.10025,26.3209],[-80.10068,26.32002],[-80.10102,26.31898],[-80.10202,26.31553],[-80.10297,26.31209],[-80.10399,26.30864],[-80.1049,26.30522],[-80.10587,26.30191],[-80.10679,26.29863],[-80.1077,26.29534],[-80.10862,26.29209],[-80.10954,26.28885],[-80.11047,26.28561],[-80.11139,26.28237],[-80.11231,26.27914],[-80.11331,26.27559],[-80.11433,26.27207],[-80.11535,26.26854],[-80.11637,26.26502],[-80.11739,26.26151],[-80.11839,26.258],[-80.11938,26.25449],[-80.1204,26.25098],[-80.12155,26.24681],[-80.12255,26.24325],[-80.12351,26.2397],[-80.12453,26.23618],[-80.12555,26.23267],[-80.12651,26.22914],[-80.12751,26.22562],[-80.12851,26.22207],[-80.12933,26.21915],[-80.13018,26.21631],[-80.13094,26.21348],[-80.13169,26.21085],[-80.13215,26.20918],[-80.13236,26.20819],[-80.13239,26.20668],[-80.13229,26.20376],[-80.1322,26.20083],[-80.13212,26.19793],[-80.13205,26.19504],[-80.13197,26.19214],[-80.1319,26.18924],[-80.13182,26.18634],[-80.13175,26.18344],[-80.13169,26.18055],[-80.13164,26.17764],[-80.13156,26.17474],[-80.13145,26.17189],[-80.13137,26.16906],[-80.1313,26.16623],[-80.13122,26.16339],[-80.13115,26.16055],[-80.13107,26.15771],[-80.131,26.15487],[-80.13091,26.15203],[-80.13086,26.14914],[-80.13085,26.14815],[-80.13088,26.14727],[-80.13103,26.14643],[-80.13124,26.1456],[-80.13151,26.1449],[-80.13183,26.1443],[-80.13221,26.1438],[-80.13286,26.14293],[-80.13395,26.14177],[-80.13505,26.14061],[-80.13615,26.1395],[-80.13724,26.1384],[-80.13833,26.13729],[-80.13938,26.13618],[-80.14042,26.13507],[-80.14145,26.13399],[-80.14241,26.13299],[-80.14332,26.1321],[-80.14407,26.13126],[-80.14457,26.1305],[-80.14502,26.12973],[-80.14535,26.12893],[-80.14553,26.12811],[-80.14564,26.12727],[-80.14563,26.12637],[-80.14549,26.12324],[-80.1454,26.1201],[-80.14532,26.11697],[-80.14523,26.11384],[-80.14513,26.11073],[-80.14499,26.10768],[-80.14492,26.10676],[-80.14441,26.10422],[-80.1439,26.10167],[-80.14315,26.09847],[-80.14262,26.09549],[-80.14208,26.09291],[-80.14153,26.09031],[-80.14096,26.08781],[-80.14047,26.08547],[-80.14003,26.08338],[-80.13957,26.08184],[-80.13895,26.08044],[-80.13822,26.07926],[-80.13729,26.07834],[-80.13655,26.07743],[-80.136,26.07649],[-80.1356,26.07542],[-80.13539,26.07442],[-80.13535,26.07343],[-80.13542,26.07246],[-80.13565,26.0715],[-80.13592,26.07074],[-80.13624,26.07015],[-80.13662,26.0696],[-80.13704,26.06905],[-80.13754,26.06852],[-80.13856,26.0676],[-80.13958,26.06669],[-80.1406,26.06577],[-80.14162,26.06485],[-80.14253,26.06395],[-80.14324,26.06311],[-80.14368,26.06228],[-80.14401,26.06113],[-80.1447,26.05828],[-80.14538,26.05544],[-80.14607,26.05275],[-80.14678,26.05003],[-80.14751,26.04732],[-80.14818,26.04462],[-80.14885,26.04192],[-80.14927,26.04053],[-80.14956,26.0392],[-80.14985,26.03787],[-80.1499,26.03587],[-80.14978,26.03269],[-80.14967,26.02951],[-80.14955,26.02633],[-80.14943,26.02315],[-80.14932,26.01996],[-80.14924,26.0168],[-80.14915,26.01364],[-80.14906,26.01087],[-80.14897,26.00811],[-80.14887,26.00536],[-80.14877,26.0026],[-80.14868,25.99984],[-80.14858,25.99708],[-80.14848,25.99432],[-80.14839,25.99157],[-80.14829,25.98881],[-80.1482,25.98605],[-80.1481,25.98329],[-80.148,25.98053],[-80.14791,25.97778],[-80.14781,25.97502],[-80.14771,25.97226],[-80.14763,25.9695],[-80.14754,25.96674],[-80.14745,25.96398],[-80.14737,25.96122],[-80.14728,25.95846],[-80.1472,25.95571],[-80.14711,25.95295],[-80.14703,25.95066],[-80.14705,25.94953],[-80.1472,25.94875],[-80.14758,25.94731],[-80.14857,25.94417],[-80.14956,25.94102],[-80.15054,25.93788],[-80.15153,25.93473],[-80.15252,25.93159],[-80.15351,25.92844],[-80.15449,25.9253],[-80.15548,25.92215],[-80.15647,25.919],[-80.15685,25.91771],[-80.15726,25.91647],[-80.15767,25.91522],[-80.15789,25.91423],[-80.15811,25.91258],[-80.15832,25.91093],[-80.15854,25.90928],[-80.15875,25.90763],[-80.15887,25.90673],[-80.15903,25.90586],[-80.1593,25.90512],[-80.15958,25.9045],[-80.15985,25.90394],[-80.16021,25.90341],[-80.1622,25.90126],[-80.16428,25.89912],[-80.16637,25.89709],[-80.16834,25.89503],[-80.16927,25.89373],[-80.17067,25.8908],[-80.17208,25.88775],[-80.17348,25.8847],[-80.17489,25.88165],[-80.17629,25.8786],[-80.1777,25.87555],[-80.1791,25.8725],[-80.18051,25.86945],[-80.18192,25.8664],[-80.18332,25.86335],[-80.18473,25.8603],[-80.18613,25.85725],[-80.18753,25.85418],[-80.18857,25.85195],[-80.18887,25.85084],[-80.18883,25.84904],[-80.18865,25.84564],[-80.18848,25.84225],[-80.1883,25.83885],[-80.18812,25.83545],[-80.18789,25.83209],[-80.18777,25.82878],[-80.18762,25.82552],[-80.18829,25.823],[-80.1891,25.81926],[-80.18994,25.81548],[-80.19071,25.81169],[-80.19163,25.80788],[-80.19249,25.80425],[-80.19325,25.8007],[-80.19403,25.79734],[-80.19484,25.79408],[-80.19562,25.79086],[-80.19622,25.78807],[-80.19623,25.78715],[-80.19614,25.78469],[-80.19611,25.78378],[-80.19609,25.78284],[-80.19589,25.78015]]}}]}