{"type":"FeatureCollection","features":[{"type":"Feature","properties":{"agency":"Brown County Heartland Express","shape_id":"p_1426044"},"geometry":{"type":"LineString","coordinates":[[-94.483311,44.324414],[-94.483257,44.324357],[-94.483405,44.324285],[-94.483551,44.324213],[-94.483488,44.324148],[-94.483051,44.323693],[-94.482686,44.323314],[-94.482618,44.323243],[-94.482547,44.323174],[-94.482048,44.322687],[-94.481632,44.322287],[-94.480711,44.321321],[-94.4805,44.321087],[-94.480396,44.320976],[-94.480326,44.320897],[-94.480215,44.320768],[-94.479836,44.320321],[-94.479575,44.320027],[-94.479191,44.319615],[-94.478982,44.319399],[-94.478915,44.31933],[-94.478742,44.319151],[-94.478056,44.318429],[-94.477984,44.318353],[-94.477057,44.317373],[-94.476194,44.316468],[-94.47613,44.316399],[-94.476229,44.316351],[-94.477466,44.315744],[-94.477519,44.315774],[-94.477466,44.315744],[-94.478061,44.315452],[-94.477999,44.315386],[-94.477704,44.315073],[-94.477419,44.314772],[-94.477011,44.314339],[-94.476947,44.314272],[-94.476629,44.313936],[-94.476317,44.313606],[-94.476291,44.313582],[-94.476271,44.313565],[-94.476241,44.313542],[-94.47621,44.313524],[-94.476175,44.313508],[-94.476155,44.313499],[-94.476123,44.313488],[-94.47604,44.313461],[-94.475856,44.313405],[-94.475807,44.313388],[-94.475751,44.313365],[-94.475671,44.313326],[-94.475615,44.313294],[-94.47558,44.313281],[-94.475527,44.313265],[-94.475487,44.313257],[-94.475398,44.313244],[-94.475253,44.313222],[-94.475135,44.313205],[-94.475067,44.313189],[-94.475008,44.313172],[-94.474978,44.313161],[-94.47493,44.313139],[-94.474885,44.313115],[-94.474857,44.313093],[-94.474808,44.313051],[-94.474734,44.31297],[-94.474636,44.312863],[-94.474611,44.312836],[-94.47455,44.312769],[-94.474335,44.312877],[-94.474165,44.312965],[-94.474024,44.313042],[-94.473937,44.313092],[-94.473817,44.313164],[-94.473547,44.31334],[-94.473457,44.313395],[-94.473342,44.31346],[-94.473226,44.313525],[-94.472609,44.313829],[-94.471931,44.314162],[-94.471249,44.314499],[-94.470573,44.314827],[-94.469886,44.315168],[-94.469205,44.315505],[-94.468522,44.315839],[-94.46794,44.316122],[-94.467847,44.316167],[-94.467753,44.316213],[-94.46716,44.316501],[-94.466575,44.316785],[-94.466488,44.316827],[-94.466383,44.316878],[-94.466286,44.316926],[-94.465805,44.31716],[-94.465283,44.317414],[-94.465244,44.317433],[-94.465134,44.317487],[-94.464578,44.316898],[-94.464211,44.31651],[-94.463628,44.315898],[-94.463354,44.31561],[-94.463279,44.315531],[-94.463127,44.315601],[-94.463034,44.315647],[-94.462991,44.315668],[-94.462774,44.315773],[-94.462469,44.315922],[-94.461888,44.316205],[-94.461775,44.31626],[-94.461708,44.316189],[-94.461559,44.316033],[-94.460925,44.315366],[-94.460845,44.315282],[-94.460771,44.315203],[-94.460029,44.31442],[-94.460002,44.314391],[-94.459925,44.314311],[-94.459846,44.314227],[-94.459452,44.31381],[-94.459072,44.313411],[-94.459001,44.313337],[-94.458901,44.313232],[-94.458833,44.31316],[-94.458447,44.312753],[-94.458059,44.312345],[-94.45798,44.312262],[-94.457912,44.31219],[-94.45783,44.312114],[-94.457763,44.312044],[-94.457548,44.311818],[-94.457136,44.311367],[-94.457061,44.311288],[-94.457174,44.311232],[-94.457743,44.310954],[-94.458274,44.310695],[-94.458315,44.310675],[-94.458412,44.310628],[-94.458556,44.310558],[-94.458033,44.310003],[-94.457632,44.30958],[-94.457105,44.309019],[-94.456713,44.308602],[-94.456255,44.308119],[-94.456171,44.30803],[-94.455783,44.307623],[-94.455226,44.307043],[-94.455032,44.30684],[-94.45485,44.306651],[-94.454293,44.306065],[-94.45392,44.305672],[-94.453367,44.305087],[-94.453,44.304698],[-94.452449,44.304121],[-94.452069,44.303722],[-94.45153,44.303153],[-94.451218,44.302824],[-94.45115,44.302751],[-94.451073,44.30267],[-94.450588,44.302159],[-94.45022,44.301771],[-94.449679,44.301198],[-94.449297,44.300794],[-94.448914,44.300383],[-94.448722,44.300179],[-94.448384,44.299817],[-94.447834,44.299238],[-94.447455,44.298839],[-94.447162,44.298535],[-94.446892,44.298254],[-94.446527,44.297874],[-94.445965,44.297276],[-94.445599,44.296887],[-94.445027,44.296285],[-94.44467,44.295909],[-94.444269,44.295487],[-94.444065,44.295272],[-94.443744,44.294934],[-94.443186,44.294346],[-94.443081,44.294238],[-94.44294,44.294101],[-94.44281,44.293974],[-94.44249,44.2937],[-94.442473,44.293685],[-94.442392,44.29362],[-94.442296,44.293548],[-94.442166,44.293459],[-94.442019,44.293362],[-94.441662,44.293138],[-94.441561,44.293075],[-94.441445,44.293013],[-94.440842,44.292691],[-94.440337,44.292421],[-94.439715,44.292084],[-94.439185,44.291804],[-94.438958,44.29168],[-94.438742,44.291535],[-94.438534,44.29138],[-94.438247,44.291144],[-94.438048,44.290977],[-94.437929,44.291039],[-94.437128,44.291435],[-94.436801,44.291597],[-94.435806,44.290507],[-94.434996,44.289672],[-94.433475,44.288104],[-94.432824,44.287441],[-94.432422,44.287021],[-94.43213,44.286701],[-94.432086,44.286626],[-94.432052,44.285388],[-94.432068,44.285289],[-94.432147,44.285205],[-94.43311,44.284717],[-94.433957,44.284289],[-94.4342,44.284193],[-94.434433,44.284146],[-94.434705,44.284111],[-94.434944,44.284112],[-94.435224,44.284154],[-94.435519,44.284185],[-94.43596,44.284183],[-94.436219,44.285698],[-94.436739,44.28874],[-94.436776,44.288916],[-94.436819,44.289101],[-94.436845,44.289202],[-94.436876,44.289307],[-94.4369,44.289383],[-94.436981,44.28958],[-94.437061,44.289761],[-94.43717,44.289972],[-94.437266,44.290135],[-94.437452,44.290465],[-94.437587,44.290652],[-94.437811,44.290918],[-94.437929,44.291039],[-94.438057,44.291159],[-94.438433,44.291481],[-94.438857,44.291766],[-94.439533,44.292124],[-94.439617,44.29217],[-94.439565,44.292206],[-94.439511,44.292239],[-94.439444,44.292275],[-94.439152,44.292425],[-94.439047,44.292479],[-94.438964,44.292521],[-94.439072,44.292634],[-94.439282,44.292854],[-94.439352,44.292926],[-94.439379,44.292948],[-94.439395,44.292961],[-94.439474,44.293008],[-94.439519,44.293045],[-94.439624,44.293157],[-94.439676,44.293213],[-94.439766,44.293308],[-94.439896,44.293446],[-94.439924,44.293485],[-94.439959,44.293547],[-94.439988,44.293586],[-94.440059,44.293662],[-94.440151,44.293762],[-94.440353,44.293664],[-94.440524,44.293579],[-94.440725,44.293479],[-94.440847,44.293418],[-94.441311,44.293195],[-94.44141,44.293148],[-94.441523,44.293218],[-94.441826,44.293414],[-94.44194,44.293487],[-94.442664,44.294039],[-94.442834,44.294197],[-94.442979,44.294344],[-94.443077,44.294444],[-94.443598,44.295006],[-94.444116,44.295552],[-94.444525,44.295996],[-94.445109,44.296596],[-94.44545,44.29696],[-94.446012,44.29755],[-94.446387,44.297942],[-94.446943,44.298524],[-94.44731,44.298908],[-94.447854,44.299475],[-94.448245,44.299883],[-94.448646,44.30031],[-94.44878,44.300453],[-94.449163,44.300857],[-94.449733,44.30146],[-94.450087,44.301835],[-94.450368,44.302129],[-94.450627,44.302402],[-94.450947,44.302737],[-94.451021,44.302815],[-94.451087,44.302884],[-94.451569,44.303391],[-94.451941,44.303781],[-94.452501,44.304373],[-94.452867,44.304761],[-94.453409,44.305333],[-94.453542,44.305474],[-94.453788,44.305735],[-94.454355,44.306333],[-94.454718,44.306716],[-94.455266,44.307298],[-94.455639,44.307695],[-94.456191,44.308282],[-94.456561,44.308675],[-94.457129,44.309272],[-94.457488,44.30965],[-94.457821,44.310005],[-94.457934,44.310126],[-94.458037,44.310234],[-94.458412,44.310628],[-94.458969,44.31122],[-94.459329,44.311602],[-94.459795,44.312096],[-94.459894,44.312202],[-94.460149,44.312471],[-94.460181,44.312505],[-94.460243,44.312571],[-94.460346,44.31268],[-94.460501,44.312606],[-94.460595,44.312559],[-94.461027,44.312349],[-94.46118,44.312274],[-94.461415,44.312159],[-94.461446,44.312144],[-94.461761,44.311991],[-94.461852,44.311946],[-94.46194,44.311904],[-94.463123,44.311335],[-94.463219,44.311288],[-94.463275,44.311347],[-94.463656,44.311747],[-94.464006,44.312118],[-94.464064,44.31218],[-94.464106,44.312225],[-94.464137,44.312258],[-94.464231,44.312213],[-94.464817,44.311927],[-94.46543,44.311628],[-94.465506,44.311591],[-94.46503,44.311094],[-94.464574,44.310617],[-94.465934,44.309946],[-94.466612,44.309608],[-94.46721,44.309331],[-94.467314,44.309283],[-94.467414,44.309235],[-94.46799,44.308961],[-94.468296,44.308815],[-94.468413,44.308747],[-94.468581,44.308628],[-94.468824,44.308518],[-94.468945,44.308462],[-94.46906,44.308408],[-94.469269,44.308308],[-94.46946,44.308211],[-94.469657,44.308111],[-94.470141,44.307863],[-94.470755,44.307542],[-94.47139,44.307226],[-94.471458,44.307193],[-94.47207,44.306894],[-94.473168,44.306348],[-94.473214,44.306325],[-94.473886,44.305991],[-94.474141,44.305864],[-94.474252,44.305809],[-94.475415,44.30523],[-94.475508,44.305184],[-94.475572,44.305253],[-94.475611,44.305295],[-94.476106,44.305826],[-94.4764,44.306135],[-94.477246,44.30704],[-94.477852,44.307678],[-94.478109,44.30794],[-94.478573,44.308422],[-94.478935,44.308813],[-94.47905,44.308757],[-94.479539,44.308519],[-94.479708,44.308436],[-94.480249,44.30817],[-94.480509,44.308042],[-94.480678,44.307959],[-94.480959,44.30782],[-94.481103,44.307973],[-94.481126,44.307993],[-94.481152,44.308007],[-94.481168,44.308016],[-94.481208,44.308034],[-94.481352,44.308084],[-94.481389,44.308091],[-94.481416,44.308093],[-94.48143,44.308091],[-94.481448,44.308088],[-94.481483,44.308078],[-94.481765,44.307938],[-94.481777,44.307929],[-94.481788,44.307921],[-94.4818,44.307907],[-94.481805,44.307889],[-94.481809,44.307857],[-94.481799,44.307769],[-94.481793,44.307727],[-94.481785,44.307699],[-94.481777,44.307677],[-94.481767,44.307657],[-94.481745,44.307625],[-94.481702,44.307579],[-94.48162,44.307493],[-94.480959,44.30782],[-94.480678,44.307959],[-94.480509,44.308042],[-94.480249,44.30817],[-94.479539,44.308519],[-94.47905,44.308757],[-94.478935,44.308813],[-94.479081,44.308968],[-94.479307,44.309209],[-94.479718,44.309641],[-94.479909,44.309842],[-94.479987,44.309924],[-94.480608,44.310587],[-94.481069,44.311074],[-94.481821,44.311866],[-94.481875,44.31198],[-94.481889,44.312001],[-94.48192,44.312043],[-94.482043,44.312187],[-94.48219,44.312346],[-94.482709,44.312922],[-94.483397,44.313645],[-94.484088,44.314369],[-94.485204,44.315555],[-94.485628,44.316],[-94.48587,44.316261],[-94.48593,44.316325],[-94.486003,44.3164],[-94.486537,44.316938],[-94.486657,44.317065],[-94.487239,44.317685],[-94.487345,44.317795],[-94.487413,44.317867],[-94.487462,44.317915],[-94.487517,44.317967],[-94.487538,44.317984],[-94.487572,44.318013],[-94.487629,44.318056],[-94.487681,44.31809],[-94.487753,44.318135],[-94.487844,44.318185],[-94.487932,44.318227],[-94.488007,44.318259],[-94.488065,44.318281],[-94.488097,44.318292],[-94.488154,44.318311],[-94.488211,44.318328],[-94.488256,44.318342],[-94.488419,44.318386],[-94.488698,44.318459],[-94.488902,44.318513],[-94.489096,44.318564],[-94.489802,44.31875],[-94.490049,44.318815],[-94.490747,44.318998],[-94.491029,44.319072],[-94.491235,44.319127],[-94.491429,44.319178],[-94.492894,44.319565],[-94.49354,44.319736],[-94.493877,44.319826],[-94.493954,44.319849],[-94.494019,44.319869],[-94.494052,44.319882],[-94.494112,44.319906],[-94.494191,44.319941],[-94.494244,44.319966],[-94.494265,44.319977],[-94.49431,44.320001],[-94.494367,44.320036],[-94.494425,44.320075],[-94.494492,44.320123],[-94.494548,44.320172],[-94.494616,44.320236],[-94.494684,44.320307],[-94.495252,44.320929],[-94.495385,44.32108],[-94.495491,44.3212],[-94.495741,44.321475],[-94.496074,44.321842],[-94.496103,44.321875],[-94.496144,44.321927],[-94.49616,44.321947],[-94.496267,44.322076],[-94.496387,44.322229],[-94.496425,44.322282],[-94.496464,44.322336],[-94.496561,44.322475],[-94.496599,44.322532],[-94.49668,44.322667],[-94.49675,44.322789],[-94.496798,44.322876],[-94.496848,44.322976],[-94.496879,44.323041],[-94.496902,44.323088],[-94.496927,44.323148],[-94.496965,44.323237],[-94.497026,44.323394],[-94.49706,44.32349],[-94.497095,44.323594],[-94.497127,44.323698],[-94.497163,44.323833],[-94.49718,44.323909],[-94.497192,44.323965],[-94.497197,44.323986],[-94.497218,44.324098],[-94.497233,44.324207],[-94.497248,44.324312],[-94.497255,44.324388],[-94.497261,44.324457],[-94.497265,44.324539],[-94.497265,44.324634],[-94.497262,44.324767],[-94.497247,44.32572],[-94.497249,44.325945],[-94.497249,44.326229],[-94.495007,44.32622],[-94.49293,44.326211],[-94.492796,44.326213],[-94.492669,44.326218],[-94.492638,44.326219],[-94.492562,44.326223],[-94.492433,44.326231],[-94.492251,44.326248],[-94.492077,44.326271],[-94.491934,44.32629],[-94.491805,44.326308],[-94.491548,44.326352],[-94.491391,44.326384],[-94.491298,44.326405],[-94.491145,44.326442],[-94.490986,44.326485],[-94.490806,44.32654],[-94.490668,44.326585],[-94.490629,44.326598],[-94.490481,44.326651],[-94.490285,44.326728],[-94.490065,44.326821],[-94.489911,44.326888],[-94.489434,44.327108],[-94.4892,44.327218],[-94.48908,44.327274],[-94.488677,44.327461],[-94.488359,44.327609],[-94.488327,44.327624],[-94.48747,44.328022],[-94.48728,44.32811],[-94.487332,44.328161],[-94.487379,44.328207],[-94.487532,44.328357],[-94.487866,44.328675],[-94.48811,44.328908],[-94.488275,44.328829],[-94.488501,44.328721],[-94.488529,44.328706],[-94.48858,44.328675],[-94.488602,44.328662],[-94.488631,44.328643],[-94.488718,44.328578],[-94.488745,44.328552],[-94.488758,44.328538],[-94.488781,44.328507],[-94.488794,44.328488],[-94.488821,44.328432],[-94.488829,44.328405],[-94.488841,44.328345],[-94.488844,44.328318],[-94.488855,44.328157],[-94.488855,44.328155],[-94.488862,44.328101],[-94.488869,44.328056],[-94.488879,44.328015],[-94.488884,44.328],[-94.488905,44.327949],[-94.488935,44.327895],[-94.488959,44.327865],[-94.489003,44.327821],[-94.489052,44.327785],[-94.489118,44.327744],[-94.489185,44.327706],[-94.48927,44.32766],[-94.48945,44.327574],[-94.489748,44.327431],[-94.490213,44.327207],[-94.490325,44.327153],[-94.490558,44.327041],[-94.490761,44.326943],[-94.490962,44.326852],[-94.491118,44.326792],[-94.491277,44.326734],[-94.491292,44.326728],[-94.491444,44.326681],[-94.491536,44.326657],[-94.491689,44.326622],[-94.491918,44.326579],[-94.492127,44.326551],[-94.492318,44.32653],[-94.492537,44.326513],[-94.492688,44.326507],[-94.49275,44.326506],[-94.4929,44.326503],[-94.492928,44.326503],[-94.493057,44.326501],[-94.493637,44.326504],[-94.494055,44.326506],[-94.494229,44.326507],[-94.494428,44.326508],[-94.4958,44.32652],[-94.495872,44.326522],[-94.495958,44.32653],[-94.496003,44.326536],[-94.49605,44.326546],[-94.496114,44.326563],[-94.496173,44.326584],[-94.496206,44.326599],[-94.496263,44.32663],[-94.496467,44.326753],[-94.496512,44.326777],[-94.496547,44.326793],[-94.496607,44.326816],[-94.496674,44.326837],[-94.496759,44.326856],[-94.496852,44.326867],[-94.496976,44.326872],[-94.497327,44.326875],[-94.497468,44.326875],[-94.49766,44.326874],[-94.497751,44.326871],[-94.497807,44.326867],[-94.497907,44.326855],[-94.497965,44.326844],[-94.498034,44.326824],[-94.498105,44.326797],[-94.498182,44.326761],[-94.498307,44.32669],[-94.498418,44.326632],[-94.498501,44.326596],[-94.498556,44.326578],[-94.498621,44.32656],[-94.498692,44.326544],[-94.498727,44.326539],[-94.498764,44.326533],[-94.498845,44.326527],[-94.498896,44.326526],[-94.499034,44.326524],[-94.499576,44.326527],[-94.500383,44.326531],[-94.500732,44.326533],[-94.501535,44.326537],[-94.501647,44.326542],[-94.501721,44.326547],[-94.501823,44.32656],[-94.501843,44.326563],[-94.501897,44.326573],[-94.501908,44.326575],[-94.502013,44.326605],[-94.502078,44.32663],[-94.502188,44.326683],[-94.502247,44.326717],[-94.50234,44.326778],[-94.502586,44.326957],[-94.502606,44.326972],[-94.502635,44.326989],[-94.50268,44.327017],[-94.502726,44.327041],[-94.502811,44.327077],[-94.502873,44.327098],[-94.502976,44.327123],[-94.503054,44.327135],[-94.503139,44.327144],[-94.503271,44.327152],[-94.503274,44.327258],[-94.503279,44.327473],[-94.503285,44.32754],[-94.503293,44.32765],[-94.503302,44.327736],[-94.503322,44.327922],[-94.503352,44.328054],[-94.503526,44.328055],[-94.503901,44.328056],[-94.504115,44.328056],[-94.504333,44.328057],[-94.504569,44.328058],[-94.504779,44.328058],[-94.504996,44.328059],[-94.505227,44.32806],[-94.50545,44.328061],[-94.505657,44.328061],[-94.505874,44.328062],[-94.506107,44.328063],[-94.506325,44.328063],[-94.506556,44.328064],[-94.506556,44.328323],[-94.506556,44.328952],[-94.506559,44.329092],[-94.506549,44.3292],[-94.506505,44.329313],[-94.506403,44.329324],[-94.506189,44.32933],[-94.504952,44.32932],[-94.504812,44.329317],[-94.504523,44.32932],[-94.503975,44.329314],[-94.503509,44.329313],[-94.503338,44.329312],[-94.500824,44.329299],[-94.50064,44.329298],[-94.49857,44.329287],[-94.498461,44.329287],[-94.4984,44.329288],[-94.498334,44.329293],[-94.498239,44.329303],[-94.498176,44.329313],[-94.498107,44.329324],[-94.49785,44.329379],[-94.497739,44.329405],[-94.497685,44.329418],[-94.497672,44.329389],[-94.497426,44.328836],[-94.497393,44.328762],[-94.497357,44.328698],[-94.497341,44.32867],[-94.497327,44.328652],[-94.497305,44.328622],[-94.497285,44.328598],[-94.49723,44.32855],[-94.497173,44.328508],[-94.496869,44.328311],[-94.496823,44.328281],[-94.496737,44.328225],[-94.496526,44.328395],[-94.496002,44.328824],[-94.495554,44.329191],[-94.494932,44.329697],[-94.494619,44.329964],[-94.494564,44.330013],[-94.494505,44.330069],[-94.494446,44.330132],[-94.494381,44.330211],[-94.494329,44.330289],[-94.494304,44.330335],[-94.494286,44.330368],[-94.494265,44.330417],[-94.494241,44.330476],[-94.494224,44.330529],[-94.494195,44.33065],[-94.494181,44.330731],[-94.494178,44.330767],[-94.494175,44.330836],[-94.494175,44.330907],[-94.493999,44.330913],[-94.493275,44.330937],[-94.492715,44.330956],[-94.492591,44.330964],[-94.492533,44.330972],[-94.492452,44.330987],[-94.492399,44.330999],[-94.49234,44.331013],[-94.492303,44.331022],[-94.492237,44.331043],[-94.492188,44.331064],[-94.492068,44.331118],[-94.491212,44.331533],[-94.490975,44.33165],[-94.490814,44.331729],[-94.490903,44.331822],[-94.491981,44.332954],[-94.49191,44.333025],[-94.491862,44.333083],[-94.491838,44.333119],[-94.491825,44.333174],[-94.491819,44.333221],[-94.491816,44.333277],[-94.491815,44.333335],[-94.491813,44.333741],[-94.491799,44.335432],[-94.491797,44.336523],[-94.49179,44.336744],[-94.491794,44.337973],[-94.491793,44.33853],[-94.491785,44.338586],[-94.49177,44.33864],[-94.491745,44.338696],[-94.491768,44.338766],[-94.491773,44.338815],[-94.491773,44.339074],[-94.491757,44.340282],[-94.491743,44.340802],[-94.491756,44.341373],[-94.491762,44.341661],[-94.491781,44.342525],[-94.491768,44.342599],[-94.491754,44.342635],[-94.491734,44.342663],[-94.491671,44.3427],[-94.491603,44.342717],[-94.491486,44.34271],[-94.491423,44.342702],[-94.491339,44.342687],[-94.491286,44.342673],[-94.491231,44.342653],[-94.491162,44.342623],[-94.489957,44.341997],[-94.489814,44.341914],[-94.489687,44.341835],[-94.489592,44.341769],[-94.489503,44.341695],[-94.48946,44.34166],[-94.489416,44.341621],[-94.489392,44.341599],[-94.48933,44.34154],[-94.488969,44.341153],[-94.488284,44.340433],[-94.490213,44.33949],[-94.490471,44.33936],[-94.490516,44.339338],[-94.490599,44.339296],[-94.491564,44.338823],[-94.49162,44.338791],[-94.491659,44.338767],[-94.491704,44.338732],[-94.491745,44.338696],[-94.49177,44.33864],[-94.491785,44.338586],[-94.491793,44.33853],[-94.491794,44.337973],[-94.491793,44.337813],[-94.49179,44.336744],[-94.491797,44.336523],[-94.491799,44.335432],[-94.491813,44.333741],[-94.491815,44.333335],[-94.491816,44.333277],[-94.491819,44.333221],[-94.491825,44.333174],[-94.491838,44.333119],[-94.491862,44.333083],[-94.49191,44.333025],[-94.491981,44.332954],[-94.490903,44.331822],[-94.490814,44.331729],[-94.490183,44.331064],[-94.490092,44.330969],[-94.48955,44.330399],[-94.489179,44.330014],[-94.488854,44.329668],[-94.488579,44.329385],[-94.488248,44.329049],[-94.48811,44.328908],[-94.487866,44.328675],[-94.487532,44.328357],[-94.487379,44.328207],[-94.48728,44.32811],[-94.487092,44.328199],[-94.486898,44.328292],[-94.485666,44.328899],[-94.484471,44.329487],[-94.483311,44.330052],[-94.483106,44.33015],[-94.483029,44.330067],[-94.482999,44.330035],[-94.48263080946994,44.32963847674839],[-94.48215379954884,44.32984575965298]]}}]}