{"type":"FeatureCollection","features":[{"type":"Feature","properties":{"agency":"Burns Paiute Tribal Transit","shape_id":"p_1439109"},"geometry":{"type":"LineString","coordinates":[[-119.074763,43.609862],[-119.074895,43.610236],[-119.075607,43.610176],[-119.07601,43.61017],[-119.076281,43.610235],[-119.076486,43.610402],[-119.07656,43.610586],[-119.076535,43.610776],[-119.076445,43.610907],[-119.076174,43.611168],[-119.075683,43.611519],[-119.075116,43.611821],[-119.074391,43.612112],[-119.073785,43.612357],[-119.073533,43.612563],[-119.073328,43.612921],[-119.073243,43.613371],[-119.069966,43.613066],[-119.069526,43.613017],[-119.069124,43.612943],[-119.068141,43.612613],[-119.067182,43.612173],[-119.066536,43.611839],[-119.066015,43.611628],[-119.065587,43.611501],[-119.065098,43.611463],[-119.06223942494162,43.6115169144546],[-119.06219621690296,43.6116440057958],[-119.06213140484556,43.611696797504834],[-119.06200718173513,43.611696797504834],[-119.06189646113648,43.61175154441307],[-119.06188295862464,43.61193533724125],[-119.06188295862464,43.611941202960566],[-119.06189376063418,43.6121034876347],[-119.06183705008372,43.612138681843646],[-119.06172632948535,43.61214454754312],[-119.0616021063749,43.61212695044296],[-119.061582,43.611525],[-119.060149,43.611534],[-119.060008,43.611535],[-119.059735,43.611488],[-119.059554,43.611434],[-119.059426,43.611366],[-119.059314,43.611243],[-119.059203,43.611061],[-119.059122,43.606835],[-119.059123,43.603436],[-119.059189,43.600114],[-119.059175,43.599709],[-119.059123,43.599332],[-119.058875,43.597807],[-119.058836,43.59767],[-119.058768,43.597557],[-119.058677,43.597433],[-119.056071,43.594834],[-119.054624,43.593329],[-119.05454,43.593224],[-119.054461,43.593086],[-119.054448,43.592195],[-119.054445,43.591424],[-119.054449,43.590652],[-119.054451,43.589885],[-119.054449,43.589104],[-119.054448,43.588347],[-119.05445,43.587575],[-119.054448,43.587141],[-119.054452,43.58699],[-119.054453,43.586803],[-119.05445045669322,43.58604178282735],[-119.05657646414556,43.58604178282735],[-119.05655867682576,43.58675550806828],[-119.05655867682576,43.58675045600734],[-119.056564,43.586811],[-119.056564,43.587579],[-119.056565,43.588348],[-119.056565,43.589884],[-119.057626,43.589889],[-119.058686,43.589887],[-119.059571,43.589891],[-119.060633,43.589897],[-119.06073,43.589898],[-119.06167957995304,43.58991620813478],[-119.06168776954812,43.58951285335377],[-119.06160996839594,43.58931117494964],[-119.06162634758611,43.58876248763545],[-119.059579,43.588747],[-119.059572,43.588354],[-119.059575,43.588218],[-119.059579,43.587983],[-119.059587,43.587584],[-119.059612,43.58682],[-119.059622,43.586462],[-119.059628,43.586056],[-119.059618,43.585894],[-119.059627,43.585294],[-119.059632,43.584968],[-119.059634,43.584882],[-119.059645,43.584128],[-119.059652,43.583711],[-119.059661,43.583365],[-119.059669,43.582585],[-119.059671,43.582455],[-119.059674,43.582248],[-119.059691,43.581194],[-119.059691,43.581057],[-119.05971,43.579929],[-119.059705,43.579378],[-119.059703,43.578864],[-119.05972,43.578672],[-119.060211,43.57867],[-119.061805,43.578666],[-119.06418,43.578661],[-119.064744,43.578659],[-119.06532,43.578658],[-119.065864,43.578657],[-119.066437,43.578655],[-119.067017,43.578654],[-119.067589,43.578653],[-119.067815,43.578652],[-119.06815,43.578651],[-119.068703,43.57865],[-119.070001,43.578647],[-119.070775,43.578645],[-119.070872,43.578659],[-119.070952,43.57869],[-119.071662,43.577691],[-119.071864,43.577406],[-119.071943,43.577295],[-119.072161,43.576988],[-119.072228,43.576889],[-119.072754,43.576116],[-119.072901,43.575901],[-119.073647,43.574827],[-119.074421,43.573749],[-119.074967,43.57299],[-119.0740473076016,43.5726241475333],[-119.07371109880702,43.573046749098495],[-119.07370112543774,43.573052211215895],[-119.07326884227996,43.57367646680953],[-119.07341196305843,43.57382151097897],[-119.07417430025328,43.57408813956397],[-119.073647,43.574827],[-119.072901,43.575901],[-119.072754,43.576116],[-119.072228,43.576889],[-119.072161,43.576988],[-119.071943,43.577295],[-119.071864,43.577406],[-119.071662,43.577691],[-119.070952,43.57869],[-119.070762,43.578941],[-119.070683,43.579046],[-119.070623,43.579124],[-119.070456,43.579317],[-119.070388,43.579395],[-119.070158,43.579612],[-119.069906,43.579803],[-119.069602,43.580006],[-119.069526,43.579958],[-119.069415,43.57993],[-119.068706,43.579933],[-119.068146,43.579928],[-119.064748,43.579928],[-119.064181,43.579929],[-119.063593,43.579931],[-119.063051,43.579929],[-119.05971,43.579929],[-119.059691,43.581057],[-119.059691,43.581194],[-119.059674,43.582248],[-119.059671,43.582455],[-119.059669,43.582585],[-119.059661,43.583365],[-119.059652,43.583711],[-119.059645,43.584128],[-119.059634,43.584882],[-119.059632,43.584968],[-119.059627,43.585294],[-119.059618,43.585894],[-119.059308,43.585967],[-119.059105,43.586002],[-119.058903,43.586028],[-119.058685,43.586041],[-119.057628,43.586045],[-119.057304,43.586034],[-119.056826,43.586027],[-119.056563,43.586045],[-119.05656397039688,43.58647257670651],[-119.05655612846846,43.58676226521124],[-119.05656392295695,43.58675404769309],[-119.05656264214316,43.58681435033586],[-119.056133,43.58681],[-119.055519,43.586807],[-119.054453,43.586803],[-119.05232701089264,43.586801122526055],[-119.05232701089264,43.5860584058743],[-119.05232255273152,43.58556756201386],[-119.05294223711265,43.58558047900837],[-119.05294182699848,43.585596308698],[-119.05339648660976,43.58561171597117],[-119.05339,43.584899],[-119.054456,43.584896],[-119.054456,43.58456]]}}]}