{"type":"FeatureCollection","features":[{"type":"Feature","properties":{"agency":"Canby Area Transit","shape_id":"1"},"geometry":{"type":"LineString","coordinates":[[-122.6916,45.2632],[-122.691619544,45.263256605],[-122.691537015,45.263284891],[-122.691589,45.263357],[-122.691689,45.263494],[-122.691713,45.263527],[-122.691802,45.263648],[-122.691819,45.263671],[-122.691924,45.263815],[-122.691966,45.263871],[-122.692053,45.26399],[-122.692491,45.263835],[-122.692805,45.263724],[-122.693006,45.263653],[-122.693118,45.263613],[-122.693185,45.263703],[-122.693229,45.263764],[-122.693374,45.263905],[-122.693447,45.263996],[-122.693521,45.264102],[-122.693603,45.264219],[-122.693687,45.264328],[-122.69374,45.264397],[-122.693809,45.264492],[-122.693992,45.264746],[-122.69403,45.264797],[-122.694313,45.265172],[-122.69442329779795,45.265320901468414],[-122.694422,45.265318],[-122.694471,45.265384],[-122.694543,45.265494],[-122.694617,45.265606],[-122.694847,45.265958],[-122.694897,45.266033],[-122.694949,45.266105],[-122.695185,45.266436],[-122.695244,45.266518],[-122.695325,45.266654],[-122.695365,45.266834],[-122.695398,45.267134],[-122.695398,45.268713],[-122.69539,45.268965],[-122.6954,45.269456],[-122.695401,45.269481],[-122.6954,45.269631],[-122.695399,45.270035],[-122.695399,45.27003],[-122.695398,45.270252],[-122.694244,45.270245],[-122.693958,45.270246],[-122.693222,45.270249],[-122.692342,45.270254],[-122.69161,45.270259],[-122.69120591543228,45.27026662459281],[-122.69121474228368,45.27026560948977],[-122.6909,45.270274],[-122.689662,45.270281],[-122.688307,45.270285],[-122.687406,45.270285],[-122.686746,45.270286],[-122.686746,45.270812],[-122.686747,45.271371],[-122.686747,45.27223],[-122.68674867020312,45.27265546517532],[-122.68674829064037,45.272658398316594],[-122.686748,45.273634],[-122.686755,45.273935],[-122.686755,45.273996],[-122.686764,45.274538],[-122.686765,45.27457],[-122.686766,45.274638],[-122.686774,45.2751],[-122.686778,45.275351],[-122.686779,45.27552],[-122.68678,45.275765],[-122.686782,45.276056],[-122.686775,45.276493],[-122.686771,45.276793],[-122.686588,45.276844],[-122.685781,45.277062],[-122.685195,45.277221],[-122.684651,45.277369],[-122.684425,45.277431],[-122.683882,45.277581],[-122.683663,45.27764],[-122.682871,45.277857],[-122.682693,45.277906],[-122.682481,45.277967],[-122.681977,45.278105],[-122.681648,45.278192],[-122.68140123298468,45.27826005137624],[-122.68140296003692,45.27825906765281],[-122.681212,45.278314],[-122.680755,45.278439],[-122.680456,45.278522],[-122.680146,45.278607],[-122.679407,45.278807],[-122.679319,45.278832],[-122.679185,45.27887],[-122.67746,45.279324],[-122.676785,45.279504],[-122.676532,45.279568],[-122.676533,45.279187],[-122.676533,45.279106],[-122.676534,45.27888],[-122.676535,45.278687],[-122.676535,45.278578],[-122.676534,45.277937],[-122.676532,45.277873],[-122.676542,45.277616],[-122.676536,45.277294],[-122.676538,45.27717],[-122.676546,45.276711],[-122.676552,45.276361],[-122.676553,45.276009],[-122.67655576383252,45.27588727181268],[-122.67655966477317,45.27570472451248],[-122.6765626742853,45.27570842674231],[-122.676528,45.275035],[-122.676522,45.274846],[-122.676506,45.274322],[-122.676513,45.273974],[-122.676527,45.273636],[-122.676511,45.273118],[-122.676536,45.272555],[-122.676539,45.272247],[-122.676541,45.272135],[-122.676542,45.272085],[-122.676548,45.271802],[-122.676535,45.271374],[-122.676532,45.271238],[-122.676522,45.270701],[-122.676518374326,45.27057357672521],[-122.67651909203424,45.27057623213628],[-122.676515,45.270031],[-122.676515,45.26984],[-122.67651,45.269706],[-122.676484,45.269607],[-122.67645,45.269526],[-122.67641,45.269469],[-122.676389,45.26944],[-122.676405,45.269374],[-122.676299,45.269265],[-122.676169,45.269143],[-122.676043,45.269005],[-122.675914,45.268859],[-122.675478,45.268459],[-122.675234,45.268248],[-122.675076,45.268181],[-122.674991,45.268046],[-122.674902,45.267892],[-122.674842,45.267768],[-122.674816,45.267672],[-122.67480630412156,45.267623162097806],[-122.6748140959339,45.26762481246479],[-122.674797,45.267479],[-122.674796,45.267382],[-122.674793,45.267284],[-122.674776,45.266847],[-122.674764,45.266499],[-122.674756,45.266123],[-122.674746,45.265331],[-122.674734,45.265245],[-122.674719,45.265167],[-122.674704,45.26513],[-122.674686,45.265088],[-122.674595,45.264941],[-122.674517,45.264856],[-122.674406,45.264768],[-122.674284,45.264694],[-122.674248,45.264677],[-122.674188,45.264649],[-122.674145,45.264632],[-122.674085,45.264609],[-122.67391,45.264561],[-122.673703,45.264534],[-122.67348753001576,45.26453011970605],[-122.67313459936985,45.26453011970605],[-122.67314139850797,45.2645309358939],[-122.672388,45.264535],[-122.672123,45.264536],[-122.671808,45.264537],[-122.671507,45.264539],[-122.670825,45.264542],[-122.669738,45.264547],[-122.669011,45.264551],[-122.668838,45.264551],[-122.66869,45.264552],[-122.66807581130958,45.264553563303366],[-122.6680782358868,45.26455286616729],[-122.667702,45.264553],[-122.667517,45.264539],[-122.667347,45.264507],[-122.667156,45.264455],[-122.66698,45.264388],[-122.666846,45.264323],[-122.666734,45.264256],[-122.666649,45.264192],[-122.666539,45.264093],[-122.666465,45.264014],[-122.666374,45.263887],[-122.666304,45.263742],[-122.666259,45.263584],[-122.666253,45.263457],[-122.666257,45.263318],[-122.666259,45.263222],[-122.666273,45.262695],[-122.666275,45.262603],[-122.66627,45.262505],[-122.666268,45.262165],[-122.666273,45.262069],[-122.666337,45.261861],[-122.666355,45.261761],[-122.666353,45.261653],[-122.666343,45.261266],[-122.666335,45.261151],[-122.666298,45.261053],[-122.666234,45.260929],[-122.666193,45.260841],[-122.666181,45.260749],[-122.66618,45.260605],[-122.666175,45.260363],[-122.666183,45.259383],[-122.666792,45.259388],[-122.668041,45.259399],[-122.668115,45.2594],[-122.668978,45.259401],[-122.669467,45.259401],[-122.670025,45.259405],[-122.670104,45.259406],[-122.670638,45.259409],[-122.670855,45.259408],[-122.671086,45.259413],[-122.671217,45.259415],[-122.672774,45.259435],[-122.673033,45.25944],[-122.676333,45.259499],[-122.676447,45.259494],[-122.676557,45.259489],[-122.6768693817298,45.25948538889591],[-122.67686438311496,45.25948664246812],[-122.67822,45.259466],[-122.678736,45.259459],[-122.679014,45.259459],[-122.679673,45.259443],[-122.680315,45.259432],[-122.680421,45.259431],[-122.68069019040682,45.25943142915088],[-122.68068133233824,45.25943013442415],[-122.681116,45.259432],[-122.682061,45.25943],[-122.68256,45.259433],[-122.683826,45.259428],[-122.683972,45.259427],[-122.684388,45.259427],[-122.684764,45.259428],[-122.684895,45.259428],[-122.685222,45.259429],[-122.68557376123852,45.25942946019586],[-122.68555888920328,45.25943119530845],[-122.685985,45.259429],[-122.686301,45.259428],[-122.686751,45.25943],[-122.687582,45.25943],[-122.68849,45.259431],[-122.688899,45.259432],[-122.68944,45.259432],[-122.689543,45.259432],[-122.689681,45.259433],[-122.689801,45.259417],[-122.689909,45.259384],[-122.690017,45.259352],[-122.689971,45.259282],[-122.68981,45.259038],[-122.689502,45.258608],[-122.689405,45.258472],[-122.689184,45.258154],[-122.689026,45.257926],[-122.688971,45.257847],[-122.688906,45.257756],[-122.688689,45.257454],[-122.688613,45.257348],[-122.688269,45.256861],[-122.68817,45.256719],[-122.688025,45.256513],[-122.68797,45.256435],[-122.687929,45.256378],[-122.687871,45.256296],[-122.687685,45.256034],[-122.687558,45.255854],[-122.68739,45.255618],[-122.687122,45.255239],[-122.68709,45.2552],[-122.686974,45.255007],[-122.686926,45.254883],[-122.686902,45.254754],[-122.686902,45.254508],[-122.686907,45.25405],[-122.68691,45.253674],[-122.686911,45.253585],[-122.686931,45.252707],[-122.68694066029326,45.25249659216533],[-122.68693905463974,45.25249610022075],[-122.686946,45.252246],[-122.686949,45.252153],[-122.687077,45.252154],[-122.687575,45.252155],[-122.688258,45.252159],[-122.689203,45.252156],[-122.690848,45.252172],[-122.691684,45.25218],[-122.691989,45.252185],[-122.692117,45.252187],[-122.69226807475944,45.25219265298404],[-122.69226583002258,45.25219157920995],[-122.693369,45.252209],[-122.693856,45.252214],[-122.694392,45.252211],[-122.694847,45.252209],[-122.695276,45.252219],[-122.695384,45.252221],[-122.69553,45.252223],[-122.695864,45.252229],[-122.69609823855606,45.25223148070353],[-122.69609395013111,45.25222966996486],[-122.696593,45.252231],[-122.696899,45.252237],[-122.697222,45.252243],[-122.697244,45.252243],[-122.697389,45.252251],[-122.697535,45.25227],[-122.697607,45.252284],[-122.69771,45.252312],[-122.697817,45.252349],[-122.697954,45.252408],[-122.6981,45.252487],[-122.698276,45.252586],[-122.698471,45.25268],[-122.6986,45.252737],[-122.698735,45.252785],[-122.698839,45.252815],[-122.699014,45.252854],[-122.699116,45.252866],[-122.699213,45.252877],[-122.699386,45.252886],[-122.700273,45.252857],[-122.70089290432396,45.25285657098607],[-122.70088657671226,45.252855379855845],[-122.701198,45.25285],[-122.701301,45.252854],[-122.701446,45.252856],[-122.701643,45.25286],[-122.701816,45.25287],[-122.702016,45.252891],[-122.702149,45.252908],[-122.702344,45.252947],[-122.702407,45.252962],[-122.702512,45.252988],[-122.702663,45.253028],[-122.702837,45.253086],[-122.703045,45.253164],[-122.703166,45.253218],[-122.703291,45.253279],[-122.70342,45.25335],[-122.703569,45.253446],[-122.703685,45.253521],[-122.703802,45.253636],[-122.70387,45.253724],[-122.703895,45.253751],[-122.70392,45.253809],[-122.703968,45.253924],[-122.704018,45.254079],[-122.70403801209784,45.2541495274204],[-122.70403596179156,45.25415312450153],[-122.704066,45.25426],[-122.70408,45.254365],[-122.70408,45.254567],[-122.704079,45.254571],[-122.704071,45.254782],[-122.704067,45.2549],[-122.704061,45.25494],[-122.704048,45.254977],[-122.704008,45.255092],[-122.704004,45.255138],[-122.704001,45.25521],[-122.704,45.255368],[-122.703998,45.255648],[-122.703998,45.255705],[-122.703996,45.255846],[-122.703997,45.255987],[-122.703998,45.256058],[-122.704008,45.256275],[-122.7039853610694,45.25636089747735],[-122.70389737621504,45.25640769331673],[-122.70363928730887,45.25646137084996],[-122.7035161085132,45.25649715584348],[-122.70341639234492,45.2565301881256],[-122.70330756445291,45.25658153449524],[-122.703119107,45.256641102],[-122.702704167,45.25666567],[-122.702455978,45.256690239],[-122.702174,45.2568],[-122.701421,45.256973],[-122.701106,45.257047],[-122.701051,45.257061],[-122.70078,45.257131],[-122.700642,45.257169],[-122.70054,45.257202],[-122.700474,45.257225],[-122.700352,45.257272],[-122.700226,45.257338],[-122.700093,45.257425],[-122.700018,45.257482],[-122.699933,45.257552],[-122.69986,45.257672],[-122.6998,45.257785],[-122.699775,45.257858],[-122.699764,45.257907],[-122.699747,45.258015],[-122.699744,45.258126],[-122.699741,45.258232],[-122.699741,45.258266],[-122.69974,45.258296],[-122.699663,45.258323],[-122.699373,45.258427],[-122.699262,45.258467],[-122.699005,45.258559],[-122.69892,45.258589],[-122.698754,45.258649],[-122.698364,45.258788],[-122.698015,45.258913],[-122.697638,45.259048],[-122.697532,45.259086],[-122.697269,45.25918],[-122.69706759806526,45.25925393496635],[-122.6970687428907,45.25924785627379],[-122.696716,45.259378],[-122.696628,45.259409],[-122.696668,45.259466],[-122.696833,45.259709],[-122.696909,45.259819],[-122.696946,45.259873],[-122.697074,45.260055],[-122.697114,45.260114],[-122.69726,45.260322],[-122.697342,45.26041],[-122.697436,45.260511],[-122.697445,45.260524],[-122.697545,45.260663],[-122.697585,45.260719],[-122.697598,45.260736],[-122.697624,45.260773],[-122.697647,45.260804],[-122.697796,45.260981],[-122.697883,45.261086],[-122.697932,45.261154],[-122.698066,45.261337],[-122.698303,45.261662],[-122.698357,45.261736],[-122.698493,45.261688],[-122.699166,45.261454],[-122.69952958434816,45.26132938151417],[-122.69951905624244,45.26133119877389],[-122.699695,45.261269],[-122.699965,45.26117],[-122.700374,45.26102],[-122.700745,45.260884],[-122.700918,45.260821],[-122.701566,45.260597],[-122.702887,45.260129],[-122.70309,45.260409],[-122.703116,45.260445],[-122.703346,45.260762],[-122.7028657436854,45.26093049524377],[-122.70286791605898,45.26093358125513],[-122.702,45.261241],[-122.701831,45.261301],[-122.701473,45.261428],[-122.701389,45.261458],[-122.701513,45.261636],[-122.700362,45.262044],[-122.700263,45.262079],[-122.700176,45.262109],[-122.699771,45.262251],[-122.69912974392264,45.26247831083748],[-122.69913540501986,45.26247401436771],[-122.698929,45.262546],[-122.698817,45.262587],[-122.697622,45.263023],[-122.696436,45.263442],[-122.696292,45.263493],[-122.6962,45.263522],[-122.6955416159852,45.26375545015193],[-122.69554024119292,45.263754360056055],[-122.695101,45.263909],[-122.694972,45.263955],[-122.694869,45.263992],[-122.693829,45.264365],[-122.69374,45.264397],[-122.693687,45.264328],[-122.693603,45.264219],[-122.693521,45.264102],[-122.693447,45.263996],[-122.693374,45.263905],[-122.693229,45.263764],[-122.693185,45.263703],[-122.693118,45.263613],[-122.693069,45.26354],[-122.692848,45.263218],[-122.692714,45.263022],[-122.692671,45.262959],[-122.692591,45.262991],[-122.692397,45.263068],[-122.692263,45.263116],[-122.692191,45.263141],[-122.692050927,45.263111645],[-122.691619691,45.263256534]]}},{"type":"Feature","properties":{"agency":"Canby Area Transit","shape_id":"2"},"geometry":{"type":"LineString","coordinates":[[-122.6916,45.2632],[-122.691639,45.263257],[-122.691603,45.263269],[-122.69154,45.26329],[-122.691589,45.263357],[-122.691649,45.263336],[-122.692192,45.263141],[-122.692263,45.263116],[-122.692397,45.263068],[-122.692591,45.262991],[-122.692671,45.262959],[-122.692485,45.262745],[-122.692424,45.262664],[-122.692405,45.262639],[-122.692374,45.262597],[-122.69221,45.262378],[-122.692132,45.262274],[-122.692023,45.262313],[-122.691701,45.262427],[-122.690859,45.262726],[-122.690337,45.262912],[-122.690166,45.262972],[-122.689588,45.263177],[-122.689248,45.263299],[-122.688852,45.263441],[-122.688745,45.263479],[-122.68871,45.263492],[-122.688359,45.263629],[-122.688263,45.263667],[-122.688172,45.263702],[-122.68801,45.263771],[-122.687864,45.263831],[-122.687745,45.263888],[-122.687419,45.264043],[-122.687075,45.264208],[-122.686693,45.264379],[-122.686402,45.264503],[-122.68608,45.264628],[-122.68502,45.265014],[-122.68464,45.265152],[-122.68437,45.26525],[-122.684232,45.265252],[-122.684037,45.265318],[-122.683889,45.265367],[-122.683714,45.265429],[-122.683537,45.265492],[-122.682847,45.265738],[-122.682821,45.265755],[-122.682707,45.26583],[-122.682233,45.266016],[-122.682093,45.266071],[-122.681628,45.26624],[-122.681221,45.266398],[-122.680759,45.266589],[-122.680339,45.266763],[-122.680166,45.266835],[-122.679705,45.267032],[-122.678769,45.267454],[-122.678563,45.267553],[-122.678442,45.267568],[-122.678129,45.267723],[-122.677738,45.267917],[-122.677521,45.268034],[-122.677168,45.26823],[-122.677021,45.268314],[-122.676732,45.268488],[-122.67659,45.268576],[-122.676556,45.268597],[-122.67638854106194,45.268650025573486],[-122.676424,45.268678],[-122.676355,45.268722],[-122.676281,45.26877],[-122.676131,45.268868],[-122.676043,45.269005],[-122.675951,45.269074],[-122.675825,45.269169],[-122.675295,45.269562],[-122.675009,45.269775],[-122.674734,45.270006],[-122.674463,45.270235],[-122.674192,45.270464],[-122.673987,45.270637],[-122.673777,45.270833],[-122.673404,45.271202],[-122.673222,45.271382],[-122.672702,45.271931],[-122.671844,45.27287],[-122.670982,45.273825],[-122.67046,45.274394],[-122.670288,45.274586],[-122.670113,45.274779],[-122.669949,45.274961],[-122.669824,45.275099],[-122.669322,45.275653],[-122.669168,45.275824],[-122.668847,45.276177],[-122.66817,45.276924],[-122.667658,45.277496],[-122.666929,45.278309],[-122.665999,45.279348],[-122.665026,45.280409],[-122.664731,45.280732],[-122.662726,45.282926],[-122.662493,45.283149],[-122.662272,45.283352],[-122.661934,45.283638],[-122.661455,45.28399],[-122.660631,45.284576],[-122.659769,45.285162],[-122.659039,45.285709],[-122.657954,45.286489],[-122.657434,45.286866],[-122.657108,45.287101],[-122.656824,45.287331],[-122.6568566794468,45.28735143841671],[-122.6566377,45.28724717],[-122.65683390936408,45.28735499745958],[-122.656811,45.287341],[-122.656733,45.287405],[-122.656689,45.28744],[-122.656319,45.287806],[-122.656142,45.288011],[-122.656003,45.28821],[-122.655844,45.288467],[-122.655713,45.288724],[-122.655636,45.288903],[-122.655577,45.289072],[-122.655561,45.289128],[-122.655498,45.289342],[-122.65545,45.289679],[-122.655439,45.289928],[-122.655438,45.290164],[-122.655435,45.29095],[-122.655434,45.291216],[-122.655434,45.29125],[-122.655449,45.291651],[-122.655479,45.291858],[-122.655529,45.292069],[-122.655924,45.293501],[-122.655999,45.293758],[-122.65607,45.293999],[-122.656344,45.29493],[-122.656527,45.295452],[-122.656729,45.295885],[-122.656934,45.29624],[-122.657285,45.296719],[-122.657592,45.297049],[-122.657853,45.297328],[-122.658158,45.297633],[-122.658608,45.298083],[-122.659056,45.298531],[-122.659204,45.298671],[-122.659871,45.299217],[-122.660158,45.299468],[-122.660401,45.299713],[-122.66062,45.299978],[-122.661122,45.30064],[-122.661277,45.300818],[-122.661753,45.301319],[-122.662009,45.301606],[-122.662156,45.301834],[-122.662246,45.30199],[-122.662347,45.302235],[-122.662436,45.302492],[-122.662637,45.303093],[-122.662827,45.303724],[-122.662955,45.304149],[-122.662988,45.304281],[-122.663019,45.304432],[-122.663043,45.304565],[-122.663061,45.304706],[-122.663077,45.30486],[-122.663087,45.305049],[-122.663088,45.305182],[-122.663085,45.30525],[-122.663082,45.305317],[-122.663064,45.305536],[-122.663052,45.305641],[-122.663023,45.305815],[-122.662963,45.306098],[-122.662882,45.3064],[-122.662781,45.306672],[-122.662401,45.3077],[-122.661841,45.309202],[-122.661313,45.310593],[-122.660905,45.311467],[-122.660255,45.312614],[-122.659586,45.313747],[-122.659491,45.313948],[-122.659411,45.314167],[-122.659364,45.314323],[-122.65933,45.314505],[-122.659269,45.315259],[-122.659232,45.315454],[-122.659163,45.315685],[-122.659035,45.315975],[-122.658906,45.316228],[-122.658601,45.316884],[-122.658491,45.317166],[-122.658411,45.317455],[-122.658361,45.317716],[-122.658333,45.317971],[-122.658337,45.318258],[-122.658361,45.318544],[-122.658432,45.318811],[-122.658516,45.319156],[-122.658651,45.319579],[-122.658756,45.319933],[-122.658802,45.320129],[-122.658822,45.320294],[-122.65884,45.320512],[-122.658839,45.320659],[-122.65882,45.320878],[-122.658793,45.321023],[-122.658708,45.321306],[-122.65847,45.322004],[-122.658338,45.322421],[-122.65827,45.322703],[-122.658227,45.32299],[-122.658165,45.323714],[-122.658127,45.324007],[-122.658082,45.324224],[-122.658023,45.324434],[-122.657898,45.324777],[-122.657631,45.325454],[-122.657346,45.326138],[-122.657257,45.326341],[-122.657156,45.326546],[-122.657078,45.326685],[-122.657005,45.326808],[-122.656878,45.32699],[-122.656645,45.327296],[-122.655609,45.328507],[-122.655274,45.328889],[-122.654559,45.329704],[-122.653964,45.330414],[-122.65329,45.331198],[-122.652921,45.331619],[-122.652859,45.331684],[-122.6527,45.33185],[-122.652318,45.332239],[-122.651837,45.332656],[-122.650622,45.333727],[-122.649996,45.334259],[-122.649373,45.334815],[-122.649066,45.335072],[-122.648738,45.335331],[-122.648335,45.335625],[-122.648011,45.33585],[-122.6477,45.33605],[-122.647437,45.33621],[-122.647007,45.336454],[-122.646853,45.336541],[-122.646662,45.336636],[-122.646094,45.336923],[-122.64546,45.337216],[-122.642853,45.338405],[-122.641633,45.33896],[-122.64009,45.339662],[-122.639021,45.340151],[-122.638337,45.340477],[-122.637548,45.340852],[-122.637135,45.341049],[-122.636977,45.341124],[-122.636613,45.341297],[-122.636036,45.341576],[-122.635605,45.341784],[-122.635214,45.34197],[-122.635168,45.341992],[-122.634848,45.342144],[-122.63402,45.342522],[-122.633465,45.342764],[-122.63303,45.342955],[-122.6328,45.343057],[-122.632574,45.343159],[-122.632341,45.343268],[-122.632093,45.343391],[-122.631942,45.343471],[-122.631797,45.343554],[-122.63163,45.343646],[-122.63146,45.343744],[-122.631222,45.343879],[-122.630968,45.344019],[-122.630794,45.344104],[-122.630664,45.344167],[-122.630532,45.344228],[-122.630354,45.344305],[-122.630193,45.34437],[-122.629898,45.344484],[-122.629506,45.344639],[-122.629235,45.344749],[-122.629064,45.344821],[-122.628912,45.344887],[-122.628764,45.34496],[-122.628625,45.34503],[-122.628531,45.34508],[-122.62838,45.345162],[-122.628205,45.345266],[-122.628008,45.345384],[-122.627807,45.34551],[-122.627636,45.345613],[-122.627486,45.345698],[-122.627386,45.345756],[-122.627262,45.345815],[-122.627161,45.345862],[-122.627012,45.345926],[-122.626878,45.345978],[-122.62677,45.346016],[-122.626632,45.346061],[-122.626535,45.346088],[-122.626393,45.346125],[-122.626194,45.346174],[-122.626009,45.346215],[-122.625944,45.346229],[-122.625691,45.346287],[-122.624959,45.346444],[-122.623982,45.346655],[-122.623461,45.346767],[-122.622954,45.346878],[-122.622449,45.346986],[-122.621944,45.347098],[-122.621573,45.347185],[-122.621242,45.347271],[-122.620965,45.347346],[-122.620743,45.34741],[-122.620692,45.347426],[-122.6206359,45.34733798],[-122.620692,45.347426],[-122.62045,45.347503],[-122.620149,45.34761],[-122.619954,45.347685],[-122.619694,45.347795],[-122.619431,45.347909],[-122.618943,45.348142],[-122.618532,45.348365],[-122.61827,45.348519],[-122.618004,45.348683],[-122.617639,45.348932],[-122.617391,45.349118],[-122.616995,45.349437],[-122.616671,45.349718],[-122.616254,45.350098],[-122.616017,45.350304],[-122.615785,45.350492],[-122.615598,45.350625],[-122.615366,45.35078],[-122.615154,45.350923],[-122.615142,45.350931],[-122.615075,45.350977],[-122.614965,45.351057],[-122.614889,45.351112],[-122.61478,45.351197],[-122.614736,45.35123],[-122.614648,45.3513],[-122.614516,45.351406],[-122.614371,45.351526],[-122.614228,45.351651],[-122.613716,45.352113],[-122.613634,45.352189],[-122.613131,45.352655],[-122.612762,45.352994],[-122.612701,45.35305],[-122.612434,45.353286],[-122.612232,45.353462],[-122.612016,45.353648],[-122.611481,45.354088],[-122.611091,45.354406],[-122.609812,45.35545],[-122.609717,45.355533],[-122.609664,45.355589],[-122.609626,45.355634],[-122.609587,45.355688],[-122.609558,45.355761],[-122.609536,45.355833],[-122.609521,45.355904],[-122.609513,45.355979],[-122.60951,45.356066],[-122.609522,45.356142],[-122.609282,45.356298],[-122.608896,45.356618],[-122.608551,45.356889],[-122.60846,45.356944],[-122.608185,45.357112],[-122.607995,45.357228],[-122.607917,45.357277],[-122.607867,45.357272],[-122.607828,45.357274],[-122.607765,45.357297],[-122.607361,45.357507],[-122.607236,45.357569],[-122.607048,45.357663],[-122.606847,45.357764],[-122.60664,45.357867],[-122.60631,45.358031],[-122.606282,45.358046],[-122.606186,45.358098],[-122.606082,45.358162],[-122.606001,45.358218],[-122.605941,45.358271],[-122.605902,45.358309],[-122.605875,45.358346],[-122.605872,45.35837],[-122.605876,45.358398],[-122.605892,45.358427],[-122.605919,45.358468],[-122.605957,45.358507],[-122.606186,45.358732],[-122.606274,45.358799],[-122.606333,45.358853],[-122.606255,45.358891],[-122.605962,45.359033],[-122.605761,45.359131],[-122.605589,45.359215],[-122.605498,45.359259],[-122.605434,45.35929],[-122.605345,45.359334],[-122.605258,45.359376],[-122.605183,45.359413],[-122.605019,45.359494],[-122.604719,45.359644],[-122.604553,45.359726],[-122.604262,45.35987],[-122.604347,45.35996]]}},{"type":"Feature","properties":{"agency":"Canby Area Transit","shape_id":"3"},"geometry":{"type":"LineString","coordinates":[[-122.83897111508884,45.151609707801065],[-122.839058,45.151611],[-122.839063,45.15148],[-122.838116,45.151459],[-122.838021,45.151456],[-122.837943,45.151455],[-122.83714,45.151436],[-122.836917,45.151432],[-122.835972,45.15141],[-122.835859,45.151407],[-122.835771,45.151405],[-122.834911,45.151381],[-122.834291,45.151364],[-122.833774,45.15135],[-122.833214,45.151332],[-122.832868,45.151321],[-122.832453,45.151307],[-122.832389,45.151298],[-122.831989,45.151293],[-122.831462,45.15128],[-122.831328,45.151275],[-122.831131,45.151267],[-122.831019,45.151414],[-122.830729,45.151746],[-122.830501,45.152007],[-122.8304,45.152113],[-122.830171,45.152373],[-122.830151,45.152498],[-122.830024,45.152642],[-122.829977,45.152696],[-122.829401,45.153353],[-122.82913,45.153661],[-122.829074,45.153726],[-122.82898,45.153838],[-122.828817,45.154031],[-122.828686,45.154188],[-122.828259,45.15468],[-122.827373,45.155664],[-122.826057,45.157123],[-122.825961,45.15723],[-122.824885,45.158423],[-122.824631,45.158705],[-122.824294,45.159084],[-122.823939,45.159489],[-122.823855,45.159585],[-122.823376,45.160132],[-122.822978,45.160586],[-122.822505,45.16113],[-122.822132,45.161549],[-122.821988,45.161704],[-122.820763,45.163071],[-122.819791,45.164188],[-122.819492,45.164531],[-122.819109,45.164913],[-122.818919,45.165125],[-122.818598,45.165485],[-122.818334,45.165781],[-122.817509,45.166703],[-122.817303,45.166938],[-122.817082,45.167186],[-122.816504,45.167836],[-122.81569,45.168779],[-122.815586,45.168905],[-122.815249,45.169313],[-122.815209,45.169362],[-122.814717,45.169955],[-122.813974,45.170858],[-122.813201,45.171778],[-122.8124,45.172698],[-122.812213,45.17291],[-122.812069,45.17307],[-122.811733,45.17345],[-122.811676,45.173524],[-122.81158,45.173648],[-122.810669,45.174691],[-122.810322,45.175102],[-122.810098,45.175366],[-122.809742,45.175774],[-122.809692,45.175831],[-122.809457,45.176104],[-122.809337,45.176244],[-122.809273,45.176319],[-122.808804,45.176863],[-122.808754,45.17692],[-122.808715,45.176966],[-122.80848,45.177239],[-122.807901,45.177913],[-122.807465,45.178425],[-122.8069,45.179089],[-122.806591,45.179451],[-122.806313,45.179754],[-122.80546,45.18064],[-122.805356,45.180749],[-122.805181,45.180932],[-122.804944,45.181181],[-122.804853,45.181276],[-122.804759,45.181375],[-122.804505,45.18164],[-122.804165,45.181991],[-122.804117,45.182036],[-122.803623,45.182548],[-122.803286,45.1829],[-122.803079,45.183116],[-122.8026,45.183629],[-122.802221,45.184023],[-122.802187,45.184058],[-122.801452,45.184834],[-122.801402,45.184887],[-122.801079,45.185231],[-122.800817,45.185513],[-122.800615,45.185729],[-122.800331,45.186033],[-122.800277,45.18609],[-122.799959,45.186433],[-122.799909,45.186487],[-122.799733,45.186678],[-122.799493,45.186931],[-122.79945,45.186977],[-122.799322,45.187116],[-122.799117,45.187339],[-122.799053,45.187407],[-122.798758,45.187718],[-122.798534,45.187929],[-122.798217,45.188231],[-122.798123,45.188321],[-122.797863,45.188556],[-122.797479,45.188898],[-122.796965,45.189312],[-122.796474,45.189716],[-122.795711,45.190345],[-122.794643,45.191228],[-122.794563,45.191291],[-122.79297,45.19256],[-122.792765,45.192713],[-122.792394,45.192992],[-122.792048,45.193253],[-122.790269,45.19456],[-122.789783,45.19491],[-122.7892,45.195339],[-122.788903,45.195558],[-122.788688,45.195717],[-122.788554,45.195813],[-122.7884,45.195925],[-122.787848,45.196326],[-122.787712,45.196425],[-122.786511,45.197307],[-122.786097,45.197611],[-122.785184,45.198275],[-122.784795,45.198558],[-122.784339,45.198899],[-122.784127,45.198998],[-122.783673,45.199338],[-122.783466,45.199493],[-122.782713,45.200039],[-122.782432,45.200243],[-122.782335,45.200313],[-122.781748,45.200731],[-122.781589,45.200829],[-122.78134,45.20101],[-122.780777,45.201432],[-122.780572,45.201593],[-122.780386,45.201741],[-122.780232,45.201874],[-122.780016,45.202071],[-122.779655,45.20243],[-122.779399,45.202682],[-122.779066,45.203018],[-122.778497,45.203586],[-122.778247,45.203838],[-122.77798,45.204107],[-122.777077,45.205001],[-122.776929,45.20515],[-122.776918,45.205161],[-122.776837,45.205271],[-122.776177,45.205934],[-122.775813,45.206309],[-122.774191,45.207948],[-122.773587,45.208554],[-122.773529,45.208612],[-122.773162,45.208975],[-122.772695,45.209408],[-122.772224,45.209829],[-122.771719,45.210266],[-122.771337,45.210605],[-122.7711,45.210816],[-122.770907,45.210996],[-122.770718,45.211184],[-122.770519,45.211392],[-122.770257,45.211673],[-122.770159,45.211779],[-122.76976,45.212222],[-122.768927,45.21316],[-122.768564,45.213561],[-122.768486,45.213649],[-122.768043,45.214114],[-122.7677,45.214455],[-122.767254,45.214882],[-122.766869,45.215225],[-122.766488,45.215555],[-122.766136,45.215853],[-122.765761,45.216159],[-122.765628,45.21626],[-122.765235,45.216562],[-122.764735,45.216943],[-122.764326,45.217257],[-122.763904,45.217595],[-122.763679,45.217787],[-122.763431,45.218011],[-122.763045,45.218382],[-122.762887,45.218545],[-122.762395,45.21906],[-122.762096,45.219379],[-122.761546,45.219978],[-122.761327,45.220214],[-122.760918,45.220656],[-122.760884,45.220693],[-122.760614,45.220985],[-122.76007,45.22157],[-122.759318,45.222395],[-122.759132,45.222635],[-122.758976,45.222853],[-122.758877,45.22301],[-122.758776,45.223184],[-122.758667,45.223396],[-122.758632,45.223479],[-122.758558,45.223659],[-122.758473,45.223896],[-122.758272,45.224604],[-122.758256,45.224662],[-122.758244,45.224704],[-122.757972,45.225662],[-122.757904,45.225901],[-122.757828,45.226169],[-122.757792,45.226297],[-122.757722,45.22655],[-122.757565,45.227113],[-122.757546,45.227183],[-122.757049,45.228938],[-122.75697,45.229186],[-122.756881,45.229412],[-122.756795,45.229613],[-122.756655,45.229862],[-122.756476,45.230152],[-122.756354,45.230329],[-122.756308,45.230395],[-122.75625,45.230478],[-122.756058,45.23074],[-122.755909,45.230945],[-122.755857,45.231018],[-122.755771,45.23114],[-122.755582,45.231391],[-122.755496,45.231503],[-122.755443,45.231562],[-122.755342,45.231686],[-122.755281,45.231752],[-122.755217,45.231816],[-122.75515,45.231879],[-122.755079,45.23194],[-122.755006,45.232],[-122.754902,45.232076],[-122.754735,45.232189],[-122.754649,45.23224],[-122.754499,45.232323],[-122.75433,45.232403],[-122.754029,45.232527],[-122.753778,45.232617],[-122.753517,45.232702],[-122.753069,45.232834],[-122.752683,45.232934],[-122.752154,45.233065],[-122.75209,45.233081],[-122.751264,45.233287],[-122.750977,45.233355],[-122.750206,45.233536],[-122.748178,45.234029],[-122.747313,45.234232],[-122.746957,45.234337],[-122.746774,45.234407],[-122.746408,45.234571],[-122.746085,45.234726],[-122.74582,45.234875],[-122.745517,45.235066],[-122.74529,45.235221],[-122.744992,45.235435],[-122.744701,45.235657],[-122.74413,45.236114],[-122.743893,45.236286],[-122.74379,45.236351],[-122.743645,45.236443],[-122.743516,45.236515],[-122.743258,45.236648],[-122.743064,45.236738],[-122.742861,45.236824],[-122.742512,45.236959],[-122.742237,45.237056],[-122.741253,45.237367],[-122.740849,45.23749],[-122.740489,45.2376],[-122.740173,45.237696],[-122.739497,45.237902],[-122.739419,45.237927],[-122.739031,45.23805],[-122.738507,45.238207],[-122.738436,45.238236],[-122.73824,45.238316],[-122.738104,45.238373],[-122.737878,45.238467],[-122.737453,45.238664],[-122.737118,45.238836],[-122.736928,45.238949],[-122.736707,45.239122],[-122.736652,45.239165],[-122.736476,45.239299],[-122.736251,45.239489],[-122.736038,45.239692],[-122.735335,45.240432],[-122.734525,45.241299],[-122.734149,45.241697],[-122.734011,45.241844],[-122.733685,45.242189],[-122.733353,45.242524],[-122.732955,45.242903],[-122.732717,45.243113],[-122.732467,45.243318],[-122.732337,45.243416],[-122.732001,45.243652],[-122.731656,45.24388],[-122.731479,45.243993],[-122.730242,45.244782],[-122.729175,45.245456],[-122.727802,45.246335],[-122.726804,45.246966],[-122.725518,45.247787],[-122.724581,45.248378],[-122.723644,45.248947],[-122.722699,45.249548],[-122.722568,45.249632],[-122.721751,45.250156],[-122.721551,45.250285],[-122.721329,45.250428],[-122.720987,45.250647],[-122.720302,45.251075],[-122.71983,45.251375],[-122.718559,45.252174],[-122.718434,45.252252],[-122.717756,45.252674],[-122.717377,45.25286],[-122.717071,45.252997],[-122.7169,45.253062],[-122.716701,45.253137],[-122.716348,45.25326],[-122.716273,45.253282],[-122.715961,45.253375],[-122.715735,45.253433],[-122.715145,45.253584],[-122.714835,45.253662],[-122.71323,45.254066],[-122.711446,45.254516],[-122.710609,45.254729],[-122.709748,45.254948],[-122.709157,45.255098],[-122.70901,45.255084],[-122.707904,45.255347],[-122.707769,45.255384],[-122.707281,45.255505],[-122.706729,45.255649],[-122.705994,45.255829],[-122.705743,45.255894],[-122.705082,45.256065],[-122.704997,45.256087],[-122.70468,45.256176],[-122.704547,45.256214],[-122.704229,45.256306],[-122.704173,45.256339],[-122.704064,45.256402],[-122.703971,45.256432],[-122.703624,45.256547],[-122.703501,45.256592],[-122.703489,45.256596],[-122.703501,45.256592],[-122.703362,45.256644],[-122.702684,45.256943],[-122.702456,45.257056],[-122.701879,45.257369],[-122.701772,45.257431],[-122.701632,45.257514],[-122.70142,45.257673],[-122.701273,45.257787],[-122.700938,45.258046],[-122.700868,45.258101],[-122.700537,45.258357],[-122.700332,45.258516],[-122.699877,45.258869],[-122.699617,45.25908],[-122.699474,45.259195],[-122.699257,45.259371],[-122.69897,45.259605],[-122.698816,45.259712],[-122.698653,45.259825],[-122.69821,45.260036],[-122.697923,45.260173],[-122.697842,45.260207],[-122.697764,45.26024],[-122.697716,45.26026],[-122.697527,45.260338],[-122.697445,45.26037],[-122.697342,45.26041],[-122.697242,45.260446],[-122.696931,45.260557],[-122.696328,45.260772],[-122.696188,45.260822],[-122.695979,45.260897],[-122.6958,45.26096],[-122.695619,45.261025],[-122.695475,45.261076],[-122.69524,45.26116],[-122.694876,45.26129],[-122.69475,45.261335],[-122.694671,45.261363],[-122.694328,45.261486],[-122.694259,45.261511],[-122.694044,45.261588],[-122.693511,45.261779],[-122.693395,45.261821],[-122.692948,45.261981],[-122.692653,45.262087],[-122.692608,45.262103],[-122.692483,45.262148],[-122.692235,45.262237],[-122.692132,45.262274],[-122.69221,45.262378],[-122.692374,45.262597],[-122.692405,45.262639],[-122.692424,45.262664],[-122.692485,45.262745],[-122.692486,45.262833],[-122.692486,45.262849],[-122.692478,45.262915],[-122.692467,45.262996],[-122.692437,45.263035],[-122.692397,45.263068],[-122.692263,45.263116],[-122.692192,45.263141],[-122.69209,45.263106],[-122.691639,45.263257],[-122.691603,45.263269],[-122.69154,45.26329],[-122.691589,45.263357],[-122.691649,45.263336],[-122.692192,45.263141],[-122.692263,45.263116],[-122.692397,45.263068],[-122.692591,45.262991],[-122.692671,45.262959],[-122.692485,45.262745],[-122.692424,45.262664],[-122.692405,45.262639],[-122.692374,45.262597],[-122.69221,45.262378],[-122.692132,45.262274],[-122.692023,45.262313],[-122.691701,45.262427],[-122.690859,45.262726],[-122.690337,45.262912],[-122.690166,45.262972],[-122.689588,45.263177],[-122.689248,45.263299],[-122.688852,45.263441],[-122.688745,45.263479],[-122.68871,45.263492],[-122.688359,45.263629],[-122.688263,45.263667],[-122.688172,45.263702],[-122.68801,45.263771],[-122.687864,45.263831],[-122.687745,45.263888],[-122.687419,45.264043],[-122.687075,45.264208],[-122.686693,45.264379],[-122.686402,45.264503],[-122.68608,45.264628],[-122.68502,45.265014],[-122.68464,45.265152],[-122.68437,45.26525],[-122.684232,45.265252],[-122.684037,45.265318],[-122.683889,45.265367],[-122.683714,45.265429],[-122.683537,45.265492],[-122.682847,45.265738],[-122.682821,45.265755],[-122.682707,45.26583],[-122.682233,45.266016],[-122.682093,45.266071],[-122.681628,45.26624],[-122.681221,45.266398],[-122.680759,45.266589],[-122.680339,45.266763],[-122.680166,45.266835],[-122.679705,45.267032],[-122.678769,45.267454],[-122.678563,45.267553],[-122.678442,45.267568],[-122.678129,45.267723],[-122.677738,45.267917],[-122.677521,45.268034],[-122.677168,45.26823],[-122.677021,45.268314],[-122.676732,45.268488],[-122.67659,45.268576],[-122.676556,45.268597],[-122.67638854106194,45.268650025573486],[-122.67594997871952,45.26895519470183],[-122.67458914370565,45.270111301650026],[-122.6728698597462,45.271741995324966],[-122.672878,45.271746],[-122.672702,45.271931],[-122.671844,45.27287],[-122.670982,45.273825],[-122.67046,45.274394],[-122.670288,45.274586],[-122.670113,45.274779],[-122.669949,45.274961],[-122.669824,45.275099],[-122.669322,45.275653],[-122.669168,45.275824],[-122.668847,45.276177],[-122.66817,45.276924],[-122.667658,45.277496],[-122.666929,45.278309],[-122.665999,45.279348],[-122.665026,45.280409],[-122.664731,45.280732],[-122.662726,45.282926],[-122.662493,45.283149],[-122.662272,45.283352],[-122.661934,45.283638],[-122.661455,45.28399],[-122.660631,45.284576],[-122.659769,45.285162],[-122.659039,45.285709],[-122.657954,45.286489],[-122.657434,45.286866],[-122.657108,45.287101],[-122.656824,45.287331],[-122.6568566794468,45.28735143841671],[-122.6566377,45.28724717],[-122.65683390936408,45.28735499745958],[-122.656811,45.287341],[-122.656733,45.287405],[-122.656689,45.28744],[-122.656319,45.287806],[-122.656142,45.288011],[-122.656003,45.28821],[-122.655844,45.288467],[-122.655713,45.288724],[-122.655636,45.288903],[-122.655577,45.289072],[-122.655561,45.289128],[-122.655498,45.289342],[-122.65545,45.289679],[-122.655439,45.289928],[-122.655438,45.290164],[-122.655435,45.29095],[-122.655434,45.291216],[-122.655434,45.29125],[-122.655449,45.291651],[-122.655479,45.291858],[-122.655529,45.292069],[-122.655924,45.293501],[-122.655999,45.293758],[-122.65607,45.293999],[-122.656344,45.29493],[-122.656527,45.295452],[-122.656729,45.295885],[-122.656934,45.29624],[-122.657285,45.296719],[-122.657592,45.297049],[-122.657853,45.297328],[-122.658158,45.297633],[-122.658608,45.298083],[-122.659056,45.298531],[-122.659204,45.298671],[-122.659871,45.299217],[-122.660158,45.299468],[-122.660401,45.299713],[-122.66062,45.299978],[-122.661122,45.30064],[-122.661277,45.300818],[-122.661753,45.301319],[-122.662009,45.301606],[-122.662156,45.301834],[-122.662246,45.30199],[-122.662347,45.302235],[-122.662436,45.302492],[-122.662637,45.303093],[-122.662827,45.303724],[-122.662955,45.304149],[-122.662988,45.304281],[-122.663019,45.304432],[-122.663043,45.304565],[-122.663061,45.304706],[-122.663077,45.30486],[-122.663087,45.305049],[-122.663088,45.305182],[-122.663085,45.30525],[-122.663082,45.305317],[-122.663064,45.305536],[-122.663052,45.305641],[-122.663023,45.305815],[-122.662963,45.306098],[-122.662882,45.3064],[-122.662781,45.306672],[-122.662401,45.3077],[-122.661841,45.309202],[-122.661313,45.310593],[-122.660905,45.311467],[-122.660255,45.312614],[-122.659586,45.313747],[-122.659491,45.313948],[-122.659411,45.314167],[-122.659364,45.314323],[-122.65933,45.314505],[-122.659269,45.315259],[-122.659232,45.315454],[-122.659163,45.315685],[-122.659035,45.315975],[-122.658906,45.316228],[-122.658601,45.316884],[-122.658491,45.317166],[-122.658411,45.317455],[-122.658361,45.317716],[-122.658333,45.317971],[-122.658337,45.318258],[-122.658361,45.318544],[-122.658432,45.318811],[-122.658516,45.319156],[-122.658651,45.319579],[-122.658756,45.319933],[-122.658802,45.320129],[-122.658822,45.320294],[-122.65884,45.320512],[-122.658839,45.320659],[-122.65882,45.320878],[-122.658793,45.321023],[-122.658708,45.321306],[-122.65847,45.322004],[-122.658338,45.322421],[-122.65827,45.322703],[-122.658227,45.32299],[-122.658165,45.323714],[-122.658127,45.324007],[-122.658082,45.324224],[-122.658023,45.324434],[-122.657898,45.324777],[-122.657631,45.325454],[-122.657346,45.326138],[-122.657257,45.326341],[-122.657156,45.326546],[-122.657078,45.326685],[-122.657005,45.326808],[-122.656878,45.32699],[-122.656645,45.327296],[-122.655609,45.328507],[-122.655274,45.328889],[-122.654559,45.329704],[-122.653964,45.330414],[-122.65329,45.331198],[-122.652921,45.331619],[-122.652859,45.331684],[-122.6527,45.33185],[-122.652318,45.332239],[-122.651837,45.332656],[-122.650622,45.333727],[-122.649996,45.334259],[-122.649373,45.334815],[-122.649066,45.335072],[-122.648738,45.335331],[-122.648335,45.335625],[-122.648011,45.33585],[-122.6477,45.33605],[-122.647437,45.33621],[-122.647007,45.336454],[-122.646853,45.336541],[-122.646662,45.336636],[-122.646094,45.336923],[-122.64546,45.337216],[-122.642853,45.338405],[-122.641633,45.33896],[-122.64009,45.339662],[-122.639021,45.340151],[-122.638337,45.340477],[-122.637548,45.340852],[-122.637135,45.341049],[-122.636977,45.341124],[-122.636613,45.341297],[-122.636036,45.341576],[-122.635605,45.341784],[-122.635214,45.34197],[-122.635168,45.341992],[-122.634848,45.342144],[-122.63402,45.342522],[-122.633465,45.342764],[-122.63303,45.342955],[-122.6328,45.343057],[-122.632574,45.343159],[-122.632341,45.343268],[-122.632093,45.343391],[-122.631942,45.343471],[-122.631797,45.343554],[-122.63163,45.343646],[-122.63146,45.343744],[-122.631222,45.343879],[-122.630968,45.344019],[-122.630794,45.344104],[-122.630664,45.344167],[-122.630532,45.344228],[-122.630354,45.344305],[-122.630193,45.34437],[-122.629898,45.344484],[-122.629506,45.344639],[-122.629235,45.344749],[-122.629064,45.344821],[-122.628912,45.344887],[-122.628764,45.34496],[-122.628625,45.34503],[-122.628531,45.34508],[-122.62838,45.345162],[-122.628205,45.345266],[-122.628008,45.345384],[-122.627807,45.34551],[-122.627636,45.345613],[-122.627486,45.345698],[-122.627386,45.345756],[-122.627262,45.345815],[-122.627161,45.345862],[-122.627012,45.345926],[-122.626878,45.345978],[-122.62677,45.346016],[-122.626632,45.346061],[-122.626535,45.346088],[-122.626393,45.346125],[-122.626194,45.346174],[-122.626009,45.346215],[-122.625944,45.346229],[-122.625691,45.346287],[-122.624959,45.346444],[-122.623982,45.346655],[-122.623461,45.346767],[-122.622954,45.346878],[-122.622449,45.346986],[-122.621944,45.347098],[-122.621573,45.347185],[-122.621242,45.347271],[-122.620965,45.347346],[-122.620743,45.34741],[-122.620692,45.347426],[-122.6206359,45.34733798],[-122.620692,45.347426],[-122.62045,45.347503],[-122.620149,45.34761],[-122.619954,45.347685],[-122.619694,45.347795],[-122.619431,45.347909],[-122.618943,45.348142],[-122.618532,45.348365],[-122.61827,45.348519],[-122.618004,45.348683],[-122.617639,45.348932],[-122.617391,45.349118],[-122.616995,45.349437],[-122.616671,45.349718],[-122.616254,45.350098],[-122.616017,45.350304],[-122.615785,45.350492],[-122.615598,45.350625],[-122.615366,45.35078],[-122.615154,45.350923],[-122.615142,45.350931],[-122.615075,45.350977],[-122.614965,45.351057],[-122.614889,45.351112],[-122.61478,45.351197],[-122.614736,45.35123],[-122.614648,45.3513],[-122.614516,45.351406],[-122.614371,45.351526],[-122.614228,45.351651],[-122.613716,45.352113],[-122.613634,45.352189],[-122.613131,45.352655],[-122.612762,45.352994],[-122.612701,45.35305],[-122.612434,45.353286],[-122.612232,45.353462],[-122.612016,45.353648],[-122.611481,45.354088],[-122.611091,45.354406],[-122.609812,45.35545],[-122.609717,45.355533],[-122.609664,45.355589],[-122.609626,45.355634],[-122.609587,45.355688],[-122.609558,45.355761],[-122.609536,45.355833],[-122.609521,45.355904],[-122.609513,45.355979],[-122.60951,45.356066],[-122.609522,45.356142],[-122.609282,45.356298],[-122.608896,45.356618],[-122.608551,45.356889],[-122.60846,45.356944],[-122.608185,45.357112],[-122.607995,45.357228],[-122.607917,45.357277],[-122.607867,45.357272],[-122.607828,45.357274],[-122.607765,45.357297],[-122.607361,45.357507],[-122.607236,45.357569],[-122.607048,45.357663],[-122.606847,45.357764],[-122.60664,45.357867],[-122.60631,45.358031],[-122.606282,45.358046],[-122.606186,45.358098],[-122.606082,45.358162],[-122.606001,45.358218],[-122.605941,45.358271],[-122.605902,45.358309],[-122.605875,45.358346],[-122.605872,45.35837],[-122.605876,45.358398],[-122.605892,45.358427],[-122.605919,45.358468],[-122.605957,45.358507],[-122.606186,45.358732],[-122.606274,45.358799],[-122.606333,45.358853],[-122.606255,45.358891],[-122.605962,45.359033],[-122.605761,45.359131],[-122.605589,45.359215],[-122.605498,45.359259],[-122.605434,45.35929],[-122.605345,45.359334],[-122.605258,45.359376],[-122.605183,45.359413],[-122.605019,45.359494],[-122.604719,45.359644],[-122.604553,45.359726],[-122.604262,45.35987],[-122.604347,45.35996]]}},{"type":"Feature","properties":{"agency":"Canby Area Transit","shape_id":"4"},"geometry":{"type":"LineString","coordinates":[[-122.60423665692272,45.36001146275876],[-122.6042316469076,45.36000352112572],[-122.60426186082536,45.35992001715607],[-122.60435048831728,45.35983368241424],[-122.605240507,45.359386579],[-122.606058955,45.358987615],[-122.608454529,45.357802227],[-122.609250293,45.357383673],[-122.610058,45.356649],[-122.60968,45.356392],[-122.609547,45.356172],[-122.609544,45.355941],[-122.609633,45.355685],[-122.609726,45.355565],[-122.612204,45.353486],[-122.614782,45.351185],[-122.615998,45.350359],[-122.617309,45.349195],[-122.618214,45.348576],[-122.61971,45.347791],[-122.620492,45.34749],[-122.621447,45.347221],[-122.62238264,45.347012583],[-122.622622507,45.346955751],[-122.622832071,45.346910402],[-122.622832003,45.346908312],[-122.62283,45.346904],[-122.622954,45.346878],[-122.623461,45.346767],[-122.623982,45.346655],[-122.624959,45.346444],[-122.625691,45.346287],[-122.625944,45.346229],[-122.626009,45.346215],[-122.626194,45.346174],[-122.626393,45.346125],[-122.626535,45.346088],[-122.626632,45.346061],[-122.62677,45.346016],[-122.626878,45.345978],[-122.627012,45.345926],[-122.627161,45.345862],[-122.627262,45.345815],[-122.627386,45.345756],[-122.627486,45.345698],[-122.627636,45.345613],[-122.627807,45.34551],[-122.628008,45.345384],[-122.628205,45.345266],[-122.62838,45.345162],[-122.628531,45.34508],[-122.628625,45.34503],[-122.628764,45.34496],[-122.628912,45.344887],[-122.629064,45.344821],[-122.629235,45.344749],[-122.629506,45.344639],[-122.629898,45.344484],[-122.630193,45.34437],[-122.630354,45.344305],[-122.630532,45.344228],[-122.630664,45.344167],[-122.630794,45.344104],[-122.630968,45.344019],[-122.631222,45.343879],[-122.63146,45.343744],[-122.63163,45.343646],[-122.631797,45.343554],[-122.631942,45.343471],[-122.632093,45.343391],[-122.632341,45.343268],[-122.632574,45.343159],[-122.6328,45.343057],[-122.63303,45.342955],[-122.633465,45.342764],[-122.63402,45.342522],[-122.634848,45.342144],[-122.635168,45.341992],[-122.635214,45.34197],[-122.635605,45.341784],[-122.636036,45.341576],[-122.636613,45.341297],[-122.636977,45.341124],[-122.637135,45.341049],[-122.637548,45.340852],[-122.638337,45.340477],[-122.639021,45.340151],[-122.64009,45.339662],[-122.641633,45.33896],[-122.642853,45.338405],[-122.64546,45.337216],[-122.646094,45.336923],[-122.646662,45.336636],[-122.646853,45.336541],[-122.647007,45.336454],[-122.647437,45.33621],[-122.6477,45.33605],[-122.648011,45.33585],[-122.648335,45.335625],[-122.648738,45.335331],[-122.649066,45.335072],[-122.649373,45.334815],[-122.649996,45.334259],[-122.650622,45.333727],[-122.651837,45.332656],[-122.652318,45.332239],[-122.6527,45.33185],[-122.652859,45.331684],[-122.652921,45.331619],[-122.65329,45.331198],[-122.653964,45.330414],[-122.654559,45.329704],[-122.655274,45.328889],[-122.655609,45.328507],[-122.656645,45.327296],[-122.656878,45.32699],[-122.657005,45.326808],[-122.657078,45.326685],[-122.657156,45.326546],[-122.657257,45.326341],[-122.657346,45.326138],[-122.657631,45.325454],[-122.657898,45.324777],[-122.658023,45.324434],[-122.658082,45.324224],[-122.658127,45.324007],[-122.658165,45.323714],[-122.658227,45.32299],[-122.65827,45.322703],[-122.658338,45.322421],[-122.65847,45.322004],[-122.658708,45.321306],[-122.658793,45.321023],[-122.65882,45.320878],[-122.658839,45.320659],[-122.65884,45.320512],[-122.658822,45.320294],[-122.658802,45.320129],[-122.658756,45.319933],[-122.658651,45.319579],[-122.658516,45.319156],[-122.658432,45.318811],[-122.658361,45.318544],[-122.658337,45.318258],[-122.658333,45.317971],[-122.658361,45.317716],[-122.658411,45.317455],[-122.658491,45.317166],[-122.658601,45.316884],[-122.658906,45.316228],[-122.659035,45.315975],[-122.659163,45.315685],[-122.659232,45.315454],[-122.659269,45.315259],[-122.65933,45.314505],[-122.659364,45.314323],[-122.659411,45.314167],[-122.659491,45.313948],[-122.659586,45.313747],[-122.660255,45.312614],[-122.660905,45.311467],[-122.661313,45.310593],[-122.661841,45.309202],[-122.662401,45.3077],[-122.662781,45.306672],[-122.662882,45.3064],[-122.662963,45.306098],[-122.663023,45.305815],[-122.663052,45.305641],[-122.663064,45.305536],[-122.663082,45.305317],[-122.663085,45.30525],[-122.663088,45.305182],[-122.663087,45.305049],[-122.663077,45.30486],[-122.663061,45.304706],[-122.663043,45.304565],[-122.663019,45.304432],[-122.662988,45.304281],[-122.662955,45.304149],[-122.662827,45.303724],[-122.662637,45.303093],[-122.662436,45.302492],[-122.662347,45.302235],[-122.662246,45.30199],[-122.662156,45.301834],[-122.662009,45.301606],[-122.661753,45.301319],[-122.661277,45.300818],[-122.661122,45.30064],[-122.66062,45.299978],[-122.660401,45.299713],[-122.660158,45.299468],[-122.659871,45.299217],[-122.659204,45.298671],[-122.659056,45.298531],[-122.658608,45.298083],[-122.658158,45.297633],[-122.657853,45.297328],[-122.657592,45.297049],[-122.657285,45.296719],[-122.656934,45.29624],[-122.656729,45.295885],[-122.656527,45.295452],[-122.656344,45.29493],[-122.65607,45.293999],[-122.655999,45.293758],[-122.655924,45.293501],[-122.655529,45.292069],[-122.655479,45.291858],[-122.655449,45.291651],[-122.655434,45.29125],[-122.655434,45.291216],[-122.655435,45.29095],[-122.655438,45.290164],[-122.655439,45.289928],[-122.65545,45.289679],[-122.655498,45.289342],[-122.655561,45.289128],[-122.655577,45.289072],[-122.655636,45.288903],[-122.655713,45.288724],[-122.655844,45.288467],[-122.656003,45.28821],[-122.656208,45.288212],[-122.656235,45.288224],[-122.656208,45.288212],[-122.656003,45.28821],[-122.656142,45.288011],[-122.656319,45.287806],[-122.656689,45.28744],[-122.657108,45.287101],[-122.657434,45.286866],[-122.657954,45.286489],[-122.659039,45.285709],[-122.659769,45.285162],[-122.660631,45.284576],[-122.661455,45.28399],[-122.661934,45.283638],[-122.662272,45.283352],[-122.662493,45.283149],[-122.662726,45.282926],[-122.664731,45.280732],[-122.665026,45.280409],[-122.665999,45.279348],[-122.666929,45.278309],[-122.667658,45.277496],[-122.66817,45.276924],[-122.668847,45.276177],[-122.669168,45.275824],[-122.669322,45.275653],[-122.669824,45.275099],[-122.669949,45.274961],[-122.670113,45.274779],[-122.670288,45.274586],[-122.67046,45.274394],[-122.670982,45.273825],[-122.671844,45.27287],[-122.672702,45.271931],[-122.673222,45.271382],[-122.673404,45.271202],[-122.673777,45.270833],[-122.673987,45.270637],[-122.674192,45.270464],[-122.674463,45.270235],[-122.674734,45.270006],[-122.675009,45.269775],[-122.675295,45.269562],[-122.675773,45.269208],[-122.675825,45.269169],[-122.675951,45.269074],[-122.676043,45.269005],[-122.676234,45.268954],[-122.676454,45.268808],[-122.676891,45.268533],[-122.677291,45.268298],[-122.677875,45.267965],[-122.67851,45.267629],[-122.678563,45.267553],[-122.678769,45.267454],[-122.679705,45.267032],[-122.680166,45.266835],[-122.680339,45.266763],[-122.680759,45.266589],[-122.681221,45.266398],[-122.681628,45.26624],[-122.682093,45.266071],[-122.682233,45.266016],[-122.682707,45.26583],[-122.682893,45.265813],[-122.682977,45.265805],[-122.684247,45.265355],[-122.68437,45.26525],[-122.68464,45.265152],[-122.68502,45.265014],[-122.68608,45.264628],[-122.686402,45.264503],[-122.686693,45.264379],[-122.687075,45.264208],[-122.687419,45.264043],[-122.687745,45.263888],[-122.687864,45.263831],[-122.68801,45.263771],[-122.688172,45.263702],[-122.688107,45.263613],[-122.688057,45.263545],[-122.688017,45.26349],[-122.688057,45.263545],[-122.688107,45.263613],[-122.688172,45.263702],[-122.688263,45.263667],[-122.68871,45.263492],[-122.688745,45.263479],[-122.688852,45.263441],[-122.689248,45.263299],[-122.689588,45.263177],[-122.690166,45.262972],[-122.690337,45.262912],[-122.690859,45.262726],[-122.691701,45.262427],[-122.692023,45.262313],[-122.692132,45.262274],[-122.69221,45.262378],[-122.692374,45.262597],[-122.692405,45.262639],[-122.692424,45.262664],[-122.692485,45.262745],[-122.692486,45.262833],[-122.692486,45.262849],[-122.692478,45.262915],[-122.692467,45.262996],[-122.692437,45.263035],[-122.692397,45.263068],[-122.692263,45.263116],[-122.692192,45.263141],[-122.69209,45.263106],[-122.691639,45.263257],[-122.691603,45.263269],[-122.69154,45.26329],[-122.691589,45.263357],[-122.691649,45.263336],[-122.692192,45.263141],[-122.692263,45.263116],[-122.692397,45.263068],[-122.692591,45.262991],[-122.692671,45.262959],[-122.692798,45.262897],[-122.692919,45.262853],[-122.693049,45.262806],[-122.693207,45.26275],[-122.693547,45.262629],[-122.693928,45.262494],[-122.69494,45.262134],[-122.695122,45.262067],[-122.695243,45.262024],[-122.695206,45.26197],[-122.695037,45.261724],[-122.695021,45.261703],[-122.694994,45.261668],[-122.694833,45.261448],[-122.69475,45.261335],[-122.694876,45.26129],[-122.69524,45.26116],[-122.695475,45.261076],[-122.695619,45.261025],[-122.6958,45.26096],[-122.695979,45.260897],[-122.696188,45.260822],[-122.696328,45.260772],[-122.696931,45.260557],[-122.697242,45.260446],[-122.697342,45.26041],[-122.697445,45.26037],[-122.697527,45.260338],[-122.697716,45.26026],[-122.697764,45.26024],[-122.697842,45.260207],[-122.697923,45.260173],[-122.69821,45.260036],[-122.698653,45.259825],[-122.698816,45.259712],[-122.69897,45.259605],[-122.699257,45.259371],[-122.699474,45.259195],[-122.699617,45.25908],[-122.699877,45.258869],[-122.700332,45.258516],[-122.700537,45.258357],[-122.700868,45.258101],[-122.700938,45.258046],[-122.701273,45.257787],[-122.70142,45.257673],[-122.701632,45.257514],[-122.701772,45.257431],[-122.701879,45.257369],[-122.702456,45.257056],[-122.702684,45.256943],[-122.70321,45.256711],[-122.70320525195348,45.25670507578326],[-122.7033391,45.2568156],[-122.70322346498396,45.25670215176726],[-122.703225,45.256704],[-122.703362,45.256644],[-122.703501,45.256592],[-122.703624,45.256547],[-122.703971,45.256432],[-122.704064,45.256402],[-122.704213,45.2564],[-122.704301,45.256399],[-122.704689,45.256286],[-122.705251,45.25614],[-122.705323,45.256123],[-122.705607,45.256053],[-122.706828,45.255739],[-122.707397,45.255598],[-122.707636,45.255538],[-122.707875,45.255479],[-122.708712,45.25527],[-122.709039,45.255192],[-122.709157,45.255098],[-122.709748,45.254948],[-122.710609,45.254729],[-122.711446,45.254516],[-122.71323,45.254066],[-122.714835,45.253662],[-122.715145,45.253584],[-122.715735,45.253433],[-122.715961,45.253375],[-122.716273,45.253282],[-122.716348,45.25326],[-122.716701,45.253137],[-122.7169,45.253062],[-122.717071,45.252997],[-122.717377,45.25286],[-122.717756,45.252674],[-122.718434,45.252252],[-122.718559,45.252174],[-122.71983,45.251375],[-122.720302,45.251075],[-122.720987,45.250647],[-122.721329,45.250428],[-122.721551,45.250285],[-122.721751,45.250156],[-122.722568,45.249632],[-122.722699,45.249548],[-122.723644,45.248947],[-122.724581,45.248378],[-122.725518,45.247787],[-122.726804,45.246966],[-122.727802,45.246335],[-122.729175,45.245456],[-122.730242,45.244782],[-122.731479,45.243993],[-122.731656,45.24388],[-122.732001,45.243652],[-122.732337,45.243416],[-122.732467,45.243318],[-122.732717,45.243113],[-122.732955,45.242903],[-122.733353,45.242524],[-122.733685,45.242189],[-122.734011,45.241844],[-122.734149,45.241697],[-122.734525,45.241299],[-122.735335,45.240432],[-122.736038,45.239692],[-122.736251,45.239489],[-122.736476,45.239299],[-122.736652,45.239165],[-122.736707,45.239122],[-122.736928,45.238949],[-122.737118,45.238836],[-122.737453,45.238664],[-122.737878,45.238467],[-122.738104,45.238373],[-122.73824,45.238316],[-122.738436,45.238236],[-122.738507,45.238207],[-122.739031,45.23805],[-122.739419,45.237927],[-122.739497,45.237902],[-122.740173,45.237696],[-122.740489,45.2376],[-122.740849,45.23749],[-122.741253,45.237367],[-122.742237,45.237056],[-122.742512,45.236959],[-122.742861,45.236824],[-122.743064,45.236738],[-122.743258,45.236648],[-122.743516,45.236515],[-122.743645,45.236443],[-122.74379,45.236351],[-122.743893,45.236286],[-122.74413,45.236114],[-122.744701,45.235657],[-122.744992,45.235435],[-122.74529,45.235221],[-122.745517,45.235066],[-122.74582,45.234875],[-122.746085,45.234726],[-122.746408,45.234571],[-122.746774,45.234407],[-122.746957,45.234337],[-122.747313,45.234232],[-122.748178,45.234029],[-122.750206,45.233536],[-122.750977,45.233355],[-122.751264,45.233287],[-122.75209,45.233081],[-122.752154,45.233065],[-122.752683,45.232934],[-122.753069,45.232834],[-122.753517,45.232702],[-122.753778,45.232617],[-122.754029,45.232527],[-122.75433,45.232403],[-122.754499,45.232323],[-122.754649,45.23224],[-122.754735,45.232189],[-122.754902,45.232076],[-122.755006,45.232],[-122.7551,45.232067],[-122.7550332,45.2321188],[-122.7551,45.232067],[-122.755006,45.232],[-122.755079,45.23194],[-122.75515,45.231879],[-122.755217,45.231816],[-122.755281,45.231752],[-122.755342,45.231686],[-122.755443,45.231562],[-122.755496,45.231503],[-122.755582,45.231391],[-122.755771,45.23114],[-122.755857,45.231018],[-122.755909,45.230945],[-122.756058,45.23074],[-122.75625,45.230478],[-122.756308,45.230395],[-122.756476,45.230152],[-122.756655,45.229862],[-122.756795,45.229613],[-122.756881,45.229412],[-122.75697,45.229186],[-122.757049,45.228938],[-122.757546,45.227183],[-122.757565,45.227113],[-122.757722,45.22655],[-122.757792,45.226297],[-122.757828,45.226169],[-122.757904,45.225901],[-122.757972,45.225662],[-122.758244,45.224704],[-122.758256,45.224662],[-122.758272,45.224604],[-122.758473,45.223896],[-122.758558,45.223659],[-122.758632,45.223479],[-122.758667,45.223396],[-122.758776,45.223184],[-122.758877,45.22301],[-122.758976,45.222853],[-122.759132,45.222635],[-122.759318,45.222395],[-122.76007,45.22157],[-122.760614,45.220985],[-122.760884,45.220693],[-122.760918,45.220656],[-122.761327,45.220214],[-122.761546,45.219978],[-122.762096,45.219379],[-122.762395,45.21906],[-122.762887,45.218545],[-122.763045,45.218382],[-122.763431,45.218011],[-122.763679,45.217787],[-122.763904,45.217595],[-122.764326,45.217257],[-122.764735,45.216943],[-122.765235,45.216562],[-122.765628,45.21626],[-122.765761,45.216159],[-122.766136,45.215853],[-122.766488,45.215555],[-122.766869,45.215225],[-122.767254,45.214882],[-122.7677,45.214455],[-122.768043,45.214114],[-122.768486,45.213649],[-122.768564,45.213561],[-122.768927,45.21316],[-122.76976,45.212222],[-122.770159,45.211779],[-122.770257,45.211673],[-122.770519,45.211392],[-122.770718,45.211184],[-122.770907,45.210996],[-122.7711,45.210816],[-122.771337,45.210605],[-122.771719,45.210266],[-122.772224,45.209829],[-122.772695,45.209408],[-122.773162,45.208975],[-122.773529,45.208612],[-122.773587,45.208554],[-122.774191,45.207948],[-122.775813,45.206309],[-122.776177,45.205934],[-122.776837,45.205271],[-122.776989,45.205166],[-122.777172,45.205004],[-122.777357,45.204855],[-122.777585,45.2047],[-122.777767,45.204587],[-122.777989,45.204469],[-122.778157,45.204384],[-122.778343,45.204294],[-122.778615,45.204178],[-122.779049,45.204007],[-122.77949,45.203815],[-122.779652,45.203736],[-122.779784,45.203669],[-122.779944,45.20357],[-122.780084,45.203473],[-122.780178,45.2034],[-122.780282,45.203318],[-122.78045,45.203163],[-122.780632,45.202973],[-122.78154,45.201927],[-122.782184,45.201161],[-122.782372,45.200923],[-122.782581,45.200674],[-122.782699,45.200528],[-122.782772,45.200448],[-122.783214,45.199963],[-122.783488,45.199677],[-122.783726,45.199445],[-122.783984,45.199219],[-122.784225,45.199023],[-122.784339,45.198899],[-122.784795,45.198558],[-122.785184,45.198275],[-122.786097,45.197611],[-122.786511,45.197307],[-122.787712,45.196425],[-122.787848,45.196326],[-122.7884,45.195925],[-122.788554,45.195813],[-122.788688,45.195717],[-122.788903,45.195558],[-122.7892,45.195339],[-122.789783,45.19491],[-122.790269,45.19456],[-122.792048,45.193253],[-122.792394,45.192992],[-122.792765,45.192713],[-122.79297,45.19256],[-122.794563,45.191291],[-122.794643,45.191228],[-122.795711,45.190345],[-122.796474,45.189716],[-122.796965,45.189312],[-122.797479,45.188898],[-122.797863,45.188556],[-122.798123,45.188321],[-122.798217,45.188231],[-122.798534,45.187929],[-122.798758,45.187718],[-122.799053,45.187407],[-122.799117,45.187339],[-122.799322,45.187116],[-122.79945,45.186977],[-122.799493,45.186931],[-122.799733,45.186678],[-122.799909,45.186487],[-122.799959,45.186433],[-122.800277,45.18609],[-122.800331,45.186033],[-122.800615,45.185729],[-122.800817,45.185513],[-122.801079,45.185231],[-122.801402,45.184887],[-122.801452,45.184834],[-122.802187,45.184058],[-122.802221,45.184023],[-122.8026,45.183629],[-122.803079,45.183116],[-122.803286,45.1829],[-122.803623,45.182548],[-122.804117,45.182036],[-122.804165,45.181991],[-122.804505,45.18164],[-122.804759,45.181375],[-122.804853,45.181276],[-122.804944,45.181181],[-122.805181,45.180932],[-122.805356,45.180749],[-122.80546,45.18064],[-122.806313,45.179754],[-122.806591,45.179451],[-122.806994,45.178978],[-122.807465,45.178425],[-122.807901,45.177913],[-122.80848,45.177239],[-122.808715,45.176966],[-122.808754,45.17692],[-122.808804,45.176863],[-122.809273,45.176319],[-122.809337,45.176244],[-122.809457,45.176104],[-122.809692,45.175831],[-122.809742,45.175774],[-122.810098,45.175366],[-122.810322,45.175102],[-122.810669,45.174691],[-122.81158,45.173648],[-122.811676,45.173524],[-122.811733,45.17345],[-122.812069,45.17307],[-122.812213,45.17291],[-122.8124,45.172698],[-122.813201,45.171778],[-122.813974,45.170858],[-122.814717,45.169955],[-122.815209,45.169362],[-122.815249,45.169313],[-122.815586,45.168905],[-122.81569,45.168779],[-122.816504,45.167836],[-122.817082,45.167186],[-122.817303,45.166938],[-122.817509,45.166703],[-122.818334,45.165781],[-122.818598,45.165485],[-122.818919,45.165125],[-122.819109,45.164913],[-122.819492,45.164531],[-122.819791,45.164188],[-122.820763,45.163071],[-122.821988,45.161704],[-122.822132,45.161549],[-122.822505,45.16113],[-122.822978,45.160586],[-122.823376,45.160132],[-122.823855,45.159585],[-122.823939,45.159489],[-122.824294,45.159084],[-122.824631,45.158705],[-122.824885,45.158423],[-122.825961,45.15723],[-122.826057,45.157123],[-122.827373,45.155664],[-122.828259,45.15468],[-122.828686,45.154188],[-122.828817,45.154031],[-122.82898,45.153838],[-122.829074,45.153726],[-122.82913,45.153661],[-122.829401,45.153353],[-122.829977,45.152696],[-122.830024,45.152642],[-122.830151,45.152498],[-122.830303,45.152426],[-122.830533,45.152167],[-122.830545,45.152154],[-122.830658,45.152127],[-122.830753,45.15212],[-122.830952,45.152119],[-122.831052,45.152102],[-122.831153,45.152103],[-122.831394,45.152104],[-122.831612,45.152105],[-122.831811,45.152106],[-122.832059,45.152108],[-122.83255,45.15211],[-122.832757,45.152111],[-122.832996,45.152113],[-122.833221,45.152114],[-122.833454,45.152115],[-122.833661,45.152116],[-122.833899,45.152124],[-122.834073,45.152124],[-122.834084,45.151975],[-122.834258,45.151978],[-122.835045,45.15199],[-122.835144,45.151992],[-122.835339,45.151995],[-122.835325,45.152191],[-122.835287,45.1529],[-122.835298,45.15293],[-122.835528,45.153074],[-122.835576,45.153093],[-122.835624,45.153102],[-122.836313,45.153117],[-122.83631278104582,45.15311352962149],[-122.8363041,45.1527383]]}},{"type":"Feature","properties":{"agency":"Canby Area Transit","shape_id":"5"},"geometry":{"type":"LineString","coordinates":[[-122.60423665692272,45.36001146275876],[-122.6042316469076,45.36000352112572],[-122.60426186082536,45.35992001715607],[-122.60435048831728,45.35983368241424],[-122.605240507,45.359386579],[-122.606058955,45.358987615],[-122.608454529,45.357802227],[-122.609250293,45.357383673],[-122.610058,45.356649],[-122.60968,45.356392],[-122.609547,45.356172],[-122.609544,45.355941],[-122.609633,45.355685],[-122.609726,45.355565],[-122.612204,45.353486],[-122.614782,45.351185],[-122.615998,45.350359],[-122.617309,45.349195],[-122.618214,45.348576],[-122.61971,45.347791],[-122.620492,45.34749],[-122.621447,45.347221],[-122.62238264,45.347012583],[-122.622622507,45.346955751],[-122.622832071,45.346910402],[-122.622832003,45.346908312],[-122.62283,45.346904],[-122.622954,45.346878],[-122.623461,45.346767],[-122.623982,45.346655],[-122.624959,45.346444],[-122.625691,45.346287],[-122.625944,45.346229],[-122.626009,45.346215],[-122.626194,45.346174],[-122.626393,45.346125],[-122.626535,45.346088],[-122.626632,45.346061],[-122.62677,45.346016],[-122.626878,45.345978],[-122.627012,45.345926],[-122.627161,45.345862],[-122.627262,45.345815],[-122.627386,45.345756],[-122.627486,45.345698],[-122.627636,45.345613],[-122.627807,45.34551],[-122.628008,45.345384],[-122.628205,45.345266],[-122.62838,45.345162],[-122.628531,45.34508],[-122.628625,45.34503],[-122.628764,45.34496],[-122.628912,45.344887],[-122.629064,45.344821],[-122.629235,45.344749],[-122.629506,45.344639],[-122.629898,45.344484],[-122.630193,45.34437],[-122.630354,45.344305],[-122.630532,45.344228],[-122.630664,45.344167],[-122.630794,45.344104],[-122.630968,45.344019],[-122.631222,45.343879],[-122.63146,45.343744],[-122.63163,45.343646],[-122.631797,45.343554],[-122.631942,45.343471],[-122.632093,45.343391],[-122.632341,45.343268],[-122.632574,45.343159],[-122.6328,45.343057],[-122.63303,45.342955],[-122.633465,45.342764],[-122.63402,45.342522],[-122.634848,45.342144],[-122.635168,45.341992],[-122.635214,45.34197],[-122.635605,45.341784],[-122.636036,45.341576],[-122.636613,45.341297],[-122.636977,45.341124],[-122.637135,45.341049],[-122.637548,45.340852],[-122.638337,45.340477],[-122.639021,45.340151],[-122.64009,45.339662],[-122.641633,45.33896],[-122.642853,45.338405],[-122.64546,45.337216],[-122.646094,45.336923],[-122.646662,45.336636],[-122.646853,45.336541],[-122.647007,45.336454],[-122.647437,45.33621],[-122.6477,45.33605],[-122.648011,45.33585],[-122.648335,45.335625],[-122.648738,45.335331],[-122.649066,45.335072],[-122.649373,45.334815],[-122.649996,45.334259],[-122.650622,45.333727],[-122.651837,45.332656],[-122.652318,45.332239],[-122.6527,45.33185],[-122.652859,45.331684],[-122.652921,45.331619],[-122.65329,45.331198],[-122.653964,45.330414],[-122.654559,45.329704],[-122.655274,45.328889],[-122.655609,45.328507],[-122.656645,45.327296],[-122.656878,45.32699],[-122.657005,45.326808],[-122.657078,45.326685],[-122.657156,45.326546],[-122.657257,45.326341],[-122.657346,45.326138],[-122.657631,45.325454],[-122.657898,45.324777],[-122.658023,45.324434],[-122.658082,45.324224],[-122.658127,45.324007],[-122.658165,45.323714],[-122.658227,45.32299],[-122.65827,45.322703],[-122.658338,45.322421],[-122.65847,45.322004],[-122.658708,45.321306],[-122.658793,45.321023],[-122.65882,45.320878],[-122.658839,45.320659],[-122.65884,45.320512],[-122.658822,45.320294],[-122.658802,45.320129],[-122.658756,45.319933],[-122.658651,45.319579],[-122.658516,45.319156],[-122.658432,45.318811],[-122.658361,45.318544],[-122.658337,45.318258],[-122.658333,45.317971],[-122.658361,45.317716],[-122.658411,45.317455],[-122.658491,45.317166],[-122.658601,45.316884],[-122.658906,45.316228],[-122.659035,45.315975],[-122.659163,45.315685],[-122.659232,45.315454],[-122.659269,45.315259],[-122.65933,45.314505],[-122.659364,45.314323],[-122.659411,45.314167],[-122.659491,45.313948],[-122.659586,45.313747],[-122.660255,45.312614],[-122.660905,45.311467],[-122.661313,45.310593],[-122.661841,45.309202],[-122.662401,45.3077],[-122.662781,45.306672],[-122.662882,45.3064],[-122.662963,45.306098],[-122.663023,45.305815],[-122.663052,45.305641],[-122.663064,45.305536],[-122.663082,45.305317],[-122.663085,45.30525],[-122.663088,45.305182],[-122.663087,45.305049],[-122.663077,45.30486],[-122.663061,45.304706],[-122.663043,45.304565],[-122.663019,45.304432],[-122.662988,45.304281],[-122.662955,45.304149],[-122.662827,45.303724],[-122.662637,45.303093],[-122.662436,45.302492],[-122.662347,45.302235],[-122.662246,45.30199],[-122.662156,45.301834],[-122.662009,45.301606],[-122.661753,45.301319],[-122.661277,45.300818],[-122.661122,45.30064],[-122.66062,45.299978],[-122.660401,45.299713],[-122.660158,45.299468],[-122.659871,45.299217],[-122.659204,45.298671],[-122.659056,45.298531],[-122.658608,45.298083],[-122.658158,45.297633],[-122.657853,45.297328],[-122.657592,45.297049],[-122.657285,45.296719],[-122.656934,45.29624],[-122.656729,45.295885],[-122.656527,45.295452],[-122.656344,45.29493],[-122.65607,45.293999],[-122.655999,45.293758],[-122.655924,45.293501],[-122.655529,45.292069],[-122.655479,45.291858],[-122.655449,45.291651],[-122.655434,45.29125],[-122.655434,45.291216],[-122.655435,45.29095],[-122.655438,45.290164],[-122.655439,45.289928],[-122.65545,45.289679],[-122.655498,45.289342],[-122.655561,45.289128],[-122.655577,45.289072],[-122.655636,45.288903],[-122.655713,45.288724],[-122.655844,45.288467],[-122.656003,45.28821],[-122.656208,45.288212],[-122.656235,45.288224],[-122.656208,45.288212],[-122.656003,45.28821],[-122.656142,45.288011],[-122.656319,45.287806],[-122.656689,45.28744],[-122.657108,45.287101],[-122.657434,45.286866],[-122.657954,45.286489],[-122.659039,45.285709],[-122.659769,45.285162],[-122.660631,45.284576],[-122.661455,45.28399],[-122.661934,45.283638],[-122.662272,45.283352],[-122.662493,45.283149],[-122.662726,45.282926],[-122.664731,45.280732],[-122.665026,45.280409],[-122.665999,45.279348],[-122.666929,45.278309],[-122.667658,45.277496],[-122.66817,45.276924],[-122.668847,45.276177],[-122.669168,45.275824],[-122.669322,45.275653],[-122.669824,45.275099],[-122.669949,45.274961],[-122.670113,45.274779],[-122.670288,45.274586],[-122.67046,45.274394],[-122.670982,45.273825],[-122.671844,45.27287],[-122.672702,45.271931],[-122.673222,45.271382],[-122.673404,45.271202],[-122.673777,45.270833],[-122.673987,45.270637],[-122.674192,45.270464],[-122.674463,45.270235],[-122.674734,45.270006],[-122.675009,45.269775],[-122.675295,45.269562],[-122.675773,45.269208],[-122.675825,45.269169],[-122.675951,45.269074],[-122.676043,45.269005],[-122.676234,45.268954],[-122.676454,45.268808],[-122.676891,45.268533],[-122.677291,45.268298],[-122.677875,45.267965],[-122.67851,45.267629],[-122.678563,45.267553],[-122.678769,45.267454],[-122.679705,45.267032],[-122.680166,45.266835],[-122.680339,45.266763],[-122.680759,45.266589],[-122.681221,45.266398],[-122.681628,45.26624],[-122.682093,45.266071],[-122.682233,45.266016],[-122.682707,45.26583],[-122.682893,45.265813],[-122.682977,45.265805],[-122.684247,45.265355],[-122.68437,45.26525],[-122.68464,45.265152],[-122.68502,45.265014],[-122.68608,45.264628],[-122.686402,45.264503],[-122.686693,45.264379],[-122.687075,45.264208],[-122.687419,45.264043],[-122.687745,45.263888],[-122.687864,45.263831],[-122.68801,45.263771],[-122.688172,45.263702],[-122.688107,45.263613],[-122.688057,45.263545],[-122.688017,45.26349],[-122.688057,45.263545],[-122.688107,45.263613],[-122.688172,45.263702],[-122.688263,45.263667],[-122.68871,45.263492],[-122.688745,45.263479],[-122.688852,45.263441],[-122.689248,45.263299],[-122.689588,45.263177],[-122.690166,45.262972],[-122.690337,45.262912],[-122.690859,45.262726],[-122.691701,45.262427],[-122.692023,45.262313],[-122.692132,45.262274],[-122.69221,45.262378],[-122.692374,45.262597],[-122.692405,45.262639],[-122.692424,45.262664],[-122.692485,45.262745],[-122.692486,45.262833],[-122.692486,45.262849],[-122.692478,45.262915],[-122.692467,45.262996],[-122.692437,45.263035],[-122.692397,45.263068],[-122.692263,45.263116],[-122.692192,45.263141],[-122.69209,45.263106],[-122.691639,45.263257]]}}]}