{"type":"FeatureCollection","features":[{"type":"Feature","properties":{"agency":"Catalina Express","shape_id":"2788.1"},"geometry":{"type":"LineString","coordinates":[[-118.19955751478,33.763929407087],[-118.32539329376,33.343345707705]]}},{"type":"Feature","properties":{"agency":"Catalina Express","shape_id":"2791.1"},"geometry":{"type":"LineString","coordinates":[[-118.32539329376,33.343345707705],[-118.19955751478,33.763929407087]]}},{"type":"Feature","properties":{"agency":"Catalina Express","shape_id":"2792.1"},"geometry":{"type":"LineString","coordinates":[[-117.69362302488,33.460996146142],[-118.32539329376,33.343345707705]]}},{"type":"Feature","properties":{"agency":"Catalina Express","shape_id":"2793.1"},"geometry":{"type":"LineString","coordinates":[[-118.32539329376,33.343345707705],[-117.69362302488,33.460996146142]]}},{"type":"Feature","properties":{"agency":"Catalina Express","shape_id":"2962.1"},"geometry":{"type":"LineString","coordinates":[[-118.28018723455,33.748026612552],[-118.32539329376,33.343345707705]]}},{"type":"Feature","properties":{"agency":"Catalina Express","shape_id":"2963.1"},"geometry":{"type":"LineString","coordinates":[[-118.32539329376,33.343345707705],[-118.28018723455,33.748026612552]]}}]}