{"type":"FeatureCollection","features":[{"type":"Feature","properties":{"agency":"Chenango First Transit","shape_id":"7k4e"},"geometry":{"type":"LineString","coordinates":[[-75.52382,42.53179],[-75.52369,42.53017],[-75.52355,42.52867],[-75.52208,42.52874],[-75.52201,42.52813],[-75.52189,42.52708],[-75.52228,42.52708],[-75.52338,42.5271],[-75.52343,42.52711],[-75.52355,42.52867],[-75.523,42.5287],[-75.522997,42.5287],[-75.523,42.5287],[-75.52355,42.52867],[-75.52343,42.52711],[-75.52332,42.52587],[-75.52546,42.52575],[-75.52554,42.52697],[-75.52546,42.52575],[-75.52637,42.5257],[-75.52678,42.52907],[-75.526781,42.529075],[-75.5268,42.52924],[-75.52362,42.52941],[-75.52309,42.52316],[-75.52294,42.52147],[-75.52286,42.52045],[-75.52281,42.51945],[-75.52276,42.51816],[-75.52277,42.51793],[-75.52293,42.51676],[-75.52299,42.516],[-75.523,42.51557],[-75.52299,42.5148],[-75.52315,42.5148],[-75.52323,42.51484],[-75.52362,42.51483],[-75.52372,42.51478],[-75.52372,42.51481],[-75.52372,42.51478],[-75.52362,42.51473],[-75.52322,42.51474],[-75.52315,42.5148],[-75.52299,42.5148],[-75.52294,42.51293],[-75.52291,42.51186],[-75.52285,42.51133],[-75.52273,42.51045],[-75.52256,42.50942],[-75.52249,42.50882],[-75.52247,42.50827],[-75.52251,42.50783],[-75.52259,42.50737],[-75.5227,42.50699],[-75.52284,42.50659],[-75.52297,42.5063],[-75.52319,42.50589],[-75.52344,42.50551],[-75.52591,42.50213],[-75.52662,42.50117],[-75.52737,42.5001],[-75.52845,42.4985],[-75.52829,42.49844],[-75.52805,42.49837],[-75.52797,42.49836],[-75.52776,42.49836],[-75.52764,42.49838],[-75.52759,42.49838],[-75.52747,42.49836],[-75.52718,42.49825],[-75.52701,42.49818],[-75.52751,42.49749],[-75.52701,42.49818],[-75.52718,42.49825],[-75.52747,42.49836],[-75.52759,42.49838],[-75.52764,42.49838],[-75.52776,42.49836],[-75.52797,42.49836],[-75.52805,42.49837],[-75.52829,42.49844],[-75.52845,42.4985],[-75.52737,42.5001],[-75.52662,42.50117],[-75.52344,42.50551],[-75.52319,42.50589],[-75.52297,42.5063],[-75.52284,42.50659],[-75.5227,42.50699],[-75.52259,42.50737],[-75.52251,42.50783],[-75.52247,42.50827],[-75.52249,42.50882],[-75.52256,42.50942],[-75.52273,42.51045],[-75.52285,42.51133],[-75.52291,42.51186],[-75.52299,42.5148],[-75.523,42.51557],[-75.52299,42.516],[-75.52293,42.51676],[-75.52277,42.51793],[-75.52276,42.51816],[-75.52281,42.51945],[-75.52286,42.52045],[-75.52289,42.52083],[-75.52155,42.52092],[-75.52009,42.52099],[-75.51896,42.52105],[-75.51825,42.52107],[-75.51808,42.52108],[-75.51793,42.52113],[-75.51771,42.52122],[-75.51747,42.52137],[-75.51741,42.52143],[-75.51729,42.52158],[-75.51717,42.52178],[-75.51696,42.52223],[-75.5169,42.52237],[-75.51639,42.5233],[-75.5168,42.52336],[-75.5174,42.52343],[-75.51757,42.52344],[-75.51802,42.52343],[-75.52143,42.52325],[-75.52214,42.5232],[-75.52309,42.52316],[-75.52343,42.52711],[-75.52355,42.52867],[-75.52369,42.53017],[-75.52382,42.53179]]}},{"type":"Feature","properties":{"agency":"Chenango First Transit","shape_id":"i8en"},"geometry":{"type":"LineString","coordinates":[[-75.52382,42.53179],[-75.52393,42.53288],[-75.52317,42.53291],[-75.52156,42.533],[-75.52111,42.53305],[-75.52054,42.53311],[-75.51994,42.53319],[-75.51881,42.53325],[-75.51933,42.53824],[-75.51951,42.54017],[-75.52189,42.53996],[-75.52218,42.53995],[-75.52228,42.53997],[-75.52236,42.54001],[-75.52246,42.54008],[-75.52251,42.54015],[-75.522919,42.540878],[-75.52292,42.54088],[-75.52327,42.54156],[-75.52331,42.54167],[-75.52343,42.54204],[-75.52379,42.54343],[-75.52394,42.5439],[-75.52404,42.54423],[-75.52411,42.54436],[-75.5238,42.5445],[-75.52371,42.54453],[-75.5235,42.54457],[-75.5231,42.54459],[-75.52308,42.54426],[-75.523,42.54423],[-75.52288,42.54421],[-75.5228,42.54418],[-75.52268,42.54411],[-75.52263,42.54406],[-75.52263,42.54401],[-75.52264,42.54395],[-75.5227,42.54387],[-75.52274,42.54383],[-75.5228,42.5438],[-75.52297,42.54377],[-75.5228,42.5438],[-75.52274,42.54383],[-75.5227,42.54387],[-75.52264,42.54395],[-75.52263,42.54401],[-75.52263,42.54406],[-75.52268,42.54411],[-75.5228,42.54418],[-75.52288,42.54421],[-75.523,42.54423],[-75.52294,42.54426],[-75.52295,42.5446],[-75.5235,42.54457],[-75.52371,42.54453],[-75.5238,42.5445],[-75.52411,42.54436],[-75.52404,42.54423],[-75.52394,42.5439],[-75.52379,42.54343],[-75.52343,42.54204],[-75.52331,42.54167],[-75.52327,42.54156],[-75.52297,42.54098],[-75.52251,42.54015],[-75.52246,42.54008],[-75.52236,42.54001],[-75.52228,42.53997],[-75.52218,42.53995],[-75.52189,42.53996],[-75.51951,42.54017],[-75.51943,42.53935],[-75.519376,42.53935],[-75.51938,42.53935],[-75.51943,42.53935],[-75.51951,42.54017],[-75.52189,42.53996],[-75.52218,42.53995],[-75.52228,42.53997],[-75.52236,42.54001],[-75.52246,42.54008],[-75.52251,42.54015],[-75.52297,42.54098],[-75.52327,42.54156],[-75.52331,42.54167],[-75.52343,42.54204],[-75.52379,42.54343],[-75.52394,42.5439],[-75.52404,42.54423],[-75.52411,42.54436],[-75.52434,42.54425],[-75.52434,42.54425],[-75.52462,42.54413],[-75.52492,42.54417],[-75.52496,42.54468],[-75.5253,42.54803],[-75.52545,42.54925],[-75.52551,42.54994],[-75.52558,42.55132],[-75.52575,42.5535],[-75.52558,42.55132],[-75.52551,42.54994],[-75.52545,42.54925],[-75.5253,42.54803],[-75.52535,42.54802],[-75.52569,42.54799],[-75.52579,42.54796],[-75.52598,42.54787],[-75.52602,42.54783],[-75.52611,42.54774],[-75.52678,42.54672],[-75.52719,42.54618],[-75.52739,42.54594],[-75.52788,42.54545],[-75.52798,42.54536],[-75.5281,42.5453],[-75.52821,42.54542],[-75.52826,42.54555],[-75.52822,42.54568],[-75.52781,42.54663],[-75.52766,42.54732],[-75.527581,42.547837],[-75.52766,42.54732],[-75.52781,42.54663],[-75.52822,42.54568],[-75.52826,42.54555],[-75.52821,42.54542],[-75.5281,42.5453],[-75.52798,42.54536],[-75.52788,42.54545],[-75.52739,42.54594],[-75.52719,42.54618],[-75.52678,42.54672],[-75.52611,42.54774],[-75.52602,42.54783],[-75.52598,42.54787],[-75.52579,42.54796],[-75.52569,42.54799],[-75.52535,42.54802],[-75.5253,42.54803],[-75.52496,42.54468],[-75.52484,42.5432],[-75.52462,42.54097],[-75.52499,42.54096],[-75.52503,42.54097],[-75.52507,42.54102],[-75.52509,42.54114],[-75.52512,42.54143],[-75.52529,42.54142],[-75.52546,42.54143],[-75.52554,42.54145],[-75.52558,42.54148],[-75.5256,42.54152],[-75.52558,42.54148],[-75.52554,42.54145],[-75.52546,42.54143],[-75.52529,42.54142],[-75.52512,42.54143],[-75.52509,42.54114],[-75.52507,42.54102],[-75.52503,42.54097],[-75.52499,42.54096],[-75.52462,42.54097],[-75.52441,42.53873],[-75.52424,42.53667],[-75.52615,42.53656],[-75.52736,42.53647],[-75.52986,42.53636],[-75.53318,42.53619],[-75.53381,42.53921],[-75.53415,42.54066],[-75.53428,42.54125],[-75.53415,42.54066],[-75.53381,42.53921],[-75.53318,42.53619],[-75.52986,42.53636],[-75.52736,42.53647],[-75.52615,42.53656],[-75.52424,42.53667],[-75.52416,42.53582],[-75.52397,42.53336],[-75.52385,42.53221],[-75.52378,42.53123],[-75.52157,42.53141],[-75.52138,42.53142],[-75.51995,42.53153],[-75.51982,42.53057],[-75.51995,42.53153],[-75.5193,42.5316],[-75.51864,42.53164],[-75.51837,42.52894],[-75.518445,42.528931],[-75.51845,42.52893],[-75.52084,42.52881],[-75.52097,42.52928],[-75.52108,42.529779],[-75.52108,42.52978],[-75.52129,42.53073],[-75.52131,42.53104],[-75.52138,42.53142],[-75.52157,42.53141],[-75.52378,42.53123],[-75.52382,42.53179]]}}]}