{"type":"FeatureCollection","features":[{"type":"Feature","properties":{"agency":"Citylink North (Kootenai County)","shape_id":"14283"},"geometry":{"type":"LineString","coordinates":[[-116.815883685,47.699319405],[-116.81584,47.70016],[-116.815665493,47.700237175],[-116.815538608,47.700210372],[-116.81548076,47.700129294],[-116.815409,47.699284],[-116.815297,47.699285],[-116.815165,47.699288],[-116.814619,47.699292],[-116.8145,47.699293],[-116.814501,47.699364],[-116.814499,47.699277],[-116.814509,47.699901],[-116.814508,47.700107],[-116.814502,47.700215],[-116.814468,47.700482],[-116.81435,47.70047],[-116.814205,47.700454],[-116.813932,47.700412],[-116.813788,47.700386],[-116.813671,47.700364],[-116.813329,47.700306],[-116.812987,47.700229],[-116.812182,47.700054],[-116.811785,47.699956],[-116.811706,47.699936],[-116.811181,47.699799],[-116.810866,47.699704],[-116.810177,47.699481],[-116.809893,47.699368],[-116.809874,47.69936],[-116.809509,47.699232],[-116.809173,47.699094],[-116.808512,47.698826],[-116.808452,47.698796],[-116.808331,47.698734],[-116.808319,47.698727],[-116.808094,47.698585],[-116.807888,47.698418],[-116.807722,47.698213],[-116.80759,47.698049],[-116.80756,47.698012],[-116.80728,47.697686],[-116.80722,47.697614],[-116.807153,47.697554],[-116.807054,47.697475],[-116.806945,47.697412],[-116.806841,47.697372],[-116.806817,47.697366],[-116.806774,47.697356],[-116.806635,47.697342],[-116.806353,47.697334],[-116.80625,47.697337],[-116.80614,47.69734],[-116.805956,47.697344],[-116.806659,47.698237],[-116.806811,47.698463],[-116.806905,47.698611],[-116.807007,47.69877],[-116.807178,47.699038],[-116.807298,47.699265],[-116.807417,47.699504],[-116.807522,47.699776],[-116.807567,47.699917],[-116.807616,47.70008],[-116.807682,47.700331],[-116.807754,47.70068],[-116.807815,47.701126],[-116.807874,47.701595],[-116.807879,47.702093],[-116.807879,47.702265],[-116.807881,47.702732],[-116.807878,47.702756],[-116.807875,47.702782],[-116.807875,47.703379],[-116.80788,47.704443],[-116.807883,47.704523],[-116.807884,47.704599],[-116.807939,47.707298],[-116.807957,47.708282],[-116.807973,47.709256],[-116.807986,47.709759],[-116.807986,47.70978],[-116.80799,47.710302],[-116.808015,47.711408],[-116.808028,47.712146],[-116.808032,47.713431],[-116.808036,47.713601],[-116.808037,47.713623],[-116.808059,47.714446],[-116.808058,47.71445],[-116.808084,47.715462],[-116.808088,47.715563],[-116.808089,47.715689],[-116.808093,47.716136],[-116.808102,47.717131],[-116.808102,47.717157],[-116.808111,47.718273],[-116.808115,47.719112],[-116.808134,47.71962],[-116.808135,47.720466],[-116.808135,47.72047],[-116.808151,47.722668],[-116.808152,47.72276],[-116.808155,47.722887],[-116.808208,47.724956],[-116.808215,47.725897],[-116.80822,47.72655],[-116.808231,47.727263],[-116.808244,47.728002],[-116.808248,47.728289],[-116.808278,47.729871],[-116.808353,47.729996],[-116.808353,47.730084],[-116.808349,47.730908],[-116.808348,47.731268],[-116.808345,47.731734],[-116.808345,47.731934],[-116.808343,47.732216],[-116.808341,47.732792],[-116.808339,47.733303],[-116.808335,47.733983],[-116.808334,47.73428],[-116.808332,47.734708],[-116.808331,47.735009],[-116.808364,47.737591],[-116.808383,47.739017],[-116.808382,47.739066],[-116.808381,47.739106],[-116.808343,47.740783],[-116.808343,47.740951],[-116.808338,47.742029],[-116.808334,47.742888],[-116.808338,47.743313],[-116.808328,47.743597],[-116.808326,47.743644],[-116.808325,47.743874],[-116.808323,47.74437],[-116.808322,47.744502],[-116.808287,47.744502],[-116.80717,47.744519],[-116.806625,47.744516],[-116.80599,47.744513],[-116.803987,47.744502],[-116.802535,47.744487],[-116.801981,47.744481],[-116.801246,47.744473],[-116.799609,47.744456],[-116.798347,47.744454],[-116.798182,47.744454],[-116.797897,47.744449],[-116.797739,47.744453],[-116.797447,47.744452],[-116.797431,47.744452],[-116.797282,47.744452],[-116.796846,47.744452],[-116.795405,47.744449],[-116.795397,47.743339],[-116.795395,47.743042],[-116.795386,47.741709],[-116.795384,47.741001],[-116.795384,47.740655],[-116.795383,47.740469],[-116.795383,47.74033],[-116.795381,47.739456],[-116.795379,47.738443],[-116.79538,47.738205],[-116.795379,47.737755],[-116.795378,47.737178],[-116.795479,47.737177],[-116.796339,47.737186],[-116.79714,47.737192],[-116.797268,47.737193],[-116.797396,47.737194],[-116.798352,47.737202],[-116.79838,47.737202],[-116.798401,47.737202],[-116.799489,47.737204],[-116.802533,47.737212],[-116.803049,47.737214],[-116.803344,47.737216],[-116.803503,47.737255],[-116.803793,47.737289],[-116.804016,47.737338],[-116.804217,47.737387],[-116.804409,47.737461],[-116.804645,47.737602],[-116.80484,47.737774],[-116.804907,47.737874],[-116.804996,47.738037],[-116.805092,47.738227],[-116.805151,47.738326],[-116.805299,47.738574],[-116.805396,47.7387],[-116.805493,47.738787],[-116.805603,47.738863],[-116.805791,47.738955],[-116.805918,47.739015],[-116.806066,47.739065],[-116.80612,47.739075],[-116.806221,47.739093],[-116.806385,47.739115],[-116.806455,47.739119],[-116.80666,47.73913],[-116.807555,47.739131],[-116.808153,47.739138],[-116.808198,47.739135],[-116.808365,47.739109],[-116.808381,47.739106],[-116.808343,47.740783],[-116.808343,47.740951],[-116.808338,47.742029],[-116.808334,47.742888],[-116.808338,47.743313],[-116.808328,47.743597],[-116.808326,47.743644],[-116.808325,47.743874],[-116.808323,47.74437],[-116.808322,47.744502],[-116.808505,47.744504],[-116.808971,47.74452],[-116.809179,47.744527],[-116.810499,47.744572],[-116.810654,47.744582],[-116.810696,47.744583],[-116.81141,47.744598],[-116.811802,47.744598],[-116.8119,47.744599],[-116.812156,47.744659],[-116.812948,47.744671],[-116.813577,47.744676],[-116.814422,47.74469],[-116.814647,47.744691],[-116.81488,47.744693],[-116.814972,47.744694],[-116.814976,47.744694],[-116.815418,47.744701],[-116.816363,47.744708],[-116.816872,47.744662],[-116.81732,47.744669],[-116.817997,47.744675],[-116.821363,47.744718],[-116.82476,47.744738],[-116.825744,47.744747],[-116.82607,47.744749],[-116.826524,47.744752],[-116.827284,47.74474],[-116.82754,47.744728],[-116.82839,47.744689],[-116.828984,47.744676],[-116.829459,47.744675],[-116.829585,47.744673],[-116.829585,47.744694],[-116.829583,47.744795],[-116.829549,47.746953],[-116.829548,47.747024],[-116.829534,47.7483],[-116.829529,47.748931],[-116.82952,47.749942],[-116.829512,47.750984],[-116.829528,47.751851],[-116.82953,47.751953],[-116.829505,47.751953],[-116.829388,47.751952],[-116.829374,47.751952],[-116.828244,47.751937],[-116.827043,47.751926],[-116.826186,47.751918],[-116.826084,47.751917],[-116.824191,47.751898],[-116.819688,47.751863],[-116.818617,47.751853],[-116.818265,47.751848],[-116.816236,47.751826],[-116.814226,47.751813],[-116.814163,47.751812],[-116.813597,47.751806],[-116.812934,47.751794],[-116.812281,47.751783],[-116.811673,47.751778],[-116.811461,47.751777],[-116.810251,47.751768],[-116.809242,47.751755],[-116.808276,47.751752],[-116.808255,47.751752],[-116.80738,47.751752],[-116.806788,47.751752],[-116.805984,47.751755],[-116.802818,47.751757],[-116.802652,47.751758],[-116.800602,47.751759],[-116.799916,47.751763],[-116.798729,47.751767],[-116.797512,47.751767],[-116.795965,47.751767],[-116.795488,47.751772],[-116.79514,47.751774],[-116.794607,47.751769],[-116.794356,47.751763],[-116.794242,47.751759],[-116.794142,47.751755],[-116.79371,47.751744],[-116.79267,47.751755],[-116.791661,47.751757],[-116.791414,47.751762],[-116.79141,47.751762],[-116.791113,47.751768],[-116.790914,47.751772],[-116.79053,47.751776],[-116.790089,47.75178],[-116.789452,47.751776],[-116.789212,47.751776],[-116.78893,47.751776],[-116.78875,47.751776],[-116.788459,47.751775],[-116.787928,47.751775],[-116.787764,47.751775],[-116.787728,47.751775],[-116.787691,47.751775],[-116.787568,47.751773],[-116.786796,47.75177],[-116.786666,47.75177],[-116.786662,47.751673],[-116.786665,47.751073],[-116.786664,47.750893],[-116.786651,47.750709],[-116.786636,47.750493],[-116.786627,47.750382],[-116.786626,47.750274],[-116.786633,47.74996],[-116.786627,47.749411],[-116.786625,47.749221],[-116.786627,47.748748],[-116.786627,47.748729],[-116.786628,47.748452],[-116.786638,47.748016],[-116.786645,47.7477],[-116.786646,47.747582],[-116.786649,47.74729],[-116.786653,47.746998],[-116.786683,47.74644],[-116.786685,47.74637],[-116.786691,47.745817],[-116.786693,47.745621],[-116.786715,47.745062],[-116.786717,47.7446],[-116.786729,47.744481],[-116.786737,47.744336],[-116.786752,47.744136],[-116.786752,47.743968],[-116.786752,47.743876],[-116.786753,47.743707],[-116.786755,47.743459],[-116.786757,47.743283],[-116.786759,47.74302],[-116.78673,47.743006],[-116.786722,47.742857],[-116.78673,47.741691],[-116.786745,47.739555],[-116.78674,47.738913],[-116.786763,47.738593],[-116.786763,47.738443],[-116.786765,47.738169],[-116.786765,47.737998],[-116.786776,47.737459],[-116.786784,47.737076],[-116.786776,47.736895],[-116.786772,47.736261],[-116.786771,47.736069],[-116.786768,47.735636],[-116.786767,47.735507],[-116.786765,47.735156],[-116.786765,47.735103],[-116.786763,47.734827],[-116.786761,47.73412],[-116.78676,47.733927],[-116.78676,47.733882],[-116.786738,47.733329],[-116.786738,47.733189],[-116.786735,47.732663],[-116.786733,47.732291],[-116.786732,47.732029],[-116.786732,47.731928],[-116.786731,47.731877],[-116.78673,47.731664],[-116.786729,47.731413],[-116.786725,47.73054],[-116.786724,47.730399],[-116.786726,47.730014],[-116.786735,47.729915],[-116.786729,47.729812],[-116.786729,47.729392],[-116.786724,47.728918],[-116.786722,47.728681],[-116.78673,47.728459],[-116.78674,47.728216],[-116.786735,47.728078],[-116.786733,47.727949],[-116.78673,47.727882],[-116.78672,47.727446],[-116.786708,47.726925],[-116.78671,47.726524],[-116.786711,47.72624],[-116.786712,47.726076],[-116.786713,47.725884],[-116.786709,47.725174],[-116.786706,47.724665],[-116.786705,47.72442],[-116.786695,47.723821],[-116.786695,47.723779],[-116.786696,47.723245],[-116.786697,47.723027],[-116.786701,47.722736],[-116.786701,47.722645],[-116.786717,47.722566],[-116.786709,47.721989],[-116.786697,47.72102],[-116.786697,47.720663],[-116.786699,47.720041],[-116.786674,47.71912],[-116.786654,47.718379],[-116.786654,47.718048],[-116.786653,47.717898],[-116.786652,47.717763],[-116.78665,47.717506],[-116.786653,47.717206],[-116.786655,47.716843],[-116.786656,47.716647],[-116.786658,47.716319],[-116.786661,47.716016],[-116.786662,47.715745],[-116.786661,47.715444],[-116.786661,47.715349],[-116.786661,47.715276],[-116.78663,47.714594],[-116.786605,47.713992],[-116.786605,47.713983],[-116.786585,47.713472],[-116.786574,47.713026],[-116.786571,47.712903],[-116.786567,47.712722],[-116.786564,47.712602],[-116.786564,47.712575],[-116.786545,47.712079],[-116.786541,47.711976],[-116.78654,47.711918],[-116.786522,47.711419],[-116.786502,47.710794],[-116.786484,47.709906],[-116.78648,47.709746],[-116.786461,47.709169],[-116.786438,47.708411],[-116.786423,47.707787],[-116.786408,47.707349],[-116.786404,47.707239],[-116.786401,47.707124],[-116.786395,47.70684],[-116.786387,47.706542],[-116.78637,47.705767],[-116.786368,47.70565],[-116.786368,47.705638],[-116.786344,47.704753],[-116.786328,47.704148],[-116.786308,47.703572],[-116.786308,47.703466],[-116.786308,47.70322],[-116.786308,47.703214],[-116.786303,47.70303],[-116.786291,47.702578],[-116.78629,47.702542],[-116.786289,47.702363],[-116.786276,47.701606],[-116.786275,47.701444],[-116.786271,47.701182],[-116.786266,47.700832],[-116.786265,47.700731],[-116.786265,47.700625],[-116.786284,47.699842],[-116.786289,47.69964],[-116.786297,47.699081],[-116.786293,47.698787],[-116.786294,47.698636],[-116.786294,47.698633],[-116.786287,47.698051],[-116.786288,47.697922],[-116.786291,47.697741],[-116.786295,47.697489],[-116.786299,47.697296],[-116.786302,47.697155],[-116.78631,47.696625],[-116.786312,47.696457],[-116.786318,47.69613],[-116.786319,47.696081],[-116.78632,47.696027],[-116.786327,47.695564],[-116.786335,47.695113],[-116.786337,47.695018],[-116.786499,47.695013],[-116.786516,47.695012],[-116.787323,47.694989],[-116.787513,47.694983],[-116.787705,47.694973],[-116.787889,47.694964],[-116.788105,47.694942],[-116.788285,47.694923],[-116.789582,47.69479],[-116.790298,47.694716],[-116.790739,47.694764],[-116.790985,47.694751],[-116.791245,47.69472],[-116.79148,47.694693],[-116.791648,47.694673],[-116.791793,47.694656],[-116.792001,47.694632],[-116.792662,47.694556],[-116.793304,47.694482],[-116.793522,47.694457],[-116.793632,47.694436],[-116.793711,47.694422],[-116.793882,47.694348],[-116.794241,47.694309],[-116.794825,47.694248],[-116.794958,47.694234],[-116.795003,47.69423],[-116.795157,47.694224],[-116.79518,47.694224],[-116.795269,47.694226],[-116.795393,47.694237],[-116.795461,47.694247],[-116.795523,47.694257],[-116.795655,47.69429],[-116.795763,47.69433],[-116.795798,47.69435],[-116.79598,47.69447],[-116.79606,47.69457],[-116.79612,47.69475],[-116.79611,47.69534],[-116.79613,47.69544],[-116.79618,47.69554],[-116.79626,47.69562],[-116.79646,47.69573],[-116.79674,47.69579],[-116.79765,47.69579],[-116.79816,47.69583],[-116.79851,47.69588],[-116.79895,47.69598],[-116.79927,47.69608],[-116.79961,47.69621],[-116.80105,47.69691],[-116.80136,47.69704],[-116.80188,47.6972],[-116.80241,47.69731],[-116.80271,47.69735],[-116.80315,47.69737],[-116.80395,47.697374],[-116.804473,47.697369],[-116.8047,47.697365],[-116.805103,47.697358],[-116.80586,47.697346],[-116.805956,47.697344],[-116.80614,47.69734],[-116.80625,47.697337],[-116.806353,47.697334],[-116.806635,47.697342],[-116.806774,47.697356],[-116.806841,47.697372],[-116.806945,47.697412],[-116.80705,47.697472],[-116.807153,47.697554],[-116.807213,47.697605],[-116.80728,47.697686],[-116.80756,47.698012],[-116.80759,47.698049],[-116.807722,47.698213],[-116.807888,47.698418],[-116.807972,47.698486],[-116.808094,47.698585],[-116.808319,47.698727],[-116.808331,47.698734],[-116.808452,47.698796],[-116.808508,47.698824],[-116.80883,47.698955],[-116.809173,47.699094],[-116.809509,47.699232],[-116.809893,47.699368],[-116.810177,47.699481],[-116.810866,47.699704],[-116.811181,47.699799],[-116.811717,47.699939],[-116.811785,47.699956],[-116.812182,47.700054],[-116.812987,47.700229],[-116.813329,47.700306],[-116.813671,47.700364],[-116.813932,47.700412],[-116.814205,47.700454],[-116.814457,47.700481],[-116.814468,47.700482],[-116.814471,47.700457],[-116.814502,47.700215],[-116.814508,47.700107],[-116.814509,47.699901],[-116.814499,47.69929],[-116.81554,47.69929],[-116.815830688,47.69924976],[-116.815885454,47.699322381]]}},{"type":"Feature","properties":{"agency":"Citylink North (Kootenai County)","shape_id":"42803"},"geometry":{"type":"LineString","coordinates":[[-116.81588745,47.699701013],[-116.815896354,47.699926853],[-116.815884515,47.700134923],[-116.815817887,47.70020477],[-116.815684233,47.700240306],[-116.815562488,47.700221805],[-116.815486002,47.70015],[-116.815469,47.699284],[-116.815297,47.699285],[-116.815165,47.699288],[-116.814802,47.699291],[-116.814619,47.699292],[-116.8145,47.699293],[-116.814501,47.69942],[-116.814509,47.699901],[-116.814508,47.70008],[-116.814481,47.700379],[-116.814468,47.700482],[-116.814205,47.700454],[-116.813932,47.700412],[-116.813788,47.700386],[-116.813671,47.700364],[-116.813329,47.700306],[-116.813022,47.700237],[-116.812987,47.700229],[-116.812182,47.700054],[-116.811785,47.699956],[-116.811717,47.699939],[-116.811181,47.699799],[-116.810866,47.699704],[-116.810177,47.699481],[-116.810097,47.699449],[-116.809893,47.699368],[-116.809721,47.699306],[-116.809509,47.699232],[-116.809173,47.699094],[-116.808512,47.698826],[-116.808452,47.698796],[-116.808331,47.698734],[-116.808319,47.698727],[-116.808094,47.698585],[-116.807888,47.698418],[-116.807722,47.698213],[-116.80759,47.698049],[-116.80756,47.698012],[-116.80728,47.697686],[-116.807213,47.697605],[-116.807153,47.697554],[-116.807054,47.697475],[-116.806957,47.697419],[-116.806841,47.697372],[-116.806774,47.697356],[-116.806635,47.697342],[-116.806353,47.697334],[-116.80625,47.697337],[-116.80614,47.69734],[-116.805956,47.697344],[-116.80586,47.697346],[-116.805103,47.697358],[-116.8047,47.697365],[-116.804473,47.697369],[-116.803931,47.697374],[-116.803059,47.697364],[-116.802807,47.697354],[-116.802651,47.697341],[-116.802558,47.697333],[-116.802446,47.697315],[-116.802173,47.69727],[-116.801859,47.697201],[-116.801673,47.697153],[-116.80158,47.697123],[-116.801341,47.697043],[-116.801176,47.696979],[-116.800999,47.696898],[-116.80097,47.696884],[-116.800752,47.696777],[-116.800701,47.696752],[-116.799954,47.696383],[-116.799758,47.696285],[-116.799605,47.696215],[-116.799488,47.696162],[-116.79927,47.69608],[-116.79897,47.695988],[-116.798706,47.695921],[-116.798509,47.695882],[-116.798486,47.695878],[-116.798379,47.69586],[-116.798312,47.695852],[-116.797993,47.695814],[-116.797764,47.695803],[-116.797746,47.695802],[-116.797712,47.695801],[-116.797672,47.695799],[-116.797635,47.695797],[-116.797222,47.695795],[-116.796981,47.695794],[-116.79681,47.695793],[-116.796616,47.695778],[-116.796562,47.695769],[-116.796539,47.695762],[-116.79642,47.69572],[-116.796286,47.695653],[-116.796253,47.695629],[-116.796208,47.695587],[-116.796135,47.695439],[-116.796115,47.695372],[-116.796114,47.69534],[-116.796112,47.695292],[-116.796118,47.695149],[-116.796119,47.695139],[-116.796118,47.695051],[-116.796118,47.694927],[-116.796118,47.694794],[-116.796113,47.694743],[-116.79611,47.694715],[-116.796088,47.694645],[-116.796049,47.694572],[-116.796011,47.694517],[-116.795966,47.694471],[-116.79592,47.694428],[-116.795855,47.694384],[-116.795763,47.69433],[-116.795731,47.694318],[-116.795612,47.694264],[-116.795539,47.694218],[-116.79549,47.694182],[-116.795437,47.69413],[-116.79542,47.694106],[-116.795391,47.694064],[-116.795359,47.694006],[-116.795336,47.693934],[-116.795315,47.693807],[-116.795316,47.693743],[-116.795318,47.693654],[-116.79532,47.693454],[-116.795321,47.693384],[-116.795325,47.692595],[-116.794718,47.692586],[-116.794099,47.69259],[-116.793494,47.692588],[-116.793039,47.692588],[-116.792924,47.692586],[-116.792323,47.692584],[-116.791967,47.692583],[-116.79194,47.692583],[-116.791905,47.692583],[-116.791759,47.692583],[-116.791735,47.692582],[-116.791513,47.692569],[-116.791453,47.692565],[-116.790861,47.692565],[-116.79084,47.692565],[-116.788463,47.692567],[-116.788446,47.692567],[-116.787346,47.692567],[-116.787327,47.692567],[-116.786338,47.692566],[-116.786145,47.692566],[-116.786145,47.692515],[-116.786148,47.692149],[-116.78615,47.691708],[-116.786153,47.691161],[-116.786156,47.690807],[-116.786159,47.690161],[-116.786161,47.689884],[-116.786163,47.689489],[-116.786167,47.688984],[-116.786167,47.688786],[-116.786172,47.68814],[-116.786167,47.688786],[-116.786167,47.688984],[-116.786163,47.689489],[-116.786161,47.689884],[-116.786167,47.688984],[-116.786167,47.688786],[-116.786169,47.688058],[-116.786383,47.688061],[-116.786872,47.688067],[-116.787469,47.688072],[-116.788063,47.688071],[-116.788648,47.688074],[-116.789172,47.688077],[-116.78925,47.688078],[-116.791792,47.688089],[-116.791783,47.687999],[-116.791783,47.687976],[-116.791786,47.687663],[-116.791787,47.687531],[-116.79179,47.687294],[-116.791791,47.687238],[-116.791796,47.686756],[-116.791801,47.686284],[-116.791801,47.686237],[-116.7918005,47.686016],[-116.7918,47.685795],[-116.7918,47.685305],[-116.7918,47.684493],[-116.7918,47.684355],[-116.791799,47.682891],[-116.791923,47.682891],[-116.792323,47.68289],[-116.792673,47.682889],[-116.792706,47.682889],[-116.793101,47.682888],[-116.793336,47.682888],[-116.793471,47.682886],[-116.793536,47.682881],[-116.793599,47.682867],[-116.793736,47.682828],[-116.793904,47.682823],[-116.79403,47.682772],[-116.794174,47.682714],[-116.794274,47.682674],[-116.794361,47.682642],[-116.79444,47.68261],[-116.794499,47.68258],[-116.794604,47.68252],[-116.794681,47.682467],[-116.794742,47.682416],[-116.794769,47.682391],[-116.794786,47.682375],[-116.794846,47.682308],[-116.79492,47.682216],[-116.79512,47.681957],[-116.795136,47.681936],[-116.795227,47.681812],[-116.795263,47.681753],[-116.795306,47.681672],[-116.795333,47.681611],[-116.795353,47.681551],[-116.795369,47.681489],[-116.795383,47.681427],[-116.795392,47.681371],[-116.795394,47.681304],[-116.795389,47.680779],[-116.795386,47.680449],[-116.795387,47.680396],[-116.795391,47.68036],[-116.795406,47.680331],[-116.795422,47.680311],[-116.795465,47.680282],[-116.795514,47.680253],[-116.795547,47.680215],[-116.795561,47.680172],[-116.795556,47.680128],[-116.79553,47.680088],[-116.795487,47.680054],[-116.795436,47.680033],[-116.795395,47.679997],[-116.795365,47.679963],[-116.795324,47.679895],[-116.795294,47.679853],[-116.795263,47.679813],[-116.795208,47.67976],[-116.795137,47.679698],[-116.795004,47.679597],[-116.794893,47.679512],[-116.794849,47.679477],[-116.794815,47.679442],[-116.79479,47.67941],[-116.794776,47.679388],[-116.794721,47.679249],[-116.794723,47.679212],[-116.794731,47.679186],[-116.794746,47.679166],[-116.794765,47.679156],[-116.794782,47.679145],[-116.794809,47.679119],[-116.794825,47.679088],[-116.794829,47.679056],[-116.79482,47.679024],[-116.794799,47.678995],[-116.794762,47.678968],[-116.794731,47.678955],[-116.794663,47.678941],[-116.794609,47.678943],[-116.794559,47.678956],[-116.794516,47.678978],[-116.794414,47.679006],[-116.79435,47.679017],[-116.794274,47.679024],[-116.793949,47.679045],[-116.793802,47.679045],[-116.793236,47.679042],[-116.793106,47.679045],[-116.792981,47.679036],[-116.792859,47.679049],[-116.792736,47.67908],[-116.792629,47.679117],[-116.792544,47.679155],[-116.792484,47.679187],[-116.792418,47.679232],[-116.792348,47.679294],[-116.79226,47.679372],[-116.792171,47.679451],[-116.792075,47.679532],[-116.791996,47.679591],[-116.791916,47.679641],[-116.791841,47.679681],[-116.791512,47.679814],[-116.790896,47.679173],[-116.79031,47.678574],[-116.789808,47.678063],[-116.789655,47.677997],[-116.789555,47.677892],[-116.789394,47.677723],[-116.78937,47.677699],[-116.789315,47.677641],[-116.789297,47.677622],[-116.789207,47.677539],[-116.789155,47.677491],[-116.789134,47.677471],[-116.788833,47.677158],[-116.788499,47.676823],[-116.788206,47.676512],[-116.787869,47.676128],[-116.787725,47.675935],[-116.787702,47.675903],[-116.787614,47.675786],[-116.78759,47.675653],[-116.787584,47.67562],[-116.78706,47.674808],[-116.787039,47.674776],[-116.786911,47.674573],[-116.786811,47.674426],[-116.786653,47.674227],[-116.786574,47.674109],[-116.786455,47.674155],[-116.786369,47.674189],[-116.786119,47.674288],[-116.786085,47.674301],[-116.785923,47.674349],[-116.785703,47.674369],[-116.785573,47.674378],[-116.785448,47.674379],[-116.785304,47.674376],[-116.785294,47.674376],[-116.785107,47.674372],[-116.784887,47.674367],[-116.784228,47.674358],[-116.784111,47.674353],[-116.783984,47.674352],[-116.783487,47.674342],[-116.782925,47.674331],[-116.78276,47.674328],[-116.782621,47.674326],[-116.782509,47.674324],[-116.782144,47.674318],[-116.781813,47.674312],[-116.781795,47.674312],[-116.781297,47.674303],[-116.781171,47.674302],[-116.781048,47.674299],[-116.779829,47.674275],[-116.779702,47.674274],[-116.779598,47.674271],[-116.778378,47.674248],[-116.778257,47.674245],[-116.778139,47.674243],[-116.776945,47.674225],[-116.776795,47.674221],[-116.776654,47.674212],[-116.775681,47.674188],[-116.775566,47.674175],[-116.775524,47.674165],[-116.775459,47.674137],[-116.775444,47.674128],[-116.775381,47.674068],[-116.775357,47.674024],[-116.775343,47.673972],[-116.775337,47.673796],[-116.775318,47.673424],[-116.775313,47.673346],[-116.775155,47.673345],[-116.774781,47.673344],[-116.773929,47.673342],[-116.77382,47.673342],[-116.772368,47.67334],[-116.770769,47.673343],[-116.770649,47.673344],[-116.770545,47.673343],[-116.769179,47.673332],[-116.769153,47.673332],[-116.768777,47.673333],[-116.768337,47.673333],[-116.767817,47.673335],[-116.767715,47.673334],[-116.767699,47.673334],[-116.766234,47.673333],[-116.765853,47.673334],[-116.76524,47.673336],[-116.764863,47.673337],[-116.76478,47.673337],[-116.764656,47.673336],[-116.764143,47.673335],[-116.764023,47.673335],[-116.763739,47.673331],[-116.763321,47.673326],[-116.763022,47.673326],[-116.761853,47.673327],[-116.76041,47.673327],[-116.759382,47.673331],[-116.757914,47.673322],[-116.75648,47.673316],[-116.756463,47.673316],[-116.756384,47.673317],[-116.755015,47.673322],[-116.755013,47.673425],[-116.75501,47.673734],[-116.755015,47.674072],[-116.755016,47.674142],[-116.75501,47.674142],[-116.753675,47.674143],[-116.753529,47.674143],[-116.753531,47.673418],[-116.753532,47.673311],[-116.753565,47.673311],[-116.753713,47.673312],[-116.754984,47.673322],[-116.755015,47.673322],[-116.756384,47.673317],[-116.756463,47.673316],[-116.757914,47.673322],[-116.759382,47.673331],[-116.76041,47.673327],[-116.761853,47.673327],[-116.763022,47.673326],[-116.763321,47.673326],[-116.763739,47.673331],[-116.764023,47.673335],[-116.764143,47.673335],[-116.764656,47.673336],[-116.76478,47.673337],[-116.764863,47.673337],[-116.76524,47.673336],[-116.765853,47.673334],[-116.766234,47.673333],[-116.767699,47.673334],[-116.767715,47.673334],[-116.767817,47.673335],[-116.768337,47.673333],[-116.768777,47.673333],[-116.769153,47.673332],[-116.769179,47.673332],[-116.770545,47.673343],[-116.770649,47.673344],[-116.770769,47.673343],[-116.772368,47.67334],[-116.77382,47.673342],[-116.773929,47.673342],[-116.774781,47.673344],[-116.775155,47.673345],[-116.775313,47.673346],[-116.775318,47.673424],[-116.775337,47.673796],[-116.775343,47.673972],[-116.775351,47.674002],[-116.775357,47.674024],[-116.775381,47.674068],[-116.775424,47.674109],[-116.775444,47.674128],[-116.775524,47.674165],[-116.775566,47.674175],[-116.775681,47.674188],[-116.776654,47.674212],[-116.776795,47.674221],[-116.7768,47.674221],[-116.776945,47.674225],[-116.778139,47.674243],[-116.778257,47.674245],[-116.778378,47.674248],[-116.779598,47.674271],[-116.779702,47.674274],[-116.779829,47.674275],[-116.781048,47.674299],[-116.781171,47.674302],[-116.781173,47.67438],[-116.781159,47.674709],[-116.781143,47.67507],[-116.781143,47.675124],[-116.781142,47.675178],[-116.781124,47.675535],[-116.781107,47.675877],[-116.781106,47.675942],[-116.781103,47.676013],[-116.78109,47.676367],[-116.781072,47.6767],[-116.781071,47.676765],[-116.781066,47.676835],[-116.781048,47.677178],[-116.781039,47.677516],[-116.781038,47.677577],[-116.781034,47.677653],[-116.781017,47.678003],[-116.781005,47.678354],[-116.781003,47.678408],[-116.781002,47.678466],[-116.780963,47.679406],[-116.780933,47.68011],[-116.780925,47.680234],[-116.780923,47.680317],[-116.780919,47.680409],[-116.780883,47.681169],[-116.780882,47.68122],[-116.780879,47.681371],[-116.780876,47.681499],[-116.780855,47.68184],[-116.780851,47.681897],[-116.78085,47.681948],[-116.780841,47.682441],[-116.780837,47.682601],[-116.780836,47.682655],[-116.780829,47.682745],[-116.780764,47.683869],[-116.780746,47.684385],[-116.780744,47.684441],[-116.780742,47.684487],[-116.780694,47.686183],[-116.780686,47.686239],[-116.780686,47.686307],[-116.780689,47.686377],[-116.780708,47.687135],[-116.780712,47.687206],[-116.780713,47.687272],[-116.780726,47.688134],[-116.780729,47.688195],[-116.780731,47.68827],[-116.780755,47.68911],[-116.780759,47.689178],[-116.780758,47.689248],[-116.780767,47.690099],[-116.780768,47.690164],[-116.780768,47.69017],[-116.780768,47.690235],[-116.780769,47.691082],[-116.780771,47.691148],[-116.780774,47.691219],[-116.780775,47.691691],[-116.780768,47.69207],[-116.780766,47.692144],[-116.780765,47.692212],[-116.780735,47.693201],[-116.780735,47.693348],[-116.780735,47.693409],[-116.780735,47.69349],[-116.780733,47.694185],[-116.780732,47.694524],[-116.780731,47.695022],[-116.780731,47.695094],[-116.780731,47.695165],[-116.780731,47.69539],[-116.780729,47.696074],[-116.781178,47.696075],[-116.781397,47.696075],[-116.781433,47.696066],[-116.781609,47.696023],[-116.781688,47.695998],[-116.78196,47.69587],[-116.78206,47.69579],[-116.78212,47.69571],[-116.782192,47.695479],[-116.782203,47.695095],[-116.782207,47.694141],[-116.782205,47.693486],[-116.782206,47.693414],[-116.782329,47.693415],[-116.784247,47.693415],[-116.785211,47.69342],[-116.785516,47.69342],[-116.785986,47.693419],[-116.786204,47.693418],[-116.786283,47.693877],[-116.786295,47.693952],[-116.786322,47.694117],[-116.786325,47.6943],[-116.78633,47.69463],[-116.786335,47.694869],[-116.786337,47.695018],[-116.786499,47.695013],[-116.787323,47.694989],[-116.787513,47.694983],[-116.787705,47.694973],[-116.787874,47.694965],[-116.788105,47.694942],[-116.788285,47.694923],[-116.789582,47.69479],[-116.790298,47.694716],[-116.790739,47.694764],[-116.790985,47.694751],[-116.791245,47.69472],[-116.79148,47.694693],[-116.791648,47.694673],[-116.791793,47.694656],[-116.792001,47.694632],[-116.792662,47.694556],[-116.793304,47.694482],[-116.793522,47.694457],[-116.793632,47.694436],[-116.793711,47.694422],[-116.793882,47.694348],[-116.794241,47.694309],[-116.794825,47.694248],[-116.794958,47.694234],[-116.795003,47.69423],[-116.795157,47.694224],[-116.79518,47.694224],[-116.795269,47.694226],[-116.795393,47.694237],[-116.795523,47.694257],[-116.795655,47.69429],[-116.79578,47.69434],[-116.795844,47.694376],[-116.79592,47.694428],[-116.79597,47.694475],[-116.796001,47.694503],[-116.796049,47.694572],[-116.796088,47.694645],[-116.79611,47.694715],[-116.796118,47.694794],[-116.796118,47.695051],[-116.796119,47.695139],[-116.796112,47.695292],[-116.796115,47.695372],[-116.796132,47.695433],[-116.796208,47.695587],[-116.796253,47.695629],[-116.796273,47.695646],[-116.796358,47.695696],[-116.796446,47.695734],[-116.796562,47.695769],[-116.796616,47.695778],[-116.796791,47.695793],[-116.796981,47.695794],[-116.797222,47.695795],[-116.797635,47.695797],[-116.797712,47.695801],[-116.797764,47.695803],[-116.797993,47.695814],[-116.798312,47.695852],[-116.798379,47.69586],[-116.798486,47.695878],[-116.798706,47.695921],[-116.79897,47.695988],[-116.799255,47.696075],[-116.799488,47.696162],[-116.799758,47.696285],[-116.799762,47.696281],[-116.799834,47.696214],[-116.800032,47.696031],[-116.800284,47.69583],[-116.800435,47.695735],[-116.800505,47.695692],[-116.800596,47.695647],[-116.800767,47.695562],[-116.80115,47.695381],[-116.801242,47.695328],[-116.801318,47.695265],[-116.801398,47.695173],[-116.8015,47.695025],[-116.801781,47.694613],[-116.801815,47.694563],[-116.801925,47.694403],[-116.801968,47.694348],[-116.801983,47.694333],[-116.802035,47.694282],[-116.802096,47.694233],[-116.802171,47.694182],[-116.802282,47.694125],[-116.802452,47.694061],[-116.802929,47.693876],[-116.803069,47.693822],[-116.803207,47.693772],[-116.803335,47.693729],[-116.8035,47.693666],[-116.803801,47.693552],[-116.804019,47.693469],[-116.804538,47.69328],[-116.804647,47.693234],[-116.804725,47.693327],[-116.80477,47.693377],[-116.804882,47.693485],[-116.805007,47.693571],[-116.805098,47.693617],[-116.805197,47.693665],[-116.80542,47.69373],[-116.8056,47.69377],[-116.80581,47.693781],[-116.805829,47.693782],[-116.806011,47.693775],[-116.806601,47.693711],[-116.806815,47.693701],[-116.807015,47.693719],[-116.807222,47.693762],[-116.807343,47.693804],[-116.807428,47.693834],[-116.808426,47.69425],[-116.808552,47.694303],[-116.808739,47.694382],[-116.808947,47.694469],[-116.809209,47.694597],[-116.809228,47.694612],[-116.809244,47.694624],[-116.80948,47.6948],[-116.809703,47.695052],[-116.809786,47.695208],[-116.810079,47.695757],[-116.81025,47.696073],[-116.810298,47.696161],[-116.810327,47.696218],[-116.810567,47.69668],[-116.810685,47.696901],[-116.81083,47.697101],[-116.810861,47.697129],[-116.811059,47.697298],[-116.811197,47.697388],[-116.811238,47.697408],[-116.811281,47.697429],[-116.811442,47.697508],[-116.811883,47.69766],[-116.812146,47.697732],[-116.812416,47.69779],[-116.812477,47.6978],[-116.812723,47.697842],[-116.813031,47.697885],[-116.813065,47.69789],[-116.813395,47.697932],[-116.813462,47.697941],[-116.813766,47.697987],[-116.813944,47.698021],[-116.81409,47.698069],[-116.814209,47.69813],[-116.814307,47.698195],[-116.814383,47.698274],[-116.814431,47.698353],[-116.814463,47.698439],[-116.814481,47.698528],[-116.814485,47.698647],[-116.814489,47.698876],[-116.8145,47.699277],[-116.8145,47.699293],[-116.814619,47.699292],[-116.81486,47.69929],[-116.815107,47.699288],[-116.815165,47.699288],[-116.815166,47.699288],[-116.815297,47.699285],[-116.815355,47.699285],[-116.815469,47.699284],[-116.815592,47.699277],[-116.815738,47.69926],[-116.815836,47.699242],[-116.815880778,47.699343995],[-116.815886541,47.699462149],[-116.815886713,47.69970178]]}},{"type":"Feature","properties":{"agency":"Citylink North (Kootenai County)","shape_id":"63995"},"geometry":{"type":"LineString","coordinates":[[-116.8154745,47.699786],[-116.8154751,47.6997761],[-116.815469487,47.699282282],[-116.815108,47.699288],[-116.814619,47.699292],[-116.8145,47.699293],[-116.8145,47.69934],[-116.814508,47.70009],[-116.814502,47.700215],[-116.814468,47.700482],[-116.81464,47.700493],[-116.814883,47.700505],[-116.815248,47.700513],[-116.815715,47.700516],[-116.816559,47.700526],[-116.816561,47.700526],[-116.817035,47.700537],[-116.817041,47.700537],[-116.8175,47.700574],[-116.817955,47.700591],[-116.818142,47.700604],[-116.818461,47.70063],[-116.820437,47.700784],[-116.82076,47.700808],[-116.82114,47.700831],[-116.821973,47.700835],[-116.822086,47.700834],[-116.822839,47.700836],[-116.822877,47.700835],[-116.823888,47.700827],[-116.824089,47.700829],[-116.824836,47.700824],[-116.825892,47.700823],[-116.826217,47.700839],[-116.826544,47.700855],[-116.826669,47.700852],[-116.826719,47.700848],[-116.826669,47.700852],[-116.826719,47.700848],[-116.826798,47.700843],[-116.826922,47.700823],[-116.827026,47.700802],[-116.8270775,47.700791],[-116.827129,47.70078],[-116.827228,47.700758],[-116.827342,47.700743],[-116.827371,47.700741],[-116.827427,47.700739],[-116.82752,47.700749],[-116.827616,47.700774],[-116.827718,47.700803],[-116.827744,47.700822],[-116.827814,47.700839],[-116.827882,47.700842],[-116.827961,47.700838],[-116.828057,47.700811],[-116.828067,47.7008],[-116.828187,47.700767],[-116.828294,47.700746],[-116.828418,47.700738],[-116.828586,47.70075],[-116.828742,47.700764],[-116.828936,47.700777],[-116.82918,47.700792],[-116.829463,47.70081],[-116.829664,47.700817],[-116.830197,47.700833],[-116.83144,47.700837],[-116.831597,47.700839],[-116.832001,47.700855],[-116.832237,47.70088],[-116.832456,47.700903],[-116.83269,47.700933],[-116.832803,47.700952],[-116.832914,47.700971],[-116.833327,47.70105],[-116.833735,47.701143],[-116.833984,47.70121],[-116.834276,47.701293],[-116.834723,47.701425],[-116.835164,47.701558],[-116.835339,47.701613],[-116.836227,47.701881],[-116.836678,47.702003],[-116.837036,47.702074],[-116.8374,47.702141],[-116.837671,47.702218],[-116.837888,47.702291],[-116.837975,47.702314],[-116.838053,47.70233],[-116.838133,47.702342],[-116.83826,47.70236],[-116.838429,47.702381],[-116.838576,47.702398],[-116.838734,47.702425],[-116.838817,47.702453],[-116.83889,47.702499],[-116.838927,47.702527],[-116.83897,47.702565],[-116.839001,47.702609],[-116.839056,47.702637],[-116.839098,47.70265],[-116.839148,47.702661],[-116.839202,47.70267],[-116.839266,47.702656],[-116.839348,47.70267],[-116.83944,47.702702],[-116.839526,47.702739],[-116.839551,47.70275],[-116.839615,47.702777],[-116.839742,47.702831],[-116.840002,47.702936],[-116.840218,47.703023],[-116.840321,47.703066],[-116.84063,47.703167],[-116.840743,47.703202],[-116.840923,47.703259],[-116.841383,47.703395],[-116.841538,47.703439],[-116.841907,47.703543],[-116.842581,47.703704],[-116.843099,47.703816],[-116.843742,47.703945],[-116.844381,47.704073],[-116.845501,47.704282],[-116.84573,47.704325],[-116.846205,47.704413],[-116.846768,47.704521],[-116.848195,47.704788],[-116.84897,47.704911],[-116.849006,47.704917],[-116.849446,47.704977],[-116.849779,47.705012],[-116.84987,47.705022],[-116.850537,47.705088],[-116.850701,47.705104],[-116.850918,47.705117],[-116.851189,47.705132],[-116.851654,47.705153],[-116.852265,47.705174],[-116.852716,47.705185],[-116.85278,47.705186],[-116.853133,47.705189],[-116.85353,47.705196],[-116.853855,47.705204],[-116.85435,47.705212],[-116.855291,47.705233],[-116.856326,47.705248],[-116.857617,47.70528],[-116.858856,47.70529],[-116.86018,47.70532],[-116.8602,47.70532],[-116.861348,47.705345],[-116.862183,47.705364],[-116.863214,47.705398],[-116.863885,47.705409],[-116.864617,47.705421],[-116.864693,47.705422],[-116.865947,47.705435],[-116.866101,47.705437],[-116.867141,47.705457],[-116.868235,47.705478],[-116.868701,47.705481],[-116.868985,47.705483],[-116.86918,47.705484],[-116.870948,47.705526],[-116.872323,47.705561],[-116.872967,47.705578],[-116.873058,47.705577],[-116.87315,47.705576],[-116.873355,47.70558],[-116.873977,47.705584],[-116.874177,47.705586],[-116.874388,47.705589],[-116.874971,47.705602],[-116.875563,47.705616],[-116.875657,47.70562],[-116.876128,47.705639],[-116.876583,47.705663],[-116.876617,47.705665],[-116.877639,47.705734],[-116.877925,47.70576],[-116.877966,47.705764],[-116.878159,47.705782],[-116.87913,47.7059],[-116.880229,47.706064],[-116.880309,47.70607],[-116.88053,47.706051],[-116.881625,47.706276],[-116.882099,47.706375],[-116.88321,47.706604],[-116.883582,47.706681],[-116.883686,47.706702],[-116.886049,47.707192],[-116.887113,47.70744],[-116.887185,47.707458],[-116.887248,47.707474],[-116.89261,47.7088],[-116.893798,47.709077],[-116.894155,47.709222],[-116.894279,47.709254],[-116.89434,47.709271],[-116.894978,47.709442],[-116.895368,47.709547],[-116.89538,47.70941],[-116.89539,47.709267],[-116.895397,47.709155],[-116.895399,47.709121],[-116.895405,47.709023],[-116.895414,47.708916],[-116.895421,47.708814],[-116.895403,47.708683],[-116.895367,47.708592],[-116.895356,47.708564],[-116.895332,47.708503],[-116.89527,47.708395],[-116.895204,47.708279],[-116.895081,47.708117],[-116.895188,47.708111],[-116.895638,47.708088],[-116.89586,47.708086],[-116.895902,47.708087],[-116.896064,47.70809],[-116.896245,47.708095],[-116.896331,47.708097],[-116.896391,47.708098],[-116.896957,47.708122],[-116.897193,47.708132],[-116.89723,47.708131],[-116.897193,47.708132],[-116.897412,47.708129],[-116.897489,47.708129],[-116.898338,47.708134],[-116.898722,47.708136],[-116.899593,47.70814],[-116.900102,47.708142],[-116.900361,47.708145],[-116.900806,47.70815],[-116.901071,47.708153],[-116.901461,47.708157],[-116.901628,47.708159],[-116.90166,47.708159],[-116.902268,47.708167],[-116.902927,47.708176],[-116.903348,47.708182],[-116.904115,47.708192],[-116.904859,47.708202],[-116.904864,47.708647],[-116.904868,47.70868],[-116.904876,47.708738],[-116.904885,47.708773],[-116.904897,47.708808],[-116.904916,47.708849],[-116.904938,47.708887],[-116.90495,47.708908],[-116.904971,47.708952],[-116.904989,47.708999],[-116.905002,47.709071],[-116.905006,47.709129],[-116.905007,47.709431],[-116.905008,47.709772],[-116.905008,47.709789],[-116.905008,47.709881],[-116.905005,47.709911],[-116.904999,47.709942],[-116.904982,47.709995],[-116.904958,47.710048],[-116.904933,47.710101],[-116.904913,47.710146],[-116.904899,47.710191],[-116.904888,47.710244],[-116.904883,47.710294],[-116.904883,47.710347],[-116.904883,47.710397],[-116.904884,47.710452],[-116.904888,47.710491],[-116.904898,47.710563],[-116.904908,47.710631],[-116.904913,47.710712],[-116.904913,47.710723],[-116.904916,47.710882],[-116.904918,47.711015],[-116.905092,47.711007],[-116.905589,47.710985],[-116.90583,47.710974],[-116.907423,47.710904],[-116.907745,47.710889],[-116.908011,47.710876],[-116.908083,47.710873],[-116.909038,47.710836],[-116.909059,47.710835],[-116.909641,47.710811],[-116.910779,47.710765],[-116.910938,47.710758],[-116.91185,47.710717],[-116.911957,47.710712],[-116.912047,47.710709],[-116.912195,47.710702],[-116.912502,47.71069],[-116.912734,47.71068],[-116.913063,47.710666],[-116.913221,47.710659],[-116.914016,47.710626],[-116.91491,47.710589],[-116.915374,47.710569],[-116.915762,47.710552],[-116.916486,47.710522],[-116.916544,47.710519],[-116.917083,47.71049],[-116.91713,47.710488],[-116.917206,47.710486],[-116.917612,47.710476],[-116.917924,47.710468],[-116.918296,47.710462],[-116.91832,47.710463],[-116.92014,47.7105],[-116.92121,47.71057],[-116.921245,47.710572],[-116.921485,47.710592],[-116.921503,47.710594],[-116.921593,47.710603],[-116.921723,47.710616],[-116.921857,47.710629],[-116.922116,47.710654],[-116.922376,47.710681],[-116.922631,47.710711],[-116.922648,47.710713],[-116.922723,47.710723],[-116.922727,47.710723],[-116.922777,47.710729],[-116.922847,47.710737],[-116.922852,47.710738],[-116.922917,47.710746],[-116.923263,47.710795],[-116.923427,47.710812],[-116.923722,47.710854],[-116.923796,47.710863],[-116.924176,47.710908],[-116.924231,47.710916],[-116.924379,47.710932],[-116.92547,47.71103],[-116.92556,47.71036],[-116.92566,47.7102],[-116.92582,47.71011],[-116.92609,47.71006],[-116.92624,47.71001],[-116.92634,47.70992],[-116.92638,47.70985],[-116.9264,47.70978],[-116.92639,47.70927],[-116.9264,47.70918],[-116.92646,47.70906],[-116.92659,47.70895],[-116.92665,47.70881],[-116.926626,47.708244],[-116.926624,47.708173],[-116.926729,47.708173],[-116.926797,47.708173],[-116.92707,47.708174],[-116.927542,47.708177],[-116.928133,47.708185],[-116.928464,47.708189],[-116.928509,47.70819],[-116.928571,47.708191],[-116.92865,47.708192],[-116.929118,47.708194],[-116.929227,47.708194],[-116.929561,47.708199],[-116.929669,47.708201],[-116.929806,47.708204],[-116.930484,47.708208],[-116.930714,47.708208],[-116.93077,47.708208],[-116.931139,47.708208],[-116.932637,47.708208],[-116.932797,47.708208],[-116.932992,47.708207],[-116.933201,47.708207],[-116.933274,47.708207],[-116.933676,47.708206],[-116.93417,47.708205],[-116.93571,47.708205],[-116.936329,47.708205],[-116.936682,47.70821],[-116.937316,47.708218],[-116.938839,47.708209],[-116.940394,47.708207],[-116.941894,47.708215],[-116.943476,47.708208],[-116.945002,47.708209],[-116.946543,47.708211],[-116.94788,47.708212],[-116.948063,47.708253],[-116.948063,47.708277],[-116.948066,47.708757],[-116.948062,47.709555],[-116.948063,47.709873],[-116.948061,47.709975],[-116.948047,47.710455],[-116.94803,47.711008],[-116.948018,47.712103],[-116.948019,47.712461],[-116.948019,47.712641],[-116.948019,47.712664],[-116.94802,47.712844],[-116.948021,47.713209],[-116.948095,47.713287],[-116.948087,47.713606],[-116.948087,47.713682],[-116.948085,47.713795],[-116.948084,47.713951],[-116.948081,47.714187],[-116.94809,47.714774],[-116.948091,47.715046],[-116.94809,47.715143],[-116.948089,47.715247],[-116.948086,47.71594],[-116.948084,47.716065],[-116.948085,47.716171],[-116.94809,47.716531],[-116.948083,47.716972],[-116.948084,47.717432],[-116.948083,47.717881],[-116.948082,47.718149],[-116.948082,47.718345],[-116.948077,47.7188],[-116.948078,47.719249],[-116.948076,47.719695],[-116.948076,47.720215],[-116.948073,47.720722],[-116.948069,47.721238],[-116.948068,47.721746],[-116.948073,47.722265],[-116.948065,47.722779],[-116.948069,47.723058],[-116.948073,47.723337],[-116.948062,47.7238225],[-116.948051,47.724308],[-116.948054,47.724813],[-116.948046,47.725315],[-116.948046,47.725351],[-116.948043,47.725606],[-116.94804,47.725855],[-116.948037,47.725979],[-116.948038,47.726379],[-116.948025,47.726818],[-116.948019,47.726916],[-116.948013,47.727358],[-116.947995,47.727815],[-116.947994,47.728086],[-116.947999,47.728255],[-116.947994,47.728715],[-116.947993,47.729184],[-116.947991,47.729415],[-116.947989,47.729611],[-116.947989,47.729622],[-116.947964,47.730073],[-116.94796,47.730176],[-116.947922,47.730253],[-116.947914,47.730268],[-116.947868,47.73036],[-116.947853,47.730391],[-116.9478,47.730413],[-116.947757,47.730444],[-116.947657,47.730491],[-116.947558,47.730525],[-116.947464,47.730541],[-116.946729,47.730541],[-116.946287,47.730542],[-116.94554,47.730542],[-116.94405,47.730539],[-116.94299,47.730539],[-116.942063,47.730536],[-116.940055,47.730535],[-116.938765,47.730539],[-116.938406,47.730538],[-116.937834,47.730508],[-116.937778,47.730503],[-116.937704,47.730491],[-116.937642,47.730473],[-116.937606,47.730459],[-116.937574,47.730447],[-116.937525,47.730414],[-116.937497,47.730384],[-116.937475,47.730354],[-116.937453,47.730315],[-116.937444,47.730278],[-116.93744,47.730251],[-116.937439,47.730138],[-116.937435,47.729421],[-116.937389,47.729314],[-116.937386,47.728753],[-116.937386,47.728692],[-116.937382,47.727952],[-116.937379,47.727744],[-116.93736,47.727604],[-116.937299,47.727336],[-116.937269,47.726461],[-116.937253,47.726],[-116.937237,47.725539],[-116.93723,47.725079],[-116.937232,47.7248],[-116.937233,47.724612],[-116.937217,47.724154],[-116.937224,47.723683],[-116.937225,47.723258],[-116.937233,47.722883],[-116.937236,47.722761],[-116.937235,47.722237],[-116.937235,47.721713],[-116.937237,47.721603],[-116.937242,47.721424],[-116.937248,47.72123],[-116.937246,47.721052],[-116.93726,47.720696],[-116.937253,47.720319],[-116.937252,47.720191],[-116.937249,47.719781],[-116.93725,47.719651],[-116.93725,47.719519],[-116.937254,47.719209],[-116.937254,47.718804],[-116.937254,47.718784],[-116.937257,47.718321],[-116.937255,47.71787],[-116.93726,47.717408],[-116.937249,47.717196],[-116.937247,47.717062],[-116.93725,47.716974],[-116.937244,47.716685],[-116.937237,47.716496],[-116.937242,47.716355],[-116.937243,47.716183],[-116.937244,47.71614],[-116.937245,47.716047],[-116.937245,47.716029],[-116.937088,47.716027],[-116.935619,47.716009],[-116.935528,47.716006],[-116.935365,47.716001],[-116.934814,47.715996],[-116.934718,47.715995],[-116.93466,47.715995],[-116.934516,47.715994],[-116.933955,47.715994],[-116.933809,47.715994],[-116.933186,47.715992],[-116.93311,47.715993],[-116.932709,47.715995],[-116.932418,47.715996],[-116.932293,47.715996],[-116.9313,47.715999],[-116.930713,47.716001],[-116.930514,47.716005],[-116.930437,47.716005],[-116.930426,47.716005],[-116.929464,47.716001],[-116.927983,47.715994],[-116.92797,47.715994],[-116.92719,47.715978],[-116.926522,47.715975],[-116.926353,47.715976],[-116.925733,47.715974],[-116.925232,47.715971],[-116.923718,47.715949],[-116.923622,47.715947],[-116.923449,47.715945],[-116.92139,47.715926],[-116.921207,47.715924],[-116.91984,47.715937],[-116.919125,47.715928],[-116.918913,47.715929],[-116.918007,47.715924],[-116.917037,47.715917],[-116.915983,47.715922],[-116.91581,47.715921],[-116.915771,47.715921],[-116.915491,47.71592],[-116.914466,47.715917],[-116.914269,47.715917],[-116.912309,47.715911],[-116.91097,47.715907],[-116.910954,47.715907],[-116.908934,47.715902],[-116.907981,47.715899],[-116.907666,47.715898],[-116.907088,47.715896],[-116.906095,47.715894],[-116.90606,47.715894],[-116.905042,47.715891],[-116.90505,47.715216],[-116.905039,47.714502],[-116.905038,47.714401],[-116.905031,47.71408],[-116.904956,47.714079],[-116.904514,47.714075],[-116.904209,47.714071],[-116.903735,47.714066],[-116.903619,47.714065],[-116.902806,47.714065],[-116.902396,47.714066],[-116.901154,47.714066],[-116.901159,47.714513],[-116.89979,47.714508],[-116.89966,47.714507],[-116.899228,47.714502],[-116.898475,47.714493],[-116.898011,47.714487],[-116.897669,47.714483],[-116.897574,47.714482],[-116.897567,47.7153],[-116.897566,47.715503],[-116.897574,47.715765],[-116.897577,47.715788],[-116.89759,47.715828],[-116.897607,47.715867],[-116.897085,47.715866],[-116.8968,47.715863],[-116.896374,47.715861],[-116.895931,47.71586],[-116.895871,47.71586],[-116.894532,47.715854],[-116.894536,47.71572],[-116.894534,47.715638],[-116.894527,47.715321],[-116.894533,47.714848],[-116.894551,47.71454],[-116.894583,47.714006],[-116.894592,47.713853],[-116.894728,47.713556],[-116.894771,47.713429],[-116.895031,47.71316],[-116.895196,47.712978],[-116.89531,47.712888],[-116.89541,47.712808],[-116.895644,47.712614],[-116.896079,47.712293],[-116.896332,47.712116],[-116.896692,47.711779],[-116.896832,47.71159],[-116.897141,47.711172],[-116.897258,47.710992],[-116.89753,47.710605],[-116.897602,47.710451],[-116.897724,47.71019],[-116.89773,47.710179],[-116.897792,47.710066],[-116.897751,47.710055],[-116.897704,47.710042],[-116.897307,47.709934],[-116.896922,47.70983],[-116.896812,47.7098],[-116.89538,47.70941],[-116.895053,47.709329],[-116.89421,47.709116],[-116.893798,47.709077],[-116.892609,47.708801],[-116.892588,47.708796],[-116.892127,47.708685],[-116.891463,47.708518],[-116.890616,47.708308],[-116.888457,47.707772],[-116.887498,47.707535],[-116.887248,47.707474],[-116.887185,47.707458],[-116.887113,47.70744],[-116.886049,47.707192],[-116.883686,47.706702],[-116.883582,47.706681],[-116.88321,47.706604],[-116.882099,47.706375],[-116.881625,47.706276],[-116.88053,47.706051],[-116.880344,47.705977],[-116.880301,47.70596],[-116.87969,47.70582],[-116.87843,47.705641],[-116.878407,47.705638],[-116.878009,47.705593],[-116.877738,47.705564],[-116.877523,47.705541],[-116.876638,47.705453],[-116.876413,47.705443],[-116.875555,47.705377],[-116.875258,47.705353],[-116.874381,47.705286],[-116.873101,47.705188],[-116.873077,47.705186],[-116.872988,47.70518],[-116.87275,47.705162],[-116.872466,47.70514],[-116.87188,47.705096],[-116.8712,47.705044],[-116.871153,47.70504],[-116.87105,47.705033],[-116.87047,47.704994],[-116.869899,47.704959],[-116.8693,47.704933],[-116.869279,47.704932],[-116.868523,47.704927],[-116.868353,47.704926],[-116.867374,47.704932],[-116.866113,47.704939],[-116.864616,47.704948],[-116.864304,47.704951],[-116.863993,47.704965],[-116.863279,47.70496],[-116.862401,47.704972],[-116.861359,47.704975],[-116.860359,47.704977],[-116.860169,47.704978],[-116.858834,47.704982],[-116.85841,47.704984],[-116.858052,47.704993],[-116.857311,47.704995],[-116.857033,47.704993],[-116.856205,47.705004],[-116.856049,47.705002],[-116.85578,47.704999],[-116.855346,47.705],[-116.855276,47.705002],[-116.854956,47.705011],[-116.854723,47.705018],[-116.853884,47.705027],[-116.85353,47.705023],[-116.853436,47.705022],[-116.852521,47.705046],[-116.852085,47.705044],[-116.851915,47.705044],[-116.851735,47.705044],[-116.851576,47.705039],[-116.851322,47.705027],[-116.851049,47.705011],[-116.850987,47.705007],[-116.850776,47.704992],[-116.850573,47.704973],[-116.850479,47.704964],[-116.850221,47.704931],[-116.849874,47.704881],[-116.849697,47.704852],[-116.849452,47.704811],[-116.848992,47.704726],[-116.848539,47.704638],[-116.846821,47.704304],[-116.844607,47.703898],[-116.84391,47.703766],[-116.843243,47.703635],[-116.842524,47.703488],[-116.842165,47.703405],[-116.841905,47.703342],[-116.841698,47.703287],[-116.841546,47.703241],[-116.841426,47.703204],[-116.84122,47.703138],[-116.840997,47.70306],[-116.840694,47.702948],[-116.840349,47.702818],[-116.840246,47.702783],[-116.84014,47.70275],[-116.840053,47.702729],[-116.840003,47.70272],[-116.839931,47.702705],[-116.839784,47.702674],[-116.839703,47.702655],[-116.839642,47.702635],[-116.839632,47.702629],[-116.839608,47.702617],[-116.839559,47.702591],[-116.839516,47.702561],[-116.839473,47.702523],[-116.83943,47.702478],[-116.839413,47.70243],[-116.839378,47.702399],[-116.83934,47.702373],[-116.839301,47.702356],[-116.839258,47.702344],[-116.8392,47.702343],[-116.839129,47.70235],[-116.839044,47.702345],[-116.838974,47.702337],[-116.838929,47.702327],[-116.838851,47.702306],[-116.838821,47.702297],[-116.838759,47.702277],[-116.838663,47.702241],[-116.838508,47.702178],[-116.838472,47.702164],[-116.838335,47.70211],[-116.838155,47.70204],[-116.837816,47.70194],[-116.836943,47.701711],[-116.835997,47.701463],[-116.835417,47.70131],[-116.83535,47.701292],[-116.834988,47.701197],[-116.834385,47.701037],[-116.834299,47.701017],[-116.833883,47.70091],[-116.833464,47.700815],[-116.833212,47.700768],[-116.832595,47.700667],[-116.832274,47.700628],[-116.831992,47.7006],[-116.831568,47.700562],[-116.831203,47.700539],[-116.830758,47.700526],[-116.830486,47.700536],[-116.830183,47.700552],[-116.830035,47.70055],[-116.829879,47.700542],[-116.829666,47.700518],[-116.82948,47.70049],[-116.829342,47.700473],[-116.829332,47.700472],[-116.829229,47.700466],[-116.829094,47.700468],[-116.82898,47.700473],[-116.828879,47.700485],[-116.828776,47.700501],[-116.828651,47.700523],[-116.828553,47.700539],[-116.828419,47.70055],[-116.828408,47.70055],[-116.828332,47.70055],[-116.828224,47.70055],[-116.828163,47.700543],[-116.828125,47.700531],[-116.828107,47.700525],[-116.828068,47.700497],[-116.828016,47.700477],[-116.827954,47.700462],[-116.827887,47.700459],[-116.827863,47.70046],[-116.827821,47.700463],[-116.827762,47.700481],[-116.827714,47.700499],[-116.827673,47.700524],[-116.827609,47.700545],[-116.82753,47.700561],[-116.827429,47.700577],[-116.827349,47.70058],[-116.827218,47.700572],[-116.827062,47.700556],[-116.826958,47.700552],[-116.826553,47.700537],[-116.825266,47.700542],[-116.824828,47.700545],[-116.824084,47.700547],[-116.822831,47.700552],[-116.822113,47.700554],[-116.82077,47.700563],[-116.820446,47.700561],[-116.81985,47.700554],[-116.819264,47.70055],[-116.818677,47.700533],[-116.81762,47.70051],[-116.817041,47.700537],[-116.817035,47.700537],[-116.816561,47.700526],[-116.816559,47.700526],[-116.815715,47.700516],[-116.815248,47.700513],[-116.814883,47.700505],[-116.81467,47.700495],[-116.814498,47.700484],[-116.814468,47.700482],[-116.814486,47.700344],[-116.814502,47.700215],[-116.814506,47.70014],[-116.814508,47.700107],[-116.814509,47.699901],[-116.814501,47.699364],[-116.8145,47.699293],[-116.814619,47.699292],[-116.815165,47.699288],[-116.815232,47.699286],[-116.815297,47.699285],[-116.815469,47.699284],[-116.815592,47.699277],[-116.815738,47.69926],[-116.815836,47.699242],[-116.815865286,47.699294477],[-116.815883611,47.699449754],[-116.815889399,47.699665617],[-116.81589727,47.700100608],[-116.815879747,47.700153926],[-116.815832991,47.700194948],[-116.815753217,47.700230251],[-116.815667573,47.700237537],[-116.815601087,47.700230273],[-116.8155346,47.7001994],[-116.815487738,47.700155333],[-116.815478153,47.699958741],[-116.8154753,47.6997843]]}}]}