{"type":"FeatureCollection","features":[{"type":"Feature","properties":{"agency":"City Express","shape_id":"Black_route"},"geometry":{"type":"LineString","coordinates":[[-72.27905898,42.93240886],[-72.27894877,42.93242637],[-72.2788485699999,42.93244229],[-72.27834495,42.93250532],[-72.2783246799999,42.93243808],[-72.2782990799999,42.9323888],[-72.2782654199999,42.93234551],[-72.27825131,42.93231165],[-72.2781799499999,42.93184524],[-72.2781143499999,42.93145019],[-72.27805064,42.93107123],[-72.27799007,42.93098775],[-72.2779472499999,42.93076719],[-72.27793201,42.9304079],[-72.27789447,42.93011474],[-72.2776898399999,42.92880169],[-72.27769621,42.92872474],[-72.2777667699999,42.92859083],[-72.2777908399999,42.92856318],[-72.2778046399999,42.92853903],[-72.27781468,42.92851284],[-72.27781625,42.92848187],[-72.27780556,42.9284476],[-72.27779125,42.92841527],[-72.2777703999999,42.92838993],[-72.27774304,42.92836875],[-72.27771783,42.92835518],[-72.2777063399999,42.92834899],[-72.27767065,42.92833749],[-72.27763124,42.92832875],[-72.2775731899999,42.92832769],[-72.2775302099999,42.92833617],[-72.2774816799999,42.92835225],[-72.27744631,42.92837239],[-72.2774147399999,42.92839939],[-72.27739628,42.92842563],[-72.2770424999999,42.92859786],[-72.27693582,42.92863481],[-72.2768264,42.92866588],[-72.27671144,42.92867829],[-72.27655025,42.92868629],[-72.27560841,42.92829081],[-72.27437777,42.9277671],[-72.2740423599999,42.92762793],[-72.27339514,42.92734672],[-72.2727601699999,42.92707709],[-72.2723342599999,42.92689278],[-72.27146501,42.92652288],[-72.27035831,42.9260527],[-72.2703570399999,42.92605216],[-72.2696080399999,42.92573085],[-72.2695420299999,42.92570331],[-72.2680127499999,42.92505651],[-72.2676192499999,42.92489007],[-72.2678863799999,42.92500306],[-72.2680127499999,42.92505651],[-72.2695420299999,42.92570331],[-72.2696080399999,42.92573085],[-72.2703570399999,42.92605216],[-72.27035831,42.9260527],[-72.27146501,42.92652288],[-72.2723342599999,42.92689278],[-72.2727601699999,42.92707709],[-72.27339514,42.92734672],[-72.2740423599999,42.92762793],[-72.27393849,42.92792797],[-72.2738840899999,42.92808344],[-72.2738281299999,42.92826444],[-72.2737671299999,42.92851085],[-72.2736611499999,42.92909002],[-72.27348216,42.93016074],[-72.27347206,42.9302211],[-72.2734252599999,42.93034783],[-72.2735100799999,42.93096967],[-72.2735475799999,42.93116045],[-72.2740769699999,42.93151604],[-72.27477032,42.93182327],[-72.2749344599999,42.93173304],[-72.27507337,42.93190208],[-72.2752416299999,42.93187693],[-72.2751745799999,42.93188695],[-72.27507337,42.93190208],[-72.2749344599999,42.93173304],[-72.27477032,42.93182327],[-72.27490688,42.93196352],[-72.2749703,42.9320649],[-72.27492745,42.93242587],[-72.27483985,42.93242246],[-72.27450285,42.93240934],[-72.2745750299999,42.93270586],[-72.27463824,42.93296552],[-72.2747027199999,42.9332692],[-72.27477983,42.93326335],[-72.27484397,42.93358458],[-72.27485321,42.93363083],[-72.2748644699999,42.93368727],[-72.27490355,42.93381634],[-72.2750399499999,42.93426684],[-72.2757227099999,42.93409434],[-72.2759744899999,42.93404191],[-72.2763644599999,42.93396505],[-72.2763335399999,42.93386692],[-72.27632079,42.93382643],[-72.27629842,42.93375017],[-72.2762311799999,42.93348995],[-72.27616484,42.93323322],[-72.27615462,42.93319368],[-72.27599917,42.93314547],[-72.27558448,42.93318799],[-72.2758465,42.93316112],[-72.27599917,42.93314547],[-72.27615462,42.93319368],[-72.27616484,42.93323322],[-72.2762311799999,42.93348995],[-72.27629842,42.93375017],[-72.27632079,42.93382643],[-72.2763335399999,42.93386692],[-72.2763644599999,42.93396505],[-72.27651939,42.93394276],[-72.27750451,42.93380102],[-72.2779469999999,42.93373982],[-72.27806157,42.93372397],[-72.27811357,42.9337405],[-72.27813505,42.93374944],[-72.27816441,42.93376881],[-72.27818539,42.93379204],[-72.2782128099999,42.93385497],[-72.27825208,42.93378236],[-72.27829751,42.93372949],[-72.27838993,42.9337081],[-72.27848059,42.93369868],[-72.2785850399999,42.93370968],[-72.27843475,42.93297631],[-72.27834495,42.93250532],[-72.2783246799999,42.93243808],[-72.2782990799999,42.9323888],[-72.2782654199999,42.93234551],[-72.27825131,42.93231165],[-72.2781799499999,42.93184524],[-72.2781143499999,42.93145019],[-72.27805064,42.93107123],[-72.27799007,42.93098775],[-72.2779472499999,42.93076719],[-72.27793201,42.9304079],[-72.27789447,42.93011474],[-72.2776898399999,42.92880169],[-72.27769621,42.92872474],[-72.2777667699999,42.92859083],[-72.27795537,42.92846988],[-72.2782140099999,42.92840382],[-72.27856534,42.92832852],[-72.2789240099999,42.92827416],[-72.27969663,42.92817964],[-72.2806007399999,42.92806587],[-72.2807303799999,42.92802683],[-72.28185858,42.92789716],[-72.28276083,42.92779611],[-72.2835041299999,42.92770087],[-72.2843438,42.92757701],[-72.28474389,42.92751781],[-72.28531843,42.92741753],[-72.2858647599999,42.92730216],[-72.28628799,42.92720728],[-72.28665105,42.92711388],[-72.28702798,42.92700672],[-72.28729413,42.92688743],[-72.2875030799999,42.9267815],[-72.28771815,42.92664248],[-72.28842582,42.92609191],[-72.28883811,42.92571486],[-72.2891182799999,42.92540057],[-72.2894216699999,42.92498922],[-72.28959716,42.92469141],[-72.28978666,42.924751],[-72.2899366999999,42.92479819],[-72.29020814,42.92487888],[-72.29031399,42.92489081],[-72.29039586,42.92489453],[-72.29048249,42.92488811],[-72.2905865599999,42.92487632],[-72.29066546,42.92499428],[-72.29074473,42.92514093],[-72.2907795999999,42.9252244],[-72.2907993599999,42.92525585],[-72.29083115,42.92527473],[-72.2908725599999,42.92528284],[-72.29107928,42.92529421],[-72.2923859099999,42.92538533],[-72.29246904,42.92539351],[-72.29253239,42.92540805],[-72.29257957,42.92542625],[-72.29263007,42.92545277],[-72.29267509,42.92547548],[-72.29275425,42.92551541],[-72.29271497,42.92549559],[-72.29267509,42.92547548],[-72.29263007,42.92545277],[-72.29257957,42.92542625],[-72.29253239,42.92540805],[-72.29246904,42.92539351],[-72.2923859099999,42.92538533],[-72.29107928,42.92529421],[-72.2908725599999,42.92528284],[-72.29083115,42.92527473],[-72.2907993599999,42.92525585],[-72.2907795999999,42.9252244],[-72.29074473,42.92514093],[-72.29066546,42.92499428],[-72.2905865599999,42.92487632],[-72.29048249,42.92488811],[-72.29039586,42.92489453],[-72.29031399,42.92489081],[-72.29020814,42.92487888],[-72.2899366999999,42.92479819],[-72.28978666,42.924751],[-72.28959716,42.92469141],[-72.2896318899999,42.92462233],[-72.28836393,42.92406468],[-72.2885111599999,42.92292184],[-72.28727111,42.92282145],[-72.28710114,42.92437086],[-72.28826136,42.9244376],[-72.28836393,42.92406468],[-72.2896318899999,42.92462233],[-72.28980432,42.92427924],[-72.2899407599999,42.92400777],[-72.2900753699999,42.92375569],[-72.29015918,42.92358231],[-72.2902119799999,42.92346854],[-72.29025411,42.92337775],[-72.2904866199999,42.92305318],[-72.29062199,42.92289021],[-72.29090865,42.92274148],[-72.2909209999999,42.92273785],[-72.29096241,42.92272205],[-72.29100655,42.92269949],[-72.29103671,42.92267847],[-72.2910672099999,42.92265157],[-72.29109329,42.92262103],[-72.2911168699999,42.92258183],[-72.29112661,42.92255622],[-72.29113329,42.92252482],[-72.2911363099999,42.92248846],[-72.29113112,42.92244942],[-72.29111794,42.92241072],[-72.29109678,42.92237309],[-72.29107188,42.92221633],[-72.2910813999999,42.92215412],[-72.29130766,42.92162759],[-72.29139686,42.92148496],[-72.2915367899999,42.92125695],[-72.2916195899999,42.92112173],[-72.29172334,42.92094159],[-72.29184641,42.92074992],[-72.29195742,42.92054863],[-72.2921152299999,42.92025078],[-72.29218113,42.92010798],[-72.2922617199999,42.91992167],[-72.29231405,42.91979612],[-72.2923506199999,42.91969352],[-72.2923887,42.91956691],[-72.2924246099999,42.91944852],[-72.2924656,42.91928768],[-72.29254534,42.91899289],[-72.2926213899999,42.91865597],[-72.2926872599999,42.91837478],[-72.29282926,42.9177386],[-72.2929239,42.91744766],[-72.2929653799999,42.91733631],[-72.29307844,42.91709982],[-72.29318478,42.91687902],[-72.2932379899999,42.91676407],[-72.2932968199999,42.91667801],[-72.29342436,42.91644737],[-72.29356081,42.91617993],[-72.2936370799999,42.91602512],[-72.2936595099999,42.91598057],[-72.29373356,42.91583351],[-72.29386685,42.91556003],[-72.29404155,42.91520185],[-72.2941239099999,42.91498888],[-72.29416378,42.91485456],[-72.29419952,42.91471988],[-72.2942585699999,42.91442389],[-72.2943315699999,42.91401986],[-72.29440019,42.91361056],[-72.29442847,42.91348517],[-72.29459785,42.91273421],[-72.2946403199999,42.91251107],[-72.2947461299999,42.91190758],[-72.29478756,42.91162248],[-72.29480714,42.91143209],[-72.2948104099999,42.91137923],[-72.2948204399999,42.91123696],[-72.29482054,42.91123561],[-72.29485028,42.91092061],[-72.29486574,42.91079547],[-72.2948881699999,42.91067034],[-72.2949168699999,42.91055275],[-72.29493374,42.91048901],[-72.2949611399999,42.91039777],[-72.29503099,42.91022028],[-72.2950392999999,42.91020117],[-72.29510955,42.91003953],[-72.2952611399999,42.90974322],[-72.2955029,42.90927261],[-72.29559306,42.9090971],[-72.29639088,42.90930113],[-72.2964121899999,42.90952839],[-72.2962616599999,42.91020137],[-72.29541177,42.91014222],[-72.2950392999999,42.91020117],[-72.29503099,42.91022028],[-72.2949974699999,42.91030547],[-72.2949611399999,42.91039777],[-72.29493374,42.91048901],[-72.2949168699999,42.91055275],[-72.2948881699999,42.91067034],[-72.29486574,42.91079547],[-72.29485028,42.91092061],[-72.29482054,42.91123561],[-72.2948204399999,42.91123696],[-72.2948104099999,42.91137923],[-72.29480714,42.91143209],[-72.29478756,42.91162248],[-72.2947461299999,42.91190758],[-72.2946403199999,42.91251107],[-72.29459785,42.91273421],[-72.29442847,42.91348517],[-72.29440019,42.91361056],[-72.2943315699999,42.91401986],[-72.2942585699999,42.91442389],[-72.29419952,42.91471988],[-72.29416378,42.91485456],[-72.2941239099999,42.91498888],[-72.29404155,42.91520185],[-72.29386685,42.91556003],[-72.29373356,42.91583351],[-72.2936595099999,42.91598057],[-72.2936370799999,42.91602512],[-72.29356081,42.91617993],[-72.29342436,42.91644737],[-72.2932968199999,42.91667801],[-72.2932379899999,42.91676407],[-72.29318478,42.91687902],[-72.29307844,42.91709982],[-72.2929653799999,42.91733631],[-72.2929239,42.91744766],[-72.29282926,42.9177386],[-72.2926872599999,42.91837478],[-72.2926213899999,42.91865597],[-72.29254534,42.91899289],[-72.2924656,42.91928768],[-72.2924246099999,42.91944852],[-72.2923887,42.91956691],[-72.2923506199999,42.91969352],[-72.29231405,42.91979612],[-72.2922617199999,42.91992167],[-72.29218113,42.92010798],[-72.2921152299999,42.92025078],[-72.29195742,42.92054863],[-72.29184641,42.92074992],[-72.29172334,42.92094159],[-72.2916195899999,42.92112173],[-72.2914113599999,42.92146178],[-72.29130766,42.92162759],[-72.2909415,42.92211899],[-72.29081702,42.9221868],[-72.2906112,42.9222578],[-72.29056146,42.92228011],[-72.29051579,42.9223087],[-72.29048014,42.92234091],[-72.29045093,42.92237705],[-72.29042739,42.92242065],[-72.29041789,42.92245152],[-72.2904141,42.92247922],[-72.29041565,42.92252514],[-72.2904256199999,42.92256269],[-72.29044278,42.9225996],[-72.2904671099999,42.92263428],[-72.29049297,42.92266146],[-72.29052681,42.9226883],[-72.29055859,42.92270839],[-72.2905955399999,42.92272581],[-72.29064214,42.9227421],[-72.2906825299999,42.92275178],[-72.29072496,42.92275771],[-72.2907745499999,42.92276067],[-72.2908308699999,42.92275772],[-72.29088235,42.92274922],[-72.29090865,42.92274148],[-72.29122071,42.92265885],[-72.2914481699999,42.92260648],[-72.2924913199999,42.922618],[-72.29294344,42.92264901],[-72.2942736699999,42.92273781],[-72.2968241399999,42.92291057],[-72.29724561,42.92293674],[-72.29817878,42.92299469],[-72.29960187,42.92316973],[-72.2996892599999,42.92319404],[-72.29973157,42.92320827],[-72.29976553,42.9232308],[-72.29981363,42.92326153],[-72.29984493,42.92329854],[-72.29987911,42.92334173],[-72.29990512,42.92341183],[-72.2999225599999,42.92346751],[-72.2999457699999,42.92353762],[-72.2999809399999,42.92369395],[-72.29978183,42.92450341],[-72.2994376399999,42.92583405],[-72.2992493299999,42.92660908],[-72.29887232,42.92807014],[-72.29865467,42.92895556],[-72.2985377699999,42.92943113],[-72.2984029699999,42.92994662],[-72.29817411,42.93052081],[-72.2979419699999,42.93114651],[-72.2978183099999,42.93144571],[-72.29767696,42.93183812],[-72.29695897,42.93342021],[-72.29685569,42.9336433],[-72.2964720399999,42.93362763],[-72.2960166799999,42.93363594],[-72.2954912999999,42.93361039],[-72.2951453,42.93359806],[-72.29508871,42.93359044],[-72.29500987,42.93357982],[-72.29479071,42.93443345],[-72.2935255999999,42.93431572],[-72.2934105399999,42.93509858],[-72.29504984,42.93530775],[-72.29527075,42.93450872],[-72.2948754399999,42.93442363],[-72.2948497099999,42.93442661],[-72.29479071,42.93443345],[-72.29500987,42.93357982],[-72.29508871,42.93359044],[-72.2951453,42.93359806],[-72.2954912999999,42.93361039],[-72.2960166799999,42.93363594],[-72.2961464499999,42.93363357],[-72.2962677799999,42.93363136],[-72.2964720399999,42.93362763],[-72.29685569,42.9336433],[-72.29715464,42.93366264],[-72.29744191,42.93368123],[-72.2977275899999,42.9336955],[-72.2980697999999,42.93370548],[-72.29894059,42.93377391],[-72.2993209699999,42.93382921],[-72.29956674,42.93389119],[-72.29963969,42.93391256],[-72.2998315699999,42.93397286],[-72.3000533499999,42.9340607],[-72.3001996999999,42.93414698],[-72.3005143799999,42.93436099],[-72.30082672,42.93461064],[-72.3021104099999,42.93580216],[-72.30297548,42.93662106],[-72.30401865,42.93760865],[-72.3052023,42.93870917],[-72.3053637099999,42.93884296],[-72.3057851399999,42.93921668],[-72.30617791,42.9395247],[-72.3068005899999,42.93997899],[-72.3077984199999,42.94059887],[-72.3088283799999,42.9411968],[-72.3092181899999,42.94139426],[-72.30955937,42.94156383],[-72.31001442,42.94177602],[-72.3104611899999,42.94199124],[-72.31110612,42.94229427],[-72.3116968199999,42.94267309],[-72.31185695,42.94278501],[-72.31259414,42.94329118],[-72.3126963999999,42.94336656],[-72.31348534,42.94392185],[-72.31452543,42.94470572],[-72.31464493,42.94479609],[-72.3154978099999,42.94545236],[-72.3165761399999,42.94627954],[-72.3171724599999,42.94672741],[-72.31780632,42.9471969],[-72.3181330599999,42.94739873],[-72.31837602,42.94753638],[-72.3189795499999,42.94781964],[-72.3189841699999,42.94790458],[-72.3189758099999,42.94797603],[-72.3189817199999,42.94802548],[-72.31901199,42.94808469],[-72.3191345599999,42.94821067],[-72.32174752,42.95018695],[-72.32165055,42.95022939],[-72.32158547,42.95026834],[-72.32149846,42.95033089],[-72.3213391599999,42.95046746],[-72.3210708099999,42.95070568],[-72.32071702,42.95101974],[-72.32006427,42.95159917],[-72.3195211099999,42.9520752],[-72.3181648799999,42.95326376],[-72.31738278,42.95394638],[-72.3173671899999,42.95395995],[-72.3171432,42.95415485],[-72.31709109,42.95419935],[-72.31700478,42.95427308],[-72.31693525,42.95433431],[-72.3164105799999,42.95478681],[-72.3159795899999,42.95516046],[-72.31552422,42.95554979],[-72.31522044,42.95581281],[-72.31490539,42.9560833],[-72.3146882199999,42.95627163],[-72.3139350099999,42.95689974],[-72.3132062499999,42.95750682],[-72.31300769,42.95767016],[-72.3120629299999,42.95850977],[-72.3112296099999,42.95925641],[-72.3109793699999,42.95947545],[-72.3107379399999,42.95968196],[-72.31033884,42.96001929],[-72.31022491,42.9601177],[-72.31009638,42.96024244],[-72.3099309899999,42.96043168],[-72.30981362,42.9606001],[-72.30974861,42.96072227],[-72.30959579,42.96097055],[-72.30944983,42.96118951],[-72.3093085099999,42.96144693],[-72.30922692,42.96164531],[-72.30912822,42.96194188],[-72.30908678,42.96222002],[-72.30903675,42.96255862],[-72.3089755599999,42.96272032],[-72.3089464199999,42.96278717],[-72.3089118599999,42.96283214],[-72.3088655899999,42.96287301],[-72.3088333299999,42.96288927],[-72.30876419,42.96291773],[-72.3087138599999,42.9629203],[-72.30866353,42.96291275],[-72.30859349,42.96290456],[-72.30842019,42.96289932],[-72.3079680799999,42.96277168],[-72.30735792,42.9626184],[-72.30713427,42.96257091],[-72.3067603899999,42.96248577],[-72.30619769,42.96234421],[-72.30616127,42.96233232],[-72.3058592,42.9627427],[-72.30582735,42.96278598],[-72.3053759799999,42.96299393],[-72.3053209299999,42.96318571],[-72.30544507,42.96337251],[-72.3062819099999,42.96314844],[-72.30639635,42.96292242],[-72.30618334,42.96280792],[-72.3058592,42.9627427],[-72.30616127,42.96233232],[-72.30594175,42.96226066],[-72.3057661499999,42.96220333],[-72.30556746,42.96213847],[-72.3055334799999,42.96212379],[-72.3050869799999,42.96193086],[-72.30481876,42.96179048],[-72.3045503,42.96162645],[-72.30429157,42.96145253],[-72.3040184599999,42.96124844],[-72.30295979,42.96046951],[-72.3023167799999,42.96001403],[-72.30198737,42.95973549],[-72.30159202,42.9593149],[-72.30088897,42.958402],[-72.3006668099999,42.9581129],[-72.3003708199999,42.95772022],[-72.2996294499999,42.95674209],[-72.2993988,42.95644947],[-72.29925978,42.95630018],[-72.29912238,42.95616573],[-72.29881632,42.95592442],[-72.2985507,42.95574264],[-72.2975882799999,42.95505947],[-72.29704211,42.95467717],[-72.2957239699999,42.95371999],[-72.29494201,42.95311149],[-72.29434211,42.95266376],[-72.29407394,42.95245468],[-72.2925529099999,42.95133154],[-72.29219161,42.95107391],[-72.2918013999999,42.95078603],[-72.29141224,42.9505049],[-72.29121464,42.95036145],[-72.29090496,42.95009965],[-72.29083721,42.95004966],[-72.29078889,42.95000433],[-72.29075093,42.94995893],[-72.2907397799999,42.94993545],[-72.2907217399999,42.94989041],[-72.29071793,42.94987265],[-72.2914458399999,42.94949584],[-72.2913554499999,42.94940594],[-72.29061887,42.94978929],[-72.2905833399999,42.94978176],[-72.2905436,42.94977886],[-72.2905075999999,42.94977856],[-72.2904686499999,42.94977096],[-72.29042432,42.94974691],[-72.29036059,42.9497037],[-72.29028578,42.94964319],[-72.2901198999999,42.94953974],[-72.2898875,42.94928014],[-72.2898182499999,42.9491933],[-72.2896289199999,42.94895589],[-72.28944568,42.94873695],[-72.28935714,42.94862481],[-72.2890474999999,42.94823264],[-72.2889018799999,42.94800691],[-72.2887887699999,42.94783257],[-72.2884446999999,42.94730322],[-72.28831395,42.94709721],[-72.28802521,42.9466423],[-72.2878641599999,42.94638894],[-72.28700243,42.94510072],[-72.28579809,42.94326721],[-72.285447,42.94279184],[-72.2850578599999,42.94223926],[-72.2842929899999,42.94118901],[-72.2842393899999,42.94111738],[-72.28409619,42.94093085],[-72.2836203199999,42.94029381],[-72.28311322,42.93963285],[-72.28301475,42.9395045],[-72.2828358099999,42.93926202],[-72.28235576,42.93861559],[-72.2821262899999,42.93831113],[-72.2815937999999,42.93758991],[-72.2813489299999,42.93725712],[-72.28120044,42.9370602],[-72.2807812899999,42.93649614],[-72.2803447499999,42.93590887],[-72.2791837599999,42.93633688],[-72.2788858299999,42.93646174],[-72.27846499,42.93662042],[-72.2782289299999,42.93669673],[-72.2781065799999,42.93671587],[-72.27801718,42.93672277],[-72.2779189599999,42.93672258],[-72.2774304699999,42.936675],[-72.27719448,42.936648],[-72.27726889,42.93634896],[-72.27752879,42.9356221],[-72.27759862,42.93543649],[-72.27784474,42.93484002],[-72.27791577,42.93466366],[-72.27800001,42.93443951],[-72.27807314,42.93438815],[-72.27812656,42.93436339],[-72.2782348199999,42.93433471],[-72.27836951,42.93430595],[-72.2785037799999,42.93429574],[-72.27869714,42.93428847],[-72.27875951,42.93427998],[-72.2788119399999,42.93426115],[-72.2788493599999,42.93423608],[-72.2788780199999,42.93419279],[-72.27889566,42.9341445],[-72.27888991,42.9340199],[-72.27884233,42.93393613],[-72.27879704,42.9338794],[-72.27874728,42.93382379],[-72.27870224,42.93378574],[-72.2787121199999,42.93374481],[-72.27873046,42.93371434],[-72.2787641999999,42.93368499],[-72.27880806,42.93365805],[-72.2794635399999,42.93354853],[-72.2803925999999,42.93340787],[-72.28133816,42.9332552],[-72.28174776,42.93316766],[-72.28234949,42.93308587],[-72.2825892799999,42.93305028],[-72.2825897599999,42.9329184],[-72.2824315,42.93183762],[-72.28172066,42.93192571],[-72.2813278299999,42.93199407],[-72.28007132,42.93224944],[-72.2797881599999,42.93229299],[-72.2791044899999,42.93240163],[-72.2790653499999,42.93240785],[-72.27905947,42.93240878],[-72.27905898,42.93240886],[-72.2790483099999,42.93241056]]}},{"type":"Feature","properties":{"agency":"City Express","shape_id":"Red_route"},"geometry":{"type":"LineString","coordinates":[[-72.27905064,42.93241019],[-72.27834495,42.93250532],[-72.27829908,42.9323888],[-72.27826542,42.93234551],[-72.27825131,42.93231165],[-72.27817995,42.93184524],[-72.27811435,42.93145019],[-72.27805064,42.93107123],[-72.27799007,42.93098775],[-72.27771285,42.9310022],[-72.27668519,42.93110025],[-72.27662066,42.93110506],[-72.27655995,42.9311111],[-72.27652599,42.93111914],[-72.2765008,42.93112785],[-72.27648122,42.93113903],[-72.27646497,42.93115168],[-72.27644945,42.93117171],[-72.27644182,42.93118747],[-72.27644008,42.93120784],[-72.27644323,42.93123105],[-72.27653213,42.93151996],[-72.27657848,42.93168757],[-72.2761786,42.93174483],[-72.27545694,42.93186685],[-72.27512891,42.931876],[-72.27497935,42.93170441],[-72.27476697,42.9318142],[-72.27494814,42.93201914],[-72.27498688,42.93209473],[-72.27492745,42.93242587],[-72.27479927,42.93242088],[-72.27450285,42.93240934],[-72.27461413,42.9328665],[-72.27463824,42.93296552],[-72.27470272,42.9332692],[-72.27477983,42.93326335],[-72.27483296,42.93352942],[-72.27484571,42.93359331],[-72.27486447,42.93368727],[-72.27490355,42.93381632],[-72.27490355,42.93381634],[-72.27503995,42.93426684],[-72.27572271,42.93409434],[-72.27597449,42.93404191],[-72.27636446,42.93396505],[-72.27633354,42.93386692],[-72.27632079,42.93382643],[-72.27629842,42.93375017],[-72.27623118,42.93348995],[-72.27615462,42.93319368],[-72.27599917,42.93314547],[-72.27581895,42.93316395],[-72.27558448,42.93318799],[-72.27569925,42.93317622],[-72.27581895,42.93316395],[-72.27599917,42.93314547],[-72.27615462,42.93319368],[-72.27623118,42.93348995],[-72.27629842,42.93375017],[-72.27632079,42.93382643],[-72.27633354,42.93386692],[-72.27636446,42.93396505],[-72.27750451,42.93380103],[-72.27796274,42.93373764],[-72.27801705,42.93373013],[-72.27806157,42.93372397],[-72.27811357,42.9337405],[-72.27813505,42.93374944],[-72.27816441,42.93376881],[-72.27818539,42.93379204],[-72.27821281,42.93385497],[-72.27813354,42.93413422],[-72.27816768,42.93418672],[-72.27821513,42.93423876],[-72.27827305,42.93427739],[-72.27836951,42.93430595],[-72.27823482,42.93433471],[-72.27812656,42.93436339],[-72.27807314,42.93438815],[-72.278,42.93443951],[-72.27791577,42.93466366],[-72.27784474,42.93484002],[-72.27759862,42.93543649],[-72.27752879,42.9356221],[-72.27726889,42.93634896],[-72.27719448,42.936648],[-72.27705086,42.93746508],[-72.27697665,42.93794601],[-72.27687177,42.93848542],[-72.27670796,42.93932342],[-72.27665607,42.93961345],[-72.27652187,42.9403116],[-72.27639549,42.9407578],[-72.27630261,42.94098387],[-72.27616798,42.94122677],[-72.27614339,42.94126676],[-72.27596286,42.9415612],[-72.27573414,42.94195919],[-72.27561938,42.94215511],[-72.27542668,42.94248117],[-72.27509618,42.94302996],[-72.2749884,42.94319952],[-72.2747911,42.94348929],[-72.27450486,42.94389612],[-72.27443555,42.94398898],[-72.27432593,42.9441171],[-72.27422396,42.94423161],[-72.2741242,42.94433685],[-72.27393311,42.9445207],[-72.27392418,42.94452929],[-72.27359679,42.94481567],[-72.27328905,42.94508044],[-72.27316847,42.94517377],[-72.2727705,42.94550241],[-72.27261206,42.9456293],[-72.27278332,42.94571441],[-72.273354,42.9452431],[-72.27322521,42.94512985],[-72.27344817,42.94494354],[-72.27359679,42.94481567],[-72.27392418,42.94452929],[-72.27393311,42.9445207],[-72.2741242,42.94433685],[-72.27422396,42.94423161],[-72.27432593,42.9441171],[-72.27443555,42.94398898],[-72.27450486,42.94389612],[-72.27479224,42.94348762],[-72.27498954,42.94319785],[-72.27516786,42.9429171],[-72.27519858,42.94286713],[-72.27554069,42.9429343],[-72.27556014,42.94289268],[-72.27531888,42.94283625],[-72.27522923,42.94281528],[-72.27534032,42.9426273],[-72.27542668,42.94248117],[-72.27561938,42.94215511],[-72.27573414,42.94195919],[-72.27596286,42.9415612],[-72.27614339,42.94126676],[-72.27616798,42.94122677],[-72.27630261,42.94098387],[-72.27638494,42.94078347],[-72.27643997,42.94060076],[-72.27652187,42.9403116],[-72.27846122,42.94039175],[-72.27922643,42.94040672],[-72.28003027,42.94029215],[-72.2808762,42.94016106],[-72.28112829,42.940124],[-72.28146608,42.94007434],[-72.28170576,42.94001442],[-72.28223417,42.93980583],[-72.28301475,42.9395045],[-72.28314593,42.93967548],[-72.28362032,42.94029381],[-72.28409619,42.94093085],[-72.28423939,42.94111738],[-72.28429299,42.94118901],[-72.28505786,42.94223926],[-72.285447,42.94279184],[-72.28579809,42.94326721],[-72.28700243,42.94510072],[-72.28786416,42.94638894],[-72.28802521,42.9466423],[-72.28831394,42.94709721],[-72.2884447,42.94730322],[-72.28878877,42.94783257],[-72.2888587,42.94794036],[-72.2890475,42.94823264],[-72.28935714,42.94862481],[-72.28944568,42.94873695],[-72.28962892,42.94895589],[-72.2898875,42.94928014],[-72.2901199,42.94953974],[-72.29019363,42.94965491],[-72.29027,42.94972874],[-72.29034558,42.94981227],[-72.29035924,42.94983634],[-72.29037963,42.94988638],[-72.29037777,42.94990351],[-72.29038165,42.94992754],[-72.2903884,42.94994781],[-72.29040464,42.94997177],[-72.29042155,42.94998878],[-72.29045231,42.95000945],[-72.29049248,42.95002473],[-72.29054349,42.95003301],[-72.29059582,42.95002791],[-72.29063064,42.95001795],[-72.29065598,42.95000659],[-72.29068054,42.94998829],[-72.29069711,42.94997217],[-72.29071076,42.94995553],[-72.29071785,42.94993732],[-72.29072278,42.94992072],[-72.29072407,42.94990468],[-72.29072174,42.94989041],[-72.29071793,42.94987265],[-72.29144584,42.94949584],[-72.29135545,42.94940594],[-72.29067382,42.94976069],[-72.29061887,42.94978929],[-72.29058334,42.94978176],[-72.2905436,42.94977886],[-72.29051476,42.94978184],[-72.2904908,42.94978678],[-72.2904705,42.94979337],[-72.29044823,42.94980311],[-72.29042711,42.94981874],[-72.29040821,42.94983702],[-72.29039497,42.94985578],[-72.29037963,42.94988638],[-72.29037777,42.94990351],[-72.29038165,42.94992754],[-72.2903884,42.94994781],[-72.29040464,42.94997177],[-72.29042155,42.94998878],[-72.29045231,42.95000945],[-72.29049248,42.95002473],[-72.29054349,42.95003301],[-72.29059582,42.95002791],[-72.29069038,42.95005085],[-72.2907671,42.95009129],[-72.29082855,42.95012838],[-72.29121464,42.95036145],[-72.29141224,42.9505049],[-72.2918014,42.95078603],[-72.29219161,42.95107391],[-72.29255291,42.95133154],[-72.29407394,42.95245468],[-72.29434211,42.95266376],[-72.29494201,42.95311149],[-72.29572397,42.95371999],[-72.29704211,42.95467717],[-72.29758828,42.95505947],[-72.2985507,42.95574264],[-72.29881632,42.95592442],[-72.29912238,42.95616573],[-72.29925978,42.95630018],[-72.2993988,42.95644947],[-72.29962945,42.95674209],[-72.30037082,42.95772022],[-72.30053239,42.95793457],[-72.30066681,42.9581129],[-72.30088897,42.958402],[-72.30159202,42.9593149],[-72.30198737,42.95973549],[-72.30231678,42.96001403],[-72.30295979,42.96046951],[-72.3030224,42.9605153],[-72.30328796,42.96070952],[-72.30342187,42.9608026],[-72.30429157,42.96145253],[-72.3045503,42.96162645],[-72.30481876,42.96179048],[-72.30508698,42.96193086],[-72.30553348,42.96212379],[-72.30576614,42.96220333],[-72.30619769,42.96234421],[-72.30676039,42.96248577],[-72.30713427,42.96257091],[-72.30735792,42.9626184],[-72.30796808,42.96277168],[-72.30842019,42.96289931],[-72.30856167,42.96296438],[-72.30861649,42.96299742],[-72.30865759,42.96302006],[-72.30868838,42.96304942],[-72.30870646,42.96308552],[-72.30873545,42.96311679],[-72.30877658,42.96314228],[-72.30882824,42.96316834],[-72.30886709,42.96317006],[-72.30891204,42.96316594],[-72.30895044,42.9631559],[-72.30900325,42.96313541],[-72.30902381,42.9631197],[-72.30904557,42.963091],[-72.30905568,42.96306522],[-72.30905793,42.96303281],[-72.30904853,42.96300143],[-72.30903132,42.96296818],[-72.30901288,42.96294161],[-72.30902385,42.9628739],[-72.30903675,42.96255862],[-72.30908678,42.96222002],[-72.30910097,42.96212478],[-72.30913986,42.9619069],[-72.30922692,42.96164531],[-72.30930851,42.96144693],[-72.30944983,42.96118951],[-72.30959579,42.96097055],[-72.30974861,42.96072227],[-72.30981362,42.9606001],[-72.30993099,42.96043168],[-72.31009638,42.96024244],[-72.31022491,42.9601177],[-72.31033884,42.96001929],[-72.31073794,42.95968196],[-72.31097937,42.95947545],[-72.31122961,42.95925641],[-72.31206293,42.95850977],[-72.31300769,42.95767016],[-72.31320625,42.95750682],[-72.31328215,42.9574436],[-72.313283,42.95744289],[-72.31393501,42.95689973],[-72.3145318,42.95640207],[-72.31468823,42.95627163],[-72.31490539,42.9560833],[-72.31522044,42.95581281],[-72.31552422,42.95554979],[-72.31597959,42.95516046],[-72.31641058,42.95478681],[-72.31666017,42.95457282],[-72.31684564,42.95441324],[-72.31700478,42.95427308],[-72.31709109,42.95419935],[-72.3171432,42.95415485],[-72.31736719,42.95395995],[-72.31738278,42.95394638],[-72.31816488,42.95326376],[-72.31952111,42.9520752],[-72.31966742,42.95218265],[-72.32013375,42.95252516],[-72.32109635,42.95316988],[-72.32196928,42.95252664],[-72.32236762,42.95219526],[-72.32071702,42.95101974],[-72.32107081,42.95070568],[-72.32133916,42.95046746],[-72.32149846,42.95033089],[-72.32158547,42.95026834],[-72.32165055,42.95022939],[-72.32174752,42.95018695],[-72.3220083,42.95013202],[-72.32304263,42.94995807],[-72.32320413,42.94993163],[-72.32462573,42.94971514],[-72.32496835,42.9496678],[-72.32504747,42.94965243],[-72.32511529,42.94962703],[-72.32522828,42.94955916],[-72.32546083,42.94967823],[-72.32607697,42.9500388],[-72.32689033,42.95053722],[-72.3269306,42.9505619],[-72.32707271,42.95064898],[-72.32712425,42.95068113],[-72.32721362,42.95060568],[-72.32715853,42.95053221],[-72.32705771,42.95049888],[-72.3269306,42.9505619],[-72.32689033,42.95053722],[-72.32607697,42.9500388],[-72.32546083,42.94967823],[-72.32522828,42.94955916],[-72.32514355,42.9495222],[-72.324759,42.94934034],[-72.32423955,42.94914143],[-72.32386109,42.94902485],[-72.3235449,42.94893561],[-72.32292688,42.94879613],[-72.32212559,42.94863154],[-72.3221077,42.94862787],[-72.32113534,42.94842914],[-72.32032057,42.94825537],[-72.31980989,42.94811973],[-72.3193907,42.94797169],[-72.31897955,42.94781964],[-72.31837602,42.94753638],[-72.31813306,42.94739873],[-72.31780632,42.9471969],[-72.31717246,42.94672741],[-72.31657614,42.94627954],[-72.31549781,42.94545236],[-72.31538815,42.94536798],[-72.31398936,42.94430172],[-72.31348534,42.94392185],[-72.3126964,42.94336656],[-72.31259414,42.94329118],[-72.31185695,42.94278501],[-72.31169682,42.94267309],[-72.31110612,42.94229427],[-72.31046119,42.94199124],[-72.31001442,42.94177602],[-72.30955937,42.94156383],[-72.30921819,42.94139426],[-72.30882838,42.9411968],[-72.30779842,42.94059887],[-72.30680059,42.93997899],[-72.30617791,42.9395247],[-72.30578514,42.93921668],[-72.30536371,42.93884296],[-72.3052023,42.93870917],[-72.30401865,42.93760865],[-72.30297548,42.93662106],[-72.30211041,42.93580216],[-72.30082672,42.93461064],[-72.30051438,42.93436099],[-72.3001997,42.93414698],[-72.30005335,42.9340607],[-72.29983157,42.93397286],[-72.29963969,42.93391256],[-72.29956674,42.93389119],[-72.29932097,42.93382921],[-72.29894059,42.93377391],[-72.2980698,42.93370548],[-72.29772759,42.9336955],[-72.29744191,42.93368124],[-72.29685569,42.9336433],[-72.29647203,42.93362763],[-72.29601668,42.93363594],[-72.2954913,42.93361039],[-72.2951453,42.93359806],[-72.29500987,42.93357982],[-72.29479071,42.93443345],[-72.2935256,42.93431572],[-72.29341054,42.93509858],[-72.29504984,42.93530775],[-72.29527075,42.93450872],[-72.29504225,42.93445954],[-72.29487544,42.93442363],[-72.29479071,42.93443345],[-72.29500987,42.93357982],[-72.29525685,42.93301389],[-72.29535173,42.93279647],[-72.29683578,42.93299175],[-72.29698498,42.93245042],[-72.29657661,42.932331],[-72.29562533,42.93220858],[-72.2954875,42.93218879],[-72.29545136,42.9321836],[-72.29535173,42.93279647],[-72.29525685,42.93301389],[-72.29464409,42.93287615],[-72.29465413,42.93252905],[-72.29402743,42.93244326],[-72.29395914,42.93269577],[-72.29376221,42.9334239],[-72.29350054,42.93337908],[-72.29259095,42.93322328],[-72.29188088,42.93311035],[-72.29061397,42.9329096],[-72.29011844,42.9328335],[-72.28972677,42.93276935],[-72.2883214,42.93255193],[-72.28787361,42.93248325],[-72.28751485,42.93244062],[-72.2872765,42.93241705],[-72.28707727,42.93240283],[-72.28659041,42.93238856],[-72.28600682,42.93241017],[-72.28609022,42.93265462],[-72.28624086,42.93309612],[-72.28627553,42.93325742],[-72.28640996,42.93441868],[-72.28645892,42.93484165],[-72.28647046,42.93493584],[-72.28650328,42.93521638],[-72.28653461,42.93548421],[-72.28653655,42.9355163],[-72.2865399,42.93557176],[-72.28655605,42.93566746],[-72.2865215,42.93534657],[-72.28653058,42.93541747],[-72.28653461,42.93548421],[-72.28650328,42.93521638],[-72.28647046,42.93493584],[-72.28645892,42.93484165],[-72.28640996,42.93441868],[-72.28627553,42.93325742],[-72.28624086,42.93309612],[-72.28609022,42.93265462],[-72.28600682,42.93241017],[-72.28568917,42.93159027],[-72.28564443,42.93153796],[-72.28555768,42.93147701],[-72.28545239,42.93143993],[-72.28528668,42.93142746],[-72.28467727,42.93152126],[-72.28466167,42.93139394],[-72.28563152,42.93125781],[-72.28557792,42.93098697],[-72.28470604,42.93074236],[-72.28423518,42.93073243],[-72.28386008,42.93096819],[-72.28375923,42.93106223],[-72.28354348,42.93109954],[-72.28334157,42.93047363],[-72.28330216,42.93026832],[-72.28327679,42.93013618],[-72.28316359,42.92964709],[-72.28276083,42.92779611],[-72.28350413,42.92770087],[-72.2843438,42.92757701],[-72.28474389,42.92751781],[-72.28531843,42.92741753],[-72.28586476,42.92730216],[-72.28628799,42.92720728],[-72.28665105,42.92711388],[-72.28702798,42.92700672],[-72.28729413,42.92688743],[-72.28750308,42.9267815],[-72.28771815,42.92664249],[-72.28842582,42.92609191],[-72.28883811,42.92571486],[-72.28911828,42.92540057],[-72.28942167,42.92498922],[-72.28956948,42.92473839],[-72.28959716,42.92469141],[-72.28963189,42.92462233],[-72.28877785,42.92424673],[-72.28836393,42.92406468],[-72.28851116,42.92292184],[-72.28727111,42.92282145],[-72.28710114,42.92437086],[-72.28826136,42.9244376],[-72.28833167,42.92418198],[-72.28834577,42.9241307],[-72.28836393,42.92406468],[-72.28877785,42.92424673],[-72.28963188,42.92462233],[-72.28956948,42.92473839],[-72.28942167,42.92498922],[-72.28911828,42.92540057],[-72.28883811,42.92571486],[-72.28842582,42.92609191],[-72.28771815,42.92664249],[-72.28750308,42.9267815],[-72.28729413,42.92688743],[-72.28702798,42.92700672],[-72.28665105,42.92711388],[-72.28628799,42.92720728],[-72.28586476,42.92730216],[-72.28531843,42.92741753],[-72.28474389,42.92751781],[-72.2843438,42.92757701],[-72.28350413,42.92770087],[-72.28276083,42.92779611],[-72.28316359,42.92964709],[-72.28327679,42.93013618],[-72.28330216,42.93026832],[-72.28334157,42.93047363],[-72.28217667,42.93059939],[-72.28225591,42.93098446],[-72.2824315,42.93183762],[-72.28172066,42.93192571],[-72.28132783,42.93199407],[-72.28007132,42.93224944],[-72.27978816,42.93229299],[-72.27906535,42.93240785],[-72.27905064,42.93241019]]}}]}