{"type":"FeatureCollection","features":[{"type":"Feature","properties":{"agency":"Clear Creek County Transit","shape_id":"p_1277647"},"geometry":{"type":"LineString","coordinates":[[-105.519848,39.741581],[-105.519453,39.741529],[-105.519472,39.741467],[-105.519491,39.741416],[-105.519513,39.741369],[-105.519543,39.741324],[-105.519578,39.741278],[-105.519626,39.741224],[-105.519682,39.741169],[-105.519707,39.741147],[-105.51976,39.741105],[-105.519783,39.741088],[-105.520121,39.74086],[-105.520453,39.740636],[-105.520654,39.740493],[-105.520585,39.740472],[-105.520522,39.74046],[-105.520468,39.740452],[-105.520404,39.740447],[-105.520324,39.740447],[-105.520224,39.74045],[-105.520152,39.740454],[-105.520058,39.740462],[-105.519799,39.740491],[-105.519133,39.74058],[-105.518575,39.74066],[-105.518323,39.740693],[-105.518193,39.740707],[-105.517984,39.74073],[-105.517356,39.740795],[-105.516881,39.740827],[-105.516644,39.740843],[-105.516426,39.740862],[-105.516187,39.740885],[-105.515951,39.740916],[-105.515599,39.740978],[-105.515171,39.741067],[-105.514833,39.741147],[-105.514184,39.741269],[-105.513928,39.741304],[-105.513694,39.741326],[-105.513445,39.74134],[-105.513163,39.741346],[-105.512694,39.741355],[-105.512493,39.741355],[-105.512067,39.741358],[-105.511511,39.741368],[-105.511193,39.741371],[-105.510866,39.741373],[-105.510644,39.741371],[-105.51045,39.741367],[-105.510253,39.741357],[-105.509911,39.741317],[-105.509552,39.74126],[-105.509284,39.741204],[-105.509015,39.741134],[-105.508691,39.741031],[-105.507641,39.740704],[-105.507252,39.740587],[-105.506961,39.740509],[-105.506743,39.740458],[-105.506553,39.740419],[-105.506352,39.740388],[-105.506151,39.740363],[-105.505909,39.74034],[-105.505577,39.740318],[-105.505125,39.740297],[-105.503783,39.740252],[-105.501768,39.740184],[-105.501466,39.740176],[-105.501022,39.740171],[-105.500642,39.740177],[-105.500311,39.74019],[-105.499989,39.740213],[-105.499707,39.740237],[-105.499383,39.740276],[-105.499011,39.740324],[-105.498688,39.740379],[-105.498326,39.740451],[-105.498012,39.740518],[-105.497704,39.740595],[-105.497403,39.74068],[-105.497135,39.740759],[-105.496841,39.740855],[-105.496572,39.740951],[-105.496351,39.741036],[-105.4961,39.741142],[-105.495802,39.741271],[-105.495502,39.741419],[-105.494988,39.741679],[-105.49435,39.74198],[-105.493306,39.742454],[-105.492936,39.74263],[-105.492418,39.742875],[-105.491617,39.743261],[-105.491165,39.743471],[-105.490833,39.743628],[-105.490288,39.743879],[-105.489761,39.744116],[-105.489436,39.744253],[-105.48918,39.744345],[-105.488938,39.744421],[-105.488699,39.74449],[-105.488472,39.74454],[-105.488253,39.744581],[-105.488054,39.744607],[-105.487828,39.744625],[-105.487615,39.744638],[-105.487403,39.744641],[-105.48719,39.744637],[-105.487007,39.744623],[-105.486819,39.744605],[-105.486643,39.744582],[-105.486484,39.744555],[-105.486293,39.744521],[-105.486073,39.744469],[-105.485889,39.744422],[-105.485529,39.744324],[-105.484778,39.744114],[-105.484685,39.744091],[-105.484453,39.744033],[-105.484055,39.743931],[-105.483719,39.743855],[-105.483376,39.743793],[-105.483046,39.743751],[-105.48273,39.743727],[-105.482424,39.743714],[-105.482172,39.743714],[-105.481914,39.743727],[-105.481657,39.743749],[-105.481405,39.743778],[-105.481163,39.743807],[-105.48031,39.743927],[-105.480153,39.743949],[-105.478752,39.744145],[-105.476087,39.744545],[-105.473589,39.744912],[-105.47288,39.745017],[-105.472354,39.745095],[-105.472164,39.745121],[-105.471961,39.745149],[-105.471753,39.745174],[-105.471581,39.745192],[-105.471414,39.745207],[-105.471241,39.745219],[-105.471039,39.745227],[-105.470919,39.745229],[-105.47074,39.745227],[-105.470598,39.745219],[-105.470429,39.745206],[-105.470258,39.745188],[-105.470137,39.745171],[-105.469959,39.745143],[-105.469145,39.744994],[-105.468983,39.744967],[-105.468861,39.744952],[-105.468657,39.744933],[-105.468484,39.744926],[-105.46829,39.744929],[-105.468107,39.744941],[-105.467932,39.744964],[-105.467744,39.744996],[-105.467568,39.745041],[-105.467383,39.745101],[-105.467187,39.74518],[-105.466999,39.745266],[-105.466841,39.74535],[-105.466714,39.745422],[-105.466621,39.745489],[-105.466527,39.745559],[-105.466397,39.745669],[-105.466038,39.745979],[-105.465818,39.746173],[-105.465641,39.746303],[-105.465491,39.746395],[-105.465336,39.746476],[-105.465193,39.746538],[-105.465014,39.746604],[-105.464831,39.746655],[-105.464727,39.746678],[-105.464641,39.746696],[-105.464464,39.746727],[-105.464252,39.74675],[-105.464086,39.746756],[-105.463922,39.746754],[-105.463761,39.746748],[-105.463576,39.746734],[-105.463418,39.746717],[-105.462973,39.746652],[-105.461571,39.746452],[-105.461229,39.746396],[-105.461029,39.746358],[-105.460642,39.746283],[-105.460356,39.746217],[-105.460126,39.746155],[-105.459926,39.746098],[-105.459753,39.746044],[-105.459599,39.745994],[-105.459398,39.745919],[-105.459202,39.745843],[-105.459001,39.745763],[-105.458766,39.745661],[-105.458564,39.745567],[-105.45831,39.745445],[-105.458064,39.745316],[-105.457763,39.745146],[-105.457395,39.744926],[-105.456788,39.744593],[-105.456251,39.744304],[-105.455753,39.744033],[-105.455523,39.743911],[-105.455267,39.743779],[-105.455065,39.743679],[-105.454854,39.74358],[-105.45468,39.743506],[-105.454517,39.743443],[-105.45433,39.743379],[-105.454137,39.743326],[-105.453937,39.743278],[-105.453728,39.743237],[-105.453515,39.743205],[-105.453308,39.743182],[-105.453062,39.743167],[-105.452861,39.743161],[-105.452652,39.743162],[-105.452485,39.74317],[-105.452306,39.743186],[-105.452138,39.743205],[-105.451979,39.743229],[-105.451766,39.743269],[-105.451483,39.743332],[-105.45128,39.743385],[-105.45106,39.743452],[-105.450863,39.743519],[-105.449367,39.74408],[-105.448929,39.744239],[-105.448665,39.744326],[-105.448502,39.744371],[-105.448333,39.744409],[-105.448181,39.744433],[-105.448015,39.744451],[-105.447855,39.744458],[-105.447723,39.744457],[-105.447589,39.74445],[-105.447451,39.744439],[-105.44731,39.744422],[-105.447186,39.7444],[-105.447055,39.744371],[-105.446938,39.74434],[-105.446776,39.744288],[-105.446609,39.744227],[-105.445618,39.743823],[-105.445411,39.743741],[-105.445241,39.743676],[-105.445066,39.743616],[-105.444917,39.743569],[-105.444747,39.74352],[-105.444568,39.743477],[-105.444398,39.743447],[-105.444212,39.743426],[-105.444047,39.743417],[-105.443864,39.743414],[-105.443679,39.743421],[-105.443519,39.743435],[-105.443358,39.743459],[-105.443209,39.743487],[-105.443044,39.743527],[-105.442883,39.743575],[-105.442785,39.743609],[-105.442745,39.743623],[-105.442606,39.743679],[-105.442444,39.743756],[-105.442368,39.743797],[-105.442259,39.743862],[-105.441981,39.744043],[-105.441561,39.744321],[-105.441231,39.744536],[-105.440939,39.744722],[-105.440687,39.744879],[-105.44049,39.744997],[-105.440328,39.745089],[-105.440189,39.745171],[-105.439987,39.745279],[-105.439888,39.745331],[-105.439826,39.745361],[-105.439729,39.745402],[-105.439621,39.745447],[-105.439549,39.745473],[-105.439447,39.745507],[-105.439411,39.745518],[-105.439337,39.745538],[-105.439283,39.745551],[-105.439213,39.745566],[-105.439153,39.745577],[-105.439064,39.745591],[-105.438965,39.745604],[-105.438921,39.745608],[-105.438781,39.745619],[-105.438671,39.745625],[-105.438587,39.745627],[-105.438455,39.745626],[-105.43835,39.745622],[-105.438243,39.745612],[-105.438129,39.7456],[-105.438008,39.745584],[-105.437867,39.745558],[-105.437744,39.745532],[-105.437608,39.745496],[-105.437445,39.745446],[-105.437254,39.74538],[-105.437097,39.745319],[-105.436953,39.745259],[-105.436704,39.745153],[-105.436264,39.744963],[-105.435897,39.744804],[-105.434786,39.74431],[-105.434591,39.744225],[-105.434422,39.744151],[-105.434278,39.744081],[-105.434147,39.744007],[-105.43403,39.743934],[-105.433895,39.743842],[-105.433774,39.743744],[-105.43368,39.74366],[-105.433585,39.743561],[-105.433502,39.743463],[-105.433357,39.743291],[-105.433279,39.743147],[-105.433228,39.743011],[-105.433166,39.742819],[-105.433131,39.742582],[-105.433118,39.742326],[-105.433118,39.742074],[-105.43311,39.741753],[-105.433091,39.741544],[-105.433067,39.741373],[-105.433011,39.741196],[-105.432925,39.740965],[-105.43282,39.74074],[-105.432525,39.740175],[-105.432171,39.739488],[-105.431908,39.738954],[-105.431689,39.738465],[-105.431597,39.738298],[-105.431503,39.738145],[-105.431405,39.737999],[-105.431203,39.737743],[-105.431028,39.737522],[-105.430452,39.736834],[-105.429913,39.736157],[-105.429513,39.735645],[-105.428979,39.734956],[-105.428212,39.734041],[-105.428008,39.733787],[-105.427845,39.733552],[-105.427708,39.733321],[-105.427606,39.733111],[-105.427278,39.732492],[-105.427158,39.732259],[-105.427021,39.73197],[-105.426791,39.731462],[-105.426651,39.731174],[-105.426522,39.730955],[-105.426407,39.730771],[-105.426286,39.730604],[-105.426112,39.730406],[-105.425916,39.730183],[-105.425731,39.729985],[-105.425525,39.729787],[-105.425356,39.729641],[-105.42516,39.72949],[-105.424892,39.729307],[-105.424551,39.729067],[-105.424293,39.728892],[-105.424036,39.728717],[-105.423813,39.728556],[-105.423607,39.728383],[-105.423384,39.728164],[-105.423162,39.727931],[-105.42273,39.727413],[-105.42248,39.727137],[-105.422252,39.726899],[-105.422067,39.726718],[-105.421837,39.726514],[-105.421638,39.726355],[-105.421418,39.726198],[-105.421126,39.726016],[-105.420852,39.725854],[-105.420286,39.725546],[-105.418653,39.724647],[-105.418101,39.724355],[-105.417392,39.723972],[-105.416823,39.723683],[-105.416279,39.723427],[-105.415641,39.723145],[-105.41479,39.722813],[-105.414176,39.722569],[-105.413511,39.722316],[-105.412369,39.721916],[-105.411862,39.721753],[-105.41124,39.721575],[-105.409053,39.720992],[-105.408225,39.72079],[-105.407447,39.720595],[-105.406711,39.720414],[-105.405409,39.720101],[-105.404835,39.719956],[-105.403759,39.719684],[-105.403287,39.719573],[-105.402871,39.719458],[-105.402466,39.719328],[-105.402112,39.719202],[-105.401787,39.719057],[-105.401492,39.718915],[-105.401189,39.718752],[-105.400967,39.718616],[-105.400712,39.718457],[-105.400428,39.718263],[-105.399567,39.717687],[-105.399068,39.717351],[-105.39863,39.71705],[-105.398378,39.716883],[-105.398115,39.716732],[-105.397787,39.716547],[-105.397461,39.716383],[-105.397163,39.716241],[-105.396892,39.716119],[-105.396589,39.716006],[-105.396286,39.715909],[-105.395932,39.715793],[-105.395519,39.715674],[-105.395114,39.715575],[-105.394728,39.715492],[-105.394444,39.715436],[-105.394132,39.715389],[-105.393738,39.71535],[-105.39322,39.715319],[-105.392845,39.715313],[-105.392453,39.715315],[-105.392046,39.715325],[-105.391654,39.715344],[-105.391265,39.715375],[-105.390111,39.715485],[-105.388234,39.715668],[-105.387754,39.715709],[-105.387379,39.715731],[-105.386831,39.715762],[-105.386349,39.715775],[-105.385917,39.715769],[-105.385691,39.71576],[-105.385474,39.715752],[-105.385109,39.715725],[-105.384463,39.715645],[-105.384074,39.715581],[-105.38357,39.715467],[-105.382374,39.71515],[-105.381834,39.714989],[-105.381376,39.714855],[-105.380922,39.714745],[-105.38048,39.714677],[-105.380185,39.714648],[-105.379879,39.714624],[-105.379488,39.714611],[-105.379093,39.714621],[-105.378755,39.714644],[-105.378436,39.714679],[-105.378069,39.714741],[-105.377696,39.71482],[-105.377344,39.71491],[-105.376289,39.715205],[-105.375368,39.715457],[-105.37504,39.715544],[-105.374759,39.715597],[-105.37448,39.715632],[-105.374136,39.715665],[-105.37389,39.715684],[-105.373479,39.715701],[-105.372755,39.715659],[-105.372431,39.71563],[-105.372154,39.715585],[-105.371841,39.715525],[-105.371572,39.715463],[-105.371248,39.715375],[-105.370902,39.715257],[-105.370634,39.715154],[-105.370373,39.715044],[-105.370121,39.714921],[-105.369928,39.71482],[-105.369722,39.714706],[-105.369497,39.714563],[-105.368904,39.714155],[-105.368078,39.71359],[-105.367791,39.713402],[-105.367526,39.713245],[-105.367255,39.713103],[-105.366914,39.71294],[-105.366364,39.712725],[-105.365983,39.712609],[-105.365643,39.712521],[-105.365289,39.712455],[-105.36487,39.712403],[-105.364449,39.712366],[-105.363977,39.712345],[-105.363159,39.712331],[-105.36192,39.712316],[-105.360002,39.712302],[-105.357972,39.712273],[-105.356926,39.71223],[-105.356593,39.712211],[-105.35622,39.712178],[-105.355842,39.712133],[-105.355418,39.712063],[-105.355048,39.711995],[-105.354667,39.71191],[-105.354206,39.711797],[-105.353763,39.711669],[-105.353047,39.711458],[-105.352397,39.711238],[-105.352017,39.711093],[-105.351679,39.710948],[-105.350993,39.710633],[-105.350523,39.710395],[-105.350137,39.710181],[-105.349802,39.709973],[-105.349491,39.709776],[-105.349228,39.709605],[-105.348943,39.709391],[-105.348646,39.709176],[-105.348353,39.708939],[-105.348077,39.708691],[-105.347735,39.708384],[-105.347536,39.708184],[-105.347281,39.707927],[-105.346597,39.707239],[-105.345811,39.706456],[-105.345247,39.705905],[-105.344893,39.705581],[-105.344668,39.705381],[-105.344424,39.705194],[-105.344158,39.705004],[-105.343879,39.704822],[-105.34359,39.704632],[-105.343214,39.704416],[-105.343049,39.704328],[-105.342785,39.704158],[-105.342469,39.703978],[-105.342149,39.703825],[-105.341886,39.703689],[-105.341685,39.703582],[-105.341248,39.703328],[-105.340798,39.703095],[-105.340502,39.702955],[-105.340258,39.702845],[-105.340004,39.702742],[-105.339746,39.702643],[-105.339397,39.702523],[-105.338811,39.702313],[-105.338862,39.70221],[-105.33894,39.702054],[-105.33897,39.701983],[-105.338991,39.70193],[-105.339007,39.701866],[-105.339018,39.701804],[-105.339023,39.701738],[-105.339021,39.701672],[-105.339007,39.70161],[-105.338991,39.701564],[-105.338964,39.701517],[-105.338928,39.701473],[-105.338857,39.701426],[-105.338771,39.70138],[-105.338664,39.701347],[-105.338562,39.701327],[-105.338428,39.701314],[-105.338288,39.701306],[-105.337961,39.701302],[-105.337666,39.70129],[-105.337387,39.701269],[-105.337183,39.701248],[-105.33692,39.701211],[-105.336625,39.701157],[-105.3364,39.701112],[-105.336126,39.701054],[-105.335869,39.700988],[-105.335686,39.70093],[-105.335542,39.700881],[-105.335365,39.700815],[-105.335166,39.700737],[-105.335,39.700666],[-105.334667,39.700522],[-105.333954,39.700216],[-105.333433,39.700002],[-105.333203,39.699919],[-105.333004,39.699866],[-105.33287,39.699837],[-105.332747,39.699816],[-105.332604,39.699808],[-105.332443,39.699808],[-105.332256,39.69981],[-105.331995,39.699814],[-105.331853,39.699816],[-105.331733,39.699814],[-105.33158,39.6998],[-105.331395,39.699772],[-105.331174,39.699737],[-105.331088,39.69972],[-105.330981,39.699699],[-105.33095,39.699692],[-105.330809,39.69966],[-105.33063,39.699612],[-105.330505,39.699557],[-105.330453,39.699533],[-105.330359,39.6995],[-105.330203,39.699457],[-105.330054,39.699418],[-105.329931,39.699392],[-105.329798,39.699371],[-105.329657,39.699358],[-105.329555,39.699354],[-105.329443,39.699359],[-105.329293,39.699379],[-105.329177,39.6994],[-105.329054,39.699426],[-105.328938,39.699463],[-105.328848,39.699504],[-105.328805,39.699539],[-105.328762,39.699583],[-105.328607,39.699635],[-105.328195,39.699773],[-105.327816,39.699899],[-105.327885,39.700024],[-105.327904,39.70009],[-105.327888,39.700154],[-105.327848,39.700214],[-105.327778,39.700259],[-105.327692,39.700296],[-105.327593,39.70035],[-105.327671,39.700488],[-105.327781,39.700635],[-105.327915,39.700802],[-105.328035,39.700944],[-105.328159,39.701111],[-105.328227,39.701202],[-105.328159,39.701111],[-105.328035,39.700944],[-105.327915,39.700802],[-105.327781,39.700635],[-105.327671,39.700488],[-105.327593,39.70035],[-105.327692,39.700296],[-105.327778,39.700259],[-105.327848,39.700214],[-105.327888,39.700154],[-105.327904,39.70009],[-105.327885,39.700024],[-105.327816,39.699899],[-105.328195,39.699773],[-105.328607,39.699635],[-105.328762,39.699583],[-105.328853,39.699581],[-105.328948,39.699563],[-105.329046,39.69954],[-105.329181,39.699511],[-105.329309,39.699491],[-105.329378,39.699484],[-105.329448,39.699477],[-105.329557,39.699473],[-105.329667,39.699479],[-105.329719,39.699486],[-105.329763,39.699492],[-105.329893,39.699515],[-105.33003,39.699541],[-105.330199,39.699577],[-105.330414,39.69962],[-105.330477,39.699628],[-105.330529,39.699629],[-105.33063,39.699612],[-105.330809,39.69966],[-105.330857,39.699561],[-105.330903,39.699482],[-105.330966,39.699392],[-105.33103,39.699313],[-105.331097,39.699236],[-105.331159,39.699177],[-105.331236,39.699117],[-105.331313,39.699063],[-105.3314,39.699012],[-105.331488,39.698965],[-105.331571,39.698927],[-105.331672,39.698889],[-105.331778,39.698856],[-105.331891,39.698827],[-105.332011,39.698805],[-105.332138,39.698786],[-105.332271,39.69878],[-105.332395,39.698782],[-105.332522,39.698788],[-105.332656,39.698805],[-105.332806,39.698826],[-105.332965,39.698859],[-105.33336,39.69894],[-105.333897,39.699055],[-105.334162,39.699112],[-105.33432,39.699139],[-105.334438,39.699156],[-105.334539,39.699168],[-105.33466,39.699179],[-105.334795,39.699178],[-105.334921,39.699171],[-105.33504,39.699154],[-105.335139,39.699139],[-105.335252,39.699114],[-105.335362,39.699088],[-105.335448,39.699061],[-105.335538,39.699028],[-105.335648,39.698985],[-105.33579,39.698925],[-105.335826,39.698909],[-105.336498,39.698601],[-105.337062,39.698331],[-105.337413,39.698176],[-105.337459,39.698156],[-105.337762,39.698015],[-105.338185,39.697811],[-105.338295,39.697757],[-105.338397,39.697701],[-105.338499,39.697644],[-105.338574,39.697594],[-105.338647,39.697543],[-105.338722,39.697483],[-105.338829,39.697384],[-105.338907,39.697295],[-105.338963,39.697221],[-105.339017,39.69714],[-105.339057,39.697068],[-105.339092,39.696998],[-105.339116,39.696928],[-105.33914,39.696826],[-105.339154,39.696744],[-105.339162,39.696653],[-105.339162,39.696556],[-105.339156,39.696484],[-105.339148,39.696412],[-105.33913,39.696319],[-105.339113,39.696253],[-105.339092,39.696187],[-105.339063,39.696119],[-105.33902,39.696028],[-105.338961,39.695914],[-105.338706,39.695508],[-105.338521,39.695194],[-105.338462,39.695093],[-105.338403,39.694988],[-105.33836,39.694897],[-105.338311,39.694794],[-105.338271,39.694695],[-105.338244,39.694608],[-105.338215,39.694496],[-105.338193,39.694371],[-105.338185,39.694271],[-105.338188,39.694193],[-105.338199,39.694082],[-105.338212,39.69397],[-105.338234,39.693836],[-105.338263,39.693683],[-105.338303,39.693518],[-105.33836,39.693312],[-105.338397,39.693211],[-105.338446,39.693083],[-105.338489,39.692969],[-105.338526,39.692876],[-105.338564,39.692785],[-105.338601,39.692705],[-105.338636,39.692633],[-105.338674,39.692567],[-105.338714,39.692505],[-105.338751,39.692453],[-105.338797,39.692397],[-105.338845,39.692346],[-105.338907,39.692288],[-105.339084,39.692152],[-105.339231,39.692051],[-105.339339,39.691985],[-105.339454,39.691917],[-105.339553,39.691867],[-105.339671,39.691811],[-105.339789,39.691768],[-105.339907,39.691729],[-105.340028,39.691694],[-105.34016,39.691669],[-105.340441,39.691634],[-105.341018,39.691582],[-105.341184,39.691572],[-105.34135,39.691572],[-105.341675,39.69158],[-105.341849,39.691582],[-105.342115,39.691578],[-105.342447,39.691568],[-105.343292,39.691601],[-105.343429,39.691611],[-105.343574,39.69163],[-105.343703,39.691652],[-105.343813,39.691675],[-105.343941,39.691708],[-105.344078,39.691747],[-105.344223,39.691793],[-105.344523,39.69189],[-105.344757,39.691966],[-105.345116,39.692078],[-105.34547,39.692187],[-105.345867,39.692309],[-105.346396,39.692482],[-105.347887,39.692994],[-105.348976,39.693372],[-105.350137,39.693766],[-105.35054,39.6939],[-105.350706,39.693947],[-105.350883,39.693993],[-105.351031,39.694028],[-105.351154,39.694055],[-105.35154,39.694123],[-105.351674,39.694143],[-105.3518,39.694158],[-105.351908,39.694166],[-105.352036,39.694172],[-105.352195,39.694177],[-105.353026,39.694183],[-105.353922,39.694185],[-105.356172,39.694199],[-105.356174,39.694073],[-105.356186,39.693861],[-105.356202,39.693704],[-105.356221,39.693599],[-105.356247,39.693512],[-105.356278,39.693436],[-105.356331,39.693349],[-105.356395,39.693268],[-105.356454,39.6932],[-105.356521,39.69314],[-105.356602,39.693086],[-105.356712,39.693026],[-105.356901,39.692928],[-105.357174,39.6929],[-105.357238,39.692906],[-105.357315,39.692943],[-105.357394,39.69301],[-105.357583,39.692914],[-105.357742,39.692832],[-105.358136,39.693259],[-105.35823,39.693205],[-105.358292,39.693171],[-105.358306,39.693164]]}},{"type":"Feature","properties":{"agency":"Clear Creek County Transit","shape_id":"p_1426009"},"geometry":{"type":"LineString","coordinates":[[-105.358306,39.693164],[-105.358436,39.693092],[-105.358589,39.693007],[-105.358753,39.692916],[-105.358873,39.69285],[-105.358746,39.692702],[-105.358732,39.692675],[-105.358726,39.692642],[-105.358718,39.692555],[-105.358709,39.692453],[-105.358698,39.692375],[-105.358682,39.692316],[-105.358659,39.692259],[-105.358632,39.692211],[-105.358595,39.692157],[-105.358518,39.692063],[-105.358195,39.692237],[-105.35738,39.692676],[-105.357176,39.692783],[-105.356901,39.692928],[-105.356712,39.693026],[-105.356602,39.693086],[-105.356521,39.69314],[-105.356454,39.6932],[-105.356395,39.693268],[-105.356331,39.693357],[-105.35629,39.693436],[-105.356268,39.693522],[-105.35625,39.693608],[-105.356238,39.693651],[-105.356144,39.693833],[-105.356097,39.693902],[-105.356045,39.693964],[-105.35599,39.694],[-105.355926,39.694024],[-105.355854,39.694041],[-105.355739,39.694053],[-105.355383,39.694089],[-105.354743,39.694087],[-105.354127,39.694084],[-105.353197,39.694084],[-105.352776,39.694081],[-105.352366,39.694077],[-105.352173,39.694073],[-105.35202,39.694063],[-105.351902,39.694052],[-105.351798,39.694036],[-105.351701,39.694024],[-105.351554,39.694003],[-105.351218,39.693943],[-105.351073,39.693914],[-105.350934,39.693883],[-105.350768,39.69384],[-105.350585,39.693788],[-105.350202,39.693661],[-105.349043,39.693264],[-105.347949,39.692882],[-105.346457,39.692371],[-105.345942,39.692185],[-105.345551,39.692034],[-105.345202,39.691906],[-105.344853,39.69177],[-105.344652,39.691692],[-105.344497,39.691634],[-105.344355,39.691588],[-105.344188,39.691535],[-105.344046,39.691491],[-105.34389,39.691448],[-105.343767,39.691415],[-105.343628,39.691386],[-105.343477,39.691357],[-105.343319,39.691328],[-105.343105,39.691293],[-105.342962,39.691271],[-105.34282,39.691256],[-105.342673,39.691248],[-105.342469,39.691244],[-105.342115,39.691246],[-105.341847,39.69125],[-105.341608,39.691264],[-105.341372,39.691289],[-105.341155,39.691316],[-105.340782,39.691357],[-105.340404,39.691398],[-105.340117,39.691425],[-105.339977,39.691446],[-105.33983,39.691481],[-105.339682,39.691522],[-105.339543,39.69157],[-105.339398,39.691628],[-105.339248,39.691696],[-105.339116,39.691764],[-105.338987,39.691848],[-105.338848,39.691966],[-105.338708,39.692102],[-105.338636,39.692183],[-105.338574,39.692265],[-105.338523,39.692338],[-105.338486,39.692412],[-105.338448,39.692482],[-105.338416,39.692558],[-105.338389,39.692635],[-105.33836,39.692715],[-105.338322,39.692818],[-105.338287,39.692924],[-105.338252,39.693029],[-105.338215,39.693165],[-105.338196,39.693233],[-105.338092,39.693665],[-105.338059,39.693817],[-105.338038,39.69396],[-105.338027,39.694071],[-105.338025,39.694187],[-105.338022,39.694274],[-105.33803,39.694383],[-105.338053,39.694517],[-105.338085,39.694635],[-105.338113,39.694728],[-105.338156,39.694834],[-105.338206,39.69494],[-105.338251,39.695034],[-105.338312,39.695144],[-105.338372,39.695246],[-105.338585,39.695563],[-105.338829,39.695968],[-105.338883,39.696069],[-105.338918,39.696141],[-105.338947,39.696218],[-105.338971,39.69628],[-105.33899,39.696339],[-105.339004,39.69642],[-105.339014,39.696494],[-105.33902,39.696562],[-105.339017,39.696639],[-105.339006,39.696734],[-105.338993,39.69681],[-105.338971,39.696897],[-105.338944,39.696961],[-105.338915,39.697031],[-105.33888,39.697095],[-105.338835,39.697165],[-105.338781,39.697233],[-105.338706,39.697316],[-105.338607,39.697408],[-105.33855,39.69746],[-105.33848,39.697507],[-105.338405,39.697555],[-105.338309,39.697611],[-105.338212,39.697662],[-105.338105,39.697714],[-105.337684,39.697914],[-105.337381,39.698056],[-105.337335,39.698077],[-105.336986,39.698232],[-105.336431,39.698496],[-105.335885,39.698766],[-105.335659,39.698863],[-105.33555,39.698908],[-105.335441,39.698949],[-105.335332,39.698984],[-105.33523,39.699011],[-105.335122,39.699036],[-105.334998,39.699053],[-105.334883,39.699061],[-105.334774,39.699065],[-105.334673,39.699061],[-105.334557,39.69905],[-105.334454,39.699036],[-105.334362,39.69902],[-105.334212,39.698989],[-105.334057,39.698958],[-105.332883,39.698724],[-105.332714,39.698691],[-105.332574,39.698675],[-105.332429,39.698664],[-105.332303,39.698658],[-105.33219,39.69866],[-105.332058,39.698676],[-105.331931,39.698699],[-105.331794,39.698732],[-105.331664,39.698773],[-105.331538,39.698818],[-105.331427,39.698865],[-105.331331,39.698915],[-105.33123,39.698973],[-105.331144,39.699028],[-105.331066,39.699084],[-105.330986,39.699148],[-105.3309,39.699223],[-105.33083,39.699297],[-105.330763,39.699379],[-105.330723,39.699434],[-105.330683,39.699501],[-105.33063,39.699612],[-105.330809,39.69966],[-105.33095,39.699692],[-105.330981,39.699699],[-105.331088,39.69972],[-105.331174,39.699737],[-105.331395,39.699772],[-105.33158,39.6998],[-105.331733,39.699814],[-105.331853,39.699816],[-105.331995,39.699814],[-105.332256,39.69981],[-105.332443,39.699808],[-105.332607,39.699808],[-105.332747,39.699816],[-105.33287,39.699837],[-105.333004,39.699866],[-105.333203,39.699919],[-105.333433,39.700002],[-105.333954,39.700216],[-105.334667,39.700522],[-105.335,39.700666],[-105.335166,39.700737],[-105.335365,39.700815],[-105.335542,39.700881],[-105.335686,39.70093],[-105.335869,39.700988],[-105.336126,39.701054],[-105.3364,39.701112],[-105.336625,39.701157],[-105.33692,39.701211],[-105.337183,39.701248],[-105.337387,39.701269],[-105.337666,39.70129],[-105.337961,39.701302],[-105.338288,39.701306],[-105.338428,39.701314],[-105.338562,39.701327],[-105.338664,39.701347],[-105.338771,39.70138],[-105.338857,39.701426],[-105.338928,39.701473],[-105.338964,39.701517],[-105.338991,39.701564],[-105.339007,39.70161],[-105.339021,39.701672],[-105.339023,39.701738],[-105.339018,39.701804],[-105.339007,39.701866],[-105.338991,39.70193],[-105.33897,39.701983],[-105.33894,39.702054],[-105.338862,39.70221],[-105.338811,39.702313],[-105.338707,39.702513],[-105.338358,39.703184],[-105.338323,39.703271],[-105.338294,39.703352],[-105.340553,39.703772],[-105.340875,39.703834],[-105.341127,39.703887],[-105.341406,39.703955],[-105.341667,39.704032],[-105.341929,39.704123],[-105.342216,39.70423],[-105.342479,39.704337],[-105.342761,39.704459],[-105.343034,39.704579],[-105.343093,39.704612],[-105.343389,39.704783],[-105.343681,39.704969],[-105.343965,39.705156],[-105.344231,39.705348],[-105.344507,39.705561],[-105.344743,39.705765],[-105.345013,39.70601],[-105.345599,39.706591],[-105.346301,39.707294],[-105.347071,39.708068],[-105.347307,39.708316],[-105.347565,39.708561],[-105.347868,39.708838],[-105.348168,39.709102],[-105.348423,39.70931],[-105.348699,39.70951],[-105.349016,39.709739],[-105.349292,39.709929],[-105.349646,39.71015],[-105.349928,39.710323],[-105.350368,39.710573],[-105.350818,39.7108],[-105.35151,39.711126],[-105.351923,39.711297],[-105.3523,39.711435],[-105.352943,39.711656],[-105.353546,39.711838],[-105.35404,39.71199],[-105.354463,39.7121],[-105.354911,39.712197],[-105.355343,39.712275],[-105.355786,39.712347],[-105.356116,39.712389],[-105.356518,39.712426],[-105.356926,39.712453],[-105.358009,39.71249],[-105.359898,39.712508],[-105.361963,39.712533],[-105.36314,39.712543],[-105.36395,39.71256],[-105.364065,39.712564],[-105.364363,39.712574],[-105.364758,39.712599],[-105.365163,39.712642],[-105.365527,39.712702],[-105.365855,39.712783],[-105.366225,39.712905],[-105.366796,39.713125],[-105.367118,39.713282],[-105.367346,39.713406],[-105.367609,39.713561],[-105.367896,39.713746],[-105.368727,39.714316],[-105.369247,39.714677],[-105.36951,39.714844],[-105.369756,39.71498],[-105.370022,39.715115],[-105.370306,39.715255],[-105.370593,39.715377],[-105.370843,39.715472],[-105.371098,39.715558],[-105.371446,39.715653],[-105.371808,39.715734],[-105.372138,39.715791],[-105.372449,39.715831],[-105.372777,39.715857],[-105.373077,39.715877],[-105.373474,39.715899],[-105.373874,39.715878],[-105.374174,39.715855],[-105.374493,39.715822],[-105.374807,39.715783],[-105.375073,39.715742],[-105.375352,39.71568],[-105.375641,39.71561],[-105.376411,39.715401],[-105.377457,39.715121],[-105.377784,39.715042],[-105.378122,39.714966],[-105.378489,39.714904],[-105.378814,39.714869],[-105.379222,39.714838],[-105.37953,39.714836],[-105.379844,39.714857],[-105.380149,39.714879],[-105.380429,39.714904],[-105.380818,39.714974],[-105.381263,39.715065],[-105.381777,39.715197],[-105.382231,39.715325],[-105.383532,39.71568],[-105.383986,39.715775],[-105.384433,39.715845],[-105.385091,39.715921],[-105.385463,39.715948],[-105.385844,39.715971],[-105.386373,39.715985],[-105.386788,39.715977],[-105.387344,39.71595],[-105.387556,39.715937],[-105.387757,39.715925],[-105.388268,39.715878],[-105.391265,39.715589],[-105.391705,39.715554],[-105.392059,39.715535],[-105.392491,39.715525],[-105.392837,39.715523],[-105.393226,39.715531],[-105.393462,39.71555],[-105.393639,39.715564],[-105.394068,39.715612],[-105.394425,39.715661],[-105.394755,39.715723],[-105.395087,39.715795],[-105.395449,39.715882],[-105.395806,39.715983],[-105.39616,39.716097],[-105.396461,39.7162],[-105.396705,39.716291],[-105.397018,39.716425],[-105.397254,39.716538],[-105.397563,39.716691],[-105.397944,39.716899],[-105.398349,39.717147],[-105.398781,39.717446],[-105.399301,39.717803],[-105.400237,39.718424],[-105.400554,39.718632],[-105.400822,39.718804],[-105.401079,39.718958],[-105.401403,39.719131],[-105.401699,39.719272],[-105.40197,39.719394],[-105.402343,39.719534],[-105.402667,39.719635],[-105.40304,39.719744],[-105.403448,39.719839],[-105.404708,39.720149],[-105.405296,39.720297],[-105.405766,39.720413],[-105.406629,39.720626],[-105.407335,39.720796],[-105.408474,39.721073],[-105.409598,39.721335],[-105.411215,39.721734],[-105.411779,39.721883],[-105.412278,39.722042],[-105.41262,39.722159],[-105.412994,39.722287],[-105.413396,39.722421],[-105.413894,39.722606],[-105.414568,39.722873],[-105.41556,39.723277],[-105.416169,39.723531],[-105.416976,39.723906],[-105.417588,39.724238],[-105.418264,39.724603],[-105.420152,39.725635],[-105.420839,39.726012],[-105.421077,39.726153],[-105.421297,39.726295],[-105.421498,39.726441],[-105.421738,39.726621],[-105.421954,39.726805],[-105.422185,39.727024],[-105.422423,39.727274],[-105.422668,39.72756],[-105.422976,39.727916],[-105.423221,39.728187],[-105.423411,39.728383],[-105.423583,39.728541],[-105.423778,39.728696],[-105.423961,39.72883],[-105.424307,39.729061],[-105.424706,39.729323],[-105.424961,39.72952],[-105.425149,39.729652],[-105.425402,39.729844],[-105.425581,39.73002],[-105.425742,39.730185],[-105.425935,39.730394],[-105.426109,39.730604],[-105.426246,39.730782],[-105.426398,39.731005],[-105.426533,39.731248],[-105.426694,39.731576],[-105.426882,39.732009],[-105.427013,39.732285],[-105.427166,39.732593],[-105.42734,39.732917],[-105.427547,39.7333],[-105.427692,39.733554],[-105.427869,39.73381],[-105.428019,39.734016],[-105.428142,39.734171],[-105.428845,39.734996],[-105.429706,39.736091],[-105.430344,39.736879],[-105.430916,39.737587],[-105.43109,39.737805],[-105.431259,39.738015],[-105.431385,39.738187],[-105.431476,39.738339],[-105.431565,39.738502],[-105.431673,39.738757],[-105.431901,39.739245],[-105.432651,39.740693],[-105.432775,39.740952],[-105.432852,39.741138],[-105.432906,39.741309],[-105.432952,39.741493],[-105.432968,39.741668],[-105.432978,39.742052],[-105.432981,39.742392],[-105.433003,39.742604],[-105.43304,39.742819],[-105.433096,39.74304],[-105.433147,39.743172],[-105.433221,39.743309],[-105.433301,39.743437],[-105.433357,39.743508],[-105.433432,39.743596],[-105.433513,39.743683],[-105.433597,39.743761],[-105.433721,39.743864],[-105.433812,39.743929],[-105.433948,39.74402],[-105.434061,39.744091],[-105.434182,39.744157],[-105.43438,39.744248],[-105.434696,39.744397],[-105.435209,39.744636],[-105.436029,39.745008],[-105.436695,39.745318],[-105.436932,39.745424],[-105.437033,39.745469],[-105.437183,39.745534],[-105.437243,39.745556],[-105.437466,39.745635],[-105.437558,39.745665],[-105.437781,39.745731],[-105.4379,39.745762],[-105.438004,39.745786],[-105.438068,39.745799],[-105.438191,39.74582],[-105.43827,39.745832],[-105.438382,39.745844],[-105.438515,39.745855],[-105.438644,39.745861],[-105.43876,39.745863],[-105.438879,39.745861],[-105.438996,39.745855],[-105.439078,39.745849],[-105.439184,39.745838],[-105.439282,39.745824],[-105.439371,39.745807],[-105.43947,39.745788],[-105.439629,39.745745],[-105.4398,39.745693],[-105.439907,39.745656],[-105.440133,39.745564],[-105.440266,39.7455],[-105.440457,39.745402],[-105.440603,39.74532],[-105.441233,39.744961],[-105.441807,39.744626],[-105.442211,39.744387],[-105.442448,39.744253],[-105.442741,39.744088],[-105.442901,39.744007],[-105.443012,39.743962],[-105.443188,39.743901],[-105.443342,39.743858],[-105.443506,39.74382],[-105.443641,39.743795],[-105.44378,39.743776],[-105.443907,39.743762],[-105.444032,39.743754],[-105.444169,39.743752],[-105.444314,39.743757],[-105.444452,39.743769],[-105.444584,39.743789],[-105.444731,39.743818],[-105.444916,39.743862],[-105.445113,39.743922],[-105.445368,39.744005],[-105.445509,39.744057],[-105.44639,39.744376],[-105.446554,39.744431],[-105.446709,39.744478],[-105.446884,39.744525],[-105.44704,39.744563],[-105.44719,39.744593],[-105.447336,39.744616],[-105.4475,39.744631],[-105.44763,39.744638],[-105.447773,39.74464],[-105.447953,39.744631],[-105.448122,39.744616],[-105.448305,39.744592],[-105.448483,39.744556],[-105.448671,39.744506],[-105.448867,39.744445],[-105.449104,39.744362],[-105.449722,39.744129],[-105.450321,39.743901],[-105.451053,39.743633],[-105.451194,39.743586],[-105.451344,39.743542],[-105.451507,39.743497],[-105.451666,39.743457],[-105.45186,39.743419],[-105.452056,39.743385],[-105.452223,39.743361],[-105.452389,39.743342],[-105.452557,39.74333],[-105.452718,39.743325],[-105.452884,39.743323],[-105.453053,39.743328],[-105.45325,39.743341],[-105.453447,39.743362],[-105.45361,39.743387],[-105.453795,39.743422],[-105.453971,39.74346],[-105.45418,39.743514],[-105.454374,39.74357],[-105.45457,39.743642],[-105.454799,39.743736],[-105.45507,39.743859],[-105.455335,39.743992],[-105.455759,39.744223],[-105.456145,39.74443],[-105.456656,39.744713],[-105.45742,39.745135],[-105.457838,39.745358],[-105.458118,39.745512],[-105.458387,39.745653],[-105.458739,39.745829],[-105.45909,39.745983],[-105.459331,39.746075],[-105.459548,39.746154],[-105.459735,39.746214],[-105.459968,39.746284],[-105.460254,39.74636],[-105.460588,39.746439],[-105.460977,39.746511],[-105.461355,39.746571],[-105.46183,39.746637],[-105.462487,39.746727],[-105.463397,39.746848],[-105.463528,39.746863],[-105.463715,39.746881],[-105.463876,39.746891],[-105.464035,39.746895],[-105.464175,39.746892],[-105.46433,39.746879],[-105.464464,39.746861],[-105.464615,39.746836],[-105.46475,39.746807],[-105.464892,39.746772],[-105.465034,39.74673],[-105.465179,39.746683],[-105.465328,39.746626],[-105.465493,39.746554],[-105.465636,39.746475],[-105.465768,39.7464],[-105.465884,39.746326],[-105.466015,39.74623],[-105.46614,39.746125],[-105.466586,39.745743],[-105.46679,39.745593],[-105.46696,39.745478],[-105.467099,39.745399],[-105.467234,39.745334],[-105.467383,39.745277],[-105.467527,39.745226],[-105.467709,39.745177],[-105.467873,39.745139],[-105.468037,39.745111],[-105.468209,39.745097],[-105.468397,39.745088],[-105.468603,39.745087],[-105.468747,39.745098],[-105.468943,39.745119],[-105.469195,39.74516],[-105.469868,39.745284],[-105.470158,39.745331],[-105.47036,39.745362],[-105.470575,39.745386],[-105.470892,39.745398],[-105.471118,39.745392],[-105.471335,39.745383],[-105.471642,39.745358],[-105.472104,39.745298],[-105.472682,39.745219],[-105.473627,39.745084],[-105.476277,39.744691],[-105.476932,39.744594],[-105.477659,39.744489],[-105.479341,39.744242],[-105.480286,39.744098],[-105.481249,39.743956],[-105.481665,39.743896],[-105.481914,39.743875],[-105.48218,39.743863],[-105.482432,39.743859],[-105.482708,39.743865],[-105.48299,39.743881],[-105.48329,39.743916],[-105.483583,39.743964],[-105.483848,39.744018],[-105.484096,39.74408],[-105.484341,39.74415],[-105.484709,39.744253],[-105.485474,39.744467],[-105.486074,39.744625],[-105.486293,39.744679],[-105.486477,39.744716],[-105.486662,39.744744],[-105.486855,39.744767],[-105.487092,39.744784],[-105.487301,39.744792],[-105.487548,39.744795],[-105.487794,39.744789],[-105.488019,39.74477],[-105.488235,39.744742],[-105.488474,39.744699],[-105.488696,39.744649],[-105.488889,39.7446],[-105.489083,39.744537],[-105.489284,39.744462],[-105.489471,39.74439],[-105.489656,39.744314],[-105.48985,39.744228],[-105.490077,39.744124],[-105.490466,39.743938],[-105.491088,39.743641],[-105.491653,39.743372],[-105.491997,39.743209],[-105.494476,39.742025],[-105.494961,39.741793],[-105.495325,39.741617],[-105.495632,39.741474],[-105.495868,39.741358],[-105.496175,39.741223],[-105.49655,39.741074],[-105.496906,39.740946],[-105.497596,39.740724],[-105.497955,39.740639],[-105.498384,39.740548],[-105.498564,39.740512],[-105.4987,39.740486],[-105.49882,39.740465],[-105.499082,39.740419],[-105.499409,39.740372],[-105.499827,39.740325],[-105.500253,39.740296],[-105.500626,39.740279],[-105.501038,39.740273],[-105.501484,39.74028],[-105.5018,39.740288],[-105.50371,39.740355],[-105.505278,39.740408],[-105.50557,39.740421],[-105.50586,39.740442],[-105.506102,39.740464],[-105.506338,39.740494],[-105.506625,39.740541],[-105.506907,39.740603],[-105.507241,39.740695],[-105.507631,39.740813],[-105.508512,39.741095],[-105.508895,39.741215],[-105.509115,39.741277],[-105.509343,39.741331],[-105.509584,39.741376],[-105.509827,39.741416],[-105.510081,39.741447],[-105.510314,39.741468],[-105.510527,39.74148],[-105.510753,39.741485],[-105.511024,39.741484],[-105.511518,39.74148],[-105.512076,39.741472],[-105.5125,39.741466],[-105.513155,39.741457],[-105.51339,39.741449],[-105.513585,39.74144],[-105.513789,39.741426],[-105.513942,39.741412],[-105.514117,39.741391],[-105.514717,39.741284],[-105.514964,39.741227],[-105.515543,39.741096],[-105.515797,39.741044],[-105.516026,39.741008],[-105.51622,39.740985],[-105.516468,39.740962],[-105.516749,39.740938],[-105.517271,39.740946],[-105.517449,39.740951],[-105.517607,39.740958],[-105.51779,39.740968],[-105.517932,39.740979],[-105.518091,39.740996],[-105.518181,39.741009],[-105.518314,39.741028],[-105.518609,39.741078],[-105.518707,39.741093],[-105.51879,39.741106],[-105.518921,39.741123],[-105.519168,39.741153],[-105.519456,39.741192],[-105.519626,39.741224],[-105.519578,39.741278],[-105.519543,39.741324],[-105.519513,39.741369],[-105.519491,39.741416],[-105.519472,39.741467],[-105.519453,39.741529],[-105.519848,39.741581]]}},{"type":"Feature","properties":{"agency":"Clear Creek County Transit","shape_id":"p_1426025"},"geometry":{"type":"LineString","coordinates":[[-105.519848,39.741581],[-105.519453,39.741529],[-105.519373,39.741937],[-105.519218,39.741916],[-105.518312,39.741825],[-105.518215,39.741815],[-105.518075,39.741819],[-105.517998,39.741825],[-105.517173,39.74188],[-105.516986,39.741892],[-105.516226,39.741943],[-105.516109,39.74195],[-105.51591,39.741963],[-105.514835,39.742037],[-105.514581,39.742052],[-105.514219,39.742074],[-105.514185,39.742076],[-105.514164,39.742077],[-105.514064,39.742083],[-105.513741,39.742107],[-105.513501,39.742117],[-105.512862,39.742152],[-105.51237,39.742185],[-105.512287,39.742187],[-105.512129,39.742177],[-105.512038,39.742171],[-105.511983,39.742168],[-105.51151,39.742138],[-105.511374,39.742129],[-105.510904,39.742099],[-105.509508,39.741987],[-105.509408,39.74198],[-105.509227,39.742001],[-105.509056,39.742046],[-105.508891,39.742189],[-105.508607,39.74199],[-105.508183,39.741837],[-105.507804,39.741796],[-105.507141,39.741859],[-105.506813,39.741819],[-105.506663,39.741784],[-105.506486,39.741752],[-105.506309,39.741726],[-105.506217,39.741716],[-105.50625,39.741531],[-105.50645691327952,39.74155325601305],[-105.50649615234718,39.74133773899487],[-105.506459,39.74133],[-105.506292,39.741311],[-105.50625,39.741531],[-105.506227,39.741659],[-105.506217,39.741716],[-105.50586,39.74168],[-105.505785,39.741673],[-105.505612,39.741658],[-105.505485,39.741647],[-105.504947,39.7416],[-105.504733,39.741581],[-105.504649,39.741576],[-105.504445,39.741562],[-105.50435,39.741559],[-105.504254,39.741557],[-105.504212,39.741555],[-105.503938,39.741557],[-105.503556,39.74156],[-105.503136,39.741563],[-105.50302,39.741564],[-105.502793,39.741566],[-105.502659,39.741567],[-105.502152,39.741571],[-105.50158,39.741567],[-105.500542,39.741559],[-105.500538,39.741559],[-105.500253,39.741557],[-105.499994,39.741564],[-105.49989,39.741567],[-105.499837,39.74157],[-105.499474,39.741608],[-105.499428,39.741613],[-105.499241,39.741631],[-105.499126,39.741639],[-105.499091,39.741642],[-105.498943,39.741656],[-105.498871,39.741664],[-105.498548,39.741697],[-105.49824,39.741734],[-105.498109,39.741749],[-105.498073,39.741754],[-105.497995,39.741764],[-105.49802,39.741888],[-105.49805,39.7421],[-105.498062,39.74217],[-105.498065,39.742186],[-105.498077,39.742347],[-105.498077,39.742355],[-105.498076,39.742504],[-105.498183,39.742812],[-105.498059,39.742847],[-105.497908,39.742878],[-105.497264,39.742994],[-105.497126,39.743012],[-105.496828,39.743034],[-105.496374,39.743088],[-105.495853,39.743122],[-105.495431,39.74314],[-105.495104,39.743159],[-105.494786,39.743188],[-105.494418,39.743232],[-105.494388,39.743233],[-105.494324,39.743236],[-105.494254,39.743233],[-105.493983,39.743194],[-105.493911,39.743189],[-105.493839,39.743195],[-105.493135,39.743445],[-105.492761,39.743618],[-105.492591,39.743696],[-105.492761,39.743618],[-105.493135,39.743445],[-105.493839,39.743195],[-105.493911,39.743189],[-105.493983,39.743194],[-105.494254,39.743233],[-105.494324,39.743236],[-105.494388,39.743233],[-105.494418,39.743232],[-105.494786,39.743188],[-105.495104,39.743159],[-105.495431,39.74314],[-105.495853,39.743122],[-105.496374,39.743088],[-105.496828,39.743034],[-105.497126,39.743012],[-105.497264,39.742994],[-105.497908,39.742878],[-105.498059,39.742847],[-105.498183,39.742812],[-105.49809021246524,39.74259111151056],[-105.4980441670536,39.74244443165182],[-105.49799223445116,39.74222273228756],[-105.49798565653548,39.742108928367344],[-105.49759755949552,39.74226825380302],[-105.49742653368136,39.742293543521015],[-105.49738048827008,39.74214939200519],[-105.49738112894094,39.74215130574549],[-105.497341,39.741943],[-105.497324,39.741861],[-105.497414,39.741847],[-105.497636,39.741813],[-105.497699,39.741804],[-105.497995,39.741764],[-105.498073,39.741754],[-105.498109,39.741749],[-105.49824,39.741734],[-105.498548,39.741697],[-105.498871,39.741664],[-105.498943,39.741656],[-105.499091,39.741642],[-105.499126,39.741639],[-105.499241,39.741631],[-105.499428,39.741613],[-105.499474,39.741608],[-105.499837,39.74157],[-105.49989,39.741567],[-105.499994,39.741564],[-105.500253,39.741557],[-105.500538,39.741559],[-105.500542,39.741559],[-105.50158,39.741567],[-105.502152,39.741571],[-105.502659,39.741567],[-105.502793,39.741566],[-105.50302,39.741564],[-105.503136,39.741563],[-105.50318798411462,39.74156733357327],[-105.50317775066004,39.74156916145586],[-105.503556,39.74156],[-105.503938,39.741557],[-105.504212,39.741555],[-105.504254,39.741557],[-105.50435,39.741559],[-105.504445,39.741562],[-105.504649,39.741576],[-105.504733,39.741581],[-105.504947,39.7416],[-105.505485,39.741647],[-105.505612,39.741658],[-105.505785,39.741673],[-105.50586,39.74168],[-105.506217,39.741716],[-105.506309,39.741726],[-105.506486,39.741752],[-105.506663,39.741784],[-105.506905,39.741832],[-105.507144,39.741858],[-105.507286,39.741858],[-105.50744,39.74185],[-105.507712,39.741814],[-105.507851,39.741804],[-105.507998,39.741814],[-105.508191,39.741843],[-105.508358,39.741887],[-105.50858,39.741985],[-105.508865,39.742192],[-105.509039,39.742319],[-105.509097,39.742357],[-105.509192,39.742421],[-105.509325,39.742458],[-105.509376,39.742472],[-105.509427,39.742486],[-105.509794,39.742586],[-105.509967,39.742624],[-105.510126,39.742652],[-105.510251,39.742669],[-105.510329,39.742677],[-105.510466,39.742687],[-105.510532,39.74269],[-105.510622,39.742693],[-105.510748,39.742695],[-105.511384,39.742693],[-105.511534,39.742691],[-105.511814,39.742687],[-105.511923,39.742682],[-105.512047,39.74267],[-105.512166,39.742655],[-105.512261,39.74264],[-105.512712,39.742554],[-105.512837,39.742533],[-105.512862,39.742529],[-105.513037,39.742507],[-105.513177,39.742491],[-105.513297,39.742483],[-105.51336,39.742484],[-105.513485,39.74249],[-105.513612,39.742508],[-105.513767,39.742546],[-105.514175,39.742646],[-105.51444,39.742722],[-105.51458,39.742762],[-105.514718,39.742803],[-105.514778,39.742821],[-105.514875,39.742842],[-105.514924,39.742852],[-105.515006,39.742858],[-105.515098,39.742864],[-105.515244,39.742867],[-105.515433,39.742857],[-105.515559,39.742848],[-105.515921,39.742823]]}},{"type":"Feature","properties":{"agency":"Clear Creek County Transit","shape_id":"p_1435780"},"geometry":{"type":"LineString","coordinates":[[-105.694994,39.716603],[-105.694991,39.716637],[-105.694929,39.717804],[-105.694886,39.718506],[-105.694869,39.718767],[-105.694835,39.719363],[-105.694829,39.719466],[-105.694789,39.720254],[-105.694749,39.721045],[-105.694672,39.72232],[-105.694636,39.722817],[-105.694606,39.723117],[-105.694573,39.723348],[-105.694529,39.723613],[-105.694481,39.723845],[-105.694435,39.724039],[-105.694394,39.724194],[-105.69406,39.725277],[-105.694003,39.725439],[-105.69365,39.725424],[-105.693514,39.725418],[-105.692968,39.725394],[-105.69265,39.72538],[-105.692477,39.725375],[-105.691785,39.725364],[-105.691498,39.72536],[-105.691259,39.725354],[-105.691068,39.725335],[-105.69103,39.725326],[-105.690974,39.725298],[-105.690941,39.725263],[-105.69092,39.725218],[-105.690913,39.725152],[-105.690924,39.72491],[-105.690942,39.72484],[-105.690976,39.724768],[-105.690998,39.724737],[-105.691165,39.724591],[-105.691334,39.724462],[-105.69141,39.724421],[-105.691496,39.724359],[-105.691601,39.724248],[-105.691672,39.72413],[-105.691702,39.724048],[-105.691728,39.723953],[-105.691741,39.72386],[-105.691749,39.723583],[-105.691753,39.723443],[-105.691746,39.723194],[-105.691752,39.722985],[-105.691766,39.722421],[-105.691776,39.722206],[-105.691797,39.721936],[-105.691808,39.721835],[-105.691832,39.721748],[-105.691876,39.721664],[-105.691951,39.721563],[-105.692062,39.721446],[-105.692117,39.721388],[-105.692186,39.721296],[-105.692225,39.721225],[-105.692252,39.721142],[-105.692272,39.721033],[-105.692304,39.720758],[-105.692325,39.720552],[-105.69233,39.720466],[-105.692337,39.720382],[-105.692337,39.720352],[-105.692337,39.720286],[-105.692326,39.720141],[-105.692367,39.720125],[-105.692425,39.720114],[-105.692492,39.720111],[-105.692851,39.720155],[-105.692919,39.720156],[-105.692971,39.720145],[-105.693012,39.720132],[-105.693045,39.72011],[-105.693066,39.720076],[-105.693096,39.719959],[-105.693117,39.719642],[-105.69312,39.71953],[-105.693115,39.719474],[-105.693108,39.719434],[-105.693105,39.719375],[-105.693112,39.719323],[-105.693133,39.719266],[-105.693158,39.719233],[-105.693179,39.719211],[-105.693261,39.719164],[-105.693315,39.71915],[-105.693388,39.719145],[-105.693437,39.719149],[-105.693466,39.719152],[-105.693583,39.719157],[-105.693615,39.719158],[-105.693675,39.719155],[-105.693711,39.719148],[-105.693749,39.719134],[-105.693778,39.719117],[-105.693812,39.719084],[-105.693834,39.719027],[-105.69387,39.718782],[-105.693895,39.718486],[-105.693907,39.717936],[-105.693923,39.717588],[-105.693945,39.717383],[-105.693934,39.717336],[-105.693905,39.717307],[-105.693873,39.717283],[-105.693818,39.71726],[-105.693768,39.717252],[-105.693571,39.717254],[-105.693285,39.717265],[-105.693297,39.716754],[-105.693227,39.716514],[-105.693085,39.716232],[-105.693012,39.716116],[-105.692854,39.71583],[-105.692741,39.71563],[-105.692705,39.715548],[-105.692682,39.715474],[-105.692666,39.715378],[-105.692678,39.715134],[-105.692687,39.714977],[-105.692872,39.714983],[-105.693158,39.715003],[-105.693229,39.715011],[-105.693342,39.715025],[-105.693463,39.71504],[-105.693684,39.715076],[-105.693845,39.715116],[-105.693998,39.715165],[-105.694162,39.715208],[-105.694264,39.71523],[-105.69434,39.715249],[-105.694417,39.715267],[-105.694419,39.715267],[-105.694597,39.715289],[-105.694604,39.715289],[-105.694728,39.715297],[-105.694818,39.715303],[-105.694875,39.715312],[-105.694916,39.715319],[-105.694961,39.71533],[-105.695019,39.715353],[-105.695052,39.715382],[-105.695064,39.715388],[-105.695084,39.715397],[-105.695126,39.715413],[-105.695154,39.715419],[-105.695194,39.715421],[-105.695207,39.71542],[-105.695222,39.715418],[-105.695245,39.715416],[-105.695288,39.715403],[-105.695316,39.715387],[-105.69534,39.715373],[-105.695368,39.715337],[-105.69538,39.715304],[-105.695391,39.71527],[-105.695387,39.715227],[-105.695371,39.715197],[-105.695365,39.715188],[-105.695344,39.71516],[-105.695298,39.715073],[-105.695282,39.715026],[-105.695255,39.714949],[-105.695235,39.714894],[-105.695219,39.714841],[-105.695274,39.71457],[-105.695295,39.714477],[-105.695356,39.714212],[-105.695398,39.714026],[-105.695581,39.713352],[-105.695618,39.713214],[-105.695815,39.712543],[-105.695879,39.712326],[-105.696055,39.711707],[-105.696097,39.711542],[-105.696122,39.711418],[-105.696159,39.711199],[-105.696175,39.711122],[-105.696189,39.711063],[-105.696242,39.710876],[-105.696309,39.710663],[-105.696384,39.710453],[-105.696468,39.710246],[-105.696547,39.71007],[-105.696678,39.709803],[-105.696868,39.70946],[-105.696964,39.709308],[-105.697035,39.709205],[-105.69726,39.708879],[-105.697427,39.708655],[-105.697542,39.708463],[-105.697603,39.70836],[-105.69769,39.708216],[-105.697705,39.708194],[-105.697802,39.708048],[-105.698041,39.707732],[-105.698272,39.707462],[-105.698363,39.707348],[-105.698418,39.707262],[-105.698468,39.707141],[-105.698511,39.707026],[-105.698522,39.706996],[-105.698556,39.706903],[-105.698591,39.70678],[-105.69864,39.706621],[-105.698364,39.706559],[-105.698219,39.706527],[-105.697834,39.706441],[-105.697786,39.706565],[-105.697722,39.706733],[-105.697701,39.706784],[-105.697676,39.706842],[-105.697624,39.706956],[-105.697569,39.707072],[-105.697018,39.70695],[-105.696793,39.7069],[-105.69663,39.707328],[-105.69655,39.707537],[-105.696484,39.707724],[-105.696334,39.70819],[-105.69621,39.708607],[-105.696118,39.7089],[-105.696086,39.709],[-105.695988,39.70929],[-105.695976,39.709333],[-105.695875,39.709674],[-105.695721,39.710168],[-105.695708,39.71021],[-105.695597,39.710563],[-105.69554,39.710777],[-105.695499,39.710951],[-105.69546,39.711085],[-105.695389,39.71129],[-105.695357,39.711382],[-105.695315,39.711517],[-105.695308,39.711538],[-105.695271,39.711656],[-105.695232,39.711779],[-105.6952,39.711876],[-105.694901,39.712764],[-105.694828,39.713028],[-105.694765,39.713267],[-105.694597,39.714082],[-105.694501,39.714505],[-105.694433,39.714847],[-105.694408,39.714955],[-105.69434,39.715249],[-105.694417,39.715267],[-105.694419,39.715267],[-105.694597,39.715289],[-105.694604,39.715289],[-105.694728,39.715297],[-105.694818,39.715303],[-105.694875,39.715312],[-105.694916,39.715319],[-105.694961,39.71533],[-105.695019,39.715353],[-105.695052,39.715382],[-105.695064,39.715388],[-105.695084,39.715397],[-105.695126,39.715413],[-105.695154,39.715419],[-105.695194,39.715421],[-105.695207,39.71542],[-105.695222,39.715418],[-105.695245,39.715416],[-105.695288,39.715403],[-105.695316,39.715387],[-105.69534,39.715373],[-105.695504,39.715344],[-105.695702,39.715343],[-105.695831,39.715337],[-105.696188,39.715365],[-105.69707,39.71544],[-105.697082,39.7151],[-105.697125,39.7144],[-105.69714,39.714014],[-105.697145,39.713602],[-105.697163,39.713142],[-105.697182,39.712673],[-105.69726,39.711445],[-105.697289,39.71126],[-105.697346,39.710962],[-105.697403,39.7107],[-105.697473,39.710445],[-105.69755,39.710214],[-105.697621,39.710026],[-105.697699,39.709846],[-105.697812,39.709639],[-105.697921,39.709462],[-105.698037,39.709293],[-105.698161,39.709129],[-105.698294,39.708962],[-105.698481,39.708753],[-105.698613,39.708617],[-105.698745,39.708488],[-105.698927,39.708325],[-105.699128,39.708147],[-105.699485,39.707858],[-105.69989,39.707536],[-105.701717,39.706066],[-105.702416,39.7055],[-105.702947,39.705073],[-105.703494,39.704656],[-105.703846,39.70439],[-105.704024,39.704257],[-105.704349,39.704027],[-105.704621,39.703832],[-105.704844,39.703676],[-105.70512,39.703498],[-105.705704,39.703135],[-105.706093,39.702873],[-105.70639,39.702669],[-105.706624,39.702483],[-105.707126,39.702089],[-105.707521,39.701765],[-105.708102,39.701307],[-105.70837,39.701102],[-105.708549,39.700972],[-105.70875,39.70084],[-105.70895,39.700714],[-105.709103,39.700626],[-105.709208,39.700566],[-105.709363,39.700482],[-105.709673,39.700333],[-105.709819,39.700271],[-105.71,39.700192],[-105.710162,39.700129],[-105.710532,39.7],[-105.711012,39.699849],[-105.711939,39.699583],[-105.712947,39.699299],[-105.713526,39.699134],[-105.71409,39.698978],[-105.714466,39.69888],[-105.714826,39.698797],[-105.715492,39.69866],[-105.716029,39.698559],[-105.716393,39.698497],[-105.71672,39.698447],[-105.717406,39.698351],[-105.718316,39.698229],[-105.71866,39.698176],[-105.718911,39.698133],[-105.719152,39.698082],[-105.719453,39.698009],[-105.719706,39.697939],[-105.719934,39.697874],[-105.720174,39.697792],[-105.720411,39.697706],[-105.720645,39.697612],[-105.720941,39.697477],[-105.721283,39.697308],[-105.72162,39.697128],[-105.721829,39.697016],[-105.722197,39.696816],[-105.722865,39.696505],[-105.724173,39.695883],[-105.725707,39.695191],[-105.725822,39.695141],[-105.725905,39.695106],[-105.726134,39.695047],[-105.726275,39.695033],[-105.726134,39.695047],[-105.725905,39.695106],[-105.725467,39.694532],[-105.725284,39.694633],[-105.725131,39.694713],[-105.72496,39.694824],[-105.724649,39.695043],[-105.723923,39.695511],[-105.723584,39.695746],[-105.723017,39.69613],[-105.722489,39.696454],[-105.721489,39.697049],[-105.720844,39.697384],[-105.720346,39.69761],[-105.720088,39.697711],[-105.719836,39.697796],[-105.719542,39.697885],[-105.719262,39.697956],[-105.718839,39.698047],[-105.71859,39.698092],[-105.718267,39.698144],[-105.716581,39.69838],[-105.716121,39.698452],[-105.715468,39.698572],[-105.71439,39.698805],[-105.713984,39.698907],[-105.713343,39.699086],[-105.710878,39.699796],[-105.710529,39.699896],[-105.710289,39.699975],[-105.710007,39.700079],[-105.709759,39.700182],[-105.709497,39.700302],[-105.709194,39.700452],[-105.708978,39.700572],[-105.708751,39.70071],[-105.708504,39.700874],[-105.708251,39.701058],[-105.707336,39.701776],[-105.70622,39.702669],[-105.705519,39.703141],[-105.704884,39.703539],[-105.704287,39.703943],[-105.703738,39.704336],[-105.702811,39.705037],[-105.701513,39.706079],[-105.700274,39.707085],[-105.699301,39.70786],[-105.698868,39.708221],[-105.698569,39.708486],[-105.698367,39.708687],[-105.698224,39.708843],[-105.697965,39.709155],[-105.697742,39.709491],[-105.69763,39.709688],[-105.697535,39.70988],[-105.697362,39.710336],[-105.697278,39.710596],[-105.697226,39.710815],[-105.697103,39.711542],[-105.697009,39.712185],[-105.696859,39.713435],[-105.696733,39.714274],[-105.696583,39.715181],[-105.696518,39.715634],[-105.696388,39.716579],[-105.69631,39.717144],[-105.696004,39.719141],[-105.695844,39.720135],[-105.695697,39.721006],[-105.695595,39.721584],[-105.695531,39.721942],[-105.695497,39.722105],[-105.695441,39.722376],[-105.69537,39.722668],[-105.695297,39.72294],[-105.695224,39.723174],[-105.695129,39.723459],[-105.694678,39.724674],[-105.69435,39.725541],[-105.694244,39.72582],[-105.693991,39.726499],[-105.69365,39.727397],[-105.693482,39.727838],[-105.692783,39.729697],[-105.692423,39.730618],[-105.692345,39.730814],[-105.692263,39.731011],[-105.692143,39.73126],[-105.692017,39.731491],[-105.691943,39.731617],[-105.691782,39.731879],[-105.691645,39.732087],[-105.691459,39.732346],[-105.691275,39.732578],[-105.691093,39.732793],[-105.690805,39.73311],[-105.690385,39.73354],[-105.689936,39.733993],[-105.689116,39.734823],[-105.688664,39.735277],[-105.688164,39.735785],[-105.687699,39.736259],[-105.687211,39.736765],[-105.686884,39.737135],[-105.686637,39.737449],[-105.686442,39.737717],[-105.686255,39.737999],[-105.686089,39.738281],[-105.685955,39.738515],[-105.685703,39.738987],[-105.685331,39.739672],[-105.684745,39.740763],[-105.684625,39.740988],[-105.684507,39.741192],[-105.684384,39.741392],[-105.684249,39.741605],[-105.684131,39.741773],[-105.683948,39.742003],[-105.683768,39.742208],[-105.683677,39.742304],[-105.683599,39.742386],[-105.683418,39.74256],[-105.683164,39.742772],[-105.682844,39.743016],[-105.68257,39.743206],[-105.682192,39.743431],[-105.681954,39.74357],[-105.681548,39.743781],[-105.680996,39.744075],[-105.680097,39.744556],[-105.679571,39.744832],[-105.679225,39.745007],[-105.678805,39.745207],[-105.678443,39.74537],[-105.677916,39.745593],[-105.677337,39.745825],[-105.676469,39.746169],[-105.675378,39.746604],[-105.674677,39.746881],[-105.674257,39.747048],[-105.668942,39.749158],[-105.667853,39.749602],[-105.665887,39.750385],[-105.664966,39.750753],[-105.662973,39.751542],[-105.66256,39.751722],[-105.662271,39.751859],[-105.661976,39.752012],[-105.661781,39.752116],[-105.661568,39.752243],[-105.661277,39.752429],[-105.660869,39.752723],[-105.660679,39.752873],[-105.660449,39.75307],[-105.660266,39.753241],[-105.660127,39.753376],[-105.659988,39.753521],[-105.659834,39.753693],[-105.659398,39.754199],[-105.659015,39.754667],[-105.658338,39.75548],[-105.65716,39.756876],[-105.65703,39.757028],[-105.656902,39.757175],[-105.656724,39.757377],[-105.656501,39.757625],[-105.65614,39.757982],[-105.656013,39.758103],[-105.65588,39.758227],[-105.655808,39.758293],[-105.65568,39.758406],[-105.655602,39.758473],[-105.655456,39.758591],[-105.655282,39.758718],[-105.655119,39.758833],[-105.654906,39.758979],[-105.654723,39.759101],[-105.654549,39.75921],[-105.654312,39.759352],[-105.654122,39.759458],[-105.6539,39.759574],[-105.653697,39.759676],[-105.653471,39.759783],[-105.653208,39.759901],[-105.652952,39.760009],[-105.652646,39.7601],[-105.652562,39.76012],[-105.652464,39.76014],[-105.652415,39.760147],[-105.65235,39.760152],[-105.652306,39.760154],[-105.652249,39.760151],[-105.652164,39.760139],[-105.65211,39.760124],[-105.652016,39.76009],[-105.651997,39.760081],[-105.651927,39.760042],[-105.651888,39.760013],[-105.651833,39.759959],[-105.651821,39.75994],[-105.65179,39.759881],[-105.651778,39.75984],[-105.651775,39.759803],[-105.651777,39.759729],[-105.65178,39.759699],[-105.651788,39.759669],[-105.651818,39.759596],[-105.65184,39.759554],[-105.651887,39.75949],[-105.651946,39.759423],[-105.651991,39.75938],[-105.652078,39.759307],[-105.652218,39.7592],[-105.652519,39.759049],[-105.652674,39.758972],[-105.652811,39.758909],[-105.652962,39.758843],[-105.653112,39.758788],[-105.653261,39.758741],[-105.653416,39.758697],[-105.653583,39.758658],[-105.65375,39.758627],[-105.653938,39.7586],[-105.654142,39.758582],[-105.654317,39.758574],[-105.654449,39.758571],[-105.654571,39.758573],[-105.654722,39.758579],[-105.654795,39.758584],[-105.654908,39.758596],[-105.654979,39.758605],[-105.655116,39.758626],[-105.655187,39.758637],[-105.655299,39.758657],[-105.655374,39.758672],[-105.655487,39.758694],[-105.655601,39.758723],[-105.655716,39.758752],[-105.655824,39.758784],[-105.655891,39.758804],[-105.656005,39.758838],[-105.656084,39.758864],[-105.656182,39.758903],[-105.656382,39.758977],[-105.656716,39.759134],[-105.657528,39.759456],[-105.657817,39.759567],[-105.658026,39.759643],[-105.658187,39.759698],[-105.6583,39.759732],[-105.658461,39.759778],[-105.658736,39.759849],[-105.658899,39.759885],[-105.659028,39.759907],[-105.659152,39.759925],[-105.659361,39.759941],[-105.659459,39.759946],[-105.659555,39.759952],[-105.659664,39.759956],[-105.659772,39.759958],[-105.659889,39.759959],[-105.660038,39.759958],[-105.660142,39.759954],[-105.660174,39.759952],[-105.660175,39.759952],[-105.660247,39.759949],[-105.660317,39.759945],[-105.66044,39.759935],[-105.660503,39.759929],[-105.660563,39.759922],[-105.660664,39.759907],[-105.660964,39.759858],[-105.661721,39.759717],[-105.662413,39.759588],[-105.662914,39.7595],[-105.663125,39.759466],[-105.663247,39.75945],[-105.663443,39.759427],[-105.663599,39.759415],[-105.663728,39.759409],[-105.663885,39.759403],[-105.663937,39.759403],[-105.66411,39.759402],[-105.664299,39.759404],[-105.664435,39.759408],[-105.664682,39.759422],[-105.664803,39.759432],[-105.664913,39.759444],[-105.665036,39.759458],[-105.665142,39.759472],[-105.665317,39.7595],[-105.665413,39.759518],[-105.665562,39.759551],[-105.665704,39.759584],[-105.666101,39.759686],[-105.666192,39.759709],[-105.666511,39.759785],[-105.666731,39.759831],[-105.666956,39.759872],[-105.66707,39.759891],[-105.66722,39.759913],[-105.66738,39.759934],[-105.667551,39.759955],[-105.667688,39.759968],[-105.667851,39.759982],[-105.667988,39.759992],[-105.668173,39.760001],[-105.668309,39.760007],[-105.668331,39.760008],[-105.668435,39.760011],[-105.66852,39.760012],[-105.668738,39.760016],[-105.669439,39.760023],[-105.669923,39.760028],[-105.670812,39.760031],[-105.671429,39.760019],[-105.671528,39.760015],[-105.671647,39.760008],[-105.671793,39.759996],[-105.671893,39.759985],[-105.672159,39.759948],[-105.672322,39.759923],[-105.672327,39.759922],[-105.672517,39.759886],[-105.672715,39.759851],[-105.672898,39.75982],[-105.673118,39.759786],[-105.673262,39.759766],[-105.673429,39.759746],[-105.673624,39.759725],[-105.673819,39.759707],[-105.673999,39.759695],[-105.674145,39.759687],[-105.674375,39.75968],[-105.674531,39.759678],[-105.674694,39.759679],[-105.674869,39.759683],[-105.675052,39.759689],[-105.675218,39.759698],[-105.675402,39.759709],[-105.675584,39.759723],[-105.675729,39.759737],[-105.675957,39.759762],[-105.676143,39.759786],[-105.676376,39.759822],[-105.676559,39.759854],[-105.67697,39.759929],[-105.677411,39.760011],[-105.677866,39.760096],[-105.677961,39.760114],[-105.678059,39.760133],[-105.678144,39.760148],[-105.678769,39.760263],[-105.678969,39.760299],[-105.678978,39.760301],[-105.679174,39.760337],[-105.679192,39.76034],[-105.679366,39.760374],[-105.680672,39.760613],[-105.681036,39.760682],[-105.681853,39.760838],[-105.68188,39.760756],[-105.681886,39.760739],[-105.681974,39.76051],[-105.682183,39.76055],[-105.68218803725225,39.760560517638936],[-105.68225357024814,39.76044537060719],[-105.683242142,39.760635052],[-105.683102055,39.761071624],[-105.681848,39.760837],[-105.680672,39.760613],[-105.679354,39.76037],[-105.679192,39.76034],[-105.678978,39.760301],[-105.678769,39.760263],[-105.678059,39.760133],[-105.67697,39.759929],[-105.676559,39.759854],[-105.676376,39.759822],[-105.676143,39.759786],[-105.675957,39.759762],[-105.675729,39.759737],[-105.675584,39.759723],[-105.675402,39.759709],[-105.675218,39.759698],[-105.675052,39.759689],[-105.674869,39.759683],[-105.674694,39.759679],[-105.674531,39.759678],[-105.674375,39.75968],[-105.674171,39.759687],[-105.673999,39.759695],[-105.673819,39.759707],[-105.673624,39.759725],[-105.673429,39.759746],[-105.673262,39.759766],[-105.673118,39.759786],[-105.672898,39.75982],[-105.672715,39.759851],[-105.672517,39.759886],[-105.672327,39.759922],[-105.672159,39.759948],[-105.671893,39.759985],[-105.671793,39.759996],[-105.671647,39.760008],[-105.671519,39.760014],[-105.671429,39.760019],[-105.670812,39.760031],[-105.669923,39.760028],[-105.669439,39.760023],[-105.668738,39.760016],[-105.66852,39.760012],[-105.668435,39.760011],[-105.668331,39.760008],[-105.668309,39.760007],[-105.668173,39.760001],[-105.667988,39.759992],[-105.667851,39.759982],[-105.667688,39.759968],[-105.667551,39.759955],[-105.66738,39.759934],[-105.66722,39.759913],[-105.66707,39.759891],[-105.666956,39.759872],[-105.666731,39.759831],[-105.666511,39.759785],[-105.666313,39.759741],[-105.666101,39.759686],[-105.665704,39.759584],[-105.665562,39.759551],[-105.665413,39.759518],[-105.665317,39.7595],[-105.665142,39.759472],[-105.665036,39.759458],[-105.664913,39.759444],[-105.664803,39.759432],[-105.664682,39.759422],[-105.664435,39.759408],[-105.664299,39.759404],[-105.66411,39.759402],[-105.663937,39.759403],[-105.663885,39.759403],[-105.663728,39.759409],[-105.663599,39.759415],[-105.663443,39.759427],[-105.663247,39.75945],[-105.663125,39.759466],[-105.662914,39.7595],[-105.662413,39.759588],[-105.661721,39.759717],[-105.660964,39.759858],[-105.660664,39.759907],[-105.660563,39.759922],[-105.660503,39.759929],[-105.66044,39.759935],[-105.660317,39.759945],[-105.660247,39.759949],[-105.660142,39.759954],[-105.660038,39.759958],[-105.659889,39.759959],[-105.659772,39.759958],[-105.659664,39.759956],[-105.659555,39.759952],[-105.659361,39.759941],[-105.659152,39.759925],[-105.659028,39.759907],[-105.658899,39.759885],[-105.658736,39.759849],[-105.658461,39.759778],[-105.6583,39.759732],[-105.658187,39.759698],[-105.658026,39.759643],[-105.657817,39.759567],[-105.657528,39.759456],[-105.656716,39.759134],[-105.656366,39.758999],[-105.656169,39.758922],[-105.65607,39.758885],[-105.656006,39.758861],[-105.655887,39.75882],[-105.655827,39.758799],[-105.655712,39.758763],[-105.655597,39.758728],[-105.655487,39.758699],[-105.655374,39.758672],[-105.655299,39.758657],[-105.655187,39.758637],[-105.655116,39.758626],[-105.654979,39.758605],[-105.654908,39.758596],[-105.654795,39.758584],[-105.654722,39.758579],[-105.654571,39.758573],[-105.654449,39.758571],[-105.654317,39.758574],[-105.654142,39.758582],[-105.653938,39.7586],[-105.65375,39.758627],[-105.653583,39.758658],[-105.653416,39.758697],[-105.653261,39.758741],[-105.653112,39.758788],[-105.652962,39.758843],[-105.652811,39.758909],[-105.652674,39.758972],[-105.652519,39.759049],[-105.652218,39.7592],[-105.651901,39.759383],[-105.651574,39.75958],[-105.649651,39.760739],[-105.649446,39.760859],[-105.649317,39.760927],[-105.649215,39.760978],[-105.649125,39.761018],[-105.649064,39.761044],[-105.648991,39.761071],[-105.648891,39.761104],[-105.64775,39.761459],[-105.646425,39.761796],[-105.646154,39.761863],[-105.645942,39.761914],[-105.64574,39.761962],[-105.645562,39.762002],[-105.645355,39.762045],[-105.645062,39.762102],[-105.644727,39.762165],[-105.643617,39.762372],[-105.643227,39.762443],[-105.642563,39.762566],[-105.640555,39.762939],[-105.639369,39.763154],[-105.638536,39.763263],[-105.63835,39.763287],[-105.638186,39.763307],[-105.638016,39.763327],[-105.637329,39.763407],[-105.635482,39.763617],[-105.635086,39.763667],[-105.634634,39.763725],[-105.634381,39.763775],[-105.634246,39.763808],[-105.63409,39.763862],[-105.633422,39.764015],[-105.633329,39.764032],[-105.633247,39.764042],[-105.633106,39.764058],[-105.632941,39.76407],[-105.632789,39.764078],[-105.6324,39.764088],[-105.632206,39.764096],[-105.632042,39.764104],[-105.631891,39.764113],[-105.631614,39.764137],[-105.631223,39.7642],[-105.631022,39.76424],[-105.6307,39.76432],[-105.630343,39.764434],[-105.629531,39.764769],[-105.627375,39.765719],[-105.627308,39.76575],[-105.627252,39.765777],[-105.627138,39.765839],[-105.627094,39.765869],[-105.627048,39.765905],[-105.627029,39.765923],[-105.626976,39.765967],[-105.626914,39.766024],[-105.626892,39.766047],[-105.626852,39.766088],[-105.626547,39.766387],[-105.626479,39.766448],[-105.62641,39.766503],[-105.626335,39.766551],[-105.626258,39.766588],[-105.62617,39.766618],[-105.626084,39.766642],[-105.625976,39.766661],[-105.625863,39.766673],[-105.625716,39.76668],[-105.624472,39.766736],[-105.623726,39.766776],[-105.623295,39.766802],[-105.623152,39.76681],[-105.623078,39.766813],[-105.622934,39.766814],[-105.622857,39.766813],[-105.622741,39.76681],[-105.622529,39.766801],[-105.621061,39.766733],[-105.619288,39.766662],[-105.618969,39.766649],[-105.617212,39.766575],[-105.61708,39.766569],[-105.617004,39.766564],[-105.616813,39.766549],[-105.61671,39.76654],[-105.616604,39.766528],[-105.616571,39.766525],[-105.616488,39.766515],[-105.616336,39.766495],[-105.616321,39.766493],[-105.615883,39.766431],[-105.615809,39.76642],[-105.615463,39.766365],[-105.615153,39.766312],[-105.61505,39.766295],[-105.615045,39.766294],[-105.614671,39.766224],[-105.614263,39.766144],[-105.613921,39.766072],[-105.613687,39.766022],[-105.613471,39.765977],[-105.613112,39.765918],[-105.612788,39.765865],[-105.612639,39.765841],[-105.61245,39.765811],[-105.612294,39.765787],[-105.612188,39.765771],[-105.612029,39.765749],[-105.611681,39.765705],[-105.611111,39.765641],[-105.610771,39.765607],[-105.610531,39.765587],[-105.61029,39.765568],[-105.610066,39.765555],[-105.609818,39.765541],[-105.609555,39.765531],[-105.609279,39.765523],[-105.608797,39.765514],[-105.608222,39.765506],[-105.607151,39.765492],[-105.606175,39.76548],[-105.605962,39.765476],[-105.605764,39.765472],[-105.605651,39.765469],[-105.605484,39.765463],[-105.605371,39.765458],[-105.605101,39.76544],[-105.604688,39.765406],[-105.604648,39.765403],[-105.604208,39.765353],[-105.604051,39.765332],[-105.603926,39.765314],[-105.60373,39.765283],[-105.603588,39.765259],[-105.603405,39.765228],[-105.603229,39.765194],[-105.602754,39.765102],[-105.601959,39.764934],[-105.601606,39.764859],[-105.601044,39.764742],[-105.60067,39.764666],[-105.600522,39.764639],[-105.600293,39.764598],[-105.599966,39.764551],[-105.599451,39.764484],[-105.599052,39.764435],[-105.599068,39.764324],[-105.599069,39.76432],[-105.599147,39.763806],[-105.599148,39.763802],[-105.599165,39.763631],[-105.599179,39.763351],[-105.599198,39.763043],[-105.599196,39.763028],[-105.599192,39.763006],[-105.599178,39.762974],[-105.599159,39.762953],[-105.599132,39.762932],[-105.599093,39.762911],[-105.599058,39.762895],[-105.598997,39.762881],[-105.598815,39.762866],[-105.598694,39.762863],[-105.598588,39.762868],[-105.598483,39.762879],[-105.598301,39.762909],[-105.598165,39.762946],[-105.598055,39.762985],[-105.597927,39.76304],[-105.597603,39.7632],[-105.597447,39.763276],[-105.597334,39.763323],[-105.597226,39.763359],[-105.597127,39.763389],[-105.597024,39.763413],[-105.596927,39.763429],[-105.596823,39.763443],[-105.596707,39.763449],[-105.596594,39.763448],[-105.596499,39.76344],[-105.595842,39.763344],[-105.59555,39.763294],[-105.595357,39.763255],[-105.595264,39.763232],[-105.595058,39.763174],[-105.594899,39.763124],[-105.594237,39.762887],[-105.593981,39.762811],[-105.593867,39.762782],[-105.593646,39.762739],[-105.59342,39.762711],[-105.593268,39.762704],[-105.592892,39.762717],[-105.592734,39.762737],[-105.592594,39.762758],[-105.59242,39.762798],[-105.592201,39.762861],[-105.591907,39.762969],[-105.591182,39.763271],[-105.591052,39.763322],[-105.590967,39.763353],[-105.59079,39.763408],[-105.590687,39.763433],[-105.590549,39.76346],[-105.59046,39.763474],[-105.590317,39.763489],[-105.590177,39.7635],[-105.590081,39.763504],[-105.589971,39.763506],[-105.589869,39.763505],[-105.589703,39.763502],[-105.588215,39.763452],[-105.58767,39.763431],[-105.587271,39.76341],[-105.587,39.763393],[-105.586867,39.763383],[-105.586671,39.763367],[-105.586412,39.763343],[-105.58589,39.76329],[-105.584865,39.763175],[-105.584703,39.763156],[-105.584552,39.763137],[-105.584469,39.763126],[-105.584288,39.763097],[-105.584165,39.763075],[-105.583971,39.763036],[-105.580196,39.762282],[-105.580056,39.762253],[-105.579892,39.762217],[-105.579775,39.762189],[-105.579614,39.762148],[-105.579454,39.762102],[-105.579309,39.762054],[-105.579212,39.762014],[-105.579067,39.761949],[-105.578133,39.761477],[-105.577714,39.761251],[-105.577357,39.761072],[-105.576956,39.760868],[-105.576434,39.760636],[-105.576122,39.760521],[-105.575843,39.760418],[-105.574284,39.759842],[-105.57412,39.759782],[-105.573999,39.759732],[-105.573882,39.759678],[-105.573772,39.75962],[-105.573685,39.759565],[-105.573587,39.759498],[-105.573489,39.759419],[-105.573406,39.759344],[-105.573045,39.759004],[-105.572932,39.75891],[-105.572846,39.758845],[-105.572757,39.758786],[-105.572667,39.758731],[-105.57257,39.758681],[-105.572447,39.758628],[-105.572329,39.758583],[-105.572186,39.758537],[-105.572029,39.758501],[-105.571822,39.758465],[-105.571533,39.758425],[-105.571434,39.758409],[-105.571315,39.758383],[-105.571183,39.758352],[-105.57095,39.758289],[-105.569601,39.757895],[-105.569505,39.757862],[-105.569388,39.757815],[-105.569288,39.757764],[-105.569209,39.757714],[-105.56913,39.757661],[-105.568767,39.757376],[-105.568641,39.757289],[-105.568513,39.757217],[-105.568371,39.757157],[-105.568227,39.757112],[-105.568067,39.757074],[-105.567815,39.75703],[-105.567069,39.756902],[-105.566697,39.756839],[-105.566575,39.756816],[-105.5664,39.756775],[-105.566325,39.756755],[-105.566137,39.75669],[-105.565911,39.756593],[-105.5657,39.756488],[-105.565058,39.756167],[-105.564153,39.755715],[-105.563914,39.755598],[-105.563708,39.75551],[-105.563511,39.755432],[-105.56331,39.755365],[-105.563072,39.755302],[-105.562824,39.755245],[-105.562554,39.755189],[-105.562272,39.755119],[-105.562179,39.755093],[-105.562011,39.755037],[-105.561799,39.754945],[-105.561588,39.754832],[-105.561306,39.754694],[-105.561085,39.75461],[-105.560945,39.754565],[-105.560774,39.754531],[-105.560586,39.754508],[-105.56044,39.754505],[-105.560223,39.754514],[-105.560089,39.754532],[-105.559953,39.754559],[-105.559836,39.754599],[-105.55971,39.754653],[-105.559545,39.75473],[-105.559207,39.754908],[-105.559126,39.754945],[-105.559051,39.754977],[-105.558958,39.755009],[-105.558861,39.755034],[-105.55875,39.755056],[-105.558628,39.755073],[-105.558515,39.755082],[-105.55836,39.755084],[-105.558226,39.755074],[-105.558093,39.755051],[-105.557964,39.755022],[-105.557838,39.754983],[-105.557713,39.754935],[-105.557609,39.754884],[-105.557492,39.754815],[-105.557343,39.754715],[-105.556486,39.754152],[-105.556258,39.753998],[-105.55606,39.753845],[-105.555932,39.753735],[-105.555837,39.753636],[-105.555431,39.753147],[-105.554939,39.75255],[-105.554483,39.752004],[-105.554377,39.751891],[-105.554269,39.751789],[-105.554237,39.751762],[-105.5542,39.751786],[-105.554174,39.751804],[-105.554019,39.751918],[-105.553998,39.751932],[-105.553984,39.751941],[-105.55396,39.751963],[-105.553936,39.751991],[-105.553887,39.751962],[-105.553783,39.7519],[-105.553718,39.751861],[-105.553647,39.751823],[-105.55358,39.751788],[-105.553501,39.751746],[-105.553456,39.75173],[-105.553354,39.7517],[-105.552672,39.75154],[-105.552103,39.751409],[-105.551831,39.751346],[-105.551571,39.751282],[-105.551415,39.751243],[-105.551274,39.751205],[-105.551153,39.751169],[-105.550875,39.751084],[-105.550569,39.750931],[-105.550315,39.750782],[-105.549977,39.750559],[-105.549848,39.750461],[-105.549307,39.750003],[-105.548688,39.749457],[-105.548219,39.749087],[-105.547909,39.74886],[-105.547548,39.748598],[-105.54685,39.748173],[-105.546456,39.747949],[-105.545759,39.747595],[-105.545546,39.747495],[-105.545038,39.747274],[-105.544469,39.747047],[-105.544051,39.746898],[-105.543686,39.746781],[-105.5432,39.746641],[-105.54181,39.746282],[-105.54105,39.746078],[-105.540739,39.745983],[-105.54041,39.745872],[-105.540099,39.745757],[-105.538867,39.745259],[-105.538322,39.745056],[-105.537843,39.744891],[-105.537367,39.744725],[-105.537207,39.74467],[-105.537025,39.74461],[-105.536701,39.744505],[-105.536521,39.744446],[-105.536389,39.744399],[-105.536261,39.74435],[-105.536151,39.744305],[-105.536094,39.744281],[-105.535974,39.744226],[-105.535779,39.744131],[-105.535411,39.743953],[-105.535323,39.743913],[-105.535251,39.743881],[-105.535159,39.743845],[-105.535075,39.743828],[-105.534998,39.743815],[-105.534904,39.743801],[-105.534754,39.743781],[-105.534634,39.743772],[-105.534542,39.743771],[-105.534454,39.743773],[-105.534355,39.743783],[-105.534275,39.743801],[-105.534239,39.743815],[-105.534166,39.743851],[-105.534047,39.743924],[-105.533658,39.744143],[-105.5335,39.744232],[-105.533408,39.744286],[-105.533168,39.744432],[-105.5331,39.744465],[-105.533019,39.744501],[-105.532956,39.744524],[-105.532911,39.744538],[-105.53289,39.744543],[-105.532829,39.744559],[-105.532727,39.74458],[-105.532064,39.744493],[-105.531989,39.744483],[-105.531926,39.744474],[-105.53101,39.744351],[-105.530917,39.744339],[-105.530857,39.744331],[-105.52994,39.74421],[-105.529858,39.7442],[-105.529792,39.744191],[-105.528785,39.744056],[-105.528432,39.744012],[-105.527709,39.743919],[-105.526665,39.743773],[-105.526594,39.743763],[-105.52572,39.743641],[-105.525608,39.743625],[-105.524736,39.743509],[-105.524545,39.743481],[-105.524428,39.743463],[-105.523454,39.743349],[-105.523296,39.743332],[-105.522409,39.743207],[-105.52226,39.743185],[-105.521329,39.743067],[-105.520834,39.743003],[-105.520261,39.742929],[-105.519199,39.742786],[-105.519293,39.74236],[-105.519373,39.741937],[-105.519453,39.741529],[-105.519848,39.741581]]}},{"type":"Feature","properties":{"agency":"Clear Creek County Transit","shape_id":"p_1442421"},"geometry":{"type":"LineString","coordinates":[[-105.519877,39.741492],[-105.519819,39.741577],[-105.519707,39.741562],[-105.519453,39.741529],[-105.519517,39.741408],[-105.519546,39.741365],[-105.519568,39.741326],[-105.51959,39.741285],[-105.519638,39.741225],[-105.519677,39.741178],[-105.519707,39.741147],[-105.51976,39.741105],[-105.519783,39.741088],[-105.520121,39.74086],[-105.520272,39.740758],[-105.520453,39.740636],[-105.520652,39.740491],[-105.520695,39.74046],[-105.520927,39.740298],[-105.521204,39.740093],[-105.521263,39.740049],[-105.521327,39.739996],[-105.521956,39.739535],[-105.522361,39.739215],[-105.522405,39.739181],[-105.522656,39.738973],[-105.523215,39.738489],[-105.523415,39.738308],[-105.52353,39.73821],[-105.523739,39.738021],[-105.523759,39.738003],[-105.524076,39.737715],[-105.524333,39.737491],[-105.524429,39.737409],[-105.52462,39.737248],[-105.524886,39.737025],[-105.525016,39.736916],[-105.524886,39.737025],[-105.52462,39.737248],[-105.524429,39.737409],[-105.524333,39.737491],[-105.524076,39.737715],[-105.523759,39.738003],[-105.523739,39.738021],[-105.52353,39.73821],[-105.523415,39.738308],[-105.523215,39.738489],[-105.522656,39.738973],[-105.522405,39.739181],[-105.522361,39.739215],[-105.521956,39.739535],[-105.521327,39.739996],[-105.521263,39.740049],[-105.521204,39.740093],[-105.520927,39.740298],[-105.520695,39.74046],[-105.520652,39.740491],[-105.520453,39.740636],[-105.520272,39.740758],[-105.520121,39.74086],[-105.519783,39.741088],[-105.51976,39.741105],[-105.519707,39.741147],[-105.519677,39.741178],[-105.519638,39.741225],[-105.51959,39.741285],[-105.519568,39.741326],[-105.519546,39.741365],[-105.519517,39.741408],[-105.519453,39.741529],[-105.519438,39.741607],[-105.51932,39.741811],[-105.5193,39.741846],[-105.519284,39.741863],[-105.519218,39.741916],[-105.518833,39.741877],[-105.518704,39.741864],[-105.518312,39.741825],[-105.518147,39.741816],[-105.518075,39.741819],[-105.51801,39.741824],[-105.517998,39.741825],[-105.517173,39.74188],[-105.517057,39.741887],[-105.516986,39.741892],[-105.516939,39.741895],[-105.516226,39.741943],[-105.516109,39.74195],[-105.51598,39.741959],[-105.51591,39.741963],[-105.515871,39.741966],[-105.514907,39.742032],[-105.514835,39.742037],[-105.514797,39.742039],[-105.514581,39.742052],[-105.514219,39.742074],[-105.514185,39.742076],[-105.514164,39.742077],[-105.514064,39.742083],[-105.513741,39.742107],[-105.513501,39.742117],[-105.512963,39.742146],[-105.512862,39.742152],[-105.512546,39.742173],[-105.51237,39.742185],[-105.512294,39.742187],[-105.512129,39.742177],[-105.512038,39.742171],[-105.511983,39.742168],[-105.51151,39.742138],[-105.511374,39.742129],[-105.510904,39.742099],[-105.509508,39.741987],[-105.509408,39.74198],[-105.509227,39.742001],[-105.509056,39.742046],[-105.508891,39.742189],[-105.508607,39.74199],[-105.508183,39.741837],[-105.507804,39.741796],[-105.507141,39.741859],[-105.506813,39.741819],[-105.506663,39.741784],[-105.506486,39.741752],[-105.506309,39.741726],[-105.506217,39.741716],[-105.50625,39.741531],[-105.50645691327952,39.74155325601305],[-105.50649615234718,39.74133773899487],[-105.506459,39.74133],[-105.506292,39.741311],[-105.50625,39.741531],[-105.506227,39.741659],[-105.506217,39.741716],[-105.50586,39.74168],[-105.505785,39.741673],[-105.505612,39.741658],[-105.505485,39.741647],[-105.504947,39.7416],[-105.504733,39.741581],[-105.504649,39.741576],[-105.504445,39.741562],[-105.50435,39.741559],[-105.504254,39.741557],[-105.504212,39.741555],[-105.503938,39.741557],[-105.503556,39.74156],[-105.503136,39.741563],[-105.50302,39.741564],[-105.502793,39.741566],[-105.502659,39.741567],[-105.502152,39.741571],[-105.50158,39.741567],[-105.500542,39.741559],[-105.500538,39.741559],[-105.500253,39.741557],[-105.499994,39.741564],[-105.49989,39.741567],[-105.499837,39.74157],[-105.499474,39.741608],[-105.499428,39.741613],[-105.499241,39.741631],[-105.499126,39.741639],[-105.499091,39.741642],[-105.498943,39.741656],[-105.498871,39.741664],[-105.498548,39.741697],[-105.49824,39.741734],[-105.498109,39.741749],[-105.498073,39.741754],[-105.497995,39.741764],[-105.49802,39.741888],[-105.49805,39.7421],[-105.498062,39.74217],[-105.498065,39.742186],[-105.498077,39.742347],[-105.498077,39.742355],[-105.498076,39.742504],[-105.498183,39.742812],[-105.498059,39.742847],[-105.497908,39.742878],[-105.497264,39.742994],[-105.497126,39.743012],[-105.496828,39.743034],[-105.496374,39.743088],[-105.495853,39.743122],[-105.495431,39.74314],[-105.495104,39.743159],[-105.494786,39.743188],[-105.494418,39.743232],[-105.494388,39.743233],[-105.494324,39.743236],[-105.494254,39.743233],[-105.493983,39.743194],[-105.493911,39.743189],[-105.493839,39.743195],[-105.493135,39.743445],[-105.492761,39.743618],[-105.492591,39.743696],[-105.492761,39.743618],[-105.493135,39.743445],[-105.493839,39.743195],[-105.493911,39.743189],[-105.493983,39.743194],[-105.494254,39.743233],[-105.494324,39.743236],[-105.494388,39.743233],[-105.494418,39.743232],[-105.494786,39.743188],[-105.495104,39.743159],[-105.495431,39.74314],[-105.495853,39.743122],[-105.496374,39.743088],[-105.496828,39.743034],[-105.497126,39.743012],[-105.497264,39.742994],[-105.497908,39.742878],[-105.498059,39.742847],[-105.498183,39.742812],[-105.49809021246524,39.74259111151056],[-105.4980441670536,39.74244443165182],[-105.49799223445116,39.74222273228756],[-105.49798565653548,39.742108928367344],[-105.49759755949552,39.74226825380302],[-105.49742653368136,39.742293543521015],[-105.49738048827008,39.74214939200519],[-105.49738112894094,39.74215130574549],[-105.497341,39.741943],[-105.497324,39.741861],[-105.497414,39.741847],[-105.497636,39.741813],[-105.497699,39.741804],[-105.497995,39.741764],[-105.498073,39.741754],[-105.498109,39.741749],[-105.49824,39.741734],[-105.498548,39.741697],[-105.498871,39.741664],[-105.498943,39.741656],[-105.499091,39.741642],[-105.499126,39.741639],[-105.499241,39.741631],[-105.499428,39.741613],[-105.499474,39.741608],[-105.499837,39.74157],[-105.49989,39.741567],[-105.499994,39.741564],[-105.500253,39.741557],[-105.500538,39.741559],[-105.500542,39.741559],[-105.50158,39.741567],[-105.502152,39.741571],[-105.502659,39.741567],[-105.502793,39.741566],[-105.50302,39.741564],[-105.503136,39.741563],[-105.50318798411462,39.74156733357327],[-105.50317775066004,39.74156916145586],[-105.503556,39.74156],[-105.503938,39.741557],[-105.504212,39.741555],[-105.504254,39.741557],[-105.50435,39.741559],[-105.504445,39.741562],[-105.504649,39.741576],[-105.504733,39.741581],[-105.504947,39.7416],[-105.505485,39.741647],[-105.505612,39.741658],[-105.505785,39.741673],[-105.50586,39.74168],[-105.506217,39.741716],[-105.506309,39.741726],[-105.506486,39.741752],[-105.506663,39.741784],[-105.506905,39.741832],[-105.507144,39.741858],[-105.507286,39.741858],[-105.50744,39.74185],[-105.507712,39.741814],[-105.507851,39.741804],[-105.507998,39.741814],[-105.508191,39.741843],[-105.508358,39.741887],[-105.50858,39.741985],[-105.508865,39.742192],[-105.509039,39.742319],[-105.509097,39.742357],[-105.509192,39.742421],[-105.509325,39.742458],[-105.509376,39.742472],[-105.509427,39.742486],[-105.509794,39.742586],[-105.509967,39.742624],[-105.510126,39.742652],[-105.510251,39.742669],[-105.510329,39.742677],[-105.510466,39.742687],[-105.510532,39.74269],[-105.510622,39.742693],[-105.510748,39.742695],[-105.511384,39.742693],[-105.511534,39.742691],[-105.511814,39.742687],[-105.511923,39.742682],[-105.512047,39.74267],[-105.512166,39.742655],[-105.512261,39.74264],[-105.512712,39.742554],[-105.512837,39.742533],[-105.512862,39.742529],[-105.513037,39.742507],[-105.513177,39.742491],[-105.513297,39.742483],[-105.51336,39.742484],[-105.513485,39.74249],[-105.513612,39.742508],[-105.513767,39.742546],[-105.514175,39.742646],[-105.51444,39.742722],[-105.51458,39.742762],[-105.514718,39.742803],[-105.514778,39.742821],[-105.514875,39.742842],[-105.514924,39.742852],[-105.515006,39.742858],[-105.515098,39.742864],[-105.515244,39.742867],[-105.515433,39.742857],[-105.515559,39.742848],[-105.515921,39.742823]]}},{"type":"Feature","properties":{"agency":"Clear Creek County Transit","shape_id":"p_1442422"},"geometry":{"type":"LineString","coordinates":[[-105.519848,39.741581],[-105.519453,39.741529],[-105.519373,39.741937],[-105.519218,39.741916],[-105.518312,39.741825],[-105.518215,39.741815],[-105.518075,39.741819],[-105.517998,39.741825],[-105.517173,39.74188],[-105.516986,39.741892],[-105.516226,39.741943],[-105.516109,39.74195],[-105.51591,39.741963],[-105.514835,39.742037],[-105.514581,39.742052],[-105.514219,39.742074],[-105.514185,39.742076],[-105.514164,39.742077],[-105.514064,39.742083],[-105.513741,39.742107],[-105.513501,39.742117],[-105.512862,39.742152],[-105.51237,39.742185],[-105.512287,39.742187],[-105.512129,39.742177],[-105.512038,39.742171],[-105.511983,39.742168],[-105.51151,39.742138],[-105.511374,39.742129],[-105.510904,39.742099],[-105.509508,39.741987],[-105.509408,39.74198],[-105.509227,39.742001],[-105.509056,39.742046],[-105.508891,39.742189],[-105.508607,39.74199],[-105.508183,39.741837],[-105.507804,39.741796],[-105.507141,39.741859],[-105.506813,39.741819],[-105.506663,39.741784],[-105.506486,39.741752],[-105.506309,39.741726],[-105.506217,39.741716],[-105.50625,39.741531],[-105.50645691327952,39.74155325601305],[-105.50649615234718,39.74133773899487],[-105.506459,39.74133],[-105.506292,39.741311],[-105.50625,39.741531],[-105.506227,39.741659],[-105.506217,39.741716],[-105.50586,39.74168],[-105.505785,39.741673],[-105.505612,39.741658],[-105.505485,39.741647],[-105.504947,39.7416],[-105.504733,39.741581],[-105.504649,39.741576],[-105.504445,39.741562],[-105.50435,39.741559],[-105.504254,39.741557],[-105.504212,39.741555],[-105.503938,39.741557],[-105.503556,39.74156],[-105.503136,39.741563],[-105.50302,39.741564],[-105.502793,39.741566],[-105.502659,39.741567],[-105.502152,39.741571],[-105.50158,39.741567],[-105.500542,39.741559],[-105.500538,39.741559],[-105.500253,39.741557],[-105.499994,39.741564],[-105.49989,39.741567],[-105.499837,39.74157],[-105.499474,39.741608],[-105.499428,39.741613],[-105.499241,39.741631],[-105.499126,39.741639],[-105.499091,39.741642],[-105.498943,39.741656],[-105.498871,39.741664],[-105.498548,39.741697],[-105.49824,39.741734],[-105.498109,39.741749],[-105.498073,39.741754],[-105.497995,39.741764],[-105.49802,39.741888],[-105.49805,39.7421],[-105.498062,39.74217],[-105.498065,39.742186],[-105.498077,39.742347],[-105.498077,39.742355],[-105.498076,39.742504],[-105.498183,39.742812],[-105.498059,39.742847],[-105.497908,39.742878],[-105.497264,39.742994],[-105.497126,39.743012],[-105.496828,39.743034],[-105.496374,39.743088],[-105.495853,39.743122],[-105.495431,39.74314],[-105.495104,39.743159],[-105.494786,39.743188],[-105.494418,39.743232],[-105.494388,39.743233],[-105.494324,39.743236],[-105.494254,39.743233],[-105.493983,39.743194],[-105.493911,39.743189],[-105.493839,39.743195],[-105.493135,39.743445],[-105.492761,39.743618],[-105.492591,39.743696],[-105.492761,39.743618],[-105.493135,39.743445],[-105.493839,39.743195],[-105.493911,39.743189],[-105.493983,39.743194],[-105.494254,39.743233],[-105.494324,39.743236],[-105.494388,39.743233],[-105.494418,39.743232],[-105.494786,39.743188],[-105.495104,39.743159],[-105.495431,39.74314],[-105.495853,39.743122],[-105.496374,39.743088],[-105.496828,39.743034],[-105.497126,39.743012],[-105.497264,39.742994],[-105.497908,39.742878],[-105.498059,39.742847],[-105.498183,39.742812],[-105.49809021246524,39.74259111151056],[-105.4980441670536,39.74244443165182],[-105.49799223445116,39.74222273228756],[-105.49798565653548,39.742108928367344],[-105.49759755949552,39.74226825380302],[-105.49742653368136,39.742293543521015],[-105.49738048827008,39.74214939200519]]}}]}