{"type":"FeatureCollection","features":[{"type":"Feature","properties":{"agency":"Cottonwood Area Transit","shape_id":"p_1439717"},"geometry":{"type":"LineString","coordinates":[[-112.022765,34.737234],[-112.022769,34.737038],[-112.022766,34.736662],[-112.022764,34.736454],[-112.022759,34.735975],[-112.022758,34.735852],[-112.022002,34.73585],[-112.021719,34.73585],[-112.021316,34.735849],[-112.020895,34.73585],[-112.020894,34.736063],[-112.020892,34.736674],[-112.020891,34.736941],[-112.020863,34.737105],[-112.020779,34.73732],[-112.020766,34.737385],[-112.020743,34.737493],[-112.020742,34.737865],[-112.020739,34.739247],[-112.020741,34.739527],[-112.020104,34.739528],[-112.019572,34.739529],[-112.0191,34.73953],[-112.0191,34.739529],[-112.018026,34.739531],[-112.016988,34.739532],[-112.015699,34.739531],[-112.014993,34.73953],[-112.014153,34.739535],[-112.013253,34.739531],[-112.012505,34.739528],[-112.01212,34.739527],[-112.011999,34.739528],[-112.011022,34.73953],[-112.010857,34.73953],[-112.010349,34.739526],[-112.010351,34.739528],[-112.009926,34.739523],[-112.009758,34.739522],[-112.009631,34.739523],[-112.009191,34.739526],[-112.007823,34.739537],[-112.00597,34.739532],[-112.005712,34.739523],[-112.005586,34.739521],[-112.005402,34.739506],[-112.004726,34.739479],[-112.004173,34.739442],[-112.004122,34.739438],[-112.002895,34.73931],[-112.001884,34.739241],[-112.000827,34.739193],[-111.999232,34.739093],[-111.997559,34.739059],[-111.997056,34.739029],[-111.996514,34.738971],[-111.99592,34.738873],[-111.995616,34.738805],[-111.995162,34.738691],[-111.994614,34.738524],[-111.993774,34.738226],[-111.993171,34.738012],[-111.991959,34.737579],[-111.990466,34.737035],[-111.989714,34.736776],[-111.988927,34.736554],[-111.987628,34.736215],[-111.985407,34.735746],[-111.985019,34.735657],[-111.984669,34.735572],[-111.983817,34.735262],[-111.983027,34.734876],[-111.982649,34.734692],[-111.98253,34.734637],[-111.982304,34.734531],[-111.98214,34.734455],[-111.981031,34.733938],[-111.979874,34.733459],[-111.978069,34.732867],[-111.977871,34.7328],[-111.977864,34.73281],[-111.977016,34.733958],[-111.976489,34.73468],[-111.975108,34.736538],[-111.974346,34.737566],[-111.9737,34.738399],[-111.973347,34.738835],[-111.973203,34.739012],[-111.973115,34.73912],[-111.972789,34.739507],[-111.972488,34.739866],[-111.972095,34.740315],[-111.971733,34.740719],[-111.971358,34.741128],[-111.971338,34.741149],[-111.970549,34.741987],[-111.970276,34.742268],[-111.969945,34.742599],[-111.969903,34.74264],[-111.968867,34.743652],[-111.967721,34.74469],[-111.967592,34.744804],[-111.967296,34.745061],[-111.966688,34.745579],[-111.965462,34.746588],[-111.96133,34.749943],[-111.952731,34.756925],[-111.949448,34.759586],[-111.941289,34.766212],[-111.936503,34.770095],[-111.936297,34.770264],[-111.935261,34.771099],[-111.93441,34.771786],[-111.933692,34.772365],[-111.931485,34.774169],[-111.931143,34.774458],[-111.930815,34.774754],[-111.930444,34.775106],[-111.930215,34.77534],[-111.930113,34.775447],[-111.930073,34.77549],[-111.929769,34.775812],[-111.929607,34.775995],[-111.929472,34.776149],[-111.929164,34.77652],[-111.929082,34.776621],[-111.92894,34.776804],[-111.928802,34.776984],[-111.928659,34.77718],[-111.928445,34.777494],[-111.928101,34.778],[-111.927127,34.779489],[-111.926706,34.780095],[-111.925597,34.781837],[-111.924983,34.782772],[-111.924788,34.783046],[-111.92468,34.78319],[-111.924184,34.783828],[-111.924051,34.783985],[-111.923907,34.784148],[-111.923749,34.784322],[-111.923512,34.784578],[-111.923359,34.784736],[-111.923152,34.784937],[-111.922941,34.785136],[-111.922658,34.785389],[-111.922354,34.785644],[-111.922187,34.785779],[-111.922012,34.785916],[-111.92171,34.786141],[-111.921395,34.786364],[-111.92026,34.78712],[-111.919854,34.787388],[-111.919622,34.787555],[-111.919464,34.787683],[-111.919275,34.787844],[-111.919067,34.788032],[-111.918939,34.78816],[-111.918812,34.788294],[-111.918683,34.788431],[-111.918512,34.788635],[-111.918385,34.788796],[-111.918257,34.78897],[-111.918131,34.789152],[-111.918,34.789358],[-111.917891,34.789545],[-111.917791,34.78974],[-111.917687,34.789954],[-111.917569,34.790236],[-111.917485,34.790474],[-111.917434,34.790641],[-111.91739,34.790809],[-111.917224,34.791537],[-111.917146,34.791875],[-111.917066,34.792205],[-111.917002,34.792425],[-111.91693,34.792634],[-111.916815,34.792929],[-111.916697,34.793187],[-111.916461,34.793622],[-111.916277,34.793946],[-111.915843,34.794601],[-111.915382,34.795275],[-111.914785,34.796167],[-111.914067,34.797214],[-111.913729,34.797704],[-111.913061,34.79868],[-111.912385,34.799668],[-111.912195,34.799957],[-111.912058,34.800188],[-111.911934,34.800424],[-111.91182,34.800672],[-111.911718,34.800919],[-111.911609,34.801242],[-111.911552,34.801437],[-111.911499,34.801657],[-111.911453,34.801901],[-111.91141,34.802208],[-111.911393,34.802428],[-111.911333,34.803329],[-111.91132,34.803515],[-111.911284,34.803811],[-111.911252,34.804007],[-111.911213,34.804195],[-111.911159,34.804406],[-111.911102,34.804604],[-111.911038,34.804798],[-111.910956,34.805007],[-111.910829,34.805302],[-111.910695,34.805565],[-111.910546,34.805822],[-111.910457,34.805967],[-111.910357,34.806112],[-111.910058,34.806535],[-111.909554,34.80725],[-111.909149,34.807822],[-111.908943,34.808114],[-111.908733,34.808413],[-111.908165,34.809243],[-111.907596,34.810026],[-111.906709,34.811271],[-111.906114,34.812119],[-111.905874,34.81246],[-111.905619,34.812822],[-111.905586,34.812869],[-111.904944,34.813774],[-111.904775,34.814015],[-111.904724,34.814087],[-111.904078,34.815001],[-111.903473,34.815858],[-111.902866,34.816744],[-111.902389,34.817408],[-111.901586,34.818549],[-111.900954,34.81943],[-111.895916,34.826569],[-111.893162,34.830454],[-111.892931,34.830779],[-111.892047,34.832047],[-111.890102,34.834784],[-111.889921,34.835041],[-111.889686,34.835372],[-111.889493,34.835628],[-111.889393,34.835754],[-111.889244,34.835926],[-111.889137,34.836043],[-111.889001,34.836185],[-111.888826,34.836355],[-111.88863,34.836533],[-111.888457,34.836678],[-111.88827,34.836826],[-111.888059,34.836978],[-111.88785,34.837125],[-111.88762,34.837273],[-111.887416,34.837394],[-111.887268,34.837473],[-111.88707,34.837577],[-111.88683,34.837693],[-111.886599,34.837798],[-111.886355,34.837898],[-111.886119,34.837984],[-111.885882,34.838065],[-111.88561,34.838147],[-111.885248,34.838247],[-111.884972,34.838308],[-111.884681,34.838361],[-111.88445,34.838399],[-111.881379,34.838805],[-111.881317,34.838813],[-111.87987,34.839003],[-111.876681,34.839426],[-111.876286,34.839476],[-111.875899,34.83952],[-111.875621,34.839546],[-111.875361,34.839562],[-111.875091,34.839573],[-111.874818,34.839579],[-111.873889,34.83958],[-111.872807,34.839577],[-111.871365,34.839579],[-111.870838,34.83958],[-111.870575,34.839583],[-111.870309,34.839593],[-111.87004,34.839612],[-111.86979,34.839633],[-111.869496,34.839676],[-111.869237,34.839724],[-111.869005,34.83978],[-111.868738,34.839856],[-111.868512,34.839931],[-111.86832,34.840004],[-111.868046,34.840124],[-111.867817,34.840235],[-111.867585,34.840352],[-111.866186,34.841078],[-111.865296,34.841537],[-111.864225,34.842094],[-111.863424,34.842512],[-111.863155,34.842652],[-111.862074,34.843219],[-111.861298,34.843636],[-111.860635,34.844002],[-111.860003,34.844352],[-111.859217,34.844791],[-111.858973,34.84492],[-111.858734,34.84504],[-111.858592,34.845104],[-111.858413,34.845179],[-111.858228,34.84525],[-111.858038,34.845317],[-111.857895,34.845362],[-111.857755,34.8454],[-111.857623,34.845434],[-111.85747,34.845469],[-111.857317,34.845496],[-111.85714,34.845524],[-111.856982,34.845545],[-111.856825,34.845562],[-111.856706,34.845572],[-111.856592,34.845577],[-111.856439,34.845581],[-111.856292,34.845582],[-111.8561,34.845579],[-111.855977,34.845573],[-111.855822,34.845562],[-111.855698,34.845549],[-111.855491,34.845522],[-111.855267,34.845488],[-111.854995,34.84544],[-111.850998,34.844652],[-111.850668,34.844593],[-111.850431,34.84456],[-111.850286,34.844545],[-111.850142,34.844533],[-111.849983,34.844528],[-111.849809,34.844531],[-111.849622,34.844542],[-111.849459,34.84456],[-111.849304,34.844582],[-111.849145,34.844614],[-111.848927,34.844662],[-111.848771,34.844704],[-111.848638,34.844749],[-111.848498,34.844803],[-111.848358,34.844863],[-111.848214,34.844931],[-111.84808,34.844998],[-111.847461,34.845318],[-111.846758,34.845671],[-111.846555,34.845763],[-111.846381,34.845839],[-111.846232,34.845897],[-111.846065,34.845951],[-111.845884,34.846],[-111.845694,34.84604],[-111.845506,34.84607],[-111.845305,34.84609],[-111.845163,34.8461],[-111.845003,34.846104],[-111.844826,34.846098],[-111.844704,34.846091],[-111.844583,34.846081],[-111.844427,34.846061],[-111.844293,34.846037],[-111.844141,34.846007],[-111.843922,34.845951],[-111.843786,34.845909],[-111.843181,34.845708],[-111.843028,34.845658],[-111.842878,34.845615],[-111.842725,34.845576],[-111.842541,34.845535],[-111.842333,34.845499],[-111.842135,34.84547],[-111.841973,34.845454],[-111.841782,34.845443],[-111.841597,34.845436],[-111.841383,34.845438],[-111.841107,34.845456],[-111.840857,34.845485],[-111.840659,34.845515],[-111.840436,34.845562],[-111.84021,34.845618],[-111.83999,34.845683],[-111.839789,34.845755],[-111.839568,34.845845],[-111.839373,34.845936],[-111.839204,34.846024],[-111.839035,34.846122],[-111.838873,34.846224],[-111.838703,34.846332],[-111.838497,34.846459],[-111.838279,34.846592],[-111.838065,34.846719],[-111.837852,34.846835],[-111.837607,34.846964],[-111.837354,34.847086],[-111.837089,34.847204],[-111.836872,34.847293],[-111.836649,34.84738],[-111.836339,34.847494],[-111.83606,34.847587],[-111.83596,34.847618],[-111.835579,34.847734],[-111.833009,34.848538],[-111.832921,34.848565],[-111.832909,34.848569],[-111.832499,34.848699],[-111.831876,34.8489],[-111.831461,34.849042],[-111.831025,34.849204],[-111.830656,34.84935],[-111.830285,34.849503],[-111.829867,34.849688],[-111.828997,34.850102],[-111.828829,34.850188],[-111.8283,34.850482],[-111.828239,34.850516],[-111.827815,34.850769],[-111.827344,34.85105],[-111.826647,34.85153],[-111.825706,34.852244],[-111.825181,34.852676],[-111.825077,34.852761],[-111.824988,34.852845],[-111.824476,34.853328],[-111.823598,34.854248],[-111.823382,34.854511],[-111.823162,34.854777],[-111.822756,34.855302],[-111.822633,34.855462],[-111.822613,34.855492],[-111.822201,34.8561],[-111.82155,34.857062],[-111.821076,34.857662],[-111.820673,34.858105],[-111.82025,34.858529],[-111.8198,34.858918],[-111.81946,34.859277],[-111.818653,34.859813],[-111.818393,34.859986],[-111.817649,34.86042],[-111.817451,34.860527],[-111.817133,34.860671],[-111.816797,34.860824],[-111.816688,34.860873],[-111.816588,34.860919],[-111.816451,34.860972],[-111.815942,34.861172],[-111.815825,34.861218],[-111.815682,34.861267],[-111.8156,34.861295],[-111.815296,34.8614],[-111.815091,34.86147],[-111.815038,34.861488],[-111.814868,34.861548],[-111.814268,34.861691],[-111.81393,34.861774],[-111.813545,34.861837],[-111.813179,34.861895],[-111.813006,34.861922],[-111.812898,34.861937],[-111.812661,34.861971],[-111.812327,34.862015],[-111.811685,34.8621],[-111.811548,34.862118],[-111.811077,34.862173],[-111.810732,34.862213],[-111.810612,34.862227],[-111.810533,34.862236],[-111.810051,34.862295],[-111.807673,34.862532],[-111.807258,34.86258],[-111.80688,34.862623],[-111.806486,34.862668],[-111.806149,34.862707],[-111.805534,34.862777],[-111.805107,34.862825],[-111.804824,34.862858],[-111.804456,34.862896],[-111.804135,34.862929],[-111.803908,34.862954],[-111.803641,34.862984],[-111.803395,34.863012],[-111.802863,34.863061],[-111.802804,34.863067],[-111.802156,34.863153],[-111.801694,34.863201],[-111.801091,34.863265],[-111.799907,34.863391],[-111.799599,34.863425],[-111.799386,34.863448],[-111.799199,34.863469],[-111.7992,34.863472],[-111.79509,34.863912],[-111.794949,34.863823],[-111.79469,34.86382],[-111.794196,34.863937],[-111.793334,34.863898],[-111.790234,34.863516],[-111.78258,34.862533],[-111.782578,34.862543],[-111.782435,34.862523],[-111.782185,34.862495],[-111.781926,34.862492],[-111.781629,34.862488],[-111.781531,34.862486],[-111.781315,34.862498],[-111.781026,34.862515],[-111.7805,34.862594],[-111.779814,34.862771],[-111.779264,34.862971],[-111.778876,34.863164],[-111.778494,34.863389],[-111.778041,34.86367],[-111.777596,34.863978],[-111.777136,34.864278],[-111.776305,34.864828],[-111.775942,34.865069],[-111.774836,34.865807],[-111.77361,34.866615],[-111.773218,34.866865],[-111.773188,34.866884],[-111.772778,34.867106],[-111.772249,34.867315],[-111.771606,34.86746],[-111.771073,34.86752],[-111.770491,34.867512],[-111.769919,34.867446],[-111.769236,34.867273],[-111.767312,34.86671],[-111.766528,34.866434],[-111.765552,34.86615],[-111.765262,34.866101],[-111.765148,34.866059],[-111.76508,34.865998],[-111.765025,34.865943],[-111.764995,34.865908],[-111.764944,34.865877],[-111.76487,34.865859],[-111.764766,34.865876],[-111.764681,34.865889],[-111.764438,34.865904],[-111.764183,34.865919],[-111.763922,34.865965],[-111.763802,34.865976],[-111.763698,34.865969],[-111.763676,34.865944],[-111.763609,34.865907],[-111.763531,34.865896],[-111.763432,34.865919],[-111.763394,34.865938],[-111.763363,34.865977],[-111.763194,34.866081],[-111.763168,34.866107],[-111.762817,34.866293],[-111.762769,34.866325],[-111.76262,34.866424],[-111.762464,34.866545],[-111.762323,34.866654],[-111.762104,34.866979],[-111.76186,34.867398],[-111.761677,34.867927],[-111.761421,34.868674],[-111.761383,34.868789],[-111.76134,34.868864],[-111.761268,34.868893],[-111.761114,34.869236],[-111.760977,34.869581],[-111.760952,34.869615],[-111.76089,34.869662],[-111.760851,34.869675],[-111.760818,34.869696],[-111.760795,34.869725],[-111.760783,34.869758],[-111.760784,34.869793],[-111.760798,34.869826],[-111.760823,34.869854],[-111.760853,34.869872],[-111.760887,34.869883],[-111.760907,34.869885],[-111.760923,34.869886],[-111.760959,34.869881],[-111.760975,34.869927],[-111.760998,34.86995],[-111.761102,34.87007],[-111.761104,34.870591],[-111.761105,34.870656],[-111.761106,34.870772],[-111.761105747,34.870770762],[-111.761105499,34.871215491],[-111.761131,34.872582],[-111.760154,34.872577],[-111.760156259,34.872680313],[-111.76017175403068,34.872758302436026],[-111.760205719,34.872806558],[-111.7601877652332,34.872800519740295],[-111.76025084468966,34.8728427661476],[-111.76031,34.872868],[-111.760423,34.872898],[-111.76051,34.872911],[-111.760589,34.872911],[-111.760587,34.872576],[-111.761131,34.872582],[-111.76111131137569,34.870843172240086],[-111.761107,34.870834],[-111.761105,34.870656],[-111.761104,34.870591],[-111.761102,34.87007],[-111.761102,34.869947],[-111.761042,34.869826],[-111.761055,34.869796],[-111.761058,34.869764],[-111.761049,34.869732],[-111.761079,34.86958],[-111.761092,34.869534],[-111.761153,34.86938],[-111.761353,34.868963],[-111.761359,34.868941],[-111.76136,34.868918],[-111.76134,34.868864],[-111.761383,34.868789],[-111.761421,34.868674],[-111.76145,34.86859],[-111.761453,34.868585],[-111.761677,34.867928],[-111.76186,34.867398],[-111.762104,34.866979],[-111.762423,34.866699],[-111.76268,34.866505],[-111.762863,34.866391],[-111.763074,34.866277],[-111.763184,34.866222],[-111.763288,34.866193],[-111.763415,34.866189],[-111.763488,34.866217],[-111.76357,34.866219],[-111.76364,34.866197],[-111.763692,34.866159],[-111.763726,34.866105],[-111.763732,34.866035],[-111.76371,34.865981],[-111.763676,34.865944],[-111.763609,34.865907],[-111.763532,34.865896],[-111.763426,34.865647],[-111.763402,34.865524],[-111.763405,34.86537],[-111.763488,34.865146],[-111.763829,34.864236],[-111.763946,34.864038],[-111.763979,34.863911],[-111.763997,34.86378],[-111.763999,34.863626],[-111.763956,34.863475],[-111.763896,34.863355],[-111.763793,34.863207],[-111.763595,34.863012],[-111.763541,34.862972],[-111.763347,34.862868],[-111.763087,34.862769],[-111.762893,34.862711],[-111.762464,34.862584],[-111.762288,34.862508],[-111.762099,34.862392],[-111.761913,34.862249],[-111.761833,34.862162],[-111.76182,34.86209],[-111.761814,34.862034],[-111.761827,34.861981],[-111.761809,34.861918],[-111.761756,34.861864],[-111.761726,34.86173],[-111.761718,34.861608],[-111.761737,34.861493],[-111.762013,34.860726],[-111.762204,34.860281],[-111.762316,34.860073],[-111.762414,34.859937],[-111.7626,34.859717],[-111.762952,34.859398],[-111.763372,34.859063],[-111.763529,34.858914],[-111.763683,34.858712],[-111.763799,34.858505],[-111.763861,34.858362],[-111.76393311285958,34.85798514516483],[-111.76394726905689,34.85785272074489],[-111.76394669984268,34.85787072820527],[-111.763962,34.857644],[-111.764023,34.856941],[-111.764079,34.856372],[-111.764093,34.855965],[-111.764117,34.855882],[-111.764166,34.855799],[-111.764221,34.85576],[-111.764249,34.8557],[-111.764235,34.855634],[-111.764189,34.855587],[-111.76418,34.855472],[-111.764182,34.855386],[-111.764325,34.855013],[-111.764364,34.854813],[-111.764368,34.854599],[-111.76435,34.853611],[-111.76435,34.853325],[-111.764369,34.853179],[-111.764416,34.853043],[-111.764507,34.852848],[-111.764631,34.852677],[-111.765166,34.852121],[-111.765339,34.851943],[-111.765491,34.851744],[-111.765584,34.851591],[-111.765628,34.851438],[-111.765654,34.851265],[-111.765654,34.851136],[-111.765621,34.850968],[-111.765541,34.850686],[-111.76544,34.850286],[-111.765408,34.850126],[-111.765397,34.850029],[-111.765395,34.84993],[-111.765413,34.849724],[-111.76546,34.849526],[-111.765597,34.849233],[-111.765692031,34.849090331],[-111.7656668016951,34.84909988593577],[-111.765759,34.848937],[-111.765898,34.848724],[-111.766001,34.848498],[-111.766117,34.848203],[-111.766214,34.848104],[-111.766271,34.848084],[-111.766311,34.848056],[-111.766346,34.847994],[-111.766345,34.847931],[-111.766325,34.847895],[-111.7663,34.847876],[-111.766309,34.847763],[-111.766595,34.846939],[-111.766707,34.846616],[-111.766928,34.845979],[-111.767071,34.845608],[-111.76721,34.845386],[-111.767425,34.845158],[-111.767514,34.845083],[-111.767587,34.84502],[-111.767835,34.844869],[-111.768092,34.844747],[-111.768678,34.84458],[-111.769233,34.844414],[-111.770349,34.844004],[-111.770805,34.843897],[-111.771107,34.843882],[-111.771523,34.84388],[-111.77155,34.843882],[-111.772156,34.843893],[-111.77295,34.8439],[-111.772952,34.843908],[-111.772971,34.843977],[-111.772996,34.844071],[-111.773063,34.844207],[-111.773187,34.84438],[-111.773268,34.844493],[-111.773068,34.844574],[-111.773028,34.844593],[-111.773068,34.844574],[-111.773268,34.844493],[-111.773063,34.844207],[-111.772996,34.844071],[-111.77295,34.8439],[-111.772944,34.843816],[-111.772862,34.843825],[-111.772161,34.843801],[-111.771549,34.843801],[-111.771515,34.843802],[-111.771089,34.843793],[-111.77074,34.843826],[-111.770323,34.843915],[-111.769939,34.844069],[-111.768953,34.844418],[-111.768461,34.844561],[-111.768107,34.844661],[-111.767836,34.844777],[-111.767522,34.84495],[-111.767317,34.845125],[-111.767121,34.84534],[-111.766978,34.845591],[-111.766874,34.845833],[-111.76658,34.846621],[-111.76642297228092,34.84708877651589],[-111.766428,34.847094],[-111.766339,34.84737],[-111.766284,34.847561],[-111.766251,34.847695],[-111.76624,34.847749],[-111.766188,34.84779],[-111.766104,34.847853],[-111.76607,34.847871],[-111.766051,34.847882],[-111.766028,34.847929],[-111.766019,34.847967],[-111.76602,34.847996],[-111.766032,34.848025],[-111.766043,34.848194],[-111.765936,34.848437],[-111.765775,34.848746],[-111.765536,34.849146],[-111.765418,34.849361],[-111.765338,34.84956],[-111.765299,34.849802],[-111.765299,34.849815],[-111.765291,34.850026],[-111.765338,34.850276],[-111.765345,34.8503],[-111.765547,34.85103],[-111.765561,34.851153],[-111.765565,34.851191],[-111.765559,34.851332],[-111.76553,34.851421],[-111.765473,34.851594],[-111.765405,34.851704],[-111.765238,34.851917],[-111.765121,34.852048],[-111.764648,34.852542],[-111.764458,34.852755],[-111.764402,34.852845],[-111.764351,34.852929],[-111.764287,34.853055],[-111.76426,34.853159],[-111.764241,34.853418],[-111.764245,34.853491],[-111.764262,34.853777],[-111.764304,34.854642],[-111.764284,34.85489],[-111.76419,34.855141],[-111.764125,34.855295],[-111.76411,34.855396],[-111.764074,34.855505],[-111.764055,34.855566],[-111.763988,34.855597],[-111.763972,34.855617],[-111.763957,34.855634],[-111.763951,34.855727],[-111.763976,34.855764],[-111.764015,34.855793],[-111.764024,34.85587],[-111.764026,34.855956],[-111.763982,34.856341],[-111.763908,34.857133],[-111.76387223348976,34.85745057092993],[-111.76387122474918,34.85743887404327],[-111.763797,34.858185],[-111.763778,34.85828],[-111.763764,34.858345],[-111.763662,34.858566],[-111.763572,34.858702],[-111.763477,34.858822],[-111.763315,34.858986],[-111.762928,34.859336],[-111.7626,34.859617],[-111.762412,34.859815],[-111.762288,34.859977],[-111.762147,34.860199],[-111.762067,34.86036],[-111.761939,34.86068],[-111.761636,34.861484],[-111.761621,34.861612],[-111.761623,34.861728],[-111.761588,34.861807],[-111.761542,34.861862],[-111.761493,34.861907],[-111.761469,34.861966],[-111.761474,34.862018],[-111.761509,34.862075],[-111.761575,34.862116],[-111.761653,34.862128],[-111.761777,34.862218],[-111.762037,34.862464],[-111.762267,34.862609],[-111.762548,34.86271],[-111.762843,34.862801],[-111.763227,34.86292],[-111.763269,34.862941],[-111.763382,34.862997],[-111.763456,34.863034],[-111.763566,34.863117],[-111.763641,34.863173],[-111.763655,34.863189],[-111.763717,34.863259],[-111.76384,34.863622],[-111.763877,34.863833],[-111.763847,34.864086],[-111.763829,34.864236],[-111.76381,34.864286],[-111.763747,34.864453],[-111.763665,34.864672],[-111.763584,34.864889],[-111.763487,34.865146],[-111.763405,34.86537],[-111.763402,34.865524],[-111.763423,34.865625],[-111.763427,34.865663],[-111.763428,34.865679],[-111.763428,34.8657],[-111.763427,34.865723],[-111.763422,34.865758],[-111.763416,34.865796],[-111.763403,34.865852],[-111.763395,34.865886],[-111.763394,34.865938],[-111.763363,34.865977],[-111.763194,34.866081],[-111.763168,34.866107],[-111.762817,34.866293],[-111.762769,34.866325],[-111.76262,34.866424],[-111.762464,34.866545],[-111.762323,34.866654],[-111.762104,34.866979],[-111.76186,34.867398],[-111.761677,34.867927],[-111.761421,34.868674],[-111.761383,34.868789],[-111.76134,34.868864],[-111.761268,34.868893],[-111.761114,34.869236],[-111.760977,34.869581],[-111.760952,34.869615],[-111.76089,34.869662],[-111.760851,34.869675],[-111.760818,34.869696],[-111.760795,34.869725],[-111.760783,34.869758],[-111.760784,34.869793],[-111.760798,34.869826],[-111.760823,34.869854],[-111.760853,34.869872],[-111.760887,34.869883],[-111.760907,34.869885],[-111.760923,34.869886],[-111.760959,34.869881],[-111.760975,34.869927],[-111.760998,34.86995],[-111.761102,34.87007],[-111.761104,34.870591],[-111.761105,34.870656],[-111.7611038763134,34.87075658078143],[-111.761105747,34.870770762],[-111.761105499,34.871215491],[-111.761131,34.872582],[-111.760154,34.872577],[-111.760156259,34.872680313],[-111.76017175403068,34.872758302436026],[-111.760205719,34.872806558],[-111.7601877652332,34.872800519740295],[-111.76025084468966,34.8728427661476],[-111.76031,34.872868],[-111.760423,34.872898],[-111.76051,34.872911],[-111.760589,34.872911],[-111.760587,34.872576],[-111.761131,34.872582],[-111.76111131137569,34.870843172240086],[-111.761107,34.870834],[-111.761105,34.870656],[-111.761104,34.870591],[-111.761102,34.87007],[-111.761102,34.869947],[-111.761042,34.869826],[-111.761055,34.869796],[-111.761058,34.869764],[-111.761049,34.869732],[-111.761079,34.86958],[-111.761092,34.869534],[-111.761153,34.86938],[-111.761353,34.868963],[-111.761359,34.868941],[-111.76136,34.868918],[-111.76134,34.868864],[-111.761383,34.868789],[-111.761421,34.868674],[-111.76145,34.86859],[-111.761452,34.868584],[-111.761677,34.867927],[-111.76186,34.867398],[-111.762104,34.866979],[-111.762422,34.866699],[-111.762679,34.866505],[-111.762863,34.866391],[-111.763031,34.866298],[-111.763074,34.866277],[-111.763105,34.866261],[-111.763183,34.866222],[-111.763249,34.866204],[-111.763287,34.866193],[-111.763415,34.866189],[-111.763488,34.866217],[-111.76357,34.866219],[-111.76364,34.866197],[-111.76369,34.866161],[-111.763692,34.866159],[-111.763694,34.866156],[-111.763713,34.86613],[-111.763819,34.866101],[-111.763959,34.866051],[-111.76409,34.866032],[-111.764187,34.866021],[-111.764352,34.866002],[-111.764449,34.865999],[-111.764545,34.86602],[-111.764618,34.866052],[-111.764679,34.866082],[-111.764717,34.866127],[-111.764761,34.866155],[-111.764812,34.866171],[-111.764869,34.866174],[-111.764929,34.866162],[-111.765103,34.866172],[-111.765244,34.866185],[-111.765383,34.866214],[-111.765798,34.866334],[-111.766485,34.866532],[-111.767312,34.86671],[-111.769236,34.867273],[-111.769919,34.867446],[-111.770491,34.867512],[-111.771073,34.86752],[-111.771606,34.86746],[-111.772249,34.867315],[-111.772778,34.867106],[-111.773188,34.866884],[-111.773218,34.866865],[-111.77361,34.866615],[-111.774836,34.865807],[-111.775942,34.865069],[-111.776305,34.864828],[-111.777136,34.864278],[-111.777596,34.863978],[-111.778041,34.86367],[-111.778494,34.863389],[-111.778876,34.863164],[-111.779264,34.862971],[-111.779814,34.862771],[-111.7805,34.862594],[-111.781026,34.862515],[-111.781315,34.862498],[-111.781531,34.862486],[-111.781629,34.862488],[-111.781926,34.862492],[-111.782185,34.862495],[-111.782435,34.862523],[-111.783221,34.862631],[-111.783966,34.862724],[-111.783969,34.862711],[-111.791579,34.863682],[-111.79158,34.863675],[-111.791879,34.863714],[-111.791911,34.863719],[-111.791967,34.863726],[-111.792193,34.863755],[-111.792606,34.863809],[-111.793365,34.863909],[-111.793714,34.863927],[-111.793987,34.863942],[-111.794206,34.863938],[-111.794357,34.863935],[-111.794438,34.863934],[-111.794621,34.863931],[-111.794759,34.863928],[-111.79492456090348,34.86391521208756],[-111.794897,34.863966],[-111.79509,34.863912],[-111.800809,34.863288],[-111.806382,34.862665],[-111.806385,34.86268],[-111.806486,34.862668],[-111.80688,34.862623],[-111.807258,34.86258],[-111.807673,34.862532],[-111.810051,34.862295],[-111.810533,34.862236],[-111.810612,34.862227],[-111.810732,34.862213],[-111.811077,34.862173],[-111.811548,34.862118],[-111.811685,34.8621],[-111.812327,34.862015],[-111.812661,34.861971],[-111.812898,34.861937],[-111.813006,34.861922],[-111.813179,34.861895],[-111.813545,34.861837],[-111.81393,34.861774],[-111.814268,34.861691],[-111.814868,34.861548],[-111.815038,34.861488],[-111.815296,34.8614],[-111.8156,34.861295],[-111.815682,34.861267],[-111.815825,34.861218],[-111.815942,34.861172],[-111.816451,34.860972],[-111.81641847298997,34.86098643251523],[-111.816588,34.860919],[-111.816688,34.860873],[-111.816797,34.860824],[-111.817133,34.860671],[-111.817451,34.860527],[-111.817649,34.86042],[-111.818393,34.859986],[-111.818653,34.859813],[-111.81946,34.859277],[-111.819896,34.859006],[-111.820358,34.858607],[-111.820787,34.858178],[-111.821194,34.857729],[-111.821674,34.857123],[-111.82176,34.856996],[-111.821758,34.856995],[-111.82231,34.856153],[-111.823033,34.855175],[-111.823774,34.854261],[-111.824442,34.853566],[-111.825186,34.852849],[-111.82606,34.852132],[-111.826851,34.851547],[-111.828111,34.850748],[-111.828111,34.850749],[-111.828242,34.850671],[-111.828761,34.850375],[-111.828904,34.850296],[-111.829168,34.850167],[-111.829436,34.850033],[-111.829707,34.849902],[-111.829975,34.849779],[-111.830199,34.849678],[-111.830433,34.849579],[-111.830798,34.849428],[-111.83096,34.849364],[-111.831133,34.849299],[-111.831366,34.849212],[-111.831662,34.849108],[-111.831904,34.849025],[-111.832097,34.84896],[-111.832454,34.84885],[-111.832961,34.848686],[-111.833964,34.84838],[-111.83476,34.848142],[-111.835942,34.847791],[-111.836318,34.847677],[-111.836488,34.847622],[-111.836672,34.847558],[-111.836894,34.847473],[-111.837095,34.847395],[-111.837275,34.847321],[-111.837481,34.84723],[-111.837652,34.847151],[-111.837762,34.847099],[-111.837914,34.847022],[-111.838066,34.846942],[-111.838226,34.846855],[-111.838422,34.846741],[-111.83885,34.846476],[-111.83909,34.846328],[-111.83929,34.846213],[-111.839485,34.846105],[-111.839677,34.846014],[-111.839901,34.845923],[-111.840109,34.845852],[-111.840291,34.845797],[-111.840463,34.845753],[-111.840621,34.845718],[-111.840799,34.845687],[-111.84098,34.84566],[-111.841191,34.845642],[-111.841375,34.845631],[-111.841549,34.845628],[-111.84172,34.845632],[-111.841915,34.84564],[-111.842084,34.845657],[-111.842257,34.845679],[-111.842455,34.845713],[-111.842621,34.845749],[-111.842782,34.84579],[-111.842952,34.845837],[-111.84314,34.845898],[-111.843667,34.846073],[-111.843864,34.846134],[-111.844007,34.846174],[-111.844138,34.846208],[-111.844269,34.846235],[-111.844395,34.846257],[-111.844537,34.846278],[-111.844682,34.846294],[-111.844823,34.846304],[-111.844949,34.846307],[-111.845071,34.846307],[-111.845197,34.846304],[-111.845308,34.846297],[-111.845454,34.846283],[-111.845624,34.84626],[-111.845799,34.846229],[-111.845995,34.846185],[-111.84616,34.84614],[-111.846338,34.84608],[-111.846496,34.84602],[-111.846618,34.845968],[-111.846904,34.845826],[-111.847471,34.845547],[-111.847771,34.845392],[-111.848227,34.845163],[-111.848438,34.845062],[-111.848591,34.844993],[-111.84878,34.844919],[-111.848919,34.844872],[-111.84907,34.84483],[-111.849208,34.844798],[-111.849348,34.844771],[-111.849452,34.844755],[-111.849563,34.844742],[-111.84972,34.844729],[-111.849868,34.844722],[-111.850055,34.844722],[-111.850174,34.844727],[-111.850298,34.844737],[-111.850423,34.844749],[-111.850541,34.844768],[-111.850791,34.84481],[-111.851051,34.84486],[-111.852048,34.845059],[-111.853659,34.845375],[-111.854004,34.845445],[-111.854932,34.845623],[-111.855101,34.845654],[-111.855328,34.845693],[-111.855545,34.845724],[-111.855766,34.84575],[-111.855884,34.845761],[-111.856016,34.84577],[-111.856176,34.845775],[-111.856274,34.845779],[-111.85637,34.845779],[-111.856568,34.845775],[-111.856761,34.845763],[-111.856969,34.845746],[-111.85718,34.84572],[-111.85733,34.845695],[-111.857473,34.84567],[-111.857684,34.845625],[-111.857918,34.845564],[-111.85813,34.845499],[-111.858365,34.845422],[-111.858525,34.845356],[-111.858682,34.845287],[-111.858847,34.84521],[-111.859043,34.845115],[-111.859179,34.845041],[-111.859733,34.844736],[-111.8602,34.844478],[-111.860663,34.844219],[-111.861369,34.843828],[-111.861656,34.843672],[-111.86219,34.843386],[-111.862586,34.843175],[-111.862972,34.842978],[-111.864461,34.842204],[-111.8648,34.842026],[-111.865885,34.841454],[-111.866314,34.841239],[-111.866503,34.841141],[-111.867198,34.840782],[-111.867768,34.840483],[-111.868096,34.840323],[-111.868342,34.840216],[-111.868571,34.840124],[-111.868761,34.840058],[-111.86895,34.839997],[-111.869211,34.839931],[-111.869466,34.839876],[-111.869722,34.839835],[-111.870006,34.839803],[-111.870276,34.839784],[-111.870543,34.839775],[-111.870786,34.839773],[-111.871992,34.839773],[-111.872339,34.839774],[-111.873316,34.839769],[-111.874639,34.839768],[-111.874913,34.839767],[-111.875182,34.839761],[-111.875462,34.839747],[-111.87572,34.839729],[-111.875978,34.839703],[-111.876357,34.839661],[-111.876859,34.839598],[-111.878457,34.839386],[-111.879597,34.839237],[-111.881154,34.839029],[-111.882445,34.838858],[-111.883299,34.838748],[-111.883952,34.838659],[-111.884489,34.838586],[-111.884747,34.838545],[-111.884978,34.838501],[-111.885219,34.838449],[-111.885448,34.838396],[-111.885694,34.838328],[-111.885986,34.838239],[-111.886234,34.838152],[-111.886487,34.838056],[-111.886746,34.837949],[-111.886973,34.837848],[-111.887203,34.837738],[-111.88741,34.83763],[-111.887703,34.837464],[-111.88793,34.837324],[-111.888141,34.837181],[-111.888393,34.837],[-111.888629,34.836813],[-111.888834,34.836642],[-111.889048,34.836443],[-111.889172,34.836324],[-111.889313,34.836178],[-111.889472,34.836002],[-111.889637,34.835807],[-111.889853,34.835523],[-111.890191,34.835045],[-111.891109,34.833746],[-111.891241,34.833558],[-111.892249,34.832138],[-111.897117,34.825246],[-111.903789,34.815801],[-111.904089,34.815372],[-111.904974,34.814117],[-111.905465,34.813426],[-111.906001,34.812668],[-111.908303,34.809403],[-111.90844,34.809211],[-111.908634,34.808938],[-111.908834,34.808652],[-111.909307,34.807986],[-111.909573,34.807606],[-111.909893,34.807154],[-111.910265,34.806626],[-111.910879,34.805752],[-111.911489,34.804895],[-111.911782,34.80447],[-111.912094,34.803979],[-111.912324,34.803585],[-111.912489,34.803285],[-111.912743,34.802793],[-111.912938,34.802371],[-111.913077,34.80205],[-111.913222,34.801689],[-111.913396,34.801208],[-111.913485,34.800947],[-111.913571,34.800667],[-111.913822,34.799837],[-111.914074,34.799116],[-111.914369,34.798501],[-111.914718,34.797898],[-111.914976,34.797508],[-111.915978,34.796233],[-111.916212,34.795911],[-111.916407,34.7956],[-111.916617,34.795235],[-111.916704,34.795066],[-111.916806,34.794848],[-111.916898,34.794643],[-111.916966,34.794477],[-111.917033,34.794304],[-111.917106,34.794087],[-111.917173,34.793861],[-111.91725,34.793559],[-111.917306,34.793324],[-111.917372,34.793018],[-111.917455,34.792631],[-111.917495,34.792472],[-111.917575,34.792187],[-111.917664,34.791923],[-111.917772,34.791645],[-111.917833,34.791498],[-111.917916,34.791327],[-111.918066,34.791051],[-111.918259,34.790706],[-111.918385,34.790503],[-111.918516,34.790305],[-111.918705,34.790037],[-111.918851,34.789849],[-111.919005,34.789661],[-111.91917,34.78947],[-111.919332,34.789294],[-111.919583,34.789045],[-111.920102,34.788539],[-111.920523,34.788129],[-111.921215,34.787457],[-111.922172,34.786525],[-111.922767,34.785953],[-111.923125,34.785604],[-111.923549,34.785189],[-111.923887,34.784858],[-111.924142,34.784601],[-111.924261,34.784477],[-111.924372,34.784357],[-111.924506,34.784215],[-111.925025,34.783594],[-111.925136,34.78345],[-111.925242,34.783304],[-111.925377,34.783121],[-111.925507,34.782928],[-111.926063,34.78207],[-111.927149,34.780237],[-111.928419,34.778149],[-111.928693,34.777732],[-111.928818,34.777551],[-111.928948,34.77737],[-111.929155,34.777089],[-111.92928,34.776921],[-111.929414,34.776755],[-111.929679,34.776432],[-111.929841,34.776243],[-111.929991,34.776071],[-111.930146,34.775904],[-111.930559,34.775468],[-111.930763,34.775265],[-111.930968,34.775068],[-111.931327,34.774739],[-111.931593,34.774507],[-111.931781,34.774349],[-111.93197,34.774192],[-111.932233,34.773978],[-111.933136,34.773245],[-111.936756,34.77031],[-111.941545,34.766424],[-111.942414,34.765719],[-111.949706,34.759797],[-111.952987,34.757132],[-111.961596,34.750144],[-111.965655,34.746848],[-111.966187,34.746415],[-111.966943,34.74579],[-111.967414,34.745386],[-111.968008,34.744878],[-111.96856,34.744369],[-111.969123,34.743852],[-111.969663,34.743337],[-111.970168,34.74284],[-111.970585,34.74242],[-111.970992,34.742003],[-111.971333,34.741643],[-111.971641,34.74131],[-111.972055,34.740861],[-111.972523,34.740331],[-111.972757,34.740064],[-111.972986,34.739794],[-111.973233,34.739497],[-111.973493,34.739185],[-111.973951,34.738621],[-111.974351,34.738113],[-111.974642,34.73773],[-111.974951,34.737315],[-111.97542,34.736653],[-111.976455,34.735111],[-111.976706,34.734737],[-111.977181,34.734073],[-111.978069,34.732867],[-111.979874,34.733459],[-111.981031,34.733938],[-111.98214,34.734455],[-111.982304,34.734531],[-111.98253,34.734637],[-111.982649,34.734692],[-111.983027,34.734876],[-111.983817,34.735262],[-111.984669,34.735572],[-111.985019,34.735657],[-111.985407,34.735746],[-111.987628,34.736215],[-111.988927,34.736554],[-111.989714,34.736776],[-111.990466,34.737035],[-111.991959,34.737579],[-111.993171,34.738012],[-111.993774,34.738226],[-111.994614,34.738524],[-111.995162,34.738691],[-111.995616,34.738805],[-111.99592,34.738873],[-111.996514,34.738971],[-111.997056,34.739029],[-111.997559,34.739059],[-111.999232,34.739093],[-112.000827,34.739193],[-112.001884,34.739241],[-112.002895,34.73931],[-112.004122,34.739438],[-112.004173,34.739442],[-112.004726,34.739479],[-112.005402,34.739506],[-112.005586,34.739521],[-112.005712,34.739523],[-112.00597,34.739532],[-112.007823,34.739537],[-112.009191,34.739526],[-112.009631,34.739523],[-112.009758,34.739522],[-112.009926,34.739523],[-112.010448,34.739529],[-112.010451,34.739527],[-112.010857,34.73953],[-112.011022,34.73953],[-112.011999,34.739528],[-112.01212,34.739527],[-112.012505,34.739528],[-112.013253,34.739531],[-112.014153,34.739535],[-112.014993,34.73953],[-112.015699,34.739531],[-112.016988,34.739532],[-112.018026,34.739531],[-112.01911,34.739529],[-112.01911,34.73953],[-112.02273569,34.739532367],[-112.022737148,34.738323107],[-112.02276539899307,34.73722463761014]]}},{"type":"Feature","properties":{"agency":"Cottonwood Area Transit","shape_id":"p_39"},"geometry":{"type":"LineString","coordinates":[[-112.022764,34.737261],[-112.022769,34.737038],[-112.023034,34.737036],[-112.023432,34.737032],[-112.023627,34.737084],[-112.023661,34.737111],[-112.024069,34.737442],[-112.024126,34.737488],[-112.024172,34.737525],[-112.02454,34.737826],[-112.024701,34.737958],[-112.024837,34.738068],[-112.024899,34.738186],[-112.024887,34.739542],[-112.025775,34.739542],[-112.026021,34.73954],[-112.026514,34.739535],[-112.027047,34.739573],[-112.027188,34.73961],[-112.027214,34.739635],[-112.027272,34.739768],[-112.027331,34.739974],[-112.027412,34.740182],[-112.027591,34.740486],[-112.027793,34.740825],[-112.027959,34.741104],[-112.028079,34.741318],[-112.028162,34.741585],[-112.028156,34.741834],[-112.028077,34.742102],[-112.028021,34.742195],[-112.028018,34.7422],[-112.027948,34.742315],[-112.027399,34.742865],[-112.027256,34.743006],[-112.026395,34.743849],[-112.026197,34.744115],[-112.026139,34.744329],[-112.026116,34.744507],[-112.026159,34.744769],[-112.026194,34.744878],[-112.02619,34.744867],[-112.026231,34.745045],[-112.026208,34.745253],[-112.026117,34.745407],[-112.027094,34.745706],[-112.027193,34.745775],[-112.02727,34.745956],[-112.027294,34.746718],[-112.027271,34.749152],[-112.027301,34.749432],[-112.027434,34.749628],[-112.027724,34.749818],[-112.028095,34.749932],[-112.028113,34.749769],[-112.0281424990636,34.74977143800295],[-112.02824910015852,34.749095750939475],[-112.02825874689503,34.747847683912795],[-112.0279432990261,34.747837050331825],[-112.02794,34.747844],[-112.02775,34.747841],[-112.027336,34.747839],[-112.027283,34.747839],[-112.027274,34.746859],[-112.027273,34.746802],[-112.027362,34.746802],[-112.027471,34.746801],[-112.027571,34.7468],[-112.027773,34.746801],[-112.027792,34.746731],[-112.027811,34.746635],[-112.027845,34.746252],[-112.027854,34.746208],[-112.027845,34.746252],[-112.027811,34.746635],[-112.027792,34.746731],[-112.027773,34.746801],[-112.027571,34.7468],[-112.027471,34.746801],[-112.027362,34.746802],[-112.027273,34.746802],[-112.027273,34.746752],[-112.027272,34.746646],[-112.027265,34.745951],[-112.027265,34.745938],[-112.027242,34.74585],[-112.027199,34.745763],[-112.027147,34.745722],[-112.02706,34.745665],[-112.026798,34.745593],[-112.026528,34.745507],[-112.026448,34.745482],[-112.026367,34.745458],[-112.026271,34.74543],[-112.026232,34.74542],[-112.02616,34.745401],[-112.025696,34.745264],[-112.025692,34.745263],[-112.025197,34.745117],[-112.025195,34.745116],[-112.024855,34.745016],[-112.024831,34.745023],[-112.022907,34.74443],[-112.021412,34.743981],[-112.020872,34.743882],[-112.020351,34.743862],[-112.019315,34.743995],[-112.017945,34.74414],[-112.01452,34.744149],[-112.013554,34.744144],[-112.012768,34.744037],[-112.011949,34.743787],[-112.011201,34.743372],[-112.010931,34.74318],[-112.010511,34.742773],[-112.010107,34.742194],[-112.009945,34.741848],[-112.009795,34.741349],[-112.009753,34.740621],[-112.009767,34.73601],[-112.00981,34.732252],[-112.00981,34.732209],[-112.009793,34.730802],[-112.009666,34.729909],[-112.009334,34.728621],[-112.00744,34.728628],[-112.004659,34.728593],[-112.004714,34.727108],[-112.004461,34.726463],[-112.004335,34.725456],[-112.004135,34.724906],[-112.003775,34.72447],[-112.003796,34.724466],[-112.003709,34.724398],[-112.003694,34.724385],[-112.003555,34.724302],[-112.003377,34.724207],[-112.002767,34.723951],[-112.002745,34.723942],[-112.002504,34.723841],[-112.002468,34.723826],[-112.001968,34.723616],[-112.001865,34.723557],[-112.001776,34.723477],[-112.001729,34.723414],[-112.001693,34.723337],[-112.001656,34.723233],[-112.001616,34.723094],[-112.0016,34.722896],[-112.001601,34.722772],[-112.001619,34.722686],[-112.001651,34.72259],[-112.002031,34.722708],[-112.002115,34.722707],[-112.00217,34.722683],[-112.002115,34.722707],[-112.002031,34.722708],[-112.001651,34.72259],[-112.001654,34.722583],[-112.00171,34.722499],[-112.001772,34.722434],[-112.001989,34.722283],[-112.002086,34.722198],[-112.00215,34.72214],[-112.00222,34.722048],[-112.002346,34.721793],[-112.002444,34.72163],[-112.002583,34.721268],[-112.00266,34.720853],[-112.002631,34.720499],[-112.00253,34.720272],[-112.002301,34.719812],[-112.002202,34.719618],[-112.002138,34.719499],[-112.002024,34.7193],[-112.001967,34.719199],[-112.001902,34.719071],[-112.001826,34.718912],[-112.001557,34.71841],[-112.001545,34.718414],[-112.000466,34.71645],[-111.999211,34.714434],[-111.997524,34.712054],[-111.99809,34.711866],[-111.998946,34.711859],[-112.000001,34.711817],[-112.00096,34.71173],[-112.001303,34.711668],[-112.001904,34.711515],[-112.002271,34.712195],[-112.003017,34.713313],[-112.002941,34.713424],[-112.002256,34.713906],[-112.001464,34.714164],[-111.999468,34.71482],[-112.000466,34.71645],[-112.0014,34.718136],[-112.002815,34.717612],[-112.00311,34.717542],[-112.005111,34.717524],[-112.005112,34.717525],[-112.005287,34.717524],[-112.005424,34.717528],[-112.005763,34.717538],[-112.006342,34.717587],[-112.006639,34.717607],[-112.007303,34.717606],[-112.008734,34.717606],[-112.00905,34.717619],[-112.009451,34.71768],[-112.009705,34.71772],[-112.010328,34.717722],[-112.013841,34.717735],[-112.014126,34.717695],[-112.01438,34.71767],[-112.016071,34.717668],[-112.01606343016378,34.7176677565668],[-112.022929,34.717702],[-112.02293,34.71819],[-112.022924,34.7222],[-112.02294,34.7222],[-112.022906,34.725011],[-112.022883,34.725669],[-112.022904,34.726196],[-112.0229,34.726631],[-112.022895,34.72709],[-112.022892,34.727332],[-112.022878,34.727965],[-112.022868,34.728641],[-112.023453,34.728645],[-112.023453,34.728654],[-112.026303,34.728675],[-112.026306,34.728664],[-112.026863,34.728668],[-112.029144,34.728661],[-112.030327,34.728657],[-112.03033,34.728664],[-112.031305,34.728668],[-112.031219,34.729163],[-112.031084,34.729415],[-112.030818,34.729709],[-112.030498,34.729918],[-112.029256,34.730505],[-112.028974,34.730741],[-112.028563,34.731296],[-112.02785,34.732282],[-112.030365,34.733584],[-112.031436,34.734316],[-112.031836,34.734652],[-112.0353439528669,34.7379880063812],[-112.03484854984733,34.73848938750388],[-112.03485012817156,34.73849101213172],[-112.034347,34.739019],[-112.034103,34.739199],[-112.033874,34.73931],[-112.033536,34.73943],[-112.033193,34.739494],[-112.032903,34.739511],[-112.032719,34.739523],[-112.031842,34.739559],[-112.031594,34.739546],[-112.031086,34.739559],[-112.031045,34.739559],[-112.030887,34.739561],[-112.029853,34.739576],[-112.028375,34.739567],[-112.028188,34.739552],[-112.027623,34.739508],[-112.02746,34.739473],[-112.027435,34.739446],[-112.027401,34.739424],[-112.027361,34.739411],[-112.027318,34.739407],[-112.027276,34.739413],[-112.027236,34.739428],[-112.027203,34.73945],[-112.027047,34.739486],[-112.026514,34.739535],[-112.025939,34.73954],[-112.025939,34.739556],[-112.022726,34.73955],[-112.022748,34.737257825521]]}},{"type":"Feature","properties":{"agency":"Cottonwood Area Transit","shape_id":"p_40"},"geometry":{"type":"LineString","coordinates":[[-112.022765,34.737234],[-112.022769,34.737038],[-112.022766,34.736662],[-112.022764,34.736454],[-112.022759,34.735975],[-112.022758,34.735852],[-112.022002,34.73585],[-112.021719,34.73585],[-112.021316,34.735849],[-112.020895,34.73585],[-112.020894,34.736063],[-112.020892,34.736674],[-112.020891,34.736941],[-112.020863,34.737105],[-112.020779,34.73732],[-112.020766,34.737385],[-112.020743,34.737493],[-112.020742,34.737865],[-112.020739,34.739247],[-112.020741,34.739527],[-112.020104,34.739528],[-112.019572,34.739529],[-112.0191,34.73953],[-112.0191,34.739529],[-112.018026,34.739531],[-112.016988,34.739532],[-112.015699,34.739531],[-112.014993,34.73953],[-112.014153,34.739535],[-112.013253,34.739531],[-112.012505,34.739528],[-112.01212,34.739527],[-112.011999,34.739528],[-112.011022,34.73953],[-112.010857,34.73953],[-112.010349,34.739526],[-112.01034817767922,34.73952606938676],[-112.009926,34.739523],[-112.009758,34.739522],[-112.009759,34.739432],[-112.00976,34.739275],[-112.009759,34.738942],[-112.009766,34.738591],[-112.009768,34.738291],[-112.009773,34.737667],[-112.009773,34.737407],[-112.009774,34.737078],[-112.009775,34.736728],[-112.009775,34.736227],[-112.009776,34.736101],[-112.009776,34.73601],[-112.009767,34.73601],[-112.00981,34.732252],[-112.00981,34.732209],[-112.009793,34.730802],[-112.009666,34.729909],[-112.009334,34.728621],[-112.009057,34.727925],[-112.008757,34.727361],[-112.007952,34.726125],[-112.006978,34.724991],[-112.006983,34.724985],[-112.00684,34.724833],[-112.006787,34.724783],[-112.006687,34.724688],[-112.006369,34.724386],[-112.006289,34.72431],[-112.00597,34.724007],[-112.005909,34.723949],[-112.00582,34.723865],[-112.005457,34.72352],[-112.005297,34.723368],[-112.00527,34.723342],[-112.005102,34.723191],[-112.004643,34.72279],[-112.004612,34.722767],[-112.004473,34.722648],[-112.004184,34.722402],[-112.004148,34.722379],[-112.003878,34.722214],[-112.003642,34.722091],[-112.003588,34.72206],[-112.003724,34.721624],[-112.003588,34.72206],[-112.00375661479347,34.72150873234713],[-112.00368167260652,34.72140196370758],[-112.0035867458366,34.72137321828066],[-112.00333194240125,34.721340366352635],[-112.003217031048,34.72121306500763],[-112.00313209656956,34.721024165875164],[-112.00309860169844,34.72078839717997],[-112.00309067458244,34.72043655439418],[-112.002631,34.720499],[-112.00253,34.720272],[-112.002301,34.719812],[-112.002202,34.719618],[-112.002138,34.719499],[-112.002024,34.7193],[-112.001967,34.719199],[-112.001902,34.719071],[-112.001826,34.718912],[-112.001557,34.71841],[-112.001545,34.718414],[-112.000466,34.71645],[-111.999211,34.714434],[-111.9992,34.71444],[-111.99748,34.71207],[-111.99596,34.71032],[-111.99276,34.70702],[-111.9914,34.70538],[-111.99056,34.70427],[-111.9872,34.69916],[-111.98794,34.6989],[-111.98828,34.69889],[-111.98972,34.69885],[-111.99038,34.69875],[-111.99133,34.6985],[-111.99149,34.69846],[-111.99145,34.69532],[-111.99149,34.69468],[-111.991482,34.694597],[-111.991439,34.694518],[-111.991354,34.69449],[-111.991253,34.694503],[-111.991084,34.694557],[-111.98984,34.695],[-111.989305,34.695109],[-111.988886,34.695147],[-111.98858,34.69512],[-111.98842,34.69507],[-111.98819,34.69491],[-111.98793,34.6946],[-111.98763,34.69438],[-111.98735,34.69426],[-111.98746,34.69402],[-111.98754,34.69396],[-111.9877,34.69391],[-111.98881,34.69381],[-111.98905,34.6937],[-111.98921,34.69347],[-111.99019,34.69332],[-111.99024,34.69331],[-111.99095,34.69292],[-111.99127,34.69268],[-111.99141,34.69249],[-111.99145,34.69229],[-111.99138,34.69014],[-111.99135,34.69005],[-111.98979,34.68999],[-111.98827,34.69],[-111.98752,34.69018],[-111.98474,34.69135],[-111.98309,34.69213],[-111.98267,34.69227],[-111.98132,34.69289],[-111.98117,34.693],[-111.98068,34.6936],[-111.9804,34.69382],[-111.97812,34.69425],[-111.97775,34.69448],[-111.97715,34.69538],[-111.97693,34.69594],[-111.97697,34.69623],[-111.97709,34.69649],[-111.97732,34.69674],[-111.97799,34.69719],[-111.97871,34.69758],[-111.979,34.69767],[-111.97913,34.69781],[-111.97938,34.6979],[-111.97964,34.69791],[-111.97993,34.69783],[-111.98025,34.69766],[-111.98048,34.69759],[-111.98067,34.69764],[-111.98087,34.69781],[-111.98016,34.69867],[-111.9797,34.69903],[-111.97943,34.69924],[-111.97868,34.69969],[-111.97714,34.70041],[-111.97684,34.70066],[-111.97668,34.70088],[-111.97664,34.70111],[-111.97675,34.70183],[-111.97676,34.70232],[-111.97679,34.7026],[-111.97747,34.70343],[-111.97805,34.70393],[-111.97841,34.70414],[-111.97876,34.70426],[-111.97914,34.70421],[-111.97964,34.70407],[-111.98123,34.70344],[-111.98145,34.70332],[-111.98161,34.70317],[-111.98181,34.70286],[-111.98219,34.70195],[-111.9824,34.70161],[-111.98277,34.70125],[-111.9832,34.70099],[-111.98363,34.70085],[-111.98395,34.70079],[-111.98482,34.70079],[-111.98558,34.70085],[-111.98603,34.70074],[-111.98611,34.7002],[-111.98621,34.69988],[-111.98648,34.69956],[-111.9872,34.69916],[-111.99056,34.70427],[-111.99018,34.70466],[-111.98972,34.70531],[-111.98944,34.70555],[-111.98906,34.7058],[-111.988401,34.706056],[-111.987984,34.706096],[-111.987762,34.706094],[-111.986864,34.706024],[-111.986899,34.706621],[-111.986941,34.706756],[-111.987028,34.706903],[-111.987131,34.707017],[-111.987368,34.707135],[-111.987715,34.707226],[-111.987968,34.707232],[-111.988122,34.707194],[-111.988254,34.707119],[-111.988363,34.70702],[-111.988431,34.706859],[-111.98844,34.70644],[-111.988579,34.706433],[-111.98859647583804,34.706323277547554],[-111.988437,34.706269],[-111.988419,34.70604],[-111.988545,34.706012],[-111.988822,34.705934],[-111.989141,34.705795],[-111.989341,34.70566],[-111.989567,34.705499],[-111.98976,34.705332],[-111.990252,34.704616],[-111.990261,34.704607],[-111.990378,34.704492],[-111.99065,34.704357],[-111.991092,34.704941],[-111.991887,34.705952],[-111.992976,34.707228],[-111.993598,34.707863],[-111.994981,34.709272],[-111.995263,34.709577],[-111.996511,34.710922],[-111.997509,34.712108],[-111.997831,34.71192],[-111.997983,34.711876],[-111.998178,34.711856],[-111.998673,34.711851],[-111.998713,34.711851],[-111.999762,34.711854],[-112.000504,34.71178],[-112.000928,34.711745],[-112.001372,34.711651],[-112.001907,34.711489],[-112.002149,34.711983],[-112.002457,34.712442],[-112.003059,34.713339],[-112.002881,34.713466],[-112.002174,34.713972],[-112.002,34.714037],[-112.00146473568508,34.714168624896914],[-112.00147,34.71417],[-111.99945,34.71482],[-112.00046,34.71645],[-112.00171,34.71879],[-112.00242,34.7201],[-112.00257,34.72048],[-112.00264,34.7208],[-112.00239,34.72164],[-112.00203,34.72223],[-112.00182,34.72237],[-112.00162,34.72258],[-112.00156,34.72298],[-112.0016,34.72321],[-112.00179,34.72352],[-112.00199,34.72364],[-112.00319,34.72413],[-112.00371,34.7244],[-112.00395,34.72465],[-112.00413,34.72491],[-112.00433,34.72546],[-112.00446,34.72646],[-112.00471,34.72711],[-112.00466,34.72859],[-112.00770735741,34.728625200293],[-112.00772076845,34.728625200293],[-112.01288,34.72864],[-112.01288,34.728639],[-112.019538,34.728648],[-112.020299,34.728724],[-112.021079,34.728927],[-112.02282,34.729739],[-112.022838,34.72865],[-112.023453,34.728654],[-112.026303,34.728675],[-112.026306,34.728664],[-112.026863,34.728668],[-112.029144,34.728661],[-112.030327,34.728657],[-112.03033,34.728664],[-112.031305,34.728668],[-112.031219,34.729163],[-112.031084,34.729415],[-112.030818,34.729709],[-112.030498,34.729918],[-112.029256,34.730505],[-112.028974,34.730741],[-112.028563,34.731296],[-112.028581,34.731304],[-112.028298,34.7317],[-112.027885,34.732278],[-112.027547,34.732709],[-112.027453,34.732988],[-112.02742,34.733403],[-112.027411,34.733512],[-112.027405,34.734322],[-112.027883,34.734316],[-112.02829,34.734311],[-112.029031,34.734302],[-112.029139,34.734301],[-112.029501,34.734296],[-112.029776,34.734293],[-112.029995,34.73429],[-112.030011,34.734885],[-112.030024,34.735405],[-112.030024,34.735383],[-112.030031,34.735679],[-112.030064,34.736988],[-112.030066,34.73703],[-112.030034,34.737098],[-112.02996,34.737161],[-112.029858,34.737192],[-112.029078,34.737185],[-112.028787,34.737182],[-112.028523,34.737282],[-112.028316,34.737361],[-112.027366,34.737348],[-112.027365,34.73742],[-112.027367466906,34.73742675615125],[-112.027274,34.739565],[-112.025939,34.739556],[-112.022726,34.73955],[-112.022748,34.737257825521]]}},{"type":"Feature","properties":{"agency":"Cottonwood Area Transit","shape_id":"p_41"},"geometry":{"type":"LineString","coordinates":[[-112.02274729298,34.737260143044],[-112.02274755093,34.73703],[-112.02275,34.73304],[-112.022752,34.733038],[-112.022838,34.72865],[-112.023453,34.728654],[-112.026303,34.728675],[-112.026306,34.728664],[-112.026863,34.728668],[-112.029144,34.728661],[-112.030327,34.728657],[-112.03033,34.728664],[-112.031305,34.728668],[-112.031219,34.729163],[-112.031084,34.729415],[-112.030818,34.729709],[-112.030498,34.729918],[-112.029256,34.730505],[-112.028974,34.730741],[-112.028563,34.731296],[-112.02856269157807,34.731325982074594],[-112.02792267602784,34.7322138463159],[-112.02754021869087,34.73270871992517],[-112.02745339072028,34.73300378294215],[-112.02741357046624,34.73353965382988],[-112.02740643394756,34.73410358860825],[-112.02740515265296,34.73411323389601],[-112.027361942,34.737447132],[-112.02736194241288,34.73744056777551],[-112.027353,34.738342],[-112.027338,34.73946],[-112.027337,34.739546],[-112.027427,34.739564],[-112.029929,34.739571],[-112.030872,34.739561],[-112.031045,34.739559],[-112.031086,34.739559],[-112.031594,34.739546],[-112.031844,34.739542],[-112.032729,34.739542],[-112.032916,34.739529],[-112.033188,34.739514],[-112.03355,34.739436],[-112.033866,34.739304],[-112.0341075901904,34.73919682259688],[-112.03435312250846,34.739022798150046],[-112.03482164039173,34.738512059900785],[-112.0348253494113,34.73850686655939],[-112.0353425325055,34.73798601259017],[-112.036402,34.739031],[-112.03648,34.739172],[-112.036695,34.739368],[-112.03703,34.739617],[-112.037127,34.739756],[-112.037143,34.739824],[-112.037167,34.739896],[-112.037144,34.739943],[-112.037144,34.740025],[-112.037165,34.740079],[-112.037223,34.740146],[-112.037254,34.740161],[-112.037322,34.740195],[-112.037429,34.740206],[-112.037551,34.740173],[-112.037629,34.740113],[-112.03767,34.740038],[-112.037729,34.739959],[-112.037791,34.739893],[-112.037892,34.739818],[-112.037954,34.739763],[-112.038303,34.739687],[-112.038713,34.739656],[-112.044101,34.739702],[-112.0441,34.73971],[-112.04828,34.7397],[-112.04996,34.73968],[-112.05369,34.73964],[-112.055473,34.739633],[-112.056365,34.739634],[-112.056503,34.739433],[-112.056509,34.739407],[-112.056503,34.739385],[-112.056489,34.739371],[-112.056318,34.739308],[-112.056117,34.739259],[-112.055866,34.739209],[-112.055581,34.739185],[-112.055227,34.73919],[-112.054967,34.73923],[-112.054764,34.739289],[-112.054549,34.739369],[-112.054374,34.73948],[-112.054335,34.739539],[-112.054333,34.739636],[-112.05369,34.73964],[-112.05121,34.73969],[-112.04374,34.7397],[-112.04149,34.73964],[-112.03851,34.73967],[-112.038513713364,34.739668114371085],[-112.03830238133293,34.739680500616714],[-112.03818828646266,34.739700510150705],[-112.03795369489698,34.73976317572732],[-112.03784939101796,34.73977565493638],[-112.03775879834257,34.7397994129648],[-112.03754712408912,34.73981420999673],[-112.03731458122012,34.73972194269775],[-112.0371993463025,34.73964589648423],[-112.03712918930536,34.73959186774133],[-112.03657840993402,34.73910864729656],[-112.03640187285238,34.73901681612909],[-112.03648886017844,34.739148318275724],[-112.03658904730884,34.73926052857707],[-112.03702934435506,34.73962966797996],[-112.03708135155958,34.73968786761624],[-112.03712462575383,34.739771773369334],[-112.0371397681985,34.7398352766248],[-112.03714433615922,34.739927725840865],[-112.03713178225806,34.73999056606808],[-112.03713868735451,34.740045465260906],[-112.03715706897496,34.74009295972874],[-112.03719056796886,34.740133570048584],[-112.0372462838892,34.740174533086744],[-112.03747853583508,34.74026622500119],[-112.0375812111513,34.74032943021711],[-112.03788782447371,34.74058080063817],[-112.03814807964814,34.74081427033339],[-112.04166173418288,34.74422710410719],[-112.04206147524846,34.74459442948769],[-112.04236254371833,34.74485671421716],[-112.04403677034132,34.74624850147591],[-112.04473424141938,34.74675535761211],[-112.04485636522158,34.74713832838916],[-112.04530345507575,34.74738473434781],[-112.04601590719248,34.74790249163638],[-112.05179740640968,34.752738452005644],[-112.05116471683807,34.75326133653787],[-112.05070361667563,34.75335537393513],[-112.04690727547111,34.753403756927206],[-112.04628340923912,34.7533125691343],[-112.04528608236654,34.75357248845867],[-112.046374,34.752822],[-112.046283,34.753312],[-112.046907,34.753404],[-112.047207,34.753398],[-112.047687,34.75335],[-112.048079,34.753347],[-112.048767,34.753345],[-112.050703,34.753355],[-112.050968,34.753326],[-112.051165,34.753261],[-112.051372,34.753131],[-112.051796,34.75274],[-112.051798,34.752738],[-112.052666,34.753466],[-112.05292,34.753676],[-112.053103,34.753828],[-112.053202,34.753906],[-112.053299,34.753981],[-112.053393,34.754053],[-112.053494,34.754124],[-112.053595,34.754193],[-112.053723,34.754277],[-112.053793,34.754323],[-112.05383,34.754351],[-112.053863,34.754378],[-112.05389,34.754407],[-112.05391,34.754432],[-112.053924,34.754458],[-112.053936,34.754484],[-112.053947,34.754516],[-112.053955,34.754544],[-112.053962,34.75457],[-112.053958,34.754619],[-112.053947,34.754687],[-112.053963,34.754755],[-112.054004,34.754816],[-112.054067,34.754862],[-112.054144,34.75489],[-112.054228,34.754895],[-112.054303,34.754882],[-112.054369,34.754851],[-112.054422,34.754805],[-112.054456,34.754749],[-112.054464,34.754706],[-112.054578,34.754616],[-112.054611,34.754591],[-112.054649,34.754563],[-112.054687,34.754539],[-112.054729,34.754514],[-112.054773,34.75449],[-112.054813,34.754462],[-112.054841,34.754467],[-112.054808,34.754421],[-112.054633,34.754478],[-112.054359,34.754505],[-112.054181,34.754474],[-112.054022,34.754549],[-112.053945,34.754705],[-112.054021,34.754842],[-112.054254,34.754896],[-112.05506,34.755474],[-112.057243,34.757302],[-112.058428,34.758218],[-112.05857,34.758432],[-112.058543,34.758605],[-112.058489,34.758716],[-112.058417,34.758835],[-112.058329,34.75892],[-112.058266,34.758966],[-112.058333,34.758993],[-112.058414,34.758943],[-112.058445,34.758894],[-112.058711,34.758736],[-112.058852,34.758746],[-112.059479,34.759175],[-112.061513,34.760872],[-112.06214,34.76133],[-112.06294,34.761767],[-112.063806,34.762097],[-112.063948,34.762206],[-112.064046,34.762353],[-112.064271,34.762362],[-112.065249,34.76267],[-112.069766,34.764578],[-112.070783,34.765238],[-112.07153,34.765814],[-112.071511,34.765865],[-112.069237,34.766929],[-112.06923,34.76691],[-112.0677,34.76767],[-112.06652,34.76837],[-112.06266,34.77054],[-112.062644,34.770531],[-112.062525,34.770592],[-112.062378,34.770657],[-112.061217,34.770807],[-112.059956,34.770955],[-112.059359,34.771036],[-112.058699,34.771126],[-112.058605,34.770644],[-112.058566,34.770439],[-112.058525,34.770219],[-112.057274,34.770379],[-112.057338,34.770734],[-112.057353,34.770818],[-112.05744,34.771285],[-112.054658,34.771652],[-112.054241,34.771655],[-112.054018,34.771637],[-112.053851,34.771611],[-112.053649,34.771563],[-112.053591,34.771549],[-112.053354,34.771464],[-112.052749,34.771196],[-112.052597,34.771131],[-112.0526,34.77113],[-112.05053,34.77024],[-112.04944,34.76962],[-112.04819,34.76864],[-112.04591,34.76635],[-112.04455,34.76504],[-112.04425,34.7648],[-112.04332,34.76424],[-112.04113,34.76317],[-112.04038,34.76267],[-112.04,34.76234],[-112.03948,34.76169],[-112.03911,34.76104],[-112.03825,34.75926],[-112.03591,34.75433],[-112.03539,34.7534],[-112.0346,34.75245],[-112.03418,34.75205],[-112.03331,34.75141],[-112.03256,34.75097],[-112.03137,34.75048],[-112.03005,34.75011],[-112.02926,34.75],[-112.02809,34.74993],[-112.0278,34.74987],[-112.02757,34.74975],[-112.02736,34.74957],[-112.02727,34.74942],[-112.02725,34.74906],[-112.02724,34.74628],[-112.027268,34.746281],[-112.027265,34.745951],[-112.027265,34.745938],[-112.027242,34.74585],[-112.027199,34.745763],[-112.027147,34.745722],[-112.02706,34.745665],[-112.026798,34.745593],[-112.026528,34.745507],[-112.026448,34.745482],[-112.026367,34.745458],[-112.026271,34.74543],[-112.026232,34.74542],[-112.02616,34.745401],[-112.026226,34.745071],[-112.026216,34.744947],[-112.026203,34.744906],[-112.026198,34.744902],[-112.026125,34.744499],[-112.026153,34.744263],[-112.026245,34.744036],[-112.02784,34.742406],[-112.028038,34.742148],[-112.028106,34.741891],[-112.02809,34.741491],[-112.027935,34.74111],[-112.027303,34.740012],[-112.027274,34.739565],[-112.025939,34.739556],[-112.022726,34.73955],[-112.022748,34.737257825521]]}},{"type":"Feature","properties":{"agency":"Cottonwood Area Transit","shape_id":"p_42"},"geometry":{"type":"LineString","coordinates":[[-112.02275938623,34.73725814303],[-112.022736,34.735842],[-112.017926,34.735854],[-112.01434,34.735852],[-112.01433936312084,34.735852458303256],[-112.014231,34.735838],[-112.014158,34.735838],[-112.014159,34.735895],[-112.014155,34.737677],[-112.014134,34.739255],[-112.014132,34.739427],[-112.014109,34.739529],[-112.013253,34.739531],[-112.012714,34.739529],[-112.012505,34.739528],[-112.01212,34.739527],[-112.011946,34.739528],[-112.011578,34.739529],[-112.011022,34.73953],[-112.010565,34.73953],[-112.010448,34.739529],[-112.01034305267213,34.739527583920065],[-112.01034817767922,34.73952606938676],[-112.009926,34.739523],[-112.009758,34.739522],[-112.009759,34.739432],[-112.00976,34.739275],[-112.009759,34.738942],[-112.009766,34.738591],[-112.009768,34.738291],[-112.009773,34.737667],[-112.009773,34.737407],[-112.009774,34.737078],[-112.009775,34.736728],[-112.009775,34.736227],[-112.009776,34.736101],[-112.009776,34.73601],[-112.009767,34.73601],[-112.00981,34.732252],[-112.00981,34.732209],[-112.009793,34.730802],[-112.009666,34.729909],[-112.009334,34.728621],[-112.009057,34.727925],[-112.008757,34.727361],[-112.007952,34.726125],[-112.006978,34.724991],[-112.006983,34.724985],[-112.00684,34.724833],[-112.006787,34.724783],[-112.006687,34.724688],[-112.006369,34.724386],[-112.006289,34.72431],[-112.00597,34.724007],[-112.005909,34.723949],[-112.00582,34.723865],[-112.005457,34.72352],[-112.005297,34.723368],[-112.00527,34.723342],[-112.005102,34.723191],[-112.004643,34.72279],[-112.004612,34.722767],[-112.004473,34.722648],[-112.004184,34.722402],[-112.004148,34.722379],[-112.003878,34.722214],[-112.003642,34.722091],[-112.003588,34.72206],[-112.003724,34.721624],[-112.003588,34.72206],[-112.00375661479347,34.72150873234713],[-112.00368167260652,34.72140196370758],[-112.0035867458366,34.72137321828066],[-112.00333194240125,34.721340366352635],[-112.003217031048,34.72121306500763],[-112.00313209656956,34.721024165875164],[-112.00309860169844,34.72078839717997],[-112.00309067458244,34.72043655439418],[-112.002631,34.720499],[-112.00253,34.720272],[-112.002301,34.719812],[-112.002202,34.719618],[-112.002138,34.719499],[-112.002024,34.7193],[-112.001967,34.719199],[-112.001902,34.719071],[-112.001826,34.718912],[-112.001557,34.71841],[-112.001545,34.718414],[-112.000466,34.71645],[-111.999211,34.714434],[-111.999210394514,34.7144360522334],[-111.998544,34.713462],[-111.997509,34.712108],[-111.996511,34.710922],[-111.995263,34.709577],[-111.994981,34.709272],[-111.993598,34.707863],[-111.992976,34.707228],[-111.991887,34.705952],[-111.991092,34.704941],[-111.99065,34.704357],[-111.990378,34.704492],[-111.990252,34.704616],[-111.98976,34.705332],[-111.989567,34.705499],[-111.989341,34.70566],[-111.989141,34.705795],[-111.988822,34.705934],[-111.988545,34.706012],[-111.988419,34.70604],[-111.988437,34.706269],[-111.98845672164391,34.706502262788305],[-111.98852880538486,34.70650589087013],[-111.988579,34.706433],[-111.98859647583804,34.706323277547554],[-111.988437,34.706269],[-111.988419,34.70604],[-111.988545,34.706012],[-111.988822,34.705934],[-111.989141,34.705795],[-111.989341,34.70566],[-111.989567,34.705499],[-111.98976,34.705332],[-111.990252,34.704616],[-111.990261,34.704607],[-111.990378,34.704492],[-111.99065,34.704357],[-111.991092,34.704941],[-111.991887,34.705952],[-111.992976,34.707228],[-111.993598,34.707863],[-111.994981,34.709272],[-111.995263,34.709577],[-111.996511,34.710922],[-111.997509,34.712108],[-111.997831,34.71192],[-111.997983,34.711876],[-111.998178,34.711856],[-111.998673,34.711851],[-111.998713,34.711851],[-111.999762,34.711854],[-112.000504,34.71178],[-112.000928,34.711745],[-112.001372,34.711651],[-112.001907,34.711489],[-112.002149,34.711983],[-112.002457,34.712442],[-112.003059,34.713339],[-112.002881,34.713466],[-112.002174,34.713972],[-112.002,34.714037],[-112.00146473568508,34.714168624896914],[-112.001464,34.714164],[-111.999468,34.71482],[-112.000466,34.71645],[-112.0014,34.718136],[-112.002815,34.717612],[-112.00311,34.717542],[-112.005111,34.717524],[-112.005815,34.717535],[-112.006322,34.717593],[-112.006239,34.718084],[-112.006443,34.719573],[-112.006565,34.720324],[-112.006551,34.720687],[-112.006474,34.720911],[-112.006823,34.72092],[-112.006806,34.72115],[-112.007747,34.721132],[-112.007751,34.721135],[-112.008045,34.721096],[-112.008072,34.721139],[-112.008071,34.721381],[-112.009686,34.72131],[-112.012173,34.721305],[-112.012311,34.721277],[-112.012862,34.720932],[-112.013074,34.720867],[-112.013372,34.72092],[-112.01409,34.721292],[-112.014062,34.72412],[-112.014099,34.72412],[-112.014098,34.725127],[-112.014095,34.725345],[-112.014097,34.725502],[-112.014098,34.72554],[-112.014099,34.725789],[-112.014119,34.728166],[-112.014118,34.728206],[-112.014112,34.728622],[-112.014512,34.728621],[-112.015273,34.72862],[-112.015611,34.728619],[-112.016302,34.728617],[-112.017392,34.728624],[-112.018567,34.72863],[-112.019116,34.728633],[-112.019205,34.728634],[-112.019577,34.728636],[-112.020006,34.728667],[-112.020292,34.728711],[-112.020593,34.728783],[-112.021101,34.728904],[-112.021607,34.72911],[-112.022729,34.72968],[-112.022851,34.729742],[-112.022853,34.729585],[-112.022859,34.72917],[-112.022868,34.728641],[-112.023453,34.728645],[-112.023453,34.728654],[-112.026303,34.728675],[-112.026306,34.728664],[-112.026863,34.728668],[-112.029144,34.728661],[-112.030327,34.728657],[-112.03033,34.728664],[-112.031305,34.728668],[-112.031219,34.729163],[-112.031084,34.729415],[-112.030818,34.729709],[-112.030498,34.729918],[-112.029256,34.730505],[-112.028974,34.730741],[-112.028563,34.731296],[-112.02856269157807,34.731325982074594],[-112.02792267602784,34.7322138463159],[-112.02754021869087,34.73270871992517],[-112.02745339072028,34.73300378294215],[-112.02741357046624,34.73353965382988],[-112.02740643394756,34.73410358860825],[-112.027407,34.734108],[-112.027405,34.734322],[-112.027883,34.734316],[-112.02829,34.734311],[-112.029031,34.734302],[-112.029139,34.734301],[-112.029501,34.734296],[-112.029776,34.734293],[-112.029995,34.73429],[-112.030011,34.734885],[-112.030024,34.735405],[-112.030024,34.735383],[-112.030031,34.735679],[-112.030064,34.736988],[-112.030066,34.73703],[-112.030034,34.737098],[-112.02996,34.737161],[-112.029858,34.737192],[-112.029078,34.737185],[-112.028787,34.737182],[-112.028523,34.737282],[-112.028316,34.737361],[-112.027366,34.737348],[-112.027365,34.73742],[-112.027367466906,34.73742675615125],[-112.027274,34.739565],[-112.025939,34.739556],[-112.022726,34.73955],[-112.022748,34.737257825521]]}}]}