{"type":"FeatureCollection","features":[{"type":"Feature","properties":{"agency":"Cripple Creek Transportation","shape_id":"p_1347278"},"geometry":{"type":"LineString","coordinates":[[-105.140097,38.710407],[-105.140158,38.710125],[-105.140734,38.710201],[-105.141301,38.710276],[-105.142971,38.710493],[-105.14306,38.710504],[-105.143598,38.710574],[-105.144175,38.710643],[-105.14435,38.710658],[-105.144491,38.710652],[-105.144639,38.710611],[-105.144773,38.710549],[-105.144912,38.710479],[-105.145234,38.710272],[-105.145561,38.710068],[-105.145852,38.709981],[-105.146054,38.709962],[-105.146259,38.709984],[-105.146703,38.710086],[-105.147618,38.710275],[-105.147873,38.710314],[-105.148052,38.710325],[-105.148241,38.710317],[-105.148456,38.710287],[-105.148964,38.710201],[-105.149457,38.710108],[-105.149646,38.71008],[-105.150149,38.710066],[-105.150589,38.7101],[-105.150872,38.710162],[-105.151187,38.710274],[-105.151496,38.710421],[-105.15174,38.710569],[-105.152004,38.710779],[-105.152851,38.71154],[-105.153274,38.711908],[-105.153829,38.712155],[-105.154457,38.712249],[-105.155085,38.71215],[-105.155363,38.712049],[-105.155699,38.711857],[-105.156224,38.711337],[-105.15669,38.710843],[-105.156954,38.71064],[-105.157331,38.710481],[-105.157834,38.710366],[-105.158105,38.710376],[-105.158302,38.710384],[-105.159061,38.710588],[-105.159684,38.710863],[-105.160019,38.711003],[-105.160474,38.711104],[-105.161008,38.711106],[-105.161407,38.710996],[-105.161891,38.710812],[-105.162211,38.710661],[-105.162331,38.710624],[-105.162598,38.710543],[-105.163122,38.71047],[-105.163638,38.710512],[-105.164094,38.710627],[-105.164496,38.710791],[-105.164803,38.711005],[-105.165033,38.711267],[-105.165253,38.711611],[-105.165392,38.711975],[-105.165999,38.71532],[-105.166059,38.71583],[-105.166041,38.716274],[-105.165983,38.716617],[-105.165497,38.717586],[-105.164163,38.720331],[-105.164121,38.720674],[-105.164155,38.720892],[-105.164216,38.721124],[-105.164367,38.72136],[-105.164715,38.721733],[-105.165112,38.722127],[-105.165319,38.722645],[-105.165463,38.722919],[-105.165682,38.723128],[-105.16653,38.723716],[-105.167326,38.724232],[-105.167642,38.72448],[-105.16778,38.724671],[-105.167866,38.724907],[-105.167879,38.725153],[-105.167817,38.725381],[-105.167654,38.725574],[-105.167443,38.725771],[-105.166954,38.726211],[-105.166711,38.726457],[-105.166548,38.726681],[-105.166487,38.726998],[-105.166601,38.727341],[-105.166817,38.727595],[-105.167311,38.727972],[-105.167846,38.728359],[-105.168111,38.72853],[-105.168273,38.728619],[-105.168478,38.728718],[-105.16878,38.728875],[-105.169079,38.728919],[-105.169406,38.728884],[-105.169846,38.728828],[-105.170146,38.72886],[-105.170325,38.728929],[-105.170572,38.729093],[-105.170711,38.729263],[-105.170922,38.729699],[-105.171067,38.729836],[-105.171236,38.729932],[-105.17151,38.729991],[-105.171776,38.729971],[-105.172402,38.729696],[-105.172756,38.729645],[-105.173022,38.729675],[-105.17337,38.729796],[-105.173559,38.729937],[-105.173665,38.730133],[-105.173691,38.731094],[-105.173624,38.731325],[-105.173455,38.731519],[-105.173112,38.731654],[-105.172577,38.731928],[-105.172433,38.732142],[-105.172381,38.73241],[-105.172503,38.732609],[-105.172965,38.733239],[-105.173041,38.733498],[-105.172953,38.733777],[-105.172371,38.734456],[-105.172356,38.734855],[-105.172539,38.735068],[-105.173,38.735373],[-105.173242,38.735645],[-105.173235,38.735947],[-105.173179,38.73626],[-105.173164,38.736458],[-105.173383,38.736748],[-105.173743,38.736906],[-105.174114,38.736877],[-105.174487,38.736742],[-105.174909,38.736506],[-105.175217,38.736427],[-105.17554,38.736445],[-105.175777,38.736523],[-105.175939,38.73662],[-105.176076,38.736746],[-105.176341,38.737092],[-105.176481,38.737275],[-105.176642,38.73746],[-105.176923,38.737786],[-105.177051,38.737968],[-105.177129,38.738124],[-105.177197,38.738321],[-105.177239,38.73852],[-105.177251,38.738701],[-105.177242,38.738894],[-105.177166,38.739567],[-105.17709,38.740229],[-105.177028,38.74045],[-105.176928,38.740676],[-105.176653,38.74101],[-105.176366,38.741328],[-105.176234,38.741519],[-105.176138,38.741723],[-105.176081,38.741945],[-105.176082,38.742243],[-105.176142,38.742441],[-105.176213,38.742636],[-105.176288,38.742775],[-105.176384,38.742904],[-105.176522,38.743062],[-105.176703,38.743228],[-105.177293,38.743739],[-105.177611,38.744078],[-105.177796,38.7443],[-105.177981,38.744568],[-105.178131,38.744793],[-105.17823,38.744992],[-105.178267,38.745124],[-105.178286,38.745192],[-105.178335,38.745459],[-105.178342,38.745666],[-105.178354,38.746127],[-105.178367,38.746622],[-105.178933,38.746595],[-105.178932,38.746597],[-105.178368,38.74662],[-105.178024,38.746632],[-105.176361,38.746689],[-105.174408,38.746761],[-105.173088,38.746819],[-105.172897,38.746841],[-105.172836,38.746887],[-105.172806,38.746906],[-105.172737,38.746986],[-105.172691,38.747105],[-105.172684,38.747231],[-105.172684,38.747246],[-105.17276,38.747768],[-105.172836,38.748215],[-105.172958,38.749008],[-105.17305,38.74958],[-105.173111,38.750004],[-105.17318,38.750385],[-105.173225,38.750793],[-105.173164,38.751019],[-105.17308,38.751156],[-105.172981,38.751259],[-105.17292,38.751301],[-105.172775,38.7514],[-105.17263,38.751457],[-105.172478,38.751499],[-105.17231,38.751514],[-105.172134,38.751499],[-105.172073,38.751484],[-105.171486,38.751328],[-105.17112,38.751274],[-105.17067,38.751266],[-105.170204,38.751373],[-105.169762,38.751579],[-105.169395,38.751877],[-105.169067,38.752251],[-105.168419,38.753067],[-105.167801,38.753845],[-105.167107,38.754704],[-105.166771,38.754929],[-105.166504,38.755035],[-105.166275,38.755089],[-105.16597,38.755108],[-105.165695,38.755085],[-105.165344,38.75499],[-105.165115,38.754871],[-105.164902,38.754707],[-105.16468,38.754414],[-105.164604,38.754185],[-105.164581,38.753876],[-105.164673,38.753601],[-105.164818,38.753368],[-105.165138,38.752934],[-105.16526,38.752628],[-105.165337,38.752293],[-105.165291,38.751945],[-105.165192,38.751698],[-105.164993,38.751427],[-105.16478,38.751217],[-105.164474,38.75103],[-105.164139,38.750896],[-105.163757,38.750816],[-105.163475,38.750797],[-105.163078,38.75082],[-105.162712,38.750908],[-105.162376,38.751053],[-105.162071,38.751247],[-105.161804,38.751495],[-105.161591,38.751789],[-105.161438,38.752064],[-105.161324,38.752354],[-105.161209,38.752682],[-105.161148,38.753033],[-105.161118,38.753376],[-105.161179,38.753742],[-105.161255,38.75404],[-105.161377,38.754265],[-105.161522,38.754452],[-105.162163,38.755116],[-105.162392,38.755371],[-105.162544,38.755619],[-105.162651,38.755894],[-105.162704,38.756149],[-105.162704,38.756546],[-105.162659,38.756786],[-105.162575,38.756992],[-105.162476,38.757206],[-105.162125,38.757641],[-105.161957,38.757877],[-105.161858,38.758114],[-105.161797,38.758366],[-105.161774,38.758808],[-105.161751,38.760654],[-105.161644,38.760944],[-105.161499,38.761208],[-105.161293,38.76144],[-105.161026,38.761642],[-105.160789,38.761787],[-105.1604,38.761936],[-105.159592,38.762051],[-105.159088,38.762089],[-105.158394,38.762207],[-105.1575747574708,38.76249490197873],[-105.1568480948394,38.76274055299791],[-105.155968,38.763035],[-105.155479,38.763241],[-105.154739,38.763607],[-105.153786,38.764221],[-105.153221,38.764679],[-105.153046,38.764885],[-105.152855,38.765194],[-105.152763,38.765793],[-105.152878,38.767269],[-105.15284,38.76754],[-105.152626,38.767776],[-105.152405,38.767937],[-105.15213,38.768055],[-105.151772,38.768135],[-105.15152,38.768143],[-105.150627,38.768051],[-105.150368,38.768066],[-105.150146,38.768105],[-105.150047,38.76812],[-105.149727,38.768234],[-105.149353,38.768482],[-105.149139,38.768715],[-105.148964,38.769093],[-105.148949,38.769245],[-105.148933,38.769463],[-105.149094,38.770233],[-105.149178,38.770584],[-105.149506,38.771923],[-105.149513,38.772057],[-105.149529,38.772415],[-105.149483,38.772751],[-105.149391,38.773014],[-105.149155,38.773544],[-105.148727,38.774086],[-105.148209,38.774643],[-105.147644,38.775246],[-105.147011,38.775932],[-105.146927,38.776035],[-105.14653,38.776493],[-105.145813,38.777309],[-105.145088,38.778099],[-105.144661,38.778591],[-105.144104,38.77916],[-105.142937,38.780338],[-105.142235,38.780964],[-105.141815,38.781361],[-105.14122,38.781837],[-105.140968,38.782059],[-105.140198,38.782413],[-105.139404,38.782654],[-105.138374,38.782768],[-105.137291,38.782806],[-105.13652,38.782753],[-105.13578,38.782589],[-105.134949,38.782455],[-105.134048,38.782337],[-105.133904,38.782333],[-105.132729,38.782322],[-105.129967,38.782295],[-105.129166,38.782246],[-105.128639,38.782181],[-105.128387,38.78215],[-105.127098,38.781841],[-105.126183,38.781631],[-105.125504,38.781528],[-105.125069,38.781525],[-105.124664,38.781563],[-105.124222,38.781635],[-105.124168,38.781651],[-105.123886,38.781784],[-105.123444,38.782154],[-105.123329,38.782352],[-105.123222,38.782711],[-105.123199,38.783112],[-105.123245,38.78355],[-105.123718,38.786205],[-105.124115,38.788353],[-105.124405,38.790207],[-105.124504,38.79113],[-105.124458,38.791977],[-105.124413,38.792339],[-105.12326,38.796227],[-105.122986,38.797043],[-105.122337,38.797894],[-105.121651,38.798355],[-105.121414,38.798473],[-105.121132,38.798615],[-105.120667,38.798798],[-105.120407,38.798897],[-105.119064,38.799423],[-105.11882,38.799564],[-105.118622,38.799747],[-105.118515,38.799896],[-105.118446,38.800053],[-105.118431,38.800213],[-105.118454,38.800365],[-105.118584,38.800762],[-105.118736,38.801155],[-105.118973,38.801743],[-105.119148,38.801926],[-105.119377,38.802067],[-105.119621,38.802166],[-105.120148,38.802292],[-105.120651,38.802467],[-105.120934,38.802654],[-105.121155,38.802856],[-105.121338,38.803101],[-105.121399,38.803356],[-105.121407,38.804127],[-105.121414,38.804489],[-105.12149,38.804684],[-105.121513,38.804726],[-105.121674,38.804951],[-105.122314,38.805408],[-105.123611,38.806416],[-105.123894,38.806786],[-105.124107,38.807167],[-105.124619,38.808628],[-105.124771,38.809196],[-105.125198,38.80978],[-105.126472,38.810772],[-105.127693,38.812237],[-105.129013,38.813671],[-105.129311,38.814209],[-105.129494,38.814629],[-105.130051,38.815353],[-105.130577,38.816029],[-105.13092,38.816605],[-105.131302,38.816994],[-105.131645,38.817406],[-105.131783,38.817654],[-105.131851,38.818035],[-105.131996,38.818367],[-105.132332,38.818924],[-105.132568,38.819324],[-105.132668,38.819584],[-105.132668,38.819935],[-105.132622,38.82029],[-105.132668,38.820633],[-105.132874,38.821159],[-105.13311,38.82164],[-105.133362,38.822067],[-105.133835,38.822861],[-105.134201,38.823387],[-105.134628,38.824059],[-105.134758,38.824238],[-105.134842,38.824543],[-105.134933,38.82497],[-105.134987,38.82539],[-105.135078,38.825943],[-105.135162,38.82618],[-105.135323,38.826363],[-105.135696,38.826801],[-105.135849,38.827068],[-105.135925,38.827339],[-105.135826,38.828094],[-105.135674,38.829895],[-105.135551,38.830669],[-105.13559,38.830887],[-105.135681,38.831085],[-105.136307,38.831612],[-105.136604,38.832096],[-105.136711,38.832344],[-105.136742,38.8326],[-105.136803,38.832909],[-105.137032,38.833302],[-105.137489,38.833939],[-105.137657,38.834251],[-105.137741,38.834557],[-105.137726,38.834717],[-105.137703,38.834904],[-105.137634,38.83506],[-105.137505,38.835205],[-105.137352,38.835365],[-105.137108,38.835484],[-105.136559,38.835617],[-105.136307,38.835674],[-105.13604,38.835758],[-105.135841,38.835911],[-105.135712,38.836071],[-105.135628,38.836262],[-105.135597,38.836437],[-105.135643,38.836739],[-105.135788,38.83704],[-105.136635,38.838593],[-105.136932,38.839127],[-105.137192,38.839371],[-105.137459,38.839527],[-105.137817,38.839664],[-105.138138,38.839729],[-105.138474,38.839737],[-105.138763,38.839684],[-105.139091,38.839653],[-105.139381,38.83968],[-105.139946,38.839813],[-105.14061,38.839909],[-105.140915,38.839985],[-105.14122,38.840096],[-105.141487,38.840263],[-105.141663,38.84045],[-105.141808,38.840672],[-105.141884,38.840919],[-105.141968,38.8414],[-105.142021,38.84169],[-105.142174,38.841923],[-105.142395,38.842167],[-105.142807,38.84243],[-105.143242,38.842777],[-105.143616,38.843224],[-105.143951,38.843575],[-105.144096,38.843815],[-105.14423126513218,38.84438726668071],[-105.144279,38.844769],[-105.144493,38.845222],[-105.14483702084446,38.845538179269],[-105.14520462342271,38.8457116996407],[-105.145569,38.845798],[-105.146675,38.845879],[-105.147163,38.846031],[-105.14756,38.846287],[-105.148598,38.847038],[-105.149025,38.847225],[-105.149399,38.847271],[-105.149727,38.847248],[-105.150116,38.847092],[-105.15078,38.846561],[-105.151115,38.846378],[-105.151375,38.84626],[-105.152122,38.846172],[-105.15255,38.8461],[-105.152786,38.846001],[-105.152977,38.845871],[-105.153679,38.845161],[-105.153915,38.845047],[-105.154121,38.844971],[-105.154488,38.844856],[-105.154915,38.844814],[-105.15538,38.844864],[-105.155571,38.84491],[-105.155785,38.844975],[-105.156006,38.84507],[-105.156174,38.845207],[-105.156715,38.845798],[-105.156937,38.845928],[-105.157249,38.846062],[-105.157547,38.846107],[-105.15831,38.846195],[-105.158646,38.846336],[-105.158897,38.846581],[-105.15918,38.846928],[-105.159454,38.847351],[-105.159531,38.847565],[-105.1595,38.847775],[-105.159386,38.848091],[-105.159256,38.848412],[-105.15900145040692,38.84891370019608],[-105.15887526408744,38.8492925091343],[-105.15885906183098,38.84970700870917],[-105.158897,38.850258],[-105.158913,38.850735],[-105.158836,38.851139],[-105.158607,38.851475],[-105.15845878062396,38.85177122453632],[-105.15818305375949,38.852357512692805],[-105.15800930695949,38.852853820315175],[-105.157715,38.853725],[-105.15759095064271,38.85400700925331],[-105.157448,38.854218],[-105.157051,38.854588],[-105.156616,38.854771],[-105.15629272040906,38.85489006253957],[-105.155891,38.854958],[-105.155342,38.85495],[-105.15441401176928,38.85475315071111],[-105.154045461767,38.8546171166476],[-105.15355524364928,38.854461480502806],[-105.15327663538665,38.854404931726805],[-105.152977,38.854366],[-105.152679,38.854401],[-105.152496,38.854446],[-105.152313,38.854527],[-105.152153,38.854649],[-105.151947,38.854954],[-105.15181,38.855236],[-105.151772,38.855427],[-105.151802,38.855591],[-105.151878,38.855804],[-105.152061,38.856045],[-105.15258,38.856674],[-105.152931,38.857056],[-105.15319974288636,38.85734920013914],[-105.153636073071,38.85761709219344],[-105.153816,38.857712],[-105.154762,38.857876],[-105.15641,38.858231],[-105.159172,38.859413],[-105.15935721142968,38.85953233408628],[-105.159622,38.859711],[-105.15971064651326,38.859865219156745],[-105.159828,38.860081],[-105.159744,38.860519],[-105.159576,38.860909],[-105.159454,38.861336],[-105.159409,38.861599],[-105.159378,38.863121],[-105.159348,38.863941],[-105.159424,38.864285],[-105.159523,38.86451],[-105.159798,38.865044],[-105.160118,38.865551],[-105.160599,38.866341],[-105.16082,38.866707],[-105.160995,38.867146],[-105.161079,38.867439],[-105.161125,38.867744],[-105.16111,38.868172],[-105.161003,38.868565],[-105.160789,38.869045],[-105.159973,38.870514],[-105.15955833691568,38.87103489056136],[-105.159332,38.871262],[-105.158752,38.871788],[-105.157646,38.872585],[-105.157364,38.872913],[-105.157158,38.873234],[-105.157028,38.873543],[-105.156975,38.873924],[-105.15696,38.87429],[-105.157112,38.876122],[-105.157135,38.876572],[-105.157356,38.878433],[-105.157394,38.879112],[-105.157356,38.879601],[-105.157303,38.879963],[-105.157089,38.880436],[-105.156662,38.881218],[-105.156548,38.881786],[-105.156532,38.882187],[-105.156616,38.882568],[-105.157143,38.883793],[-105.157837,38.885406],[-105.157906,38.885548],[-105.158958,38.887897],[-105.159081,38.888252],[-105.159187,38.888634],[-105.159233,38.889286],[-105.15918,38.889755],[-105.158974,38.89045],[-105.158524,38.891727],[-105.158463,38.892006],[-105.158463,38.892254],[-105.158501,38.892548],[-105.158676,38.893028],[-105.158897,38.893726],[-105.159241,38.894676],[-105.159431,38.895256],[-105.159569,38.895905],[-105.159706,38.896564],[-105.159805,38.897705],[-105.159813,38.898918],[-105.15976,38.900272],[-105.15963,38.902252],[-105.159233,38.910179],[-105.159096,38.912041],[-105.159004,38.913563],[-105.15891189506284,38.91554519563954],[-105.15883020994032,38.91740638938484],[-105.15873624834524,38.91914878679268],[-105.1586857082969,38.92009916541346],[-105.158524,38.922554],[-105.15844272277818,38.925271108058695],[-105.157997,38.932114],[-105.15786474773644,38.934243437612224],[-105.1577997793902,38.935467700608285],[-105.157715,38.936943],[-105.157639,38.941174],[-105.157532,38.941364],[-105.157394,38.941517],[-105.157188,38.941639],[-105.15683,38.941784],[-105.156471,38.941875],[-105.156113,38.941982],[-105.155441,38.942249],[-105.154617,38.942631],[-105.154533,38.942547],[-105.154411,38.94228],[-105.154449,38.942089],[-105.154572,38.94175],[-105.154663,38.941467],[-105.154663,38.941128],[-105.154884,38.941109],[-105.155441,38.941017],[-105.155403,38.940895],[-105.155315450516,38.9405770355312],[-105.15516005758,38.9406070539904],[-105.155174,38.94067],[-105.15518,38.940671],[-105.1553672376262,38.94097146374483],[-105.15529062067824,38.94104929840535],[-105.15464797648376,38.941119835992566],[-105.15461409425812,38.94158724035015],[-105.15439583858532,38.942238689399176],[-105.15459408758797,38.94269163314851],[-105.1516946959247,38.94453228967424],[-105.14802284865756,38.946717105511226],[-105.1463243317824,38.94748878225559],[-105.14448570653872,38.94809894948469],[-105.14295850967513,38.94853211845245],[-105.14064828296748,38.94907135259302],[-105.13819542845884,38.94964649670232],[-105.13654246244197,38.95003773766592],[-105.1343170660432,38.95054343488724],[-105.1321250893643,38.95106508242418],[-105.12944697528962,38.95172425677399],[-105.12678540553397,38.95252125916485],[-105.12389439010946,38.95359184528516],[-105.118775837023,38.95531797536893],[-105.11385040333612,38.95698325885411],[-105.11224428365568,38.95754230953497],[-105.11102057342316,38.957946726426826],[-105.11014867988251,38.95800619930432],[-105.10939915736496,38.95801809387413],[-105.10838959642302,38.95793483184502],[-105.10533032084102,38.95758988811548],[-105.10213337785838,38.95720925859951],[-105.10118500242798,38.957137890337634],[-105.1002825161318,38.95723304800399],[-105.09939532621294,38.95739957361272],[-105.0974832789741,38.958232195789776],[-105.0957547882706,38.95907670257301],[-105.0931544040282,38.96021951949703],[-105.09119646765733,38.96114726095115],[-105.0882841284106,38.96248715673477],[-105.0866933051084,38.96347433677931],[-105.08490362889374,38.96498481456487],[-105.08404703173088,38.96596006657299],[-105.08272392287596,38.967527938015394],[-105.08164506284488,38.96880574851568],[-105.07730909978224,38.97394236261209],[-105.07435689884664,38.9774028195248],[-105.0721425694521,38.98005169908012],[-105.07165308535888,38.980551113822],[-105.07099534110884,38.98091972720536],[-105.07018463307976,38.98126455734294],[-105.06911388662633,38.98141913582532],[-105.06727832127773,38.981668838816006],[-105.06597812915584,38.982013665305146],[-105.06461675152204,38.9827746557514],[-105.06346952317924,38.98371399205445],[-105.06281177892922,38.98460575549214],[-105.06238500177808,38.9861058850608],[-105.06230851988876,38.98672415468209],[-105.0620484814644,38.98819846814118],[-105.06151140981476,38.98947897940332],[-105.06030299596031,38.99157146276866],[-105.05973958279912,38.99249706309129],[-105.05916738826846,38.99309188137474],[-105.05847360240004,38.99353104306809],[-105.0575875570622,38.99389682648717],[-105.05674357012936,38.994013564609645],[-105.05309582999398,38.99438601352316],[-105.05212284122403,38.994400045528494],[-105.05174045868608,38.994328183838775],[-105.05110351290756,38.99411242416673],[-105.0508574751842,38.9939933014594],[-105.05064773810858,38.99386477410289],[-105.05044203443808,38.9936986286375],[-105.05030893206352,38.99355442659623],[-105.05022826395732,38.99349172996523],[-105.04991769174926,38.993701763460734],[-105.05001852688169,38.99467041733757],[-105.05077,38.99463]]}},{"type":"Feature","properties":{"agency":"Cripple Creek Transportation","shape_id":"p_1375400"},"geometry":{"type":"LineString","coordinates":[[-105.05077,38.99463],[-105.051731,38.994596],[-105.051716,38.994512],[-105.051699,38.994421],[-105.051819,38.994446],[-105.052042,38.99448],[-105.052258,38.9945],[-105.052464,38.994505],[-105.052604,38.994502],[-105.052745,38.994493],[-105.053039,38.994468],[-105.054263,38.994351],[-105.054317,38.994345],[-105.055584,38.994241],[-105.056733,38.994135],[-105.056845,38.994124],[-105.056979,38.994108],[-105.057226,38.994073],[-105.057359,38.994051],[-105.057514,38.994017],[-105.057652,38.993982],[-105.057828,38.993933],[-105.058022,38.993864],[-105.058479,38.993652],[-105.058933,38.993386],[-105.059137,38.993259],[-105.059303,38.993126],[-105.059409,38.993038],[-105.059456,38.992994],[-105.059511,38.992942],[-105.059587,38.992857],[-105.059678,38.992755],[-105.059753,38.992663],[-105.059815,38.992582],[-105.05987,38.992511],[-105.059972,38.992353],[-105.059992,38.992322],[-105.060032,38.992258],[-105.060245,38.991928],[-105.060537,38.991416],[-105.060846,38.990881],[-105.061209,38.990263],[-105.061394,38.989958],[-105.061569,38.989642],[-105.061701,38.989393],[-105.061781,38.989242],[-105.061861,38.989078],[-105.061933,38.988915],[-105.062054,38.988599],[-105.062159,38.988279],[-105.06221,38.988093],[-105.062251,38.987917],[-105.062303,38.987693],[-105.062348,38.987464],[-105.062384,38.987229],[-105.062411,38.98701],[-105.062499,38.986096],[-105.06253,38.985856],[-105.062568,38.985624],[-105.062631,38.985375],[-105.0627,38.985169],[-105.062796,38.984922],[-105.063012,38.984505],[-105.063348,38.98402],[-105.063894,38.983426],[-105.064464,38.982991],[-105.064836,38.982745],[-105.065205,38.98252],[-105.066012,38.982113],[-105.066412,38.981957],[-105.066819,38.981816],[-105.066913,38.981768],[-105.06701,38.981686],[-105.067492,38.98159],[-105.067756,38.981549],[-105.069013,38.981398],[-105.069251,38.981371],[-105.069609,38.981325],[-105.069885,38.981282],[-105.070261,38.981188],[-105.070618,38.981072],[-105.070963,38.980927],[-105.071355,38.980707],[-105.071715,38.980454],[-105.071878,38.980316],[-105.07203,38.980172],[-105.072285,38.97987],[-105.073288,38.978699],[-105.073737,38.978162],[-105.074413,38.977354],[-105.075288,38.976314],[-105.076051,38.975399],[-105.07638,38.975014],[-105.077627,38.973541],[-105.078242,38.97282],[-105.078438,38.972584],[-105.079401,38.971432],[-105.079665,38.971118],[-105.08094,38.969607],[-105.081165,38.969341],[-105.082687,38.967553],[-105.083759,38.966258],[-105.08411,38.965833],[-105.084419,38.965484],[-105.084753,38.965134],[-105.085111,38.964795],[-105.085715,38.964258],[-105.08597,38.96405],[-105.086341,38.963749],[-105.086862,38.963372],[-105.087124,38.963192],[-105.087366,38.963038],[-105.087892,38.962718],[-105.088579,38.962346],[-105.090465,38.961472],[-105.092412,38.960573],[-105.093409,38.960131],[-105.093481,38.960099],[-105.094369,38.959702],[-105.095184,38.959311],[-105.098366,38.957832],[-105.098868,38.957618],[-105.099051,38.957548],[-105.099253,38.95747],[-105.099651,38.95735],[-105.100042,38.95727],[-105.10047,38.957201],[-105.100793,38.957169],[-105.101135,38.957149],[-105.10148,38.957148],[-105.101832,38.95717],[-105.103641,38.957387],[-105.106072,38.957667],[-105.10847,38.957968],[-105.109157,38.958026],[-105.109749,38.958037],[-105.110176,38.958017],[-105.110561,38.957981],[-105.111142,38.957881],[-105.11167,38.957749],[-105.119602,38.955027],[-105.124523,38.953358],[-105.12602,38.952836],[-105.128133,38.952089],[-105.128638,38.951922],[-105.129132,38.951774],[-105.130022,38.951551],[-105.131061,38.951296],[-105.133016,38.95085],[-105.134973,38.950408],[-105.136877,38.949966],[-105.138742,38.949525],[-105.142967,38.948529],[-105.14307,38.948503],[-105.143095,38.948496],[-105.143184,38.948471],[-105.143547,38.948375],[-105.14385,38.948288],[-105.144681,38.948048],[-105.145398,38.947816],[-105.146436,38.947437],[-105.146584,38.947384],[-105.146726,38.94732],[-105.147513,38.946981],[-105.148363,38.946555],[-105.149537,38.945915],[-105.150662,38.945231],[-105.151076,38.944971],[-105.152754,38.943923],[-105.154649,38.942685],[-105.154597,38.94262],[-105.154539,38.942526],[-105.154482,38.942436],[-105.154449,38.942357],[-105.154437,38.942287],[-105.154429,38.9422],[-105.154446,38.94209],[-105.15457,38.94175],[-105.154662,38.941467],[-105.154662,38.941127],[-105.154885,38.941109],[-105.155441,38.941017],[-105.155406,38.940894],[-105.155254,38.940922],[-105.15518,38.940671],[-105.155174,38.94067],[-105.155251,38.940922],[-105.155403,38.940895],[-105.155441,38.941017],[-105.154884,38.941109],[-105.154663,38.941128],[-105.154633,38.940796],[-105.154663,38.94054],[-105.154739,38.940159],[-105.154938,38.939472],[-105.155052,38.939117],[-105.155418,38.938313],[-105.156654,38.937077],[-105.157715,38.936943],[-105.157753,38.93528],[-105.157997,38.932114],[-105.158524,38.922554],[-105.158623,38.91972],[-105.159004,38.913563],[-105.159096,38.912041],[-105.159233,38.910179],[-105.15963,38.902252],[-105.15976,38.900272],[-105.159813,38.898918],[-105.159805,38.897705],[-105.159706,38.896564],[-105.159569,38.895905],[-105.159431,38.895256],[-105.159241,38.894676],[-105.158897,38.893726],[-105.158676,38.893028],[-105.158501,38.892548],[-105.158463,38.892254],[-105.158463,38.892006],[-105.158524,38.891727],[-105.158974,38.89045],[-105.15918,38.889755],[-105.159233,38.889286],[-105.159187,38.888634],[-105.159081,38.888252],[-105.158958,38.887897],[-105.157906,38.885548],[-105.157837,38.885406],[-105.157143,38.883793],[-105.156616,38.882568],[-105.156532,38.882187],[-105.156548,38.881786],[-105.156662,38.881218],[-105.157089,38.880436],[-105.157303,38.879963],[-105.157356,38.879601],[-105.157394,38.879112],[-105.157356,38.878433],[-105.157135,38.876572],[-105.157112,38.876122],[-105.15696,38.87429],[-105.156975,38.873924],[-105.157028,38.873543],[-105.157158,38.873234],[-105.157364,38.872913],[-105.157646,38.872585],[-105.158752,38.871788],[-105.159332,38.871262],[-105.159973,38.870514],[-105.160789,38.869045],[-105.161003,38.868565],[-105.16111,38.868172],[-105.161125,38.867744],[-105.161079,38.867439],[-105.160995,38.867146],[-105.16082,38.866707],[-105.160599,38.866341],[-105.160118,38.865551],[-105.159798,38.865044],[-105.159523,38.86451],[-105.159424,38.864285],[-105.159348,38.863941],[-105.159378,38.863121],[-105.159409,38.861599],[-105.159454,38.861336],[-105.159576,38.860909],[-105.159744,38.860519],[-105.159828,38.860081],[-105.159622,38.859711],[-105.159172,38.859413],[-105.15641,38.858231],[-105.154762,38.857876],[-105.153816,38.857712],[-105.153671,38.857685],[-105.153175,38.857342],[-105.152931,38.857056],[-105.15258,38.856674],[-105.152061,38.856045],[-105.151878,38.855804],[-105.151802,38.855591],[-105.151772,38.855427],[-105.15181,38.855236],[-105.151947,38.854954],[-105.152153,38.854649],[-105.152313,38.854527],[-105.152496,38.854446],[-105.152679,38.854401],[-105.152977,38.854366],[-105.153603,38.854435],[-105.154404,38.854771],[-105.155342,38.85495],[-105.155891,38.854958],[-105.156616,38.854771],[-105.157051,38.854588],[-105.157448,38.854218],[-105.157715,38.853725],[-105.158157,38.852283],[-105.158607,38.851475],[-105.158836,38.851139],[-105.158913,38.850735],[-105.158897,38.850258],[-105.158836,38.849667],[-105.158867,38.849209],[-105.159256,38.848412],[-105.159386,38.848091],[-105.1595,38.847775],[-105.159531,38.847565],[-105.159454,38.847351],[-105.15918,38.846928],[-105.158897,38.846581],[-105.158646,38.846336],[-105.15831,38.846195],[-105.157547,38.846107],[-105.157249,38.846062],[-105.156937,38.845928],[-105.156715,38.845798],[-105.156174,38.845207],[-105.156006,38.84507],[-105.155785,38.844975],[-105.155571,38.84491],[-105.15538,38.844864],[-105.154915,38.844814],[-105.154488,38.844856],[-105.154121,38.844971],[-105.153915,38.845047],[-105.153679,38.845161],[-105.152977,38.845871],[-105.152786,38.846001],[-105.15255,38.8461],[-105.152122,38.846172],[-105.151375,38.84626],[-105.151115,38.846378],[-105.15078,38.846561],[-105.150116,38.847092],[-105.149727,38.847248],[-105.149399,38.847271],[-105.149025,38.847225],[-105.148598,38.847038],[-105.14756,38.846287],[-105.147163,38.846031],[-105.146675,38.845879],[-105.145569,38.845798],[-105.144852,38.845558],[-105.144493,38.845222],[-105.144279,38.844769],[-105.144096,38.843815],[-105.143951,38.843575],[-105.143616,38.843224],[-105.143242,38.842777],[-105.142807,38.84243],[-105.142395,38.842167],[-105.142174,38.841923],[-105.142021,38.84169],[-105.141968,38.8414],[-105.141884,38.840919],[-105.141808,38.840672],[-105.141663,38.84045],[-105.141487,38.840263],[-105.14122,38.840096],[-105.140915,38.839985],[-105.14061,38.839909],[-105.139946,38.839813],[-105.139381,38.83968],[-105.139091,38.839653],[-105.138763,38.839684],[-105.138474,38.839737],[-105.138138,38.839729],[-105.137817,38.839664],[-105.137459,38.839527],[-105.137192,38.839371],[-105.136932,38.839127],[-105.136635,38.838593],[-105.135788,38.83704],[-105.135643,38.836739],[-105.135597,38.836437],[-105.135628,38.836262],[-105.135712,38.836071],[-105.135841,38.835911],[-105.13604,38.835758],[-105.136307,38.835674],[-105.136559,38.835617],[-105.137108,38.835484],[-105.137352,38.835365],[-105.137505,38.835205],[-105.137634,38.83506],[-105.137703,38.834904],[-105.137726,38.834717],[-105.137741,38.834557],[-105.137657,38.834251],[-105.137489,38.833939],[-105.137032,38.833302],[-105.136803,38.832909],[-105.136742,38.8326],[-105.136711,38.832344],[-105.136604,38.832096],[-105.136307,38.831612],[-105.135681,38.831085],[-105.13559,38.830887],[-105.135551,38.830669],[-105.135674,38.829895],[-105.135826,38.828094],[-105.135925,38.827339],[-105.135849,38.827068],[-105.135696,38.826801],[-105.135323,38.826363],[-105.135162,38.82618],[-105.135078,38.825943],[-105.134987,38.82539],[-105.134933,38.82497],[-105.134842,38.824543],[-105.134758,38.824238],[-105.134628,38.824059],[-105.134201,38.823387],[-105.133835,38.822861],[-105.133362,38.822067],[-105.13311,38.82164],[-105.132874,38.821159],[-105.132668,38.820633],[-105.132622,38.82029],[-105.132668,38.819935],[-105.132668,38.819584],[-105.132568,38.819324],[-105.132332,38.818924],[-105.131996,38.818367],[-105.131851,38.818035],[-105.131783,38.817654],[-105.131645,38.817406],[-105.131302,38.816994],[-105.13092,38.816605],[-105.130577,38.816029],[-105.130051,38.815353],[-105.129494,38.814629],[-105.129311,38.814209],[-105.129013,38.813671],[-105.127693,38.812237],[-105.126472,38.810772],[-105.125198,38.80978],[-105.124771,38.809196],[-105.124619,38.808628],[-105.124107,38.807167],[-105.123894,38.806786],[-105.123611,38.806416],[-105.122314,38.805408],[-105.121674,38.804951],[-105.121513,38.804726],[-105.12149,38.804684],[-105.121414,38.804489],[-105.121407,38.804127],[-105.121399,38.803356],[-105.121338,38.803101],[-105.121155,38.802856],[-105.120934,38.802654],[-105.120651,38.802467],[-105.120148,38.802292],[-105.119621,38.802166],[-105.119377,38.802067],[-105.119148,38.801926],[-105.118973,38.801743],[-105.118736,38.801155],[-105.118584,38.800762],[-105.118454,38.800365],[-105.118431,38.800213],[-105.118446,38.800053],[-105.118515,38.799896],[-105.118622,38.799747],[-105.11882,38.799564],[-105.119064,38.799423],[-105.120407,38.798897],[-105.120667,38.798798],[-105.121132,38.798615],[-105.121414,38.798473],[-105.121651,38.798355],[-105.122337,38.797894],[-105.122986,38.797043],[-105.12326,38.796227],[-105.124413,38.792339],[-105.124458,38.791977],[-105.124504,38.79113],[-105.124405,38.790207],[-105.124115,38.788353],[-105.123718,38.786205],[-105.123245,38.78355],[-105.123199,38.783112],[-105.123222,38.782711],[-105.123329,38.782352],[-105.123444,38.782154],[-105.123886,38.781784],[-105.124168,38.781651],[-105.124222,38.781635],[-105.124664,38.781563],[-105.125069,38.781525],[-105.125504,38.781528],[-105.126183,38.781631],[-105.127098,38.781841],[-105.128387,38.78215],[-105.128639,38.782181],[-105.129166,38.782246],[-105.129967,38.782295],[-105.132729,38.782322],[-105.133904,38.782333],[-105.134048,38.782337],[-105.134949,38.782455],[-105.13578,38.782589],[-105.13652,38.782753],[-105.137291,38.782806],[-105.138374,38.782768],[-105.139404,38.782654],[-105.140198,38.782413],[-105.140968,38.782059],[-105.14122,38.781837],[-105.141815,38.781361],[-105.142235,38.780964],[-105.142937,38.780338],[-105.144104,38.77916],[-105.144661,38.778591],[-105.145088,38.778099],[-105.145813,38.777309],[-105.14653,38.776493],[-105.146927,38.776035],[-105.147011,38.775932],[-105.147644,38.775246],[-105.148209,38.774643],[-105.148727,38.774086],[-105.149155,38.773544],[-105.149391,38.773014],[-105.149483,38.772751],[-105.149529,38.772415],[-105.149513,38.772057],[-105.149506,38.771923],[-105.149178,38.770584],[-105.149094,38.770233],[-105.148933,38.769463],[-105.148949,38.769245],[-105.148964,38.769093],[-105.149139,38.768715],[-105.149353,38.768482],[-105.149727,38.768234],[-105.150047,38.76812],[-105.150146,38.768105],[-105.150368,38.768066],[-105.150627,38.768051],[-105.15152,38.768143],[-105.151772,38.768135],[-105.15213,38.768055],[-105.152405,38.767937],[-105.152626,38.767776],[-105.15284,38.76754],[-105.152878,38.767269],[-105.152763,38.765793],[-105.152855,38.765194],[-105.153046,38.764885],[-105.153221,38.764679],[-105.153786,38.764221],[-105.154739,38.763607],[-105.155479,38.763241],[-105.155968,38.763035],[-105.158394,38.762207],[-105.159088,38.762089],[-105.159592,38.762051],[-105.1604,38.761936],[-105.160789,38.761787],[-105.161026,38.761642],[-105.161293,38.76144],[-105.161499,38.761208],[-105.161644,38.760944],[-105.161751,38.760654],[-105.161774,38.758808],[-105.161797,38.758366],[-105.161858,38.758114],[-105.161957,38.757877],[-105.162125,38.757641],[-105.162476,38.757206],[-105.162575,38.756992],[-105.162659,38.756786],[-105.162704,38.756546],[-105.162704,38.756149],[-105.162651,38.755894],[-105.162544,38.755619],[-105.162392,38.755371],[-105.162163,38.755116],[-105.161522,38.754452],[-105.161377,38.754265],[-105.161255,38.75404],[-105.161179,38.753742],[-105.161118,38.753376],[-105.161148,38.753033],[-105.161209,38.752682],[-105.161324,38.752354],[-105.161438,38.752064],[-105.161591,38.751789],[-105.161804,38.751495],[-105.162071,38.751247],[-105.162376,38.751053],[-105.162712,38.750908],[-105.163078,38.75082],[-105.163475,38.750797],[-105.163757,38.750816],[-105.164139,38.750896],[-105.164474,38.75103],[-105.16478,38.751217],[-105.164993,38.751427],[-105.165192,38.751698],[-105.165291,38.751945],[-105.165337,38.752293],[-105.16526,38.752628],[-105.165138,38.752934],[-105.164818,38.753368],[-105.164673,38.753601],[-105.164581,38.753876],[-105.164604,38.754185],[-105.16468,38.754414],[-105.164902,38.754707],[-105.165115,38.754871],[-105.165344,38.75499],[-105.165695,38.755085],[-105.16597,38.755108],[-105.166275,38.755089],[-105.166504,38.755035],[-105.166771,38.754929],[-105.167107,38.754704],[-105.167801,38.753845],[-105.168419,38.753067],[-105.169067,38.752251],[-105.169395,38.751877],[-105.169762,38.751579],[-105.170204,38.751373],[-105.17067,38.751266],[-105.17112,38.751274],[-105.171486,38.751328],[-105.172073,38.751484],[-105.172134,38.751499],[-105.17231,38.751514],[-105.172478,38.751499],[-105.17263,38.751457],[-105.172775,38.7514],[-105.17292,38.751301],[-105.172981,38.751259],[-105.17308,38.751156],[-105.173164,38.751019],[-105.173225,38.750793],[-105.17318,38.750385],[-105.173111,38.750004],[-105.17305,38.74958],[-105.172958,38.749008],[-105.172836,38.748215],[-105.17276,38.747768],[-105.172684,38.747246],[-105.172684,38.747231],[-105.172691,38.747105],[-105.172737,38.746986],[-105.172806,38.746906],[-105.172836,38.746887],[-105.172897,38.746841],[-105.173088,38.746819],[-105.174408,38.746761],[-105.176361,38.746689],[-105.178024,38.746632],[-105.17839299123736,38.7466196965616],[-105.17840548327244,38.74757448510786],[-105.18042919291422,38.74747705829046],[-105.18037922477497,38.746517397031965],[-105.178932,38.746597]]}},{"type":"Feature","properties":{"agency":"Cripple Creek Transportation","shape_id":"p_1375434"},"geometry":{"type":"LineString","coordinates":[[-105.178932,38.746597],[-105.178368,38.74662],[-105.178024,38.746632],[-105.176361,38.746689],[-105.174408,38.746761],[-105.173088,38.746819],[-105.172897,38.746841],[-105.172836,38.746887],[-105.172806,38.746906],[-105.172737,38.746986],[-105.172691,38.747105],[-105.172684,38.747231],[-105.172684,38.747246],[-105.17276,38.747768],[-105.172836,38.748215],[-105.172958,38.749008],[-105.17305,38.74958],[-105.173111,38.750004],[-105.17318,38.750385],[-105.173225,38.750793],[-105.173164,38.751019],[-105.17308,38.751156],[-105.172981,38.751259],[-105.17292,38.751301],[-105.172775,38.7514],[-105.17263,38.751457],[-105.172478,38.751499],[-105.17231,38.751514],[-105.172134,38.751499],[-105.172073,38.751484],[-105.171486,38.751328],[-105.17112,38.751274],[-105.17067,38.751266],[-105.170204,38.751373],[-105.169762,38.751579],[-105.169395,38.751877],[-105.169067,38.752251],[-105.168419,38.753067],[-105.167801,38.753845],[-105.167107,38.754704],[-105.166771,38.754929],[-105.166504,38.755035],[-105.166275,38.755089],[-105.16597,38.755108],[-105.165695,38.755085],[-105.165344,38.75499],[-105.165115,38.754871],[-105.164902,38.754707],[-105.16468,38.754414],[-105.164604,38.754185],[-105.164581,38.753876],[-105.164673,38.753601],[-105.164818,38.753368],[-105.165138,38.752934],[-105.16526,38.752628],[-105.165337,38.752293],[-105.165291,38.751945],[-105.165192,38.751698],[-105.164993,38.751427],[-105.16478,38.751217],[-105.164474,38.75103],[-105.164139,38.750896],[-105.163757,38.750816],[-105.163475,38.750797],[-105.163078,38.75082],[-105.162712,38.750908],[-105.162376,38.751053],[-105.162071,38.751247],[-105.161804,38.751495],[-105.161591,38.751789],[-105.161438,38.752064],[-105.161324,38.752354],[-105.161209,38.752682],[-105.161148,38.753033],[-105.161118,38.753376],[-105.161179,38.753742],[-105.161255,38.75404],[-105.161377,38.754265],[-105.161522,38.754452],[-105.162163,38.755116],[-105.162392,38.755371],[-105.162544,38.755619],[-105.162651,38.755894],[-105.162704,38.756149],[-105.162704,38.756546],[-105.162659,38.756786],[-105.162575,38.756992],[-105.162476,38.757206],[-105.162125,38.757641],[-105.161957,38.757877],[-105.161858,38.758114],[-105.161797,38.758366],[-105.161774,38.758808],[-105.161751,38.760654],[-105.161644,38.760944],[-105.161499,38.761208],[-105.161293,38.76144],[-105.161026,38.761642],[-105.160789,38.761787],[-105.1604,38.761936],[-105.159592,38.762051],[-105.159088,38.762089],[-105.158394,38.762207],[-105.1575747574708,38.76249490197873],[-105.1568480948394,38.76274055299791],[-105.155968,38.763035],[-105.155479,38.763241],[-105.154739,38.763607],[-105.153786,38.764221],[-105.153221,38.764679],[-105.153046,38.764885],[-105.152855,38.765194],[-105.152763,38.765793],[-105.152878,38.767269],[-105.15284,38.76754],[-105.152626,38.767776],[-105.152405,38.767937],[-105.15213,38.768055],[-105.151772,38.768135],[-105.15152,38.768143],[-105.150627,38.768051],[-105.150368,38.768066],[-105.150146,38.768105],[-105.150047,38.76812],[-105.149727,38.768234],[-105.149353,38.768482],[-105.149139,38.768715],[-105.148964,38.769093],[-105.148949,38.769245],[-105.148933,38.769463],[-105.149094,38.770233],[-105.149178,38.770584],[-105.149506,38.771923],[-105.149513,38.772057],[-105.149529,38.772415],[-105.149483,38.772751],[-105.149391,38.773014],[-105.149155,38.773544],[-105.148727,38.774086],[-105.148209,38.774643],[-105.147644,38.775246],[-105.147011,38.775932],[-105.146927,38.776035],[-105.14653,38.776493],[-105.145813,38.777309],[-105.145088,38.778099],[-105.144661,38.778591],[-105.144104,38.77916],[-105.142937,38.780338],[-105.142235,38.780964],[-105.141815,38.781361],[-105.14122,38.781837],[-105.140968,38.782059],[-105.140198,38.782413],[-105.139404,38.782654],[-105.138374,38.782768],[-105.137291,38.782806],[-105.13652,38.782753],[-105.13578,38.782589],[-105.134949,38.782455],[-105.134048,38.782337],[-105.133904,38.782333],[-105.132729,38.782322],[-105.129967,38.782295],[-105.129166,38.782246],[-105.128639,38.782181],[-105.128387,38.78215],[-105.127098,38.781841],[-105.126183,38.781631],[-105.125504,38.781528],[-105.125069,38.781525],[-105.124664,38.781563],[-105.124222,38.781635],[-105.124168,38.781651],[-105.123886,38.781784],[-105.123444,38.782154],[-105.123329,38.782352],[-105.123222,38.782711],[-105.123199,38.783112],[-105.123245,38.78355],[-105.123718,38.786205],[-105.124115,38.788353],[-105.124405,38.790207],[-105.124504,38.79113],[-105.124458,38.791977],[-105.124413,38.792339],[-105.12326,38.796227],[-105.122986,38.797043],[-105.122337,38.797894],[-105.121651,38.798355],[-105.121414,38.798473],[-105.121132,38.798615],[-105.120667,38.798798],[-105.120407,38.798897],[-105.119064,38.799423],[-105.11882,38.799564],[-105.118622,38.799747],[-105.118515,38.799896],[-105.118446,38.800053],[-105.118431,38.800213],[-105.118454,38.800365],[-105.118584,38.800762],[-105.118736,38.801155],[-105.118973,38.801743],[-105.119148,38.801926],[-105.119377,38.802067],[-105.119621,38.802166],[-105.120148,38.802292],[-105.120651,38.802467],[-105.120934,38.802654],[-105.121155,38.802856],[-105.121338,38.803101],[-105.121399,38.803356],[-105.121407,38.804127],[-105.121414,38.804489],[-105.12149,38.804684],[-105.121513,38.804726],[-105.121674,38.804951],[-105.122314,38.805408],[-105.123611,38.806416],[-105.123894,38.806786],[-105.124107,38.807167],[-105.124619,38.808628],[-105.124771,38.809196],[-105.125198,38.80978],[-105.126472,38.810772],[-105.127693,38.812237],[-105.129013,38.813671],[-105.129311,38.814209],[-105.129494,38.814629],[-105.130051,38.815353],[-105.130577,38.816029],[-105.13092,38.816605],[-105.131302,38.816994],[-105.131645,38.817406],[-105.131783,38.817654],[-105.131851,38.818035],[-105.131996,38.818367],[-105.132332,38.818924],[-105.132568,38.819324],[-105.132668,38.819584],[-105.132668,38.819935],[-105.132622,38.82029],[-105.132668,38.820633],[-105.132874,38.821159],[-105.13311,38.82164],[-105.133362,38.822067],[-105.133835,38.822861],[-105.134201,38.823387],[-105.134628,38.824059],[-105.134758,38.824238],[-105.134842,38.824543],[-105.134933,38.82497],[-105.134987,38.82539],[-105.135078,38.825943],[-105.135162,38.82618],[-105.135323,38.826363],[-105.135696,38.826801],[-105.135849,38.827068],[-105.135925,38.827339],[-105.135826,38.828094],[-105.135674,38.829895],[-105.135551,38.830669],[-105.13559,38.830887],[-105.135681,38.831085],[-105.136307,38.831612],[-105.136604,38.832096],[-105.136711,38.832344],[-105.136742,38.8326],[-105.136803,38.832909],[-105.137032,38.833302],[-105.137489,38.833939],[-105.137657,38.834251],[-105.137741,38.834557],[-105.137726,38.834717],[-105.137703,38.834904],[-105.137634,38.83506],[-105.137505,38.835205],[-105.137352,38.835365],[-105.137108,38.835484],[-105.136559,38.835617],[-105.136307,38.835674],[-105.13604,38.835758],[-105.135841,38.835911],[-105.135712,38.836071],[-105.135628,38.836262],[-105.135597,38.836437],[-105.135643,38.836739],[-105.135788,38.83704],[-105.136635,38.838593],[-105.136932,38.839127],[-105.137192,38.839371],[-105.137459,38.839527],[-105.137817,38.839664],[-105.138138,38.839729],[-105.138474,38.839737],[-105.138763,38.839684],[-105.139091,38.839653],[-105.139381,38.83968],[-105.139946,38.839813],[-105.14061,38.839909],[-105.140915,38.839985],[-105.14122,38.840096],[-105.141487,38.840263],[-105.141663,38.84045],[-105.141808,38.840672],[-105.141884,38.840919],[-105.141968,38.8414],[-105.142021,38.84169],[-105.142174,38.841923],[-105.142395,38.842167],[-105.142807,38.84243],[-105.143242,38.842777],[-105.143616,38.843224],[-105.143951,38.843575],[-105.144096,38.843815],[-105.14423126513218,38.84438726668071],[-105.144279,38.844769],[-105.144493,38.845222],[-105.14483702084446,38.845538179269],[-105.14520462342271,38.8457116996407],[-105.145569,38.845798],[-105.146675,38.845879],[-105.147163,38.846031],[-105.14756,38.846287],[-105.148598,38.847038],[-105.149025,38.847225],[-105.149399,38.847271],[-105.149727,38.847248],[-105.150116,38.847092],[-105.15078,38.846561],[-105.151115,38.846378],[-105.151375,38.84626],[-105.152122,38.846172],[-105.15255,38.8461],[-105.152786,38.846001],[-105.152977,38.845871],[-105.153679,38.845161],[-105.153915,38.845047],[-105.154121,38.844971],[-105.154488,38.844856],[-105.154915,38.844814],[-105.15538,38.844864],[-105.155571,38.84491],[-105.155785,38.844975],[-105.156006,38.84507],[-105.156174,38.845207],[-105.156715,38.845798],[-105.156937,38.845928],[-105.157249,38.846062],[-105.157547,38.846107],[-105.15831,38.846195],[-105.158646,38.846336],[-105.158897,38.846581],[-105.15918,38.846928],[-105.159454,38.847351],[-105.159531,38.847565],[-105.1595,38.847775],[-105.159386,38.848091],[-105.159256,38.848412],[-105.15900145040692,38.84891370019608],[-105.15887526408744,38.8492925091343],[-105.15885906183098,38.84970700870917],[-105.158897,38.850258],[-105.158913,38.850735],[-105.158836,38.851139],[-105.158607,38.851475],[-105.15845878062396,38.85177122453632],[-105.15818305375949,38.852357512692805],[-105.15800930695949,38.852853820315175],[-105.157715,38.853725],[-105.15759095064271,38.85400700925331],[-105.157448,38.854218],[-105.157051,38.854588],[-105.156616,38.854771],[-105.15629272040906,38.85489006253957],[-105.155891,38.854958],[-105.155342,38.85495],[-105.15441401176928,38.85475315071111],[-105.154045461767,38.8546171166476],[-105.15355524364928,38.854461480502806],[-105.15327663538665,38.854404931726805],[-105.152977,38.854366],[-105.152679,38.854401],[-105.152496,38.854446],[-105.152313,38.854527],[-105.152153,38.854649],[-105.151947,38.854954],[-105.15181,38.855236],[-105.151772,38.855427],[-105.151802,38.855591],[-105.151878,38.855804],[-105.152061,38.856045],[-105.15258,38.856674],[-105.152931,38.857056],[-105.15319974288636,38.85734920013914],[-105.153636073071,38.85761709219344],[-105.153816,38.857712],[-105.154762,38.857876],[-105.15641,38.858231],[-105.159172,38.859413],[-105.15935721142968,38.85953233408628],[-105.159622,38.859711],[-105.15971064651326,38.859865219156745],[-105.159828,38.860081],[-105.159744,38.860519],[-105.159576,38.860909],[-105.159454,38.861336],[-105.159409,38.861599],[-105.159378,38.863121],[-105.159348,38.863941],[-105.159424,38.864285],[-105.159523,38.86451],[-105.159798,38.865044],[-105.160118,38.865551],[-105.160599,38.866341],[-105.16082,38.866707],[-105.160995,38.867146],[-105.161079,38.867439],[-105.161125,38.867744],[-105.16111,38.868172],[-105.161003,38.868565],[-105.160789,38.869045],[-105.159973,38.870514],[-105.15955833691568,38.87103489056136],[-105.159332,38.871262],[-105.158752,38.871788],[-105.157646,38.872585],[-105.157364,38.872913],[-105.157158,38.873234],[-105.157028,38.873543],[-105.156975,38.873924],[-105.15696,38.87429],[-105.157112,38.876122],[-105.157135,38.876572],[-105.157356,38.878433],[-105.157394,38.879112],[-105.157356,38.879601],[-105.157303,38.879963],[-105.157089,38.880436],[-105.156662,38.881218],[-105.156548,38.881786],[-105.156532,38.882187],[-105.156616,38.882568],[-105.157143,38.883793],[-105.157837,38.885406],[-105.157906,38.885548],[-105.158958,38.887897],[-105.159081,38.888252],[-105.159187,38.888634],[-105.159233,38.889286],[-105.15918,38.889755],[-105.158974,38.89045],[-105.158524,38.891727],[-105.158463,38.892006],[-105.158463,38.892254],[-105.158501,38.892548],[-105.158676,38.893028],[-105.158897,38.893726],[-105.159241,38.894676],[-105.159431,38.895256],[-105.159569,38.895905],[-105.159706,38.896564],[-105.159805,38.897705],[-105.159813,38.898918],[-105.15976,38.900272],[-105.15963,38.902252],[-105.159233,38.910179],[-105.159096,38.912041],[-105.159004,38.913563],[-105.15891189506284,38.91554519563954],[-105.15883020994032,38.91740638938484],[-105.15873624834524,38.91914878679268],[-105.1586857082969,38.92009916541346],[-105.158524,38.922554],[-105.15844272277818,38.925271108058695],[-105.157997,38.932114],[-105.15786474773644,38.934243437612224],[-105.1577997793902,38.935467700608285],[-105.157715,38.936943],[-105.157639,38.941174],[-105.157532,38.941364],[-105.157394,38.941517],[-105.157188,38.941639],[-105.15683,38.941784],[-105.156471,38.941875],[-105.156113,38.941982],[-105.155441,38.942249],[-105.154617,38.942631],[-105.154533,38.942547],[-105.154411,38.94228],[-105.154449,38.942089],[-105.154572,38.94175],[-105.154663,38.941467],[-105.154663,38.941128],[-105.154884,38.941109],[-105.155441,38.941017],[-105.155403,38.940895],[-105.155315450516,38.9405770355312],[-105.15516005758,38.9406070539904],[-105.155174,38.94067],[-105.15518,38.940671],[-105.1553672376262,38.94097146374483],[-105.15529062067824,38.94104929840535],[-105.15464797648376,38.941119835992566],[-105.15461409425812,38.94158724035015],[-105.15439583858532,38.942238689399176],[-105.15459408758797,38.94269163314851],[-105.1516946959247,38.94453228967424],[-105.14802284865756,38.946717105511226],[-105.1463243317824,38.94748878225559],[-105.14448570653872,38.94809894948469],[-105.14295850967513,38.94853211845245],[-105.14064828296748,38.94907135259302],[-105.13819542845884,38.94964649670232],[-105.13654246244197,38.95003773766592],[-105.1343170660432,38.95054343488724],[-105.1321250893643,38.95106508242418],[-105.12944697528962,38.95172425677399],[-105.12678540553397,38.95252125916485],[-105.12389439010946,38.95359184528516],[-105.118775837023,38.95531797536893],[-105.11385040333612,38.95698325885411],[-105.11224428365568,38.95754230953497],[-105.11102057342316,38.957946726426826],[-105.11014867988251,38.95800619930432],[-105.10939915736496,38.95801809387413],[-105.10838959642302,38.95793483184502],[-105.10533032084102,38.95758988811548],[-105.10213337785838,38.95720925859951],[-105.10118500242798,38.957137890337634],[-105.1002825161318,38.95723304800399],[-105.09939532621294,38.95739957361272],[-105.0974832789741,38.958232195789776],[-105.0957547882706,38.95907670257301],[-105.0931544040282,38.96021951949703],[-105.09119646765733,38.96114726095115],[-105.0882841284106,38.96248715673477],[-105.0866933051084,38.96347433677931],[-105.08490362889374,38.96498481456487],[-105.08404703173088,38.96596006657299],[-105.08272392287596,38.967527938015394],[-105.08164506284488,38.96880574851568],[-105.07730909978224,38.97394236261209],[-105.07435689884664,38.9774028195248],[-105.0721425694521,38.98005169908012],[-105.07165308535888,38.980551113822],[-105.07099534110884,38.98091972720536],[-105.07018463307976,38.98126455734294],[-105.06911388662633,38.98141913582532],[-105.06727832127773,38.981668838816006],[-105.06597812915584,38.982013665305146],[-105.06461675152204,38.9827746557514],[-105.06346952317924,38.98371399205445],[-105.06281177892922,38.98460575549214],[-105.06238500177808,38.9861058850608],[-105.06230851988876,38.98672415468209],[-105.0620484814644,38.98819846814118],[-105.06151140981476,38.98947897940332],[-105.06030299596031,38.99157146276866],[-105.05973958279912,38.99249706309129],[-105.05916738826846,38.99309188137474],[-105.05847360240004,38.99353104306809],[-105.0575875570622,38.99389682648717],[-105.05674357012936,38.994013564609645],[-105.05309582999398,38.99438601352316],[-105.05212284122403,38.994400045528494],[-105.05174045868608,38.994328183838775],[-105.05110351290756,38.99411242416673],[-105.0508574751842,38.9939933014594],[-105.05064773810858,38.99386477410289],[-105.05044203443808,38.9936986286375],[-105.05030893206352,38.99355442659623],[-105.05022826395732,38.99349172996523],[-105.04991769174926,38.993701763460734],[-105.05001852688169,38.99467041733757],[-105.05077,38.99463]]}},{"type":"Feature","properties":{"agency":"Cripple Creek Transportation","shape_id":"p_1437691"},"geometry":{"type":"LineString","coordinates":[[-105.173796,38.750416],[-105.173762,38.750001],[-105.173741,38.749554],[-105.174264,38.749535],[-105.174537,38.749522],[-105.175248,38.749463],[-105.176489,38.749398],[-105.176432,38.748545],[-105.176404,38.747621],[-105.176393,38.74738],[-105.176383,38.747154],[-105.176362,38.746689],[-105.177376,38.746655],[-105.178024,38.746633],[-105.178367,38.746622],[-105.178354,38.746127],[-105.178342,38.745666],[-105.178659,38.745657],[-105.180342,38.745609],[-105.182254,38.745531],[-105.184201,38.745461],[-105.184697,38.745438],[-105.184201,38.745461],[-105.184284,38.746381],[-105.182316,38.746455],[-105.182162,38.746461],[-105.181655,38.746479],[-105.181038,38.746503],[-105.180395,38.746527],[-105.180079,38.746542],[-105.17992,38.746549],[-105.179323,38.746577],[-105.179005,38.746592],[-105.178367,38.746622],[-105.178099,38.746631],[-105.178024,38.746633],[-105.176555,38.746682],[-105.176362,38.746689],[-105.176345,38.746207],[-105.176341,38.746116],[-105.176341,38.746095],[-105.176335,38.745949],[-105.176328,38.745748],[-105.175504,38.745782],[-105.175209,38.745794],[-105.174903,38.745807],[-105.174606,38.745826],[-105.174373,38.745848],[-105.174129,38.745856],[-105.173225,38.745888],[-105.173059,38.745896],[-105.172971,38.745901],[-105.172914,38.745912],[-105.172856,38.745924],[-105.172834,38.746022],[-105.172857,38.746349],[-105.172858,38.746375],[-105.172871,38.746535],[-105.172888,38.746738],[-105.172897,38.746843],[-105.172835,38.746886],[-105.172804,38.746908],[-105.172734,38.746987],[-105.172688,38.747105],[-105.172683,38.74723],[-105.172686,38.747246],[-105.172576,38.74725],[-105.172454,38.747254],[-105.172454,38.747336],[-105.172348,38.747339],[-105.172349,38.747482],[-105.172348,38.747339],[-105.172454,38.747336],[-105.172454,38.747254],[-105.172686,38.747246],[-105.172764,38.74777],[-105.172833,38.748213],[-105.172956,38.749009],[-105.173053,38.749579],[-105.173112,38.750005],[-105.173182,38.750386],[-105.173212,38.750581],[-105.173229,38.750792],[-105.173211,38.750907],[-105.173166,38.751017],[-105.173081,38.751156],[-105.17298,38.751259],[-105.172917,38.751302],[-105.172774,38.751399],[-105.172633,38.751456],[-105.172477,38.751497],[-105.172309,38.751514],[-105.172134,38.751498],[-105.172072,38.751485],[-105.171484,38.751328],[-105.17112,38.751274],[-105.170673,38.751268],[-105.170205,38.751373],[-105.169765,38.751581],[-105.169394,38.751877],[-105.169071,38.75225],[-105.168418,38.753067],[-105.167802,38.753845],[-105.167106,38.754705],[-105.166774,38.754927],[-105.166504,38.755036],[-105.166272,38.75509],[-105.165969,38.755108],[-105.165692,38.755085],[-105.165347,38.754991],[-105.165119,38.754871],[-105.1649,38.754709],[-105.164683,38.754413],[-105.164603,38.754186],[-105.16458,38.753875],[-105.164674,38.7536],[-105.164822,38.753367],[-105.165142,38.752932],[-105.165263,38.752629],[-105.165338,38.752294],[-105.16529,38.751946],[-105.165188,38.751696],[-105.16499,38.751425],[-105.164778,38.751215],[-105.164472,38.751032],[-105.164142,38.750897],[-105.163757,38.750816],[-105.163473,38.750798],[-105.163081,38.75082],[-105.16271,38.750908],[-105.162379,38.751052],[-105.16207,38.751246],[-105.161805,38.751494],[-105.161592,38.751788],[-105.161436,38.752065],[-105.161322,38.752353],[-105.161212,38.752682],[-105.161709,38.752779],[-105.161783,38.752808],[-105.161972,38.752876],[-105.162387,38.752146],[-105.1623,38.752079],[-105.162183,38.752021],[-105.162303,38.751824],[-105.162342,38.751798],[-105.162548,38.751694],[-105.162622,38.751676],[-105.16267,38.751636],[-105.162732,38.75161],[-105.162807,38.7516],[-105.162881,38.751611],[-105.162918,38.751628],[-105.162881,38.751611],[-105.162807,38.7516],[-105.162732,38.75161],[-105.16267,38.751636],[-105.162622,38.751676],[-105.162548,38.751694],[-105.162342,38.751798],[-105.162303,38.751824],[-105.162183,38.752021],[-105.162097,38.752114],[-105.161709,38.752779],[-105.161212,38.752682],[-105.161322,38.752353],[-105.161436,38.752065],[-105.161592,38.751788],[-105.161805,38.751494],[-105.16207,38.751246],[-105.162379,38.751052],[-105.16271,38.750908],[-105.163081,38.75082],[-105.163473,38.750798],[-105.163757,38.750816],[-105.164142,38.750897],[-105.164472,38.751032],[-105.164778,38.751215],[-105.16499,38.751425],[-105.165188,38.751696],[-105.16529,38.751946],[-105.165338,38.752294],[-105.165263,38.752629],[-105.165142,38.752932],[-105.164822,38.753367],[-105.164674,38.7536],[-105.16458,38.753875],[-105.164603,38.754186],[-105.164683,38.754413],[-105.1649,38.754709],[-105.165119,38.754871],[-105.165347,38.754991],[-105.165692,38.755085],[-105.165969,38.755108],[-105.166272,38.75509],[-105.166504,38.755036],[-105.166774,38.754927],[-105.167106,38.754705],[-105.167802,38.753845],[-105.168418,38.753067],[-105.169071,38.75225],[-105.169394,38.751877],[-105.169765,38.751581],[-105.170205,38.751373],[-105.170673,38.751268],[-105.17112,38.751274],[-105.171484,38.751328],[-105.172072,38.751485],[-105.172134,38.751498],[-105.172309,38.751514],[-105.172477,38.751497],[-105.172633,38.751456],[-105.172774,38.751399],[-105.172917,38.751302],[-105.17298,38.751259],[-105.173081,38.751156],[-105.173166,38.751017],[-105.173327,38.751037],[-105.173584,38.751034],[-105.173614,38.751033],[-105.173847,38.751025],[-105.173796,38.750416]]}},{"type":"Feature","properties":{"agency":"Cripple Creek Transportation","shape_id":"p_899573"},"geometry":{"type":"LineString","coordinates":[[-105.178932,38.746597],[-105.178368,38.74662],[-105.178352,38.746128],[-105.178345,38.745667],[-105.178337,38.745461],[-105.178284,38.745193],[-105.17823,38.744991],[-105.178131,38.744793],[-105.177979,38.744568],[-105.177795,38.744301],[-105.177612,38.74408],[-105.177292,38.74374],[-105.176704,38.743229],[-105.176521,38.743061],[-105.176384,38.742905],[-105.176285,38.742775],[-105.176216,38.742634],[-105.17614,38.742439],[-105.176079,38.742241],[-105.176079,38.741943],[-105.17614,38.741722],[-105.176231,38.74152],[-105.176369,38.741329],[-105.176651,38.741009],[-105.176926,38.740677],[-105.177025,38.740448],[-105.177094,38.740227],[-105.177162,38.739567],[-105.177238,38.738895],[-105.177254,38.738701],[-105.177238,38.738522],[-105.1772,38.738319],[-105.177132,38.738125],[-105.177048,38.737968],[-105.176926,38.737785],[-105.176643,38.737461],[-105.176483,38.737274],[-105.176338,38.737091],[-105.176079,38.736744],[-105.175941,38.736622],[-105.175774,38.736523],[-105.175537,38.736446],[-105.175217,38.736427],[-105.174911,38.736507],[-105.174484,38.736744],[-105.17411,38.736877],[-105.173744,38.736908],[-105.173386,38.736748],[-105.173164,38.736458],[-105.17318,38.736259],[-105.173233,38.735947],[-105.173241,38.735645],[-105.172997,38.735374],[-105.172539,38.735069],[-105.172356,38.734856],[-105.172371,38.734455],[-105.172951,38.733776],[-105.173042,38.733498],[-105.172966,38.733238],[-105.172501,38.732609],[-105.172379,38.73241],[-105.172379,38.732151],[-105.172539,38.731903],[-105.173111,38.731655],[-105.173454,38.731518],[-105.173622,38.731327],[-105.173691,38.731094],[-105.173668,38.730133],[-105.173561,38.729939],[-105.17337,38.729797],[-105.173019,38.729675],[-105.172752,38.729645],[-105.172401,38.729694],[-105.171776,38.729969],[-105.171509,38.729992],[-105.171234,38.729931],[-105.171066,38.729836],[-105.170921,38.729698],[-105.170708,38.729263],[-105.17057,38.729092],[-105.170326,38.728928],[-105.170143,38.728859],[-105.169846,38.728828],[-105.168968,38.728905],[-105.168777,38.728874],[-105.16848,38.728718],[-105.168228,38.728638],[-105.16696352038583,38.72752969488232],[-105.16662552228776,38.727108507324544],[-105.16656482864096,38.72676194126177],[-105.1666519977646,38.726537527808574],[-105.16684376983584,38.72632671452817],[-105.167564,38.725704],[-105.16787,38.725578],[-105.168152,38.725349],[-105.168251,38.725113],[-105.168213,38.724854],[-105.168037,38.724632],[-105.167755,38.724461],[-105.167328,38.724232],[-105.166527,38.723717],[-105.16568,38.723129],[-105.165466,38.722919],[-105.165321,38.722645],[-105.165115,38.722126],[-105.164719,38.721733],[-105.164368,38.721359],[-105.164215,38.721123],[-105.164154,38.72089],[-105.164124,38.720673],[-105.164162,38.720329],[-105.165497,38.717587],[-105.165985,38.716618],[-105.166039,38.716274],[-105.166061,38.715832],[-105.166,38.715321],[-105.16539,38.711975],[-105.165253,38.711613],[-105.165031,38.711266],[-105.164803,38.711006],[-105.164497,38.710793],[-105.164093,38.710629],[-105.163635,38.710514],[-105.163124,38.710468],[-105.16288,38.710503],[-105.162598,38.710545],[-105.162331,38.710625],[-105.162209,38.710659],[-105.161888,38.710812],[-105.161407,38.710995],[-105.161011,38.711105],[-105.160477,38.711105],[-105.160019,38.711002],[-105.159683,38.710861],[-105.159058,38.710587],[-105.158302,38.710384],[-105.158104,38.710377],[-105.157837,38.710365],[-105.157333,38.71048],[-105.156952,38.71064],[-105.156693,38.710842],[-105.156227,38.711338],[-105.155701,38.711857],[-105.155365,38.712048],[-105.155083,38.712151],[-105.154457,38.71225],[-105.153831,38.712154],[-105.153275,38.71191],[-105.152855,38.71154],[-105.152,38.710777],[-105.151741,38.710567],[-105.151497,38.710423],[-105.151184,38.710274],[-105.150871,38.710163],[-105.150589,38.710102],[-105.150146,38.710068],[-105.149643,38.710079],[-105.14946,38.71011],[-105.148964,38.710201],[-105.148453,38.710285],[-105.148239,38.710316],[-105.148056,38.710327],[-105.147873,38.710316],[-105.147621,38.710274],[-105.146706,38.710087],[-105.146255,38.709984],[-105.146057,38.709961],[-105.145851,38.70998],[-105.145561,38.710068],[-105.145233,38.71027],[-105.144913,38.71048],[-105.144775,38.710548],[-105.144638,38.710609],[-105.144493,38.710651],[-105.144348,38.710659],[-105.144173,38.710644],[-105.1436,38.710575],[-105.143059,38.710503],[-105.142967,38.710491],[-105.141304,38.710278],[-105.140732,38.710201],[-105.14016,38.710125],[-105.140099,38.710407]]}},{"type":"Feature","properties":{"agency":"Cripple Creek Transportation","shape_id":"p_899944"},"geometry":{"type":"LineString","coordinates":[[-105.140097,38.710407],[-105.140158,38.710125],[-105.140734,38.710201],[-105.141301,38.710276],[-105.142971,38.710493],[-105.14306,38.710504],[-105.143598,38.710574],[-105.144175,38.710643],[-105.14435,38.710658],[-105.144491,38.710652],[-105.144639,38.710611],[-105.144773,38.710549],[-105.144912,38.710479],[-105.145234,38.710272],[-105.145561,38.710068],[-105.145852,38.709981],[-105.146054,38.709962],[-105.146259,38.709984],[-105.146703,38.710086],[-105.147618,38.710275],[-105.147873,38.710314],[-105.148052,38.710325],[-105.148241,38.710317],[-105.148456,38.710287],[-105.148964,38.710201],[-105.149457,38.710108],[-105.149646,38.71008],[-105.150149,38.710066],[-105.150589,38.7101],[-105.150872,38.710162],[-105.151187,38.710274],[-105.151496,38.710421],[-105.15174,38.710569],[-105.152004,38.710779],[-105.152851,38.71154],[-105.153274,38.711908],[-105.153829,38.712155],[-105.154457,38.712249],[-105.155085,38.71215],[-105.155363,38.712049],[-105.155699,38.711857],[-105.156224,38.711337],[-105.15669,38.710843],[-105.156954,38.71064],[-105.157331,38.710481],[-105.157834,38.710366],[-105.158105,38.710376],[-105.158302,38.710384],[-105.159061,38.710588],[-105.159684,38.710863],[-105.160019,38.711003],[-105.160474,38.711104],[-105.161008,38.711106],[-105.161407,38.710996],[-105.161891,38.710812],[-105.162211,38.710661],[-105.162331,38.710624],[-105.162598,38.710543],[-105.163122,38.71047],[-105.163638,38.710512],[-105.164094,38.710627],[-105.164496,38.710791],[-105.164803,38.711005],[-105.165033,38.711267],[-105.165253,38.711611],[-105.165392,38.711975],[-105.165999,38.71532],[-105.166059,38.71583],[-105.166041,38.716274],[-105.165983,38.716617],[-105.165497,38.717586],[-105.164163,38.720331],[-105.164121,38.720674],[-105.164155,38.720892],[-105.164216,38.721124],[-105.164367,38.72136],[-105.164715,38.721733],[-105.165112,38.722127],[-105.165319,38.722645],[-105.165463,38.722919],[-105.165682,38.723128],[-105.16653,38.723716],[-105.167326,38.724232],[-105.167642,38.72448],[-105.16778,38.724671],[-105.167866,38.724907],[-105.167879,38.725153],[-105.167817,38.725381],[-105.167654,38.725574],[-105.167443,38.725771],[-105.166954,38.726211],[-105.166711,38.726457],[-105.166548,38.726681],[-105.166487,38.726998],[-105.166601,38.727341],[-105.166817,38.727595],[-105.167311,38.727972],[-105.167846,38.728359],[-105.168111,38.72853],[-105.168273,38.728619],[-105.168478,38.728718],[-105.16878,38.728875],[-105.169079,38.728919],[-105.169406,38.728884],[-105.169846,38.728828],[-105.170146,38.72886],[-105.170325,38.728929],[-105.170572,38.729093],[-105.170711,38.729263],[-105.170922,38.729699],[-105.171067,38.729836],[-105.171236,38.729932],[-105.17151,38.729991],[-105.171776,38.729971],[-105.172402,38.729696],[-105.172756,38.729645],[-105.173022,38.729675],[-105.17337,38.729796],[-105.173559,38.729937],[-105.173665,38.730133],[-105.173691,38.731094],[-105.173624,38.731325],[-105.173455,38.731519],[-105.173112,38.731654],[-105.172577,38.731928],[-105.172433,38.732142],[-105.172381,38.73241],[-105.172503,38.732609],[-105.172965,38.733239],[-105.173041,38.733498],[-105.172953,38.733777],[-105.172371,38.734456],[-105.172356,38.734855],[-105.172539,38.735068],[-105.173,38.735373],[-105.173242,38.735645],[-105.173235,38.735947],[-105.173179,38.73626],[-105.173164,38.736458],[-105.173383,38.736748],[-105.173743,38.736906],[-105.174114,38.736877],[-105.174487,38.736742],[-105.174909,38.736506],[-105.175217,38.736427],[-105.17554,38.736445],[-105.175777,38.736523],[-105.175939,38.73662],[-105.176076,38.736746],[-105.176341,38.737092],[-105.176481,38.737275],[-105.176642,38.73746],[-105.176923,38.737786],[-105.177051,38.737968],[-105.177129,38.738124],[-105.177197,38.738321],[-105.177239,38.73852],[-105.177251,38.738701],[-105.177242,38.738894],[-105.177166,38.739567],[-105.17709,38.740229],[-105.177028,38.74045],[-105.176928,38.740676],[-105.176653,38.74101],[-105.176366,38.741328],[-105.176234,38.741519],[-105.176138,38.741723],[-105.176081,38.741945],[-105.176082,38.742243],[-105.176142,38.742441],[-105.176213,38.742636],[-105.176288,38.742775],[-105.176384,38.742904],[-105.176522,38.743062],[-105.176703,38.743228],[-105.177293,38.743739],[-105.177611,38.744078],[-105.177796,38.7443],[-105.177981,38.744568],[-105.178131,38.744793],[-105.17823,38.744992],[-105.178267,38.745124],[-105.178286,38.745192],[-105.178335,38.745459],[-105.178342,38.745666],[-105.178354,38.746127],[-105.178367,38.746622],[-105.178933,38.746595]]}}]}