{"type":"FeatureCollection","features":[{"type":"Feature","properties":{"agency":"Cuttyhunk Ferry Co.","shape_id":"4968"},"geometry":{"type":"LineString","coordinates":[[-70.9230147120056,41.4242219874925],[-70.923015364882,41.424221092622],[-70.922786536884,41.424493821442],[-70.922742740929,41.424526304763],[-70.92257556336,41.424546720901],[-70.922439691689,41.424519172551],[-70.921381220873,41.424463281378],[-70.919800721043,41.42436155489],[-70.919125806117,41.424425329992],[-70.918161212616,41.424561508059],[-70.916898893915,41.424742937598],[-70.916540479652,41.424821796222],[-70.914763835121,41.425419045227],[-70.913427743422,41.426052992197],[-70.889431295134,41.456785828924],[-70.885201320845,41.471072162399],[-70.882966910063,41.499788623237],[-70.883007012526,41.528042569089],[-70.883100153953,41.546072991706],[-70.882495921036,41.564186689708],[-70.889672040583,41.594874816119],[-70.901426690918,41.618654949811],[-70.907219223894,41.626289797249],[-70.910659978812,41.630241204423],[-70.910956903648,41.630589490426],[-70.912535924394,41.632168703192],[-70.914160542692,41.633777947787],[-70.914497700664,41.634040012964],[-70.914891466141,41.634099958139],[-70.916905285863,41.634143865747],[-70.918497479521,41.633774610735]]}},{"type":"Feature","properties":{"agency":"Cuttyhunk Ferry Co.","shape_id":"4970"},"geometry":{"type":"LineString","coordinates":[[-70.9185246941147,41.6337519346306],[-70.918524005886,41.633751042653],[-70.916907669647,41.634144818503],[-70.914920000113,41.634101894868],[-70.914512151688,41.634047945399],[-70.91266112216,41.632293919673],[-70.910889217797,41.630510776592],[-70.906009058367,41.624435352521],[-70.901405837017,41.618626545633],[-70.899397652889,41.614546808717],[-70.889664395861,41.59485644147],[-70.882458259213,41.564111866464],[-70.883010030011,41.526943689594],[-70.882901688969,41.501532044393],[-70.885169785113,41.472573436838],[-70.889414669302,41.456906701487],[-70.903092067833,41.439352744848],[-70.910204352417,41.430206472801],[-70.913436617971,41.426048156895],[-70.914765368185,41.425411022507],[-70.91660642032,41.424803044079],[-70.917025373302,41.424720535317],[-70.919155311448,41.424423859206],[-70.919820763471,41.424364503798],[-70.921489361666,41.424469061095],[-70.922100603069,41.424494952123],[-70.922447646884,41.424520843139],[-70.922586517247,41.424546479618],[-70.9227529463,41.424529371947],[-70.92301364895,41.424223619514]]}}]}