{"type":"FeatureCollection","features":[{"type":"Feature","properties":{"agency":"Dodger Area Rapid Transit","shape_id":"1_No direction_177171"},"geometry":{"type":"LineString","coordinates":[[-94.1859695278894,42.50509488990056],[-94.18606304028172,42.50509655145578],[-94.1861050239643,42.50526351387916],[-94.1907985094484,42.5046070061584],[-94.1909185315246,42.5050273249877],[-94.1928284537777,42.5047926530181],[-94.1926224075983,42.5039897630481],[-94.1914477689925,42.5041354642559],[-94.191423612251,42.504029524165],[-94.19144070920808,42.5041441535098],[-94.19071815083328,42.50424072307857],[-94.1908029382982,42.504602321856765],[-94.18866864685477,42.5049138955996],[-94.18817159972652,42.50303003709362],[-94.188184,42.503019],[-94.1882908,42.503004],[-94.188158,42.502916],[-94.1878787040037,42.50192632747587],[-94.186694,42.502084],[-94.186448,42.501132],[-94.186409,42.500799],[-94.186386,42.500554],[-94.186363,42.500273],[-94.18633,42.500076],[-94.186279,42.499944],[-94.186224,42.499818],[-94.186155,42.499705],[-94.186132,42.499671],[-94.186313541871,42.49960301698],[-94.186029,42.499522],[-94.186081,42.499473],[-94.186169,42.499383],[-94.186271,42.499264],[-94.186391,42.499087],[-94.187383,42.497192],[-94.187953,42.496167],[-94.188426,42.495303],[-94.189217,42.493834],[-94.189434,42.493403],[-94.189916,42.492476],[-94.1900008627081,42.492327240664615],[-94.1901845,42.4923842],[-94.190001,42.492327],[-94.190128,42.492103],[-94.19083,42.491068],[-94.191063,42.490728],[-94.19137,42.490298],[-94.191714,42.490386],[-94.192008,42.490454],[-94.192458,42.490587],[-94.192354,42.490791],[-94.192088,42.49135],[-94.192052,42.491407],[-94.191983,42.491461],[-94.191861,42.491512],[-94.191687,42.491553],[-94.191248,42.491634],[-94.191277,42.491707],[-94.191307,42.491767],[-94.191352,42.491797],[-94.191424,42.491807],[-94.19155093844608,42.49178800920885],[-94.191581,42.491783],[-94.191645,42.491761],[-94.191689,42.491724],[-94.191712,42.491685],[-94.191714,42.491638],[-94.191687,42.491553],[-94.191861,42.491512],[-94.191983,42.491461],[-94.192052,42.491407],[-94.192088,42.49135],[-94.192354,42.490791],[-94.192458,42.490587],[-94.192008,42.490454],[-94.192083,42.490383],[-94.192264,42.490293],[-94.192513,42.490159],[-94.192639,42.490106],[-94.192728,42.490069],[-94.192943,42.489988],[-94.193219,42.489895],[-94.193472,42.489842],[-94.193719,42.489824],[-94.193956,42.489808],[-94.194242,42.4898],[-94.194632,42.489797],[-94.19501,42.48979],[-94.195118,42.489787],[-94.195384,42.489763],[-94.195663,42.489694],[-94.195903,42.489665],[-94.19604,42.489657],[-94.196188,42.489659],[-94.196284,42.489664],[-94.19628514983084,42.48966406968672],[-94.196317,42.489666],[-94.196684,42.489705],[-94.196997,42.489737],[-94.197253,42.489751],[-94.197559,42.489711],[-94.197647,42.4897],[-94.19787,42.489665],[-94.198447,42.489576],[-94.198428,42.489056],[-94.19841,42.488003],[-94.198411,42.487262],[-94.1985583,42.4872616],[-94.198411,42.48726159984712],[-94.198411,42.487176],[-94.19982,42.486818],[-94.202317,42.486207],[-94.202335,42.486361],[-94.2022276,42.4863676],[-94.202396,42.486899],[-94.203501,42.486875],[-94.204875,42.486844],[-94.2049,42.486844],[-94.205063,42.486842],[-94.206409,42.486813],[-94.206404,42.486953],[-94.206431,42.487072],[-94.206484,42.487178],[-94.206666,42.487447],[-94.206722,42.487544],[-94.206765,42.487665],[-94.20677,42.487832],[-94.20673,42.488467],[-94.206702,42.488525],[-94.206765,42.487665],[-94.206722,42.487544],[-94.206666,42.487447],[-94.206484,42.487178],[-94.206431,42.487072],[-94.206404,42.486953],[-94.206409,42.486813],[-94.207007,42.4868],[-94.207257,42.486797],[-94.207494,42.486799],[-94.20749002631848,42.4868804604716],[-94.207467,42.487348],[-94.207458,42.487672],[-94.207451,42.48862],[-94.207447,42.489366],[-94.207441,42.490024],[-94.207441,42.49003026342272],[-94.20744278054916,42.49004293487107],[-94.2074235655524,42.49096164197317],[-94.2069441568754,42.490931379419806],[-94.20690580710136,42.49264691014855],[-94.2068957871814,42.493945564248975],[-94.2069260311413,42.49450415547338],[-94.20700148395294,42.495013423382375],[-94.20669112340904,42.49506272217394],[-94.20671981746418,42.495168507813815],[-94.2065513,42.4951768],[-94.20672596618816,42.49517757514886],[-94.206766,42.495336],[-94.206841,42.495558],[-94.206955,42.495821],[-94.207095,42.496085],[-94.207233,42.496304],[-94.207358,42.496551],[-94.207426,42.496702],[-94.207459,42.496813],[-94.207482,42.496982],[-94.207484,42.497108],[-94.207472,42.4976],[-94.207459,42.498106],[-94.20745998882232,42.49819796047424],[-94.2073506,42.4981986],[-94.20746,42.498199],[-94.207462,42.498613],[-94.207465,42.499103],[-94.207204,42.499112],[-94.205398,42.499008],[-94.205067,42.498989],[-94.203411,42.498903],[-94.203407,42.498901],[-94.203421376007,42.498795223073],[-94.203262,42.498894],[-94.2032467058576,42.49689295517621],[-94.1987671317489,42.496705559004766],[-94.19787757093336,42.497080350786746],[-94.19694968499742,42.497707271377685],[-94.1970295,42.4977715],[-94.196808,42.497803],[-94.19692414706016,42.49784627671914],[-94.19681,42.497801],[-94.1967,42.497712],[-94.195906,42.497021],[-94.195449,42.49665],[-94.195003,42.496292],[-94.194524,42.495887],[-94.19415663030004,42.49555627565663],[-94.194248,42.4955011],[-94.194123,42.495526],[-94.193674,42.495135],[-94.193228,42.49476],[-94.192142,42.493698],[-94.191972,42.49355],[-94.191546,42.493277],[-94.190734,42.492769],[-94.190579,42.49269],[-94.190411,42.492631],[-94.189916,42.492476],[-94.189853689901,42.49260234486087],[-94.18985155155336,42.49260234486087],[-94.1897124,42.4925306],[-94.189434,42.493403],[-94.189217,42.493834],[-94.188426,42.495303],[-94.187953,42.496167],[-94.187383,42.497192],[-94.186391,42.499087],[-94.186271,42.499264],[-94.186169,42.499383],[-94.186081,42.499473],[-94.186029,42.499522],[-94.18622318693367,42.49982101763388],[-94.186021732729,42.499874348081],[-94.1862274848019,42.4998210176339],[-94.186279,42.499944],[-94.18633,42.500076],[-94.186363,42.500273],[-94.186386,42.500554],[-94.186409,42.500799],[-94.186448,42.501132],[-94.186691,42.502083],[-94.186951,42.503078],[-94.186653,42.50312],[-94.18634,42.503162],[-94.185608,42.503262],[-94.185707,42.503685],[-94.185829,42.504173],[-94.185844,42.504257],[-94.185867,42.504345],[-94.18606467942962,42.505094134639535],[-94.1859695278894,42.50509488990056]]}},{"type":"Feature","properties":{"agency":"Dodger Area Rapid Transit","shape_id":"1_No direction_Request"},"geometry":{"type":"LineString","coordinates":[[-94.1859695278894,42.50509488990056],[-94.18606304028172,42.50509655145578],[-94.1861050239643,42.50526351387916],[-94.1907985094484,42.5046070061584],[-94.1909185315246,42.5050273249877],[-94.1928284537777,42.5047926530181],[-94.1926224075983,42.5039897630481],[-94.1914477689925,42.5041354642559],[-94.191423612251,42.504029524165],[-94.19144070920808,42.5041441535098],[-94.19071815083328,42.50424072307857],[-94.1908029382982,42.504602321856765],[-94.18866864685477,42.5049138955996],[-94.18817159972652,42.50303003709362],[-94.188184,42.503019],[-94.1882908,42.503004],[-94.188158,42.502916],[-94.1878787040037,42.50192632747587],[-94.186694,42.502084],[-94.186448,42.501132],[-94.186409,42.500799],[-94.186386,42.500554],[-94.186363,42.500273],[-94.18633,42.500076],[-94.186279,42.499944],[-94.186224,42.499818],[-94.186155,42.499705],[-94.186132,42.499671],[-94.186313541871,42.49960301698],[-94.186029,42.499522],[-94.186081,42.499473],[-94.186169,42.499383],[-94.186271,42.499264],[-94.186391,42.499087],[-94.187383,42.497192],[-94.187953,42.496167],[-94.188426,42.495303],[-94.189217,42.493834],[-94.189434,42.493403],[-94.189916,42.492476],[-94.1900008627081,42.492327240664615],[-94.1901845,42.4923842],[-94.190001,42.492327],[-94.190128,42.492103],[-94.19083,42.491068],[-94.191063,42.490728],[-94.19137,42.490298],[-94.191714,42.490386],[-94.192008,42.490454],[-94.192458,42.490587],[-94.192354,42.490791],[-94.192088,42.49135],[-94.192052,42.491407],[-94.191983,42.491461],[-94.191861,42.491512],[-94.191687,42.491553],[-94.191248,42.491634],[-94.191277,42.491707],[-94.191307,42.491767],[-94.191352,42.491797],[-94.191424,42.491807],[-94.19155093844608,42.49178800920885],[-94.191581,42.491783],[-94.191645,42.491761],[-94.191689,42.491724],[-94.191712,42.491685],[-94.191714,42.491638],[-94.191687,42.491553],[-94.191861,42.491512],[-94.191983,42.491461],[-94.192052,42.491407],[-94.192088,42.49135],[-94.192354,42.490791],[-94.192458,42.490587],[-94.192008,42.490454],[-94.192083,42.490383],[-94.192264,42.490293],[-94.192513,42.490159],[-94.192639,42.490106],[-94.192728,42.490069],[-94.192943,42.489988],[-94.193219,42.489895],[-94.193472,42.489842],[-94.193719,42.489824],[-94.193956,42.489808],[-94.194242,42.4898],[-94.194632,42.489797],[-94.19501,42.48979],[-94.195118,42.489787],[-94.195384,42.489763],[-94.195663,42.489694],[-94.195903,42.489665],[-94.19604,42.489657],[-94.196188,42.489659],[-94.196284,42.489664],[-94.19628514983084,42.48966406968672],[-94.196317,42.489666],[-94.196684,42.489705],[-94.196997,42.489737],[-94.197253,42.489751],[-94.197559,42.489711],[-94.197647,42.4897],[-94.19787,42.489665],[-94.198447,42.489576],[-94.198428,42.489056],[-94.19841,42.488003],[-94.198411,42.487262],[-94.1985583,42.4872616],[-94.198411,42.48726159984712],[-94.198411,42.487176],[-94.19982,42.486818],[-94.202317,42.486207],[-94.202335,42.486361],[-94.2022276,42.4863676],[-94.202396,42.486899],[-94.203501,42.486875],[-94.204875,42.486844],[-94.2049,42.486844],[-94.205063,42.486842],[-94.206409,42.486813],[-94.206404,42.486953],[-94.206431,42.487072],[-94.206484,42.487178],[-94.206666,42.487447],[-94.206722,42.487544],[-94.206765,42.487665],[-94.20677,42.487832],[-94.20673,42.488467],[-94.206702,42.488525],[-94.206765,42.487665],[-94.206722,42.487544],[-94.206666,42.487447],[-94.206484,42.487178],[-94.206431,42.487072],[-94.206404,42.486953],[-94.206409,42.486813],[-94.207007,42.4868],[-94.207257,42.486797],[-94.207494,42.486799],[-94.20749002631848,42.4868804604716],[-94.207467,42.487348],[-94.207458,42.487672],[-94.207451,42.48862],[-94.207447,42.489366],[-94.207441,42.490024],[-94.207441,42.49003026342272],[-94.20744278054916,42.49004293487107],[-94.2074235655524,42.49096164197317],[-94.2069441568754,42.490931379419806],[-94.20690580710136,42.49264691014855],[-94.2068957871814,42.493945564248975],[-94.2069260311413,42.49450415547338],[-94.20700148395294,42.495013423382375],[-94.20669112340904,42.49506272217394],[-94.20671981746418,42.495168507813815],[-94.2065513,42.4951768],[-94.20672596618816,42.49517757514886],[-94.206766,42.495336],[-94.206841,42.495558],[-94.206955,42.495821],[-94.207095,42.496085],[-94.207233,42.496304],[-94.207358,42.496551],[-94.207426,42.496702],[-94.207459,42.496813],[-94.207482,42.496982],[-94.207484,42.497108],[-94.207472,42.4976],[-94.207459,42.498106],[-94.20745998882232,42.49819796047424],[-94.2073506,42.4981986],[-94.20746,42.498199],[-94.207462,42.498613],[-94.207465,42.499103],[-94.207204,42.499112],[-94.205398,42.499008],[-94.205067,42.498989],[-94.203411,42.498903],[-94.203407,42.498901],[-94.203421376007,42.498795223073],[-94.203262,42.498894],[-94.2032467058576,42.49689295517621],[-94.1987671317489,42.496705559004766],[-94.19787757093336,42.497080350786746],[-94.19694968499742,42.497707271377685],[-94.1970295,42.4977715],[-94.196808,42.497803],[-94.19692414706016,42.49784627671914],[-94.19681,42.497801],[-94.1967,42.497712],[-94.195906,42.497021],[-94.195449,42.49665],[-94.195003,42.496292],[-94.194524,42.495887],[-94.19415663030004,42.49555627565663],[-94.194248,42.4955011],[-94.194123,42.495526],[-94.193674,42.495135],[-94.193228,42.49476],[-94.192142,42.493698],[-94.191972,42.49355],[-94.191546,42.493277],[-94.190734,42.492769],[-94.190579,42.49269],[-94.190411,42.492631],[-94.189916,42.492476],[-94.189853689901,42.49260234486087],[-94.18985155155336,42.49260234486087],[-94.1897124,42.4925306],[-94.189434,42.493403],[-94.189217,42.493834],[-94.188426,42.495303],[-94.187953,42.496167],[-94.187383,42.497192],[-94.186391,42.499087],[-94.186271,42.499264],[-94.186169,42.499383],[-94.186081,42.499473],[-94.186029,42.499522],[-94.18622318693367,42.49982101763388],[-94.186021732729,42.499874348081],[-94.1862274848019,42.4998210176339],[-94.186279,42.499944],[-94.18633,42.500076],[-94.186363,42.500273],[-94.186386,42.500554],[-94.186409,42.500799],[-94.186448,42.501132],[-94.186691,42.502083],[-94.186951,42.503078],[-94.186653,42.50312],[-94.18634,42.503162],[-94.185608,42.503262],[-94.185707,42.503685],[-94.185829,42.504173],[-94.185844,42.504257],[-94.185867,42.504345],[-94.18606467942962,42.505094134639535],[-94.1859695278894,42.50509488990056]]}},{"type":"Feature","properties":{"agency":"Dodger Area Rapid Transit","shape_id":"2_No direction_898209"},"geometry":{"type":"LineString","coordinates":[[-94.1859695278894,42.50509488990056],[-94.186066,42.505089],[-94.186111,42.50526],[-94.187462,42.505081],[-94.18866,42.504913],[-94.18894314501644,42.50599663111262],[-94.18894689241786,42.5060038882894],[-94.189334,42.507479],[-94.189608,42.508521],[-94.189734,42.509002],[-94.189865,42.509499],[-94.1901269761236,42.5104677694927],[-94.19014,42.510464],[-94.19046,42.510983],[-94.190735,42.511436],[-94.190948,42.511845],[-94.191078,42.512028],[-94.191444,42.512493],[-94.191628,42.512726],[-94.191956,42.513126],[-94.192146,42.513424],[-94.192177,42.513474],[-94.1922,42.513523],[-94.192215,42.513569],[-94.192238,42.513618],[-94.192635,42.513538],[-94.193268,42.513409],[-94.194275,42.513203],[-94.194481,42.513172],[-94.195709,42.512989],[-94.195938,42.512955],[-94.19635,42.512894],[-94.196999,42.512806],[-94.198387,42.512596],[-94.198797,42.512535],[-94.19858,42.511708],[-94.198543,42.511565],[-94.198444,42.511188],[-94.199476,42.511047],[-94.201087,42.510804],[-94.201217,42.510784],[-94.201991,42.511232],[-94.202289,42.51145],[-94.202469,42.511586],[-94.202632,42.511736],[-94.202777,42.511882],[-94.202917,42.512045],[-94.203149,42.512295],[-94.20401,42.513293],[-94.204069,42.513357],[-94.204212,42.513482],[-94.20437,42.513596],[-94.204475,42.513662],[-94.204553,42.513712],[-94.204755,42.51383],[-94.20524,42.514094],[-94.205894,42.51442],[-94.205966,42.514459],[-94.206566,42.514781],[-94.207193,42.5151],[-94.207291,42.515124],[-94.207386,42.515146],[-94.207489,42.515164],[-94.20828,42.515188],[-94.209593,42.515231],[-94.209978,42.515243],[-94.210835,42.515271],[-94.212353,42.515313],[-94.213684,42.51536],[-94.214519,42.515378],[-94.214899,42.515392],[-94.215204,42.515399],[-94.216003,42.515419],[-94.216984,42.515433],[-94.217818,42.515447],[-94.218825,42.515451],[-94.219126,42.515452],[-94.21947,42.515449],[-94.219599,42.515448],[-94.219595,42.515572],[-94.21976,42.515613],[-94.220008,42.515632],[-94.220154,42.515634],[-94.220243,42.515636],[-94.22096,42.515649],[-94.221149,42.515654],[-94.221376,42.515669],[-94.221628,42.515717],[-94.222195,42.515847],[-94.222404,42.515888],[-94.222619,42.51589],[-94.22302858493136,42.51613389753581],[-94.22303409049852,42.5161379122566],[-94.22330441973456,42.5163310398525],[-94.22337590698314,42.51634717114581],[-94.223275,42.51606],[-94.223202,42.515973],[-94.223074,42.51591],[-94.222938,42.515883],[-94.222816,42.515879],[-94.222619,42.51589],[-94.222404,42.515888],[-94.222195,42.515847],[-94.221628,42.515717],[-94.221376,42.515669],[-94.221149,42.515654],[-94.22096,42.515649],[-94.220243,42.515636],[-94.220008,42.515632],[-94.21976,42.515613],[-94.219595,42.515572],[-94.219599,42.515448],[-94.21947,42.515449],[-94.219126,42.515452],[-94.218825,42.515451],[-94.217818,42.515447],[-94.216984,42.515433],[-94.216003,42.515419],[-94.214899,42.515392],[-94.214721,42.515385],[-94.214519,42.515378],[-94.213684,42.51536],[-94.212353,42.515313],[-94.210835,42.515271],[-94.209593,42.515231],[-94.20828,42.515188],[-94.207489,42.515164],[-94.207386,42.515146],[-94.207291,42.515124],[-94.20727,42.517196],[-94.207271,42.517315],[-94.207279,42.519201],[-94.207281,42.519693],[-94.206207,42.5197],[-94.203956,42.519722],[-94.203956,42.519822],[-94.20396620540971,42.52178623533365],[-94.20276313087656,42.52176838441099],[-94.20249957578376,42.5217446054701],[-94.20214248770336,42.52164884935237],[-94.2018272396408,42.52154466605873],[-94.2017576736629,42.52151071613724],[-94.20173743360785,42.52146080090088],[-94.20176012642028,42.52132757691811],[-94.202025,42.520935],[-94.20239,42.520392],[-94.202565,42.520068],[-94.202695,42.519736],[-94.202536,42.519736],[-94.201675,42.519444],[-94.202268,42.518602],[-94.202343,42.518494],[-94.203238,42.517208],[-94.203381,42.517125],[-94.203489,42.517043],[-94.20449,42.515232],[-94.204531,42.515157],[-94.204542,42.514118],[-94.204542,42.514115],[-94.204553,42.513712],[-94.20437,42.513596],[-94.204212,42.513482],[-94.204069,42.513357],[-94.20401,42.513293],[-94.203149,42.512295],[-94.202917,42.512045],[-94.202777,42.511882],[-94.202632,42.511736],[-94.202469,42.511586],[-94.202289,42.51145],[-94.201991,42.511232],[-94.201217,42.510784],[-94.201134,42.51073],[-94.200582,42.510372],[-94.199399,42.509656],[-94.19921,42.509556],[-94.199123,42.509522],[-94.199036,42.509507],[-94.198347,42.509611],[-94.19804,42.509652],[-94.197946,42.509664],[-94.197164,42.509765],[-94.196418,42.509861],[-94.196226,42.509886],[-94.195569,42.509971],[-94.195262,42.50871],[-94.194667,42.506453],[-94.194531,42.505981],[-94.194328,42.505196],[-94.194212,42.50521],[-94.192983,42.505357],[-94.19159,42.505569],[-94.190308,42.505743],[-94.18884436819998,42.50595198974241],[-94.1888335680252,42.50595353188282],[-94.1900343,42.5105237],[-94.18881409387956,42.50595631256624],[-94.1888403991289,42.5059522223995],[-94.192649493218,42.51358429334488],[-94.19595316477562,42.51300609469493],[-94.198397970047,42.512635458511],[-94.1888403991289,42.5059522223995],[-94.2011118,42.5108934],[-94.204391974854,42.513733491473],[-94.2099738,42.5153103],[-94.1888403991289,42.5059522223995],[-94.215200969397,42.515457143531],[-94.220151887896,42.515689232414],[-94.223038545239,42.516174647107],[-94.1888403991289,42.5059522223995],[-94.2147267,42.5152985],[-94.2096519,42.5151482],[-94.207235618799,42.51731455922],[-94.1888403991289,42.5059522223995],[-94.2038369,42.5198218],[-94.202097593424,42.520961866853],[-94.202417208205,42.518521546795],[-94.1888403991289,42.5059522223995],[-94.2045665,42.515255],[-94.204667644379,42.514119312473],[-94.2012405,42.5106404],[-94.1888403991289,42.5059522223995],[-94.196316,42.5097763],[-94.1941971,42.5051396],[-94.1888273,42.505891],[-94.1888403991289,42.5059522223995],[-94.187714,42.506096],[-94.187462,42.505081],[-94.187233,42.504166],[-94.18721,42.50407],[-94.187057,42.504093],[-94.186638,42.50415],[-94.185982,42.504242],[-94.185844,42.504257],[-94.185867,42.504345],[-94.186066,42.505093],[-94.1859695278894,42.50509488990056]]}},{"type":"Feature","properties":{"agency":"Dodger Area Rapid Transit","shape_id":"2_No direction_Request"},"geometry":{"type":"LineString","coordinates":[[-94.1859695278894,42.50509488990056],[-94.186066,42.505089],[-94.186111,42.50526],[-94.187462,42.505081],[-94.18866,42.504913],[-94.18894314501644,42.50599663111262],[-94.18894689241786,42.5060038882894],[-94.189334,42.507479],[-94.189608,42.508521],[-94.189734,42.509002],[-94.189865,42.509499],[-94.1901269761236,42.5104677694927],[-94.19014,42.510464],[-94.19046,42.510983],[-94.190735,42.511436],[-94.190948,42.511845],[-94.191078,42.512028],[-94.191444,42.512493],[-94.191628,42.512726],[-94.191956,42.513126],[-94.192146,42.513424],[-94.192177,42.513474],[-94.1922,42.513523],[-94.192215,42.513569],[-94.192238,42.513618],[-94.192635,42.513538],[-94.193268,42.513409],[-94.194275,42.513203],[-94.194481,42.513172],[-94.195709,42.512989],[-94.195938,42.512955],[-94.19635,42.512894],[-94.196999,42.512806],[-94.198387,42.512596],[-94.198797,42.512535],[-94.19858,42.511708],[-94.198543,42.511565],[-94.198444,42.511188],[-94.199476,42.511047],[-94.201087,42.510804],[-94.201217,42.510784],[-94.201991,42.511232],[-94.202289,42.51145],[-94.202469,42.511586],[-94.202632,42.511736],[-94.202777,42.511882],[-94.202917,42.512045],[-94.203149,42.512295],[-94.20401,42.513293],[-94.204069,42.513357],[-94.204212,42.513482],[-94.20437,42.513596],[-94.204475,42.513662],[-94.204553,42.513712],[-94.204755,42.51383],[-94.20524,42.514094],[-94.205894,42.51442],[-94.205966,42.514459],[-94.206566,42.514781],[-94.207193,42.5151],[-94.207291,42.515124],[-94.207386,42.515146],[-94.207489,42.515164],[-94.20828,42.515188],[-94.209593,42.515231],[-94.209978,42.515243],[-94.210835,42.515271],[-94.212353,42.515313],[-94.213684,42.51536],[-94.214519,42.515378],[-94.214899,42.515392],[-94.215204,42.515399],[-94.216003,42.515419],[-94.216984,42.515433],[-94.217818,42.515447],[-94.218825,42.515451],[-94.219126,42.515452],[-94.21947,42.515449],[-94.219599,42.515448],[-94.219595,42.515572],[-94.21976,42.515613],[-94.220008,42.515632],[-94.220154,42.515634],[-94.220243,42.515636],[-94.22096,42.515649],[-94.221149,42.515654],[-94.221376,42.515669],[-94.221628,42.515717],[-94.222195,42.515847],[-94.222404,42.515888],[-94.222619,42.51589],[-94.22302858493136,42.51613389753581],[-94.22303409049852,42.5161379122566],[-94.22330441973456,42.5163310398525],[-94.22337590698314,42.51634717114581],[-94.223275,42.51606],[-94.223202,42.515973],[-94.223074,42.51591],[-94.222938,42.515883],[-94.222816,42.515879],[-94.222619,42.51589],[-94.222404,42.515888],[-94.222195,42.515847],[-94.221628,42.515717],[-94.221376,42.515669],[-94.221149,42.515654],[-94.22096,42.515649],[-94.220243,42.515636],[-94.220008,42.515632],[-94.21976,42.515613],[-94.219595,42.515572],[-94.219599,42.515448],[-94.21947,42.515449],[-94.219126,42.515452],[-94.218825,42.515451],[-94.217818,42.515447],[-94.216984,42.515433],[-94.216003,42.515419],[-94.214899,42.515392],[-94.214721,42.515385],[-94.214519,42.515378],[-94.213684,42.51536],[-94.212353,42.515313],[-94.210835,42.515271],[-94.209593,42.515231],[-94.20828,42.515188],[-94.207489,42.515164],[-94.207386,42.515146],[-94.207291,42.515124],[-94.20727,42.517196],[-94.207271,42.517315],[-94.207279,42.519201],[-94.207281,42.519693],[-94.206207,42.5197],[-94.203956,42.519722],[-94.203956,42.519822],[-94.20396620540971,42.52178623533365],[-94.20276313087656,42.52176838441099],[-94.20249957578376,42.5217446054701],[-94.20214248770336,42.52164884935237],[-94.2018272396408,42.52154466605873],[-94.2017576736629,42.52151071613724],[-94.20173743360785,42.52146080090088],[-94.20176012642028,42.52132757691811],[-94.202025,42.520935],[-94.20239,42.520392],[-94.202565,42.520068],[-94.202695,42.519736],[-94.202536,42.519736],[-94.201675,42.519444],[-94.202268,42.518602],[-94.202343,42.518494],[-94.203238,42.517208],[-94.203381,42.517125],[-94.203489,42.517043],[-94.20449,42.515232],[-94.204531,42.515157],[-94.204542,42.514118],[-94.204542,42.514115],[-94.204553,42.513712],[-94.20437,42.513596],[-94.204212,42.513482],[-94.204069,42.513357],[-94.20401,42.513293],[-94.203149,42.512295],[-94.202917,42.512045],[-94.202777,42.511882],[-94.202632,42.511736],[-94.202469,42.511586],[-94.202289,42.51145],[-94.201991,42.511232],[-94.201217,42.510784],[-94.201134,42.51073],[-94.200582,42.510372],[-94.199399,42.509656],[-94.19921,42.509556],[-94.199123,42.509522],[-94.199036,42.509507],[-94.198347,42.509611],[-94.19804,42.509652],[-94.197946,42.509664],[-94.197164,42.509765],[-94.196418,42.509861],[-94.196226,42.509886],[-94.195569,42.509971],[-94.195262,42.50871],[-94.194667,42.506453],[-94.194531,42.505981],[-94.194328,42.505196],[-94.194212,42.50521],[-94.192983,42.505357],[-94.19159,42.505569],[-94.190308,42.505743],[-94.18884436819998,42.50595198974241],[-94.1888335680252,42.50595353188282],[-94.1900343,42.5105237],[-94.18881409387956,42.50595631256624],[-94.1888403991289,42.5059522223995],[-94.192649493218,42.51358429334488],[-94.19595316477562,42.51300609469493],[-94.198397970047,42.512635458511],[-94.1888403991289,42.5059522223995],[-94.2011118,42.5108934],[-94.204391974854,42.513733491473],[-94.2099738,42.5153103],[-94.1888403991289,42.5059522223995],[-94.215200969397,42.515457143531],[-94.220151887896,42.515689232414],[-94.223038545239,42.516174647107],[-94.1888403991289,42.5059522223995],[-94.2147267,42.5152985],[-94.2096519,42.5151482],[-94.207235618799,42.51731455922],[-94.1888403991289,42.5059522223995],[-94.2038369,42.5198218],[-94.202097593424,42.520961866853],[-94.202417208205,42.518521546795],[-94.1888403991289,42.5059522223995],[-94.2045665,42.515255],[-94.204667644379,42.514119312473],[-94.2012405,42.5106404],[-94.1888403991289,42.5059522223995],[-94.196316,42.5097763],[-94.1941971,42.5051396],[-94.1888273,42.505891],[-94.1888403991289,42.5059522223995],[-94.187714,42.506096],[-94.187462,42.505081],[-94.187233,42.504166],[-94.18721,42.50407],[-94.187057,42.504093],[-94.186638,42.50415],[-94.185982,42.504242],[-94.185844,42.504257],[-94.185867,42.504345],[-94.186066,42.505093],[-94.1859695278894,42.50509488990056]]}},{"type":"Feature","properties":{"agency":"Dodger Area Rapid Transit","shape_id":"3_No direction_177180"},"geometry":{"type":"LineString","coordinates":[[-94.1859695278894,42.50509488990056],[-94.18607139389584,42.50508964383568],[-94.18611090555824,42.50525858996252],[-94.183426,42.505627],[-94.183449,42.505707],[-94.183449,42.505725],[-94.1833341,42.5057407],[-94.183687,42.506644],[-94.183945,42.507641],[-94.183965,42.507717],[-94.184196,42.508611],[-94.184328,42.509124],[-94.184462,42.50964],[-94.18472,42.510639],[-94.184851,42.511145],[-94.184978,42.511637],[-94.184829,42.511657],[-94.1848093,42.5115776],[-94.183607,42.511824],[-94.18283,42.511879],[-94.181193,42.511884],[-94.179567,42.511904],[-94.179414,42.511906],[-94.177938,42.511922],[-94.176425,42.511939],[-94.175009,42.511953],[-94.17493,42.511955],[-94.17370762838284,42.51198230972639],[-94.17371293499792,42.51287711516139],[-94.17414174071423,42.512926013573775],[-94.17603063033827,42.51292500019832],[-94.176030679717,42.5129758188],[-94.176031,42.512925],[-94.176452,42.512925],[-94.177952,42.512903],[-94.177981,42.513928],[-94.17799895927844,42.51500841183699],[-94.1778463,42.5150098],[-94.177999030146,42.51501267515704],[-94.177999030146,42.51502188319597],[-94.178024,42.515964],[-94.178039,42.516662],[-94.178042,42.516823],[-94.178049,42.517127],[-94.178053,42.517302],[-94.178055,42.517663],[-94.178066,42.518233],[-94.178071,42.518511],[-94.178075,42.518705],[-94.178085,42.519202],[-94.177916234979,42.519204234357],[-94.17808501135237,42.51920266222142],[-94.178088,42.519377],[-94.178099,42.519977],[-94.178086,42.520246],[-94.178084,42.520536],[-94.17808,42.520668],[-94.178062,42.521116],[-94.178054,42.521765],[-94.17805,42.521939],[-94.178033,42.522673],[-94.178031,42.522739],[-94.178019,42.523978],[-94.178017,42.524453],[-94.178014,42.525279],[-94.178014,42.525364],[-94.17801380353522,42.526590874663896],[-94.17801130508684,42.5265890333977],[-94.1780111955742,42.52659300755767],[-94.1778302,42.5265903],[-94.178001,42.526963],[-94.177997,42.527409],[-94.177997,42.528922],[-94.178,42.529044],[-94.178005,42.529392],[-94.178013,42.53107],[-94.178016,42.531259],[-94.178027,42.531681],[-94.177914,42.531682],[-94.177748,42.531684],[-94.176985,42.531694],[-94.176779,42.531697],[-94.1758380449546,42.5317053789627],[-94.1758402539843,42.5299844395198],[-94.1765960508389,42.5299655512666],[-94.176625,42.531561],[-94.176560903086,42.531562335044],[-94.176629,42.531699],[-94.176779,42.531697],[-94.176985,42.531694],[-94.177748,42.531684],[-94.177914,42.531682],[-94.178027,42.531681],[-94.178068,42.533495],[-94.178071,42.533665],[-94.178083,42.534403],[-94.178115,42.536339],[-94.178119,42.536593],[-94.178395,42.536595],[-94.179067,42.536583],[-94.17973850671918,42.53655378180227],[-94.17971033187663,42.534384482640746],[-94.178083,42.534403],[-94.17807080583152,42.5336648463344],[-94.177946801836,42.533665963101],[-94.179069356407,42.536627119116],[-94.178068,42.533495],[-94.17828768977776,42.53348800987071],[-94.178290718121,42.533539692265],[-94.178288,42.533488],[-94.178858,42.533469],[-94.179858,42.533436],[-94.180835,42.533409],[-94.181856,42.533382],[-94.182503,42.533365],[-94.182902,42.533329],[-94.182911,42.533235],[-94.182913,42.533208],[-94.182903,42.532693],[-94.182899,42.532471],[-94.182903,42.532062],[-94.182946,42.5319],[-94.182988,42.53184],[-94.183013,42.531806],[-94.183216,42.531643],[-94.183702,42.531274],[-94.183815,42.531179],[-94.18391,42.531091],[-94.18396,42.531],[-94.18398,42.530847],[-94.183986,42.530525],[-94.183979,42.530165],[-94.183977,42.530051],[-94.1840637,42.5300495],[-94.183953,42.528733],[-94.183983,42.528496],[-94.184047,42.528249],[-94.184169,42.528002],[-94.184325,42.527772],[-94.184459,42.527593],[-94.185818,42.526356],[-94.186019,42.526173],[-94.186251,42.525961],[-94.186256,42.525959],[-94.1863811,42.5260329],[-94.186638,42.525612],[-94.186935,42.525238],[-94.187103,42.524925],[-94.187195,42.524704],[-94.187233,42.524414],[-94.187233,42.524193],[-94.187241,42.523151],[-94.187241,42.522984],[-94.187233,42.522003],[-94.187225,42.520988],[-94.186554,42.521004],[-94.186516,42.521004],[-94.18624134939836,42.52100333745352],[-94.18584723645444,42.521010881621976],[-94.18566127732238,42.52039412039605],[-94.18561496370876,42.51988530274724],[-94.18449903274916,42.51946407211474],[-94.18396359415657,42.5194483031363],[-94.18354937469137,42.51989237372936],[-94.18362468732144,42.52022542460284],[-94.18395104205166,42.52063248437122],[-94.18383807310651,42.52092852617346],[-94.1835242704812,42.521492851972994],[-94.18350074551915,42.52173841144179],[-94.18359372508502,42.522051681005365],[-94.18393907775838,42.522227894445024],[-94.18458993471964,42.52219363075977],[-94.1849220045976,42.52196846893091],[-94.18515670727685,42.52150063001372],[-94.18532938361352,42.52126567591611],[-94.18548234390944,42.52114607272452],[-94.18567473628686,42.52107966996158],[-94.18582909581006,42.52102118069504],[-94.18597972107024,42.52102118069504],[-94.185985627985,42.521061130025],[-94.185989,42.521011],[-94.18741536826047,42.52098501151033],[-94.1874164,42.5210158],[-94.187416,42.520985],[-94.187415,42.520985],[-94.188449,42.52096],[-94.188421,42.519496],[-94.188417,42.519249],[-94.188422,42.518935],[-94.188465,42.518748],[-94.188577,42.518594],[-94.188747,42.518464],[-94.189088,42.518268],[-94.189436,42.518065],[-94.189488182875,42.518112609635],[-94.189438,42.518063],[-94.189568,42.51799],[-94.189804,42.517883],[-94.190079,42.517826],[-94.191238,42.517662],[-94.191299,42.517906],[-94.191376,42.518204],[-94.191635,42.519192],[-94.19186340983592,42.51915709019975],[-94.19187648401886,42.51920356148926],[-94.191864,42.519157],[-94.193596,42.518898],[-94.193481,42.518456],[-94.193336,42.517902],[-94.193199,42.517376],[-94.193077,42.516899],[-94.193001,42.516617],[-94.192955,42.516415],[-94.19312875971882,42.51638819135767],[-94.1931483,42.516457],[-94.19313,42.516388],[-94.19503,42.516102],[-94.197113,42.515789],[-94.196861,42.51482],[-94.19684767284669,42.514770910794304],[-94.1969705,42.5147528],[-94.196602,42.513866],[-94.19635,42.512894],[-94.195709,42.512989],[-94.194481,42.513172],[-94.194275,42.513203],[-94.193268,42.513409],[-94.192421,42.51358],[-94.192238,42.513618],[-94.192215,42.513569],[-94.1922,42.513523],[-94.192177,42.513474],[-94.192146,42.513424],[-94.191956,42.513126],[-94.191628,42.512726],[-94.191444,42.512493],[-94.190712,42.512852],[-94.190483,42.51292],[-94.190285,42.512959],[-94.18985,42.51302],[-94.188148,42.513264],[-94.188118,42.51313],[-94.18812,42.513131],[-94.1882372,42.5131158],[-94.188074,42.512934],[-94.188029,42.512757],[-94.187903,42.512271],[-94.187657,42.511271],[-94.187532,42.510839],[-94.187515,42.510775],[-94.18738,42.510251],[-94.187279,42.509862],[-94.187254,42.509764],[-94.1873306,42.5097526],[-94.18725385428424,42.50976343946437],[-94.18713,42.509287],[-94.187018,42.508853],[-94.18687,42.508281],[-94.186758,42.507851],[-94.186612,42.507287],[-94.18646170748887,42.50730835410786],[-94.186447,42.507309],[-94.186430720768,42.50723426154],[-94.185471,42.507439],[-94.185272,42.507465],[-94.185013,42.506462],[-94.184753,42.505447],[-94.184532,42.504539],[-94.184509,42.504448],[-94.184631,42.504433],[-94.18541,42.504322],[-94.185745,42.504272],[-94.185844,42.504257],[-94.185867,42.504345],[-94.1860583921695,42.505081679404896],[-94.1859695278894,42.50509488990056]]}},{"type":"Feature","properties":{"agency":"Dodger Area Rapid Transit","shape_id":"3_No direction_Request"},"geometry":{"type":"LineString","coordinates":[[-94.1859695278894,42.50509488990056],[-94.18607139389584,42.50508964383568],[-94.18611090555824,42.50525858996252],[-94.183426,42.505627],[-94.183449,42.505707],[-94.183449,42.505725],[-94.1833341,42.5057407],[-94.183687,42.506644],[-94.183945,42.507641],[-94.183965,42.507717],[-94.184196,42.508611],[-94.184328,42.509124],[-94.184462,42.50964],[-94.18472,42.510639],[-94.184851,42.511145],[-94.184978,42.511637],[-94.184829,42.511657],[-94.1848093,42.5115776],[-94.183607,42.511824],[-94.18283,42.511879],[-94.181193,42.511884],[-94.179567,42.511904],[-94.179414,42.511906],[-94.177938,42.511922],[-94.176425,42.511939],[-94.175009,42.511953],[-94.17493,42.511955],[-94.17370762838284,42.51198230972639],[-94.17371293499792,42.51287711516139],[-94.17414174071423,42.512926013573775],[-94.17603063033827,42.51292500019832],[-94.176030679717,42.5129758188],[-94.176031,42.512925],[-94.176452,42.512925],[-94.177952,42.512903],[-94.177981,42.513928],[-94.17799895927844,42.51500841183699],[-94.1778463,42.5150098],[-94.177999030146,42.51501267515704],[-94.177999030146,42.51502188319597],[-94.178024,42.515964],[-94.178039,42.516662],[-94.178042,42.516823],[-94.178049,42.517127],[-94.178053,42.517302],[-94.178055,42.517663],[-94.178066,42.518233],[-94.178071,42.518511],[-94.178075,42.518705],[-94.178085,42.519202],[-94.177916234979,42.519204234357],[-94.17808501135237,42.51920266222142],[-94.178088,42.519377],[-94.178099,42.519977],[-94.178086,42.520246],[-94.178084,42.520536],[-94.17808,42.520668],[-94.178062,42.521116],[-94.178054,42.521765],[-94.17805,42.521939],[-94.178033,42.522673],[-94.178031,42.522739],[-94.178019,42.523978],[-94.178017,42.524453],[-94.178014,42.525279],[-94.178014,42.525364],[-94.17801380353522,42.526590874663896],[-94.17801130508684,42.5265890333977],[-94.1780111955742,42.52659300755767],[-94.1778302,42.5265903],[-94.178001,42.526963],[-94.177997,42.527409],[-94.177997,42.528922],[-94.178,42.529044],[-94.178005,42.529392],[-94.178013,42.53107],[-94.178016,42.531259],[-94.178027,42.531681],[-94.177914,42.531682],[-94.177748,42.531684],[-94.176985,42.531694],[-94.176779,42.531697],[-94.1758380449546,42.5317053789627],[-94.1758402539843,42.5299844395198],[-94.1765960508389,42.5299655512666],[-94.176625,42.531561],[-94.176560903086,42.531562335044],[-94.176629,42.531699],[-94.176779,42.531697],[-94.176985,42.531694],[-94.177748,42.531684],[-94.177914,42.531682],[-94.178027,42.531681],[-94.178068,42.533495],[-94.178071,42.533665],[-94.178083,42.534403],[-94.178115,42.536339],[-94.178119,42.536593],[-94.178395,42.536595],[-94.179067,42.536583],[-94.17973850671918,42.53655378180227],[-94.17971033187663,42.534384482640746],[-94.178083,42.534403],[-94.17807080583152,42.5336648463344],[-94.177946801836,42.533665963101],[-94.179069356407,42.536627119116],[-94.178068,42.533495],[-94.17828768977776,42.53348800987071],[-94.178290718121,42.533539692265],[-94.178288,42.533488],[-94.178858,42.533469],[-94.179858,42.533436],[-94.180835,42.533409],[-94.181856,42.533382],[-94.182503,42.533365],[-94.182902,42.533329],[-94.182911,42.533235],[-94.182913,42.533208],[-94.182903,42.532693],[-94.182899,42.532471],[-94.182903,42.532062],[-94.182946,42.5319],[-94.182988,42.53184],[-94.183013,42.531806],[-94.183216,42.531643],[-94.183702,42.531274],[-94.183815,42.531179],[-94.18391,42.531091],[-94.18396,42.531],[-94.18398,42.530847],[-94.183986,42.530525],[-94.183979,42.530165],[-94.183977,42.530051],[-94.1840637,42.5300495],[-94.183953,42.528733],[-94.183983,42.528496],[-94.184047,42.528249],[-94.184169,42.528002],[-94.184325,42.527772],[-94.184459,42.527593],[-94.185818,42.526356],[-94.186019,42.526173],[-94.186251,42.525961],[-94.186256,42.525959],[-94.1863811,42.5260329],[-94.186638,42.525612],[-94.186935,42.525238],[-94.187103,42.524925],[-94.187195,42.524704],[-94.187233,42.524414],[-94.187233,42.524193],[-94.187241,42.523151],[-94.187241,42.522984],[-94.187233,42.522003],[-94.187225,42.520988],[-94.186554,42.521004],[-94.186516,42.521004],[-94.18624134939836,42.52100333745352],[-94.18584723645444,42.521010881621976],[-94.18566127732238,42.52039412039605],[-94.18561496370876,42.51988530274724],[-94.18449903274916,42.51946407211474],[-94.18396359415657,42.5194483031363],[-94.18354937469137,42.51989237372936],[-94.18362468732144,42.52022542460284],[-94.18395104205166,42.52063248437122],[-94.18383807310651,42.52092852617346],[-94.1835242704812,42.521492851972994],[-94.18350074551915,42.52173841144179],[-94.18359372508502,42.522051681005365],[-94.18393907775838,42.522227894445024],[-94.18458993471964,42.52219363075977],[-94.1849220045976,42.52196846893091],[-94.18515670727685,42.52150063001372],[-94.18532938361352,42.52126567591611],[-94.18548234390944,42.52114607272452],[-94.18567473628686,42.52107966996158],[-94.18582909581006,42.52102118069504],[-94.18597972107024,42.52102118069504],[-94.185985627985,42.521061130025],[-94.185989,42.521011],[-94.18741536826047,42.52098501151033],[-94.1874164,42.5210158],[-94.187416,42.520985],[-94.187415,42.520985],[-94.188449,42.52096],[-94.188421,42.519496],[-94.188417,42.519249],[-94.188422,42.518935],[-94.188465,42.518748],[-94.188577,42.518594],[-94.188747,42.518464],[-94.189088,42.518268],[-94.189436,42.518065],[-94.189488182875,42.518112609635],[-94.189438,42.518063],[-94.189568,42.51799],[-94.189804,42.517883],[-94.190079,42.517826],[-94.191238,42.517662],[-94.191299,42.517906],[-94.191376,42.518204],[-94.191635,42.519192],[-94.19186340983592,42.51915709019975],[-94.19187648401886,42.51920356148926],[-94.191864,42.519157],[-94.193596,42.518898],[-94.193481,42.518456],[-94.193336,42.517902],[-94.193199,42.517376],[-94.193077,42.516899],[-94.193001,42.516617],[-94.192955,42.516415],[-94.19312875971882,42.51638819135767],[-94.1931483,42.516457],[-94.19313,42.516388],[-94.19503,42.516102],[-94.197113,42.515789],[-94.196861,42.51482],[-94.19684767284669,42.514770910794304],[-94.1969705,42.5147528],[-94.196602,42.513866],[-94.19635,42.512894],[-94.195709,42.512989],[-94.194481,42.513172],[-94.194275,42.513203],[-94.193268,42.513409],[-94.192421,42.51358],[-94.192238,42.513618],[-94.192215,42.513569],[-94.1922,42.513523],[-94.192177,42.513474],[-94.192146,42.513424],[-94.191956,42.513126],[-94.191628,42.512726],[-94.191444,42.512493],[-94.190712,42.512852],[-94.190483,42.51292],[-94.190285,42.512959],[-94.18985,42.51302],[-94.188148,42.513264],[-94.188118,42.51313],[-94.18812,42.513131],[-94.1882372,42.5131158],[-94.188074,42.512934],[-94.188029,42.512757],[-94.187903,42.512271],[-94.187657,42.511271],[-94.187532,42.510839],[-94.187515,42.510775],[-94.18738,42.510251],[-94.187279,42.509862],[-94.187254,42.509764],[-94.1873306,42.5097526],[-94.18725385428424,42.50976343946437],[-94.18713,42.509287],[-94.187018,42.508853],[-94.18687,42.508281],[-94.186758,42.507851],[-94.186612,42.507287],[-94.18646170748887,42.50730835410786],[-94.186447,42.507309],[-94.186430720768,42.50723426154],[-94.185471,42.507439],[-94.185272,42.507465],[-94.185013,42.506462],[-94.184753,42.505447],[-94.184532,42.504539],[-94.184509,42.504448],[-94.184631,42.504433],[-94.18541,42.504322],[-94.185745,42.504272],[-94.185844,42.504257],[-94.185867,42.504345],[-94.1860583921695,42.505081679404896],[-94.1859695278894,42.50509488990056]]}},{"type":"Feature","properties":{"agency":"Dodger Area Rapid Transit","shape_id":"4_No direction_177181"},"geometry":{"type":"LineString","coordinates":[[-94.1859695278894,42.50509488990056],[-94.186066,42.505081],[-94.186111,42.50526],[-94.184753,42.505447],[-94.183426,42.505627],[-94.1832964481994,42.505645934493934],[-94.182838,42.505714],[-94.182678,42.505741],[-94.182289,42.505817],[-94.181633,42.506001],[-94.181305,42.506084],[-94.181061,42.506084],[-94.180878,42.506088],[-94.18087497786674,42.50608803148055],[-94.18087453557844,42.5060649784032],[-94.179726,42.5061],[-94.179443,42.506104],[-94.178421,42.506115],[-94.177673,42.506123],[-94.177689,42.507301],[-94.17769598472108,42.50782684971591],[-94.177589774381,42.507827618645],[-94.177696,42.507828],[-94.177701,42.507827],[-94.177704,42.50802],[-94.177742,42.508169],[-94.1778,42.50832],[-94.176323,42.508331],[-94.174967,42.508341],[-94.173582,42.508352],[-94.172318,42.508361],[-94.172192,42.508362],[-94.17207,42.508363],[-94.170937,42.508372],[-94.170854,42.508372],[-94.169558,42.508382],[-94.16946,42.508383],[-94.168058,42.508394],[-94.16792324232856,42.50839499820498],[-94.1679221,42.5083112],[-94.167923,42.508395],[-94.166727,42.508404],[-94.16642,42.508406],[-94.166349,42.508407],[-94.165616,42.508412],[-94.165404,42.508414],[-94.163631,42.508427],[-94.163175,42.50843],[-94.163042,42.508431],[-94.1630405,42.5083567],[-94.160734,42.508449],[-94.159635,42.508457],[-94.159282,42.50846],[-94.1583144702072,42.50846731688341],[-94.1583158789024,42.50854208582055],[-94.1581696,42.5085445],[-94.15831611278465,42.50854936584355],[-94.158323,42.509312],[-94.158338,42.510287],[-94.158343,42.510664],[-94.158363,42.512066],[-94.15901451186852,42.51206500074867],[-94.159014661941,42.512118269937],[-94.159015,42.512065],[-94.16077330229668,42.512068284901005],[-94.16077241327498,42.51026029557306],[-94.159295,42.510277],[-94.159293,42.510147],[-94.159382,42.5101461],[-94.159288,42.509842],[-94.159383,42.509793],[-94.159513,42.50965],[-94.159558,42.509516],[-94.159558,42.509247],[-94.159525,42.509135],[-94.159401,42.50896],[-94.159289,42.508865],[-94.159282,42.50846],[-94.159635,42.508457],[-94.160734,42.508449],[-94.163175,42.50843],[-94.163305,42.508429],[-94.16330343160811,42.508429115538775],[-94.16330526952378,42.50842910366895],[-94.1633061,42.508499],[-94.163631,42.508427],[-94.165404,42.508414],[-94.165616,42.508412],[-94.166349,42.508407],[-94.16642,42.508406],[-94.166727,42.508404],[-94.168058,42.508394],[-94.168061,42.508928],[-94.168056,42.509],[-94.168062,42.509352],[-94.168063,42.509578],[-94.168064,42.509781],[-94.168066,42.510213],[-94.168068,42.510676],[-94.168068,42.510709],[-94.16807,42.511311],[-94.168071,42.511529],[-94.168073,42.512017],[-94.167477,42.51202],[-94.166854,42.512022],[-94.164445,42.512032],[-94.16444699667652,42.512149803915165],[-94.164328,42.5121509],[-94.164447,42.51215],[-94.164457,42.512948],[-94.164469,42.513868],[-94.164478,42.514503],[-94.164493,42.515669],[-94.163741,42.515671],[-94.163608,42.515671],[-94.16273543548378,42.51567299900233],[-94.162735200094,42.515617274595],[-94.162735,42.515673],[-94.162518,42.515673],[-94.16143,42.515676],[-94.160843,42.515676],[-94.160068,42.515677],[-94.159013,42.515682],[-94.15789,42.51568],[-94.156186,42.515695],[-94.154528,42.515707],[-94.154515,42.51593],[-94.154474,42.516097],[-94.154432,42.516165],[-94.154333,42.516324],[-94.15355,42.517624],[-94.153428,42.517589],[-94.153427,42.51759],[-94.153122,42.517502],[-94.152985,42.517475],[-94.152573,42.517475],[-94.15094,42.517483],[-94.150948,42.516682],[-94.15097,42.515709],[-94.15094,42.515198],[-94.151131,42.515072],[-94.152321,42.51482],[-94.152794,42.514812],[-94.15280277859324,42.51481302172243],[-94.1539232963608,42.51479434476104],[-94.1543507859185,42.5149321144329],[-94.1545246206129,42.5151255845073],[-94.154528,42.515707],[-94.154767,42.515705],[-94.154767601362,42.515778938664],[-94.156186,42.515695],[-94.15789,42.51568],[-94.159013,42.515682],[-94.159047,42.517427],[-94.159047,42.5174434998958],[-94.1588938,42.5174435],[-94.159047,42.517444],[-94.159046,42.519047],[-94.159077,42.519164],[-94.159108,42.519238],[-94.159172,42.519386],[-94.159214,42.519485],[-94.159246,42.519646],[-94.159281,42.52],[-94.159281,42.520077],[-94.159283,42.520844],[-94.157882,42.520848],[-94.15788496216766,42.520939091225614],[-94.1578803049118,42.5209322320972],[-94.157762,42.520913],[-94.1578788593231,42.522819650353],[-94.16137,42.522814],[-94.16137276552176,42.52270901057744],[-94.1615385,42.5227041],[-94.16137125188033,42.5227101261456],[-94.161383,42.521962],[-94.1614,42.520834],[-94.161722,42.520835],[-94.1617060619289,42.5200647993407],[-94.1616840234046,42.5197242963546],[-94.1614585080261,42.5192757530681],[-94.1641524419943,42.5192614348626],[-94.164313,42.519263],[-94.164313225613,42.51933991709],[-94.165068,42.519261],[-94.165086,42.520232],[-94.165089,42.520381],[-94.165117,42.520819],[-94.16529421237,42.52081800442489],[-94.165294833818,42.520878102293],[-94.165295,42.520818],[-94.166063,42.520816],[-94.168093,42.520814],[-94.168108,42.520549],[-94.16810700383444,42.5204075444903],[-94.1682494,42.520407],[-94.168107,42.520407],[-94.168107,42.520384],[-94.168104,42.519511],[-94.169545,42.519491],[-94.170715,42.519476],[-94.171121,42.519474],[-94.17115957295024,42.51947303567624],[-94.171161589099,42.519516846042],[-94.171161,42.519473],[-94.172363,42.519454],[-94.172468,42.519452],[-94.17264697837513,42.51945000024162],[-94.1726482,42.5195094],[-94.172647,42.51945],[-94.173467,42.519439],[-94.173986,42.519432],[-94.175731,42.519407],[-94.1763,42.519402],[-94.176478,42.519399],[-94.178088,42.519377],[-94.178086,42.519271],[-94.178075,42.518705],[-94.178071,42.518511],[-94.178066,42.518233],[-94.178055,42.517663],[-94.178053,42.517302],[-94.178049,42.517127],[-94.178042,42.516823],[-94.178039,42.516662],[-94.178024,42.515964],[-94.178013,42.515456],[-94.178013,42.51542],[-94.17800357791307,42.51500714128187],[-94.1781038,42.5150059],[-94.178002,42.514938],[-94.177981,42.513928],[-94.177952,42.512903],[-94.177938,42.511922],[-94.177926,42.511358],[-94.17792487649724,42.51130401836775],[-94.1780421,42.5113027],[-94.177905,42.510349],[-94.177894,42.509831],[-94.177883,42.509324],[-94.177867,42.508576],[-94.177849,42.508456],[-94.1778,42.50832],[-94.17808641795456,42.50831800405607],[-94.1780877,42.508418],[-94.178087,42.508318],[-94.179481,42.508307],[-94.18112,42.508295],[-94.182732,42.508283],[-94.182733,42.508198],[-94.1828379,42.5081985],[-94.18274,42.507801],[-94.18382916983782,42.50765766668977],[-94.1838706,42.5077299],[-94.1838293250114,42.5076524557675],[-94.1852765628871,42.5074743857449],[-94.1845015552988,42.5044703318332],[-94.1858592933432,42.5042865609255],[-94.18605005661632,42.50507567902159],[-94.1859695278894,42.50509488990056]]}},{"type":"Feature","properties":{"agency":"Dodger Area Rapid Transit","shape_id":"4_No direction_Request"},"geometry":{"type":"LineString","coordinates":[[-94.1859695278894,42.50509488990056],[-94.186066,42.505081],[-94.186111,42.50526],[-94.184753,42.505447],[-94.183426,42.505627],[-94.1832964481994,42.505645934493934],[-94.182838,42.505714],[-94.182678,42.505741],[-94.182289,42.505817],[-94.181633,42.506001],[-94.181305,42.506084],[-94.181061,42.506084],[-94.180878,42.506088],[-94.18087497786674,42.50608803148055],[-94.18087453557844,42.5060649784032],[-94.179726,42.5061],[-94.179443,42.506104],[-94.178421,42.506115],[-94.177673,42.506123],[-94.177689,42.507301],[-94.17769598472108,42.50782684971591],[-94.177589774381,42.507827618645],[-94.177696,42.507828],[-94.177701,42.507827],[-94.177704,42.50802],[-94.177742,42.508169],[-94.1778,42.50832],[-94.176323,42.508331],[-94.174967,42.508341],[-94.173582,42.508352],[-94.172318,42.508361],[-94.172192,42.508362],[-94.17207,42.508363],[-94.170937,42.508372],[-94.170854,42.508372],[-94.169558,42.508382],[-94.16946,42.508383],[-94.168058,42.508394],[-94.16792324232856,42.50839499820498],[-94.1679221,42.5083112],[-94.167923,42.508395],[-94.166727,42.508404],[-94.16642,42.508406],[-94.166349,42.508407],[-94.165616,42.508412],[-94.165404,42.508414],[-94.163631,42.508427],[-94.163175,42.50843],[-94.163042,42.508431],[-94.1630405,42.5083567],[-94.160734,42.508449],[-94.159635,42.508457],[-94.159282,42.50846],[-94.1583144702072,42.50846731688341],[-94.1583158789024,42.50854208582055],[-94.1581696,42.5085445],[-94.15831611278465,42.50854936584355],[-94.158323,42.509312],[-94.158338,42.510287],[-94.158343,42.510664],[-94.158363,42.512066],[-94.15901451186852,42.51206500074867],[-94.159014661941,42.512118269937],[-94.159015,42.512065],[-94.16077330229668,42.512068284901005],[-94.16077241327498,42.51026029557306],[-94.159295,42.510277],[-94.159293,42.510147],[-94.159382,42.5101461],[-94.159288,42.509842],[-94.159383,42.509793],[-94.159513,42.50965],[-94.159558,42.509516],[-94.159558,42.509247],[-94.159525,42.509135],[-94.159401,42.50896],[-94.159289,42.508865],[-94.159282,42.50846],[-94.159635,42.508457],[-94.160734,42.508449],[-94.163175,42.50843],[-94.163305,42.508429],[-94.16330343160811,42.508429115538775],[-94.16330526952378,42.50842910366895],[-94.1633061,42.508499],[-94.163631,42.508427],[-94.165404,42.508414],[-94.165616,42.508412],[-94.166349,42.508407],[-94.16642,42.508406],[-94.166727,42.508404],[-94.168058,42.508394],[-94.168061,42.508928],[-94.168056,42.509],[-94.168062,42.509352],[-94.168063,42.509578],[-94.168064,42.509781],[-94.168066,42.510213],[-94.168068,42.510676],[-94.168068,42.510709],[-94.16807,42.511311],[-94.168071,42.511529],[-94.168073,42.512017],[-94.167477,42.51202],[-94.166854,42.512022],[-94.164445,42.512032],[-94.16444699667652,42.512149803915165],[-94.164328,42.5121509],[-94.164447,42.51215],[-94.164457,42.512948],[-94.164469,42.513868],[-94.164478,42.514503],[-94.164493,42.515669],[-94.163741,42.515671],[-94.163608,42.515671],[-94.16273543548378,42.51567299900233],[-94.162735200094,42.515617274595],[-94.162735,42.515673],[-94.162518,42.515673],[-94.16143,42.515676],[-94.160843,42.515676],[-94.160068,42.515677],[-94.159013,42.515682],[-94.15789,42.51568],[-94.156186,42.515695],[-94.154528,42.515707],[-94.154515,42.51593],[-94.154474,42.516097],[-94.154432,42.516165],[-94.154333,42.516324],[-94.15355,42.517624],[-94.153428,42.517589],[-94.153427,42.51759],[-94.153122,42.517502],[-94.152985,42.517475],[-94.152573,42.517475],[-94.15094,42.517483],[-94.150948,42.516682],[-94.15097,42.515709],[-94.15094,42.515198],[-94.151131,42.515072],[-94.152321,42.51482],[-94.152794,42.514812],[-94.15280277859324,42.51481302172243],[-94.1539232963608,42.51479434476104],[-94.1543507859185,42.5149321144329],[-94.1545246206129,42.5151255845073],[-94.154528,42.515707],[-94.154767,42.515705],[-94.154767601362,42.515778938664],[-94.156186,42.515695],[-94.15789,42.51568],[-94.159013,42.515682],[-94.159047,42.517427],[-94.159047,42.5174434998958],[-94.1588938,42.5174435],[-94.159047,42.517444],[-94.159046,42.519047],[-94.159077,42.519164],[-94.159108,42.519238],[-94.159172,42.519386],[-94.159214,42.519485],[-94.159246,42.519646],[-94.159281,42.52],[-94.159281,42.520077],[-94.159283,42.520844],[-94.157882,42.520848],[-94.15788496216766,42.520939091225614],[-94.1578803049118,42.5209322320972],[-94.157762,42.520913],[-94.1578788593231,42.522819650353],[-94.16137,42.522814],[-94.16137276552176,42.52270901057744],[-94.1615385,42.5227041],[-94.16137125188033,42.5227101261456],[-94.161383,42.521962],[-94.1614,42.520834],[-94.161722,42.520835],[-94.1617060619289,42.5200647993407],[-94.1616840234046,42.5197242963546],[-94.1614585080261,42.5192757530681],[-94.1641524419943,42.5192614348626],[-94.164313,42.519263],[-94.164313225613,42.51933991709],[-94.165068,42.519261],[-94.165086,42.520232],[-94.165089,42.520381],[-94.165117,42.520819],[-94.16529421237,42.52081800442489],[-94.165294833818,42.520878102293],[-94.165295,42.520818],[-94.166063,42.520816],[-94.168093,42.520814],[-94.168108,42.520549],[-94.16810700383444,42.5204075444903],[-94.1682494,42.520407],[-94.168107,42.520407],[-94.168107,42.520384],[-94.168104,42.519511],[-94.169545,42.519491],[-94.170715,42.519476],[-94.171121,42.519474],[-94.17115957295024,42.51947303567624],[-94.171161589099,42.519516846042],[-94.171161,42.519473],[-94.172363,42.519454],[-94.172468,42.519452],[-94.17264697837513,42.51945000024162],[-94.1726482,42.5195094],[-94.172647,42.51945],[-94.173467,42.519439],[-94.173986,42.519432],[-94.175731,42.519407],[-94.1763,42.519402],[-94.176478,42.519399],[-94.178088,42.519377],[-94.178086,42.519271],[-94.178075,42.518705],[-94.178071,42.518511],[-94.178066,42.518233],[-94.178055,42.517663],[-94.178053,42.517302],[-94.178049,42.517127],[-94.178042,42.516823],[-94.178039,42.516662],[-94.178024,42.515964],[-94.178013,42.515456],[-94.178013,42.51542],[-94.17800357791307,42.51500714128187],[-94.1781038,42.5150059],[-94.178002,42.514938],[-94.177981,42.513928],[-94.177952,42.512903],[-94.177938,42.511922],[-94.177926,42.511358],[-94.17792487649724,42.51130401836775],[-94.1780421,42.5113027],[-94.177905,42.510349],[-94.177894,42.509831],[-94.177883,42.509324],[-94.177867,42.508576],[-94.177849,42.508456],[-94.1778,42.50832],[-94.17808641795456,42.50831800405607],[-94.1780877,42.508418],[-94.178087,42.508318],[-94.179481,42.508307],[-94.18112,42.508295],[-94.182732,42.508283],[-94.182733,42.508198],[-94.1828379,42.5081985],[-94.18274,42.507801],[-94.18382916983782,42.50765766668977],[-94.1838706,42.5077299],[-94.1838293250114,42.5076524557675],[-94.1852765628871,42.5074743857449],[-94.1845015552988,42.5044703318332],[-94.1858592933432,42.5042865609255],[-94.18605005661632,42.50507567902159],[-94.1859695278894,42.50509488990056]]}},{"type":"Feature","properties":{"agency":"Dodger Area Rapid Transit","shape_id":"5_No direction_177183"},"geometry":{"type":"LineString","coordinates":[[-94.1859695278894,42.50509488990056],[-94.18606502395504,42.50508685002825],[-94.18611041432897,42.50525998222355],[-94.1886570125842,42.5049127955729],[-94.188184,42.503019],[-94.1882908,42.503004],[-94.18818391531713,42.50301866452549],[-94.188158,42.502916],[-94.187905,42.501916],[-94.1876549656472,42.5009847365794],[-94.1876981,42.5009751],[-94.1876549656472,42.50098667268318],[-94.187536,42.500552],[-94.187286,42.499627],[-94.187214,42.499376],[-94.187187,42.499174],[-94.187203,42.499006],[-94.187254,42.498778],[-94.18731,42.498549],[-94.187335,42.498366],[-94.18732,42.498223],[-94.187284,42.498126],[-94.187206,42.498018],[-94.187304381717,42.497980379679],[-94.187203,42.498014],[-94.187065,42.497886],[-94.186917,42.497775],[-94.186791,42.497679],[-94.186686,42.497552],[-94.186454,42.497137],[-94.186276,42.49685],[-94.186111,42.496599],[-94.185929,42.496344],[-94.18572,42.496096],[-94.185579,42.495967],[-94.185344,42.495807],[-94.184424,42.495394],[-94.183269,42.494842],[-94.183097,42.494765],[-94.182881,42.494669],[-94.1829318,42.4946072],[-94.182108,42.494325],[-94.180911,42.493794],[-94.180128,42.493422],[-94.179764,42.49325],[-94.179655,42.493202],[-94.1797024,42.4931437],[-94.178741,42.492798],[-94.178665,42.492743],[-94.178645,42.492666],[-94.178696,42.492587],[-94.178959,42.492283],[-94.179316,42.491826],[-94.17803863489908,42.49125665866478],[-94.17804054671886,42.49125579463421],[-94.1780931,42.491154],[-94.177628,42.491074],[-94.177529,42.491024],[-94.17749,42.490929],[-94.177484,42.490834],[-94.177452,42.489243],[-94.177399,42.486726],[-94.1774059707778,42.486574634539416],[-94.1775084,42.4865772],[-94.177406,42.486574],[-94.17746,42.485418],[-94.177422,42.483422],[-94.177429,42.482694],[-94.177441,42.48133],[-94.177443,42.481224],[-94.177453,42.480504],[-94.177469,42.479614],[-94.177465,42.479575],[-94.177471,42.479204],[-94.177494,42.477775],[-94.17749440008332,42.47771482080095],[-94.1776478,42.4777154],[-94.177506,42.47597],[-94.172615,42.47596],[-94.17261100404632,42.47612683106586],[-94.1724551,42.4761248],[-94.172611,42.476127],[-94.172585,42.47709],[-94.172571,42.478283],[-94.172562,42.478572],[-94.17253,42.478789],[-94.172451,42.479017],[-94.172313,42.479265],[-94.172163,42.479477],[-94.171981,42.479646],[-94.171797,42.479785],[-94.171585,42.479924],[-94.171368,42.480043],[-94.171065,42.480175],[-94.17095143860128,42.48022181917315],[-94.1708779,42.4801248],[-94.170951,42.480222],[-94.169308,42.480896],[-94.169083,42.480998],[-94.168843,42.481141],[-94.168617,42.481307],[-94.168442,42.481484],[-94.168262,42.481705],[-94.16812,42.481994],[-94.168009,42.482307],[-94.167888,42.48266],[-94.167804,42.4829],[-94.167719,42.483325],[-94.167695,42.483859],[-94.167696,42.484103],[-94.167696,42.48416],[-94.1675735,42.4841601],[-94.1677,42.484907],[-94.167713,42.485629],[-94.167733,42.486685],[-94.167734,42.486731],[-94.16777,42.488515],[-94.167774,42.488674],[-94.167660410164,42.488675404612],[-94.167811,42.490325],[-94.166461,42.490324],[-94.165098,42.490339],[-94.163744,42.490352],[-94.163746,42.490441],[-94.163772,42.491679],[-94.165127,42.491671],[-94.166487,42.491663],[-94.167841,42.491656],[-94.16798,42.491655],[-94.169196,42.491648],[-94.17057,42.49164],[-94.171743,42.491633],[-94.171952,42.491632],[-94.172548,42.491636],[-94.173231,42.491625],[-94.17334,42.491624],[-94.173342,42.491782],[-94.173359,42.492929],[-94.173373,42.493902],[-94.173385,42.494705],[-94.173228528703,42.494706139959],[-94.173399,42.495691],[-94.172011,42.495702],[-94.170675,42.495712],[-94.169307,42.495722],[-94.167932,42.495733],[-94.166566,42.495743],[-94.165454,42.495752],[-94.16501008316212,42.4957549994381],[-94.16501,42.495755],[-94.163857,42.495764],[-94.163867,42.496244],[-94.163769904159,42.496245276306],[-94.163867002978,42.49624413831127],[-94.163876,42.496662],[-94.163426,42.497003],[-94.163306,42.497121],[-94.163197,42.497229],[-94.163154,42.497413],[-94.163106,42.497579],[-94.163729,42.497576],[-94.165475,42.49757],[-94.167780187718,42.49753501232865],[-94.1677827,42.4976251],[-94.167781,42.497535],[-94.167927,42.497533],[-94.167942,42.49883],[-94.167937,42.499679],[-94.167961,42.499778],[-94.168015,42.499857],[-94.168071,42.499908],[-94.168153,42.499957],[-94.168235,42.49999],[-94.168376,42.500013],[-94.169022,42.500105],[-94.169157,42.500137],[-94.169242,42.50019],[-94.169294,42.500122],[-94.1693,42.500114],[-94.169346,42.500055],[-94.169427,42.500008],[-94.16953,42.499985],[-94.170726,42.499974],[-94.17209,42.499969],[-94.173462,42.499961],[-94.173575,42.49996],[-94.174842,42.499952],[-94.174826,42.498797],[-94.17482352693033,42.49844160014143],[-94.17534319761482,42.49844160014143],[-94.17534336489447,42.49850585451455],[-94.1753516941361,42.49850891665366],[-94.1753528262976,42.49858992429158],[-94.17536209795708,42.499253323670985],[-94.17483326312902,42.49926578801791],[-94.174808,42.497483],[-94.176171,42.497474],[-94.176284,42.497473],[-94.1762853,42.4975421],[-94.176355,42.497472],[-94.177565,42.497464],[-94.177575,42.498196],[-94.177580996613,42.49865673976422],[-94.17745426088,42.498657638196],[-94.177581,42.498657],[-94.177582,42.498741],[-94.177588,42.499231],[-94.177595,42.49974],[-94.177614,42.50107],[-94.179353,42.501056],[-94.179355,42.501153],[-94.179365,42.501553],[-94.179377,42.502078],[-94.179391,42.503111],[-94.180031,42.503107],[-94.180031715733,42.503153617251],[-94.18003119846804,42.503106998802],[-94.181025,42.503101],[-94.182655,42.503053],[-94.182649,42.503665],[-94.18265,42.503919],[-94.182648,42.503918],[-94.182648,42.50391907514596],[-94.182512207423,42.503919075321],[-94.182648,42.504028],[-94.182678,42.504772],[-94.183609,42.50457],[-94.184402,42.504463],[-94.184509,42.504448],[-94.184631,42.504433],[-94.185745,42.504272],[-94.185844,42.504257],[-94.185867,42.504345],[-94.186066,42.505077],[-94.1859695278894,42.50509488990056]]}},{"type":"Feature","properties":{"agency":"Dodger Area Rapid Transit","shape_id":"5_No direction_Request"},"geometry":{"type":"LineString","coordinates":[[-94.1859695278894,42.50509488990056],[-94.18606502395504,42.50508685002825],[-94.18611041432897,42.50525998222355],[-94.1886570125842,42.5049127955729],[-94.188184,42.503019],[-94.1882908,42.503004],[-94.18818391531713,42.50301866452549],[-94.188158,42.502916],[-94.187905,42.501916],[-94.1876549656472,42.5009847365794],[-94.1876981,42.5009751],[-94.1876549656472,42.50098667268318],[-94.187536,42.500552],[-94.187286,42.499627],[-94.187214,42.499376],[-94.187187,42.499174],[-94.187203,42.499006],[-94.187254,42.498778],[-94.18731,42.498549],[-94.187335,42.498366],[-94.18732,42.498223],[-94.187284,42.498126],[-94.187206,42.498018],[-94.187304381717,42.497980379679],[-94.187203,42.498014],[-94.187065,42.497886],[-94.186917,42.497775],[-94.186791,42.497679],[-94.186686,42.497552],[-94.186454,42.497137],[-94.186276,42.49685],[-94.186111,42.496599],[-94.185929,42.496344],[-94.18572,42.496096],[-94.185579,42.495967],[-94.185344,42.495807],[-94.184424,42.495394],[-94.183269,42.494842],[-94.183097,42.494765],[-94.182881,42.494669],[-94.1829318,42.4946072],[-94.182108,42.494325],[-94.180911,42.493794],[-94.180128,42.493422],[-94.179764,42.49325],[-94.179655,42.493202],[-94.1797024,42.4931437],[-94.178741,42.492798],[-94.178665,42.492743],[-94.178645,42.492666],[-94.178696,42.492587],[-94.178959,42.492283],[-94.179316,42.491826],[-94.17803863489908,42.49125665866478],[-94.17804054671886,42.49125579463421],[-94.1780931,42.491154],[-94.177628,42.491074],[-94.177529,42.491024],[-94.17749,42.490929],[-94.177484,42.490834],[-94.177452,42.489243],[-94.177399,42.486726],[-94.1774059707778,42.486574634539416],[-94.1775084,42.4865772],[-94.177406,42.486574],[-94.17746,42.485418],[-94.177422,42.483422],[-94.177429,42.482694],[-94.177441,42.48133],[-94.177443,42.481224],[-94.177453,42.480504],[-94.177469,42.479614],[-94.177465,42.479575],[-94.177471,42.479204],[-94.177494,42.477775],[-94.17749440008332,42.47771482080095],[-94.1776478,42.4777154],[-94.177506,42.47597],[-94.172615,42.47596],[-94.17261100404632,42.47612683106586],[-94.1724551,42.4761248],[-94.172611,42.476127],[-94.172585,42.47709],[-94.172571,42.478283],[-94.172562,42.478572],[-94.17253,42.478789],[-94.172451,42.479017],[-94.172313,42.479265],[-94.172163,42.479477],[-94.171981,42.479646],[-94.171797,42.479785],[-94.171585,42.479924],[-94.171368,42.480043],[-94.171065,42.480175],[-94.17095143860128,42.48022181917315],[-94.1708779,42.4801248],[-94.170951,42.480222],[-94.169308,42.480896],[-94.169083,42.480998],[-94.168843,42.481141],[-94.168617,42.481307],[-94.168442,42.481484],[-94.168262,42.481705],[-94.16812,42.481994],[-94.168009,42.482307],[-94.167888,42.48266],[-94.167804,42.4829],[-94.167719,42.483325],[-94.167695,42.483859],[-94.167696,42.484103],[-94.167696,42.48416],[-94.1675735,42.4841601],[-94.1677,42.484907],[-94.167713,42.485629],[-94.167733,42.486685],[-94.167734,42.486731],[-94.16777,42.488515],[-94.167774,42.488674],[-94.167660410164,42.488675404612],[-94.167811,42.490325],[-94.166461,42.490324],[-94.165098,42.490339],[-94.163744,42.490352],[-94.163746,42.490441],[-94.163772,42.491679],[-94.165127,42.491671],[-94.166487,42.491663],[-94.167841,42.491656],[-94.16798,42.491655],[-94.169196,42.491648],[-94.17057,42.49164],[-94.171743,42.491633],[-94.171952,42.491632],[-94.172548,42.491636],[-94.173231,42.491625],[-94.17334,42.491624],[-94.173342,42.491782],[-94.173359,42.492929],[-94.173373,42.493902],[-94.173385,42.494705],[-94.173228528703,42.494706139959],[-94.173399,42.495691],[-94.172011,42.495702],[-94.170675,42.495712],[-94.169307,42.495722],[-94.167932,42.495733],[-94.166566,42.495743],[-94.165454,42.495752],[-94.16501008316212,42.4957549994381],[-94.16501,42.495755],[-94.163857,42.495764],[-94.163867,42.496244],[-94.163769904159,42.496245276306],[-94.163867002978,42.49624413831127],[-94.163876,42.496662],[-94.163426,42.497003],[-94.163306,42.497121],[-94.163197,42.497229],[-94.163154,42.497413],[-94.163106,42.497579],[-94.163729,42.497576],[-94.165475,42.49757],[-94.167780187718,42.49753501232865],[-94.1677827,42.4976251],[-94.167781,42.497535],[-94.167927,42.497533],[-94.167942,42.49883],[-94.167937,42.499679],[-94.167961,42.499778],[-94.168015,42.499857],[-94.168071,42.499908],[-94.168153,42.499957],[-94.168235,42.49999],[-94.168376,42.500013],[-94.169022,42.500105],[-94.169157,42.500137],[-94.169242,42.50019],[-94.169294,42.500122],[-94.1693,42.500114],[-94.169346,42.500055],[-94.169427,42.500008],[-94.16953,42.499985],[-94.170726,42.499974],[-94.17209,42.499969],[-94.173462,42.499961],[-94.173575,42.49996],[-94.174842,42.499952],[-94.174826,42.498797],[-94.17482352693033,42.49844160014143],[-94.17534319761482,42.49844160014143],[-94.17534336489447,42.49850585451455],[-94.1753516941361,42.49850891665366],[-94.1753528262976,42.49858992429158],[-94.17536209795708,42.499253323670985],[-94.17483326312902,42.49926578801791],[-94.174808,42.497483],[-94.176171,42.497474],[-94.176284,42.497473],[-94.1762853,42.4975421],[-94.176355,42.497472],[-94.177565,42.497464],[-94.177575,42.498196],[-94.177580996613,42.49865673976422],[-94.17745426088,42.498657638196],[-94.177581,42.498657],[-94.177582,42.498741],[-94.177588,42.499231],[-94.177595,42.49974],[-94.177614,42.50107],[-94.179353,42.501056],[-94.179355,42.501153],[-94.179365,42.501553],[-94.179377,42.502078],[-94.179391,42.503111],[-94.180031,42.503107],[-94.180031715733,42.503153617251],[-94.18003119846804,42.503106998802],[-94.181025,42.503101],[-94.182655,42.503053],[-94.182649,42.503665],[-94.18265,42.503919],[-94.182648,42.503918],[-94.182648,42.50391907514596],[-94.182512207423,42.503919075321],[-94.182648,42.504028],[-94.182678,42.504772],[-94.183609,42.50457],[-94.184402,42.504463],[-94.184509,42.504448],[-94.184631,42.504433],[-94.185745,42.504272],[-94.185844,42.504257],[-94.185867,42.504345],[-94.186066,42.505077],[-94.1859695278894,42.50509488990056]]}},{"type":"Feature","properties":{"agency":"Dodger Area Rapid Transit","shape_id":"6_No direction_177184"},"geometry":{"type":"LineString","coordinates":[[-94.1859695278894,42.50509488990056],[-94.186066,42.505089],[-94.186111,42.50526],[-94.185242,42.505379],[-94.184753,42.505447],[-94.184532,42.504539],[-94.184509,42.504448],[-94.184631,42.504433],[-94.185745,42.504272],[-94.185844,42.504257],[-94.185829,42.504173],[-94.185608,42.503262],[-94.185356,42.50227],[-94.185219,42.502289],[-94.1851956,42.502209],[-94.185216,42.50229],[-94.183981,42.502455],[-94.182662,42.502683],[-94.18265503714412,42.50304607345302],[-94.18254161360534,42.50305164815523],[-94.1825348,42.5029763],[-94.1825353609821,42.503051955468095],[-94.18253191068644,42.5030854647749],[-94.18001487725192,42.50309785649221],[-94.180014295737,42.503033853912],[-94.18000979882017,42.50309788149406],[-94.17750485345024,42.503120959869655],[-94.177503,42.5030119],[-94.1775005992233,42.50312099910022],[-94.171987,42.503157],[-94.1719857,42.5030633],[-94.17077494519228,42.50317124434929],[-94.170747,42.501125],[-94.170218,42.501154],[-94.169377,42.501172],[-94.168812,42.501176],[-94.16881,42.5010403],[-94.168552,42.501178],[-94.167656,42.501184],[-94.163068,42.501215],[-94.16306000647006,42.50015285970926],[-94.1631746,42.5001524],[-94.16306,42.500152],[-94.16305,42.498823],[-94.163069,42.498095],[-94.16309,42.497773],[-94.163106,42.497579],[-94.162781,42.497581],[-94.160547,42.497592],[-94.15829932120393,42.49760399828539],[-94.1582984,42.4975104],[-94.158299,42.497604],[-94.158127,42.497605],[-94.155072,42.497621],[-94.151812,42.497638],[-94.15181399813106,42.4977628831908],[-94.151844,42.499287],[-94.151876,42.501281],[-94.15212,42.50128],[-94.1521212,42.5014141],[-94.153795,42.50127],[-94.155087,42.501269],[-94.15508200216316,42.50007751569806],[-94.1551816,42.5000773],[-94.155082,42.500077],[-94.155079,42.499271],[-94.158169,42.499247],[-94.15816999956162,42.499370945641225],[-94.158185,42.501248],[-94.158192,42.501875],[-94.158217,42.502984],[-94.15821899901852,42.50307395583397],[-94.158116,42.5030752],[-94.158219,42.503074],[-94.158228,42.503453],[-94.15822633474492,42.50424354849284],[-94.15660909553688,42.504248885116255],[-94.15659302352137,42.5046398628767],[-94.15651724054229,42.50479106316948],[-94.156477106562,42.504780130745],[-94.15649019209064,42.50484502955951],[-94.15648749294556,42.504858492726925],[-94.15649763691412,42.50530563195207],[-94.156032,42.505309],[-94.1555,42.505313],[-94.151826,42.505338],[-94.15168,42.505339],[-94.149888,42.505351],[-94.149728,42.505352],[-94.147664373101,42.50536374753341],[-94.14739564808612,42.50556185508637],[-94.14638924656076,42.50553466389093],[-94.14639451567916,42.50534044072515],[-94.14814386282912,42.505355978599056],[-94.148165,42.505345],[-94.149728,42.505352],[-94.149888,42.505351],[-94.15167964682986,42.50533898172921],[-94.1516787,42.5052622],[-94.148164198338,42.505425114997],[-94.151826,42.505338],[-94.15394914616546,42.50530675710087],[-94.15396748600958,42.50646368387925],[-94.1539694159398,42.50644624504321],[-94.15397263878924,42.50650683018064],[-94.15399228015848,42.50687606091145],[-94.15516683948869,42.50686250825609],[-94.15563616529104,42.50686441646343],[-94.15567198388254,42.505299821948114],[-94.156032,42.505309],[-94.157035,42.505303],[-94.1570417918554,42.50549563622892],[-94.15659566130104,42.50549819809686],[-94.15658149627902,42.50614299443177],[-94.156954,42.506144],[-94.156954532837,42.506165971379],[-94.157057,42.506142],[-94.158286,42.506123],[-94.158267,42.505294],[-94.160679,42.505278],[-94.16154455554596,42.50527309421221],[-94.1615275901084,42.50469265977964],[-94.16152764321431,42.504686618422],[-94.1615271939854,42.504664513002346],[-94.161496548238,42.504664852116],[-94.16152151140848,42.50438488775333],[-94.16163964704556,42.504384441321264],[-94.16163596218595,42.50428009594648],[-94.1631076229034,42.504260062747534],[-94.163116,42.505261],[-94.165561,42.505245],[-94.16570571692152,42.50524400195226],[-94.166156,42.505241],[-94.170602,42.505218],[-94.170807,42.505216],[-94.17091946313766,42.50521201900398],[-94.17092,42.505212],[-94.172173,42.505167],[-94.17354,42.505156],[-94.174911,42.505134],[-94.176282,42.505119],[-94.17641959897854,42.505117005811904],[-94.1764221,42.5052108],[-94.17642,42.505117],[-94.177661,42.505103],[-94.17765632838002,42.506163008050834],[-94.18087648879248,42.50608803518445],[-94.1808799,42.5061678],[-94.180878,42.506088],[-94.181064,42.506086],[-94.181303,42.506084],[-94.18163,42.505999],[-94.182292,42.505818],[-94.182677,42.50574],[-94.182842,42.505715],[-94.1833073742828,42.50564463412906],[-94.1833341,42.5057407],[-94.183424,42.505627],[-94.18474843196157,42.505445984792544],[-94.184518712552,42.5044548455019],[-94.1858412899747,42.50425741190625],[-94.18606635380372,42.50509021299792],[-94.1859695278894,42.50509488990056]]}},{"type":"Feature","properties":{"agency":"Dodger Area Rapid Transit","shape_id":"6_No direction_Request"},"geometry":{"type":"LineString","coordinates":[[-94.1859695278894,42.50509488990056],[-94.186066,42.505089],[-94.186111,42.50526],[-94.185242,42.505379],[-94.184753,42.505447],[-94.184532,42.504539],[-94.184509,42.504448],[-94.184631,42.504433],[-94.185745,42.504272],[-94.185844,42.504257],[-94.185829,42.504173],[-94.185608,42.503262],[-94.185356,42.50227],[-94.185219,42.502289],[-94.1851956,42.502209],[-94.185216,42.50229],[-94.183981,42.502455],[-94.182662,42.502683],[-94.18265503714412,42.50304607345302],[-94.18254161360534,42.50305164815523],[-94.1825348,42.5029763],[-94.1825353609821,42.503051955468095],[-94.18253191068644,42.5030854647749],[-94.18001487725192,42.50309785649221],[-94.180014295737,42.503033853912],[-94.18000979882017,42.50309788149406],[-94.17750485345024,42.503120959869655],[-94.177503,42.5030119],[-94.1775005992233,42.50312099910022],[-94.171987,42.503157],[-94.1719857,42.5030633],[-94.17077494519228,42.50317124434929],[-94.170747,42.501125],[-94.170218,42.501154],[-94.169377,42.501172],[-94.168812,42.501176],[-94.16881,42.5010403],[-94.168552,42.501178],[-94.167656,42.501184],[-94.163068,42.501215],[-94.16306000647006,42.50015285970926],[-94.1631746,42.5001524],[-94.16306,42.500152],[-94.16305,42.498823],[-94.163069,42.498095],[-94.16309,42.497773],[-94.163106,42.497579],[-94.162781,42.497581],[-94.160547,42.497592],[-94.15829932120393,42.49760399828539],[-94.1582984,42.4975104],[-94.158299,42.497604],[-94.158127,42.497605],[-94.155072,42.497621],[-94.151812,42.497638],[-94.15181399813106,42.4977628831908],[-94.151844,42.499287],[-94.151876,42.501281],[-94.15212,42.50128],[-94.1521212,42.5014141],[-94.153795,42.50127],[-94.155087,42.501269],[-94.15508200216316,42.50007751569806],[-94.1551816,42.5000773],[-94.155082,42.500077],[-94.155079,42.499271],[-94.158169,42.499247],[-94.15816999956162,42.499370945641225],[-94.158185,42.501248],[-94.158192,42.501875],[-94.158217,42.502984],[-94.15821899901852,42.50307395583397],[-94.158116,42.5030752],[-94.158219,42.503074],[-94.158228,42.503453],[-94.15822633474492,42.50424354849284],[-94.15660909553688,42.504248885116255],[-94.15659302352137,42.5046398628767],[-94.15651724054229,42.50479106316948],[-94.156477106562,42.504780130745],[-94.15649019209064,42.50484502955951],[-94.15648749294556,42.504858492726925],[-94.15649763691412,42.50530563195207],[-94.156032,42.505309],[-94.1555,42.505313],[-94.151826,42.505338],[-94.15168,42.505339],[-94.149888,42.505351],[-94.149728,42.505352],[-94.147664373101,42.50536374753341],[-94.14739564808612,42.50556185508637],[-94.14638924656076,42.50553466389093],[-94.14639451567916,42.50534044072515],[-94.14814386282912,42.505355978599056],[-94.148165,42.505345],[-94.149728,42.505352],[-94.149888,42.505351],[-94.15167964682986,42.50533898172921],[-94.1516787,42.5052622],[-94.148164198338,42.505425114997],[-94.151826,42.505338],[-94.15394914616546,42.50530675710087],[-94.15396748600958,42.50646368387925],[-94.1539694159398,42.50644624504321],[-94.15397263878924,42.50650683018064],[-94.15399228015848,42.50687606091145],[-94.15516683948869,42.50686250825609],[-94.15563616529104,42.50686441646343],[-94.15567198388254,42.505299821948114],[-94.156032,42.505309],[-94.157035,42.505303],[-94.1570417918554,42.50549563622892],[-94.15659566130104,42.50549819809686],[-94.15658149627902,42.50614299443177],[-94.156954,42.506144],[-94.156954532837,42.506165971379],[-94.157057,42.506142],[-94.158286,42.506123],[-94.158267,42.505294],[-94.160679,42.505278],[-94.16154455554596,42.50527309421221],[-94.1615275901084,42.50469265977964],[-94.16152764321431,42.504686618422],[-94.1615271939854,42.504664513002346],[-94.161496548238,42.504664852116],[-94.16152151140848,42.50438488775333],[-94.16163964704556,42.504384441321264],[-94.16163596218595,42.50428009594648],[-94.1631076229034,42.504260062747534],[-94.163116,42.505261],[-94.165561,42.505245],[-94.16570571692152,42.50524400195226],[-94.166156,42.505241],[-94.170602,42.505218],[-94.170807,42.505216],[-94.17091946313766,42.50521201900398],[-94.17092,42.505212],[-94.172173,42.505167],[-94.17354,42.505156],[-94.174911,42.505134],[-94.176282,42.505119],[-94.17641959897854,42.505117005811904],[-94.1764221,42.5052108],[-94.17642,42.505117],[-94.177661,42.505103],[-94.17765632838002,42.506163008050834],[-94.18087648879248,42.50608803518445],[-94.1808799,42.5061678],[-94.180878,42.506088],[-94.181064,42.506086],[-94.181303,42.506084],[-94.18163,42.505999],[-94.182292,42.505818],[-94.182677,42.50574],[-94.182842,42.505715],[-94.1833073742828,42.50564463412906],[-94.1833341,42.5057407],[-94.183424,42.505627],[-94.18474843196157,42.505445984792544],[-94.184518712552,42.5044548455019],[-94.1858412899747,42.50425741190625],[-94.18606635380372,42.50509021299792],[-94.1859695278894,42.50509488990056]]}}]}