{"type":"FeatureCollection","features":[{"type":"Feature","properties":{"agency":"Fond du Lac","shape_id":"TL-12"},"geometry":{"type":"LineString","coordinates":[[-88.44922,43.78229],[-88.44883,43.78229],[-88.44883,43.78229],[-88.4488,43.78199],[-88.44867,43.7815],[-88.4486,43.78114],[-88.44859,43.78105],[-88.44858,43.78101],[-88.44856,43.78095],[-88.44855,43.7809],[-88.44854,43.78086],[-88.44847,43.78065],[-88.44845,43.78044],[-88.4484,43.77997],[-88.44838,43.77983],[-88.44837,43.77973],[-88.44835,43.77944],[-88.44833,43.77922],[-88.44832,43.7789],[-88.44832,43.7789],[-88.44794,43.77889],[-88.44743,43.7789],[-88.44698,43.77889],[-88.44698,43.77889],[-88.44699,43.77925],[-88.44703,43.78062],[-88.44704,43.78076],[-88.44704,43.78092],[-88.44704,43.78128],[-88.44703,43.78229],[-88.44703,43.78267],[-88.44702,43.78313],[-88.44702,43.78355],[-88.44702,43.78355],[-88.44701,43.78364],[-88.44783,43.78366],[-88.44842,43.78367],[-88.44883,43.78367],[-88.44924,43.78368],[-88.44947,43.78363],[-88.45004,43.78364],[-88.45026,43.78364],[-88.45065,43.78364],[-88.45065,43.78364],[-88.45103,43.78365],[-88.45127,43.78365],[-88.4515,43.78366],[-88.45178,43.78366],[-88.45206,43.78367],[-88.45246,43.78369],[-88.45268,43.7837],[-88.4529,43.78372],[-88.45299,43.78373],[-88.45352,43.78377],[-88.45397,43.78381],[-88.4544,43.78386],[-88.45509,43.78395],[-88.4555,43.784],[-88.45605,43.78407],[-88.45631,43.78409],[-88.45665,43.78413],[-88.45696,43.78416],[-88.45718,43.78417],[-88.45735,43.78419],[-88.45768,43.78421],[-88.45804,43.78423],[-88.45835,43.78424],[-88.4584,43.78424],[-88.45898,43.78425],[-88.45964,43.78426],[-88.46017,43.78427],[-88.46046,43.78428],[-88.46084,43.78428],[-88.46121,43.78429],[-88.46145,43.78429],[-88.46189,43.7843],[-88.46214,43.78431],[-88.46255,43.78432],[-88.46296,43.78432],[-88.46318,43.78432],[-88.46351,43.78432],[-88.46376,43.78432],[-88.46413,43.78431],[-88.46451,43.78432],[-88.46473,43.78432],[-88.4666,43.78432],[-88.46687,43.78432],[-88.46729,43.78432],[-88.46729,43.78432],[-88.46733,43.78471],[-88.46755,43.78692],[-88.46757,43.78732],[-88.46757,43.78732],[-88.46818,43.78731],[-88.46904,43.78733],[-88.4697,43.78734],[-88.47006,43.78733],[-88.47058,43.78734],[-88.47065,43.78734],[-88.47079,43.78734],[-88.47088,43.78735],[-88.47101,43.78737],[-88.47115,43.78739],[-88.47119,43.7874],[-88.47128,43.78741],[-88.47142,43.78744],[-88.4715,43.78746],[-88.47159,43.78749],[-88.47168,43.78752],[-88.4719,43.78759],[-88.4719,43.78759],[-88.47216,43.78768],[-88.47226,43.78771],[-88.47234,43.78773],[-88.47249,43.78775],[-88.47263,43.78776],[-88.47268,43.78777],[-88.47277,43.78777],[-88.47285,43.78777],[-88.47291,43.78777],[-88.47296,43.78776],[-88.47301,43.78776],[-88.47301,43.78776],[-88.47317,43.78776],[-88.47317,43.78771],[-88.47317,43.78764],[-88.47315,43.78751],[-88.47309,43.78698],[-88.47302,43.78642],[-88.47303,43.78594],[-88.47312,43.78532],[-88.47318,43.78493],[-88.4732,43.78479],[-88.47324,43.78449],[-88.47325,43.78438],[-88.47325,43.78438],[-88.47476,43.78441],[-88.47578,43.78444],[-88.47665,43.78445],[-88.47747,43.78446],[-88.47816,43.78447],[-88.47857,43.78447],[-88.4797,43.78448],[-88.48149,43.78452],[-88.48195,43.78453],[-88.48248,43.78454],[-88.48301,43.78455],[-88.48354,43.78456],[-88.48388,43.78457],[-88.4847,43.78459],[-88.48516,43.7846],[-88.48516,43.7846],[-88.48522,43.78464],[-88.48523,43.78465],[-88.48525,43.78465],[-88.48527,43.78466],[-88.48531,43.78467],[-88.48537,43.78468],[-88.48549,43.78469],[-88.48566,43.78471],[-88.48572,43.78472],[-88.48577,43.78473],[-88.48584,43.78475],[-88.48599,43.78481],[-88.48603,43.78517],[-88.48605,43.78527],[-88.48606,43.78531],[-88.4861,43.78579],[-88.48617,43.78655],[-88.48617,43.78655],[-88.48582,43.78656],[-88.48493,43.78654],[-88.48475,43.78656],[-88.48465,43.78661],[-88.48461,43.7867],[-88.48467,43.78724],[-88.48474,43.78748],[-88.48485,43.78863],[-88.48482,43.78873],[-88.48472,43.78883],[-88.4847,43.78886],[-88.48467,43.789],[-88.4847,43.78923],[-88.48474,43.78967],[-88.48479,43.78982],[-88.48484,43.78992],[-88.48491,43.79004],[-88.48495,43.79016],[-88.48497,43.79035],[-88.48499,43.79041],[-88.48503,43.79054],[-88.48505,43.79069],[-88.48505,43.79069],[-88.48506,43.79075],[-88.48508,43.7909],[-88.48508,43.79112],[-88.48508,43.79125],[-88.48509,43.79141],[-88.48506,43.79153],[-88.48498,43.79168],[-88.48498,43.79168],[-88.48443,43.79166],[-88.48387,43.79162],[-88.48334,43.79161],[-88.4828,43.7916],[-88.48125,43.79157],[-88.48088,43.79158],[-88.48071,43.79158],[-88.48029,43.79159],[-88.47911,43.7916],[-88.47888,43.79161],[-88.47722,43.79164],[-88.47569,43.79166],[-88.47465,43.79168],[-88.47448,43.79162],[-88.47412,43.79162],[-88.47329,43.79163],[-88.47329,43.79163],[-88.47322,43.79163],[-88.47306,43.79163],[-88.47205,43.79166],[-88.47147,43.79167],[-88.47103,43.7917],[-88.47086,43.79174],[-88.4705,43.79174],[-88.46967,43.79176],[-88.46953,43.79176],[-88.46895,43.79178],[-88.46804,43.79178],[-88.46744,43.79179],[-88.46602,43.79179],[-88.46459,43.79179],[-88.46315,43.7918],[-88.46199,43.79177],[-88.46173,43.79176],[-88.4604,43.79174],[-88.45971,43.79172],[-88.45895,43.7917],[-88.45803,43.79169],[-88.45788,43.79168],[-88.45762,43.79168],[-88.45747,43.79167],[-88.45677,43.79166],[-88.45605,43.79165],[-88.45507,43.79163],[-88.45425,43.79161],[-88.45399,43.7916],[-88.45292,43.79158],[-88.45236,43.79157],[-88.45184,43.79156],[-88.45055,43.79155],[-88.44873,43.79154],[-88.44776,43.79153],[-88.44752,43.79153],[-88.44713,43.79153],[-88.44713,43.79153],[-88.44699,43.79153],[-88.44699,43.79153],[-88.44691,43.79138],[-88.44692,43.79105],[-88.44692,43.79062],[-88.44693,43.79018],[-88.44694,43.78972],[-88.44695,43.78887],[-88.44696,43.78756],[-88.44698,43.78623],[-88.44699,43.78492],[-88.44701,43.78393],[-88.44701,43.78364],[-88.44701,43.78364],[-88.44783,43.78366],[-88.44842,43.78367],[-88.44883,43.78367],[-88.44924,43.78368],[-88.44947,43.78363],[-88.45004,43.78364],[-88.45026,43.78364],[-88.45065,43.78364],[-88.45065,43.78364],[-88.45066,43.78231],[-88.45066,43.78231],[-88.4502,43.7823],[-88.44965,43.7823],[-88.44922,43.78229]]}},{"type":"Feature","properties":{"agency":"Fond du Lac","shape_id":"TL-15"},"geometry":{"type":"LineString","coordinates":[[-88.44922,43.78229],[-88.44883,43.78229],[-88.44883,43.78229],[-88.44884,43.78358],[-88.44884,43.78358],[-88.44842,43.78358],[-88.44783,43.78357],[-88.44702,43.78355],[-88.44627,43.78354],[-88.44568,43.78355],[-88.44544,43.78354],[-88.44519,43.78353],[-88.44497,43.78357],[-88.44349,43.78356],[-88.44079,43.78353],[-88.44062,43.78349],[-88.44028,43.78348],[-88.44005,43.78347],[-88.43979,43.78347],[-88.4391,43.78347],[-88.4391,43.78347],[-88.4391,43.78355],[-88.4391,43.78382],[-88.43911,43.78433],[-88.43914,43.78484],[-88.43915,43.7852],[-88.43917,43.78609],[-88.43917,43.78609],[-88.43918,43.78613],[-88.4392,43.78664],[-88.43922,43.78746],[-88.43922,43.78845],[-88.43922,43.78878],[-88.43927,43.78957],[-88.43928,43.78972],[-88.43931,43.79065],[-88.43934,43.79158],[-88.43934,43.79158],[-88.43684,43.79155],[-88.43477,43.79152],[-88.43363,43.79151],[-88.4325,43.79149],[-88.43175,43.79148],[-88.43126,43.79147],[-88.43072,43.79146],[-88.42798,43.79142],[-88.42685,43.7914],[-88.42652,43.7914],[-88.42574,43.79139],[-88.42574,43.79139],[-88.42572,43.79204],[-88.42572,43.79287],[-88.4257,43.79328],[-88.42569,43.79372],[-88.42568,43.79458],[-88.42566,43.79571],[-88.42565,43.79581],[-88.42565,43.79581],[-88.42289,43.79581],[-88.42276,43.79583],[-88.42192,43.79612],[-88.42174,43.79615],[-88.4189480542,43.7961493798],[-88.4189472825,43.796149197],[-88.4188527632,43.7961472195],[-88.4188527341,43.795663582],[-88.4188541329,43.7953328484],[-88.4188333452,43.7948481663],[-88.4185392749,43.7943238151],[-88.4183203065,43.7941006471],[-88.4180754887,43.7938624025],[-88.4178326164,43.7936706716],[-88.4178317969,43.7927205364],[-88.417167665,43.7928410025],[-88.4165839993,43.7929121822],[-88.4156205158,43.7928464446],[-88.414,43.79274],[-88.414,43.79274],[-88.41402,43.79208],[-88.41402,43.79179],[-88.41403,43.79171],[-88.41406,43.79118],[-88.41406,43.7911],[-88.41406,43.79107],[-88.41406,43.79105],[-88.41406,43.79102],[-88.41406,43.791],[-88.41405,43.79098],[-88.41404,43.79095],[-88.41403,43.79093],[-88.41402,43.79091],[-88.41399,43.79086],[-88.41397,43.79084],[-88.41396,43.79082],[-88.41394,43.7908],[-88.41392,43.79078],[-88.4139,43.79077],[-88.41387,43.79075],[-88.41383,43.79072],[-88.41379,43.7907],[-88.41376,43.79069],[-88.4137,43.79067],[-88.41369,43.79067],[-88.41341,43.7906],[-88.41328,43.79057],[-88.41323,43.79056],[-88.41317,43.79055],[-88.41296,43.79049],[-88.41288,43.79047],[-88.41276,43.79043],[-88.41275,43.79043],[-88.41266,43.79039],[-88.41256,43.79033],[-88.41244,43.79025],[-88.41234,43.79017],[-88.41229,43.79012],[-88.4122,43.79003],[-88.41215,43.78996],[-88.41211,43.78991],[-88.4121,43.78989],[-88.41207,43.78982],[-88.41205,43.78977],[-88.41204,43.78972],[-88.41202,43.78968],[-88.41201,43.78961],[-88.41201,43.78956],[-88.412,43.78951],[-88.412,43.78948],[-88.41201,43.7894],[-88.41202,43.78911],[-88.41202,43.78899],[-88.41201,43.78853],[-88.41201,43.78821],[-88.412,43.78804],[-88.412,43.788],[-88.412,43.78796],[-88.412,43.78793],[-88.41201,43.78789],[-88.41186,43.78619],[-88.41173,43.78618],[-88.41164,43.78617],[-88.41163,43.78617],[-88.41151,43.78615],[-88.41127,43.78611],[-88.41116,43.78609],[-88.41102,43.78608],[-88.41091,43.78607],[-88.41086,43.78606],[-88.41074,43.78606],[-88.41062,43.78605],[-88.4105,43.78606],[-88.41038,43.78606],[-88.41026,43.78608],[-88.41017,43.78609],[-88.41012,43.7861],[-88.40995,43.78613],[-88.40981,43.78616],[-88.40968,43.78621],[-88.40952,43.78628],[-88.40926,43.7864],[-88.40909,43.78651],[-88.40902,43.78654],[-88.40896,43.78656],[-88.40888,43.78658],[-88.40877,43.78661],[-88.40866,43.78662],[-88.40856,43.78663],[-88.40813,43.78663],[-88.40763,43.78663],[-88.40738,43.78663],[-88.40713,43.78662],[-88.40688,43.78662],[-88.40688,43.78662],[-88.40689,43.78612],[-88.4069,43.78566],[-88.4069,43.78557],[-88.40689,43.78551],[-88.40684,43.78539],[-88.4067,43.78511],[-88.4067,43.78495],[-88.40668,43.78485],[-88.40668,43.78468],[-88.40668,43.78461],[-88.40669,43.78455],[-88.40668,43.78435],[-88.40668,43.78429],[-88.40669,43.78405],[-88.4066900582,43.78405],[-88.40669,43.78369],[-88.40669,43.78369],[-88.40671,43.78354],[-88.40655,43.78354],[-88.40397,43.78349],[-88.40271,43.78347],[-88.40228,43.78348],[-88.40205,43.78348],[-88.40181,43.78349],[-88.40166,43.78349],[-88.40125,43.78352],[-88.401,43.78353],[-88.40085,43.78354],[-88.40056,43.78356],[-88.40052,43.78357],[-88.4004,43.78357],[-88.40017,43.78359],[-88.39985,43.78361],[-88.39969,43.78361],[-88.39881,43.78367],[-88.39834,43.78369],[-88.39774,43.7837],[-88.39717,43.7837],[-88.39713,43.7837],[-88.39656,43.7837],[-88.39656,43.7837],[-88.39655,43.783],[-88.39657,43.78291],[-88.3966,43.78283],[-88.39665,43.78271],[-88.39671,43.78261],[-88.39667,43.78253],[-88.39677,43.78244],[-88.39677,43.78244],[-88.39692,43.7825],[-88.39707,43.78257],[-88.39721,43.78262],[-88.39726,43.78264],[-88.39735,43.78266],[-88.39743,43.78267],[-88.39754,43.78267],[-88.39765,43.78268],[-88.39776,43.78267],[-88.39793,43.78266],[-88.39798,43.78265],[-88.39803,43.78264],[-88.39809,43.78261],[-88.39817,43.78255],[-88.39825,43.78248],[-88.39825,43.78248],[-88.3983828859,43.7823967735],[-88.3984025287,43.7823955274],[-88.3984060782,43.7824107414],[-88.3984147261,43.7824323558],[-88.3984273974,43.7824457545],[-88.3984478146,43.7824524538],[-88.398470914,43.7824564145],[-88.3984956552,43.7824547509],[-88.39851161,43.7824478292],[-88.3985289751,43.7824388911],[-88.3985483865,43.7824234677],[-88.3985540689,43.7824034323],[-88.3985502045,43.7823797216],[-88.3985335202,43.7823569118],[-88.3985090848,43.7823427683],[-88.3984713861,43.7823425431],[-88.3984283969,43.7823561235],[-88.3984069023,43.7823820839],[-88.398403531,43.7823953963],[-88.3983827254,43.7823970899],[-88.3982537024,43.7824763588],[-88.39817,43.78255],[-88.39809,43.78261],[-88.39803,43.78264],[-88.39798,43.78265],[-88.39793,43.78266],[-88.39776,43.78267],[-88.39765,43.78268],[-88.39754,43.78267],[-88.39743,43.78267],[-88.39735,43.78266],[-88.39726,43.78264],[-88.39721,43.78262],[-88.39707,43.78257],[-88.39692,43.7825],[-88.39677,43.78244],[-88.39677,43.78244],[-88.39667,43.78253],[-88.39659,43.78255],[-88.39651,43.78263],[-88.3965,43.78266],[-88.39647,43.78272],[-88.39646,43.78276],[-88.39644,43.78281],[-88.39643,43.78285],[-88.39643,43.78289],[-88.39642,43.78295],[-88.39641,43.78299],[-88.3964,43.7837],[-88.3964,43.7837],[-88.3964,43.78384],[-88.39659,43.78385],[-88.39719,43.78385],[-88.39775,43.78384],[-88.398,43.78384],[-88.39833,43.78383],[-88.39868,43.78382],[-88.39972,43.78375],[-88.40029,43.78373],[-88.4005,43.78371],[-88.40056,43.78371],[-88.40085,43.78369],[-88.40086,43.78369],[-88.40097,43.78368],[-88.40103,43.78368],[-88.40167,43.78364],[-88.40172,43.78364],[-88.40181,43.78364],[-88.40207,43.78363],[-88.4023,43.78363],[-88.4032,43.78362],[-88.40397,43.78363],[-88.40575,43.78367],[-88.40655,43.78368],[-88.40669,43.78369],[-88.4087,43.78372],[-88.40988,43.78374],[-88.4099,43.78374],[-88.41085,43.78376],[-88.41157,43.78379],[-88.41165,43.78379],[-88.41192,43.7838],[-88.41197,43.7838],[-88.41287,43.78385],[-88.41345,43.78388],[-88.41434,43.78393],[-88.41493,43.78396],[-88.41624,43.78402],[-88.41649,43.78403],[-88.41695,43.78404],[-88.42045,43.7841],[-88.4211,43.78409],[-88.42182,43.7841],[-88.42182,43.7841],[-88.42182,43.7841],[-88.4222,43.7841],[-88.42229,43.78405],[-88.4228,43.78404],[-88.42369,43.78405],[-88.42525,43.78407],[-88.42626,43.78408],[-88.42678,43.78409],[-88.42731,43.78411],[-88.42799,43.78412],[-88.42837,43.78413],[-88.42854,43.78413],[-88.42903,43.78414],[-88.42953,43.78415],[-88.42977,43.78415],[-88.42999,43.78414],[-88.4304,43.7841],[-88.4307,43.78405],[-88.43107,43.78397],[-88.43128,43.78391],[-88.43164,43.7838],[-88.4319,43.78372],[-88.43217,43.78365],[-88.43244,43.78357],[-88.43266,43.78352],[-88.43284,43.78349],[-88.43316,43.78345],[-88.43342,43.78344],[-88.43378,43.78344],[-88.43501,43.78345],[-88.43572,43.78346],[-88.43721,43.78348],[-88.4374,43.78352],[-88.43768,43.78354],[-88.43837,43.78355],[-88.4391,43.78355],[-88.43979,43.78356],[-88.44005,43.78356],[-88.44028,43.78357],[-88.44062,43.78356],[-88.44079,43.78353],[-88.44349,43.78356],[-88.44497,43.78357],[-88.44519,43.78361],[-88.44544,43.78362],[-88.44568,43.78362],[-88.44627,43.78363],[-88.44701,43.78364],[-88.44783,43.78366],[-88.44842,43.78367],[-88.44883,43.78367],[-88.44924,43.78368],[-88.44947,43.78363],[-88.45004,43.78364],[-88.45026,43.78364],[-88.45065,43.78364],[-88.45065,43.78364],[-88.45066,43.78231],[-88.45066,43.78231],[-88.4502,43.7823],[-88.44965,43.7823],[-88.44922,43.78229]]}},{"type":"Feature","properties":{"agency":"Fond du Lac","shape_id":"TL-16"},"geometry":{"type":"LineString","coordinates":[[-88.4488163735,43.7821508235],[-88.4488,43.78199],[-88.44867,43.7815],[-88.4486,43.78114],[-88.44859,43.78105],[-88.44858,43.78101],[-88.44856,43.78095],[-88.44855,43.7809],[-88.44854,43.78086],[-88.44847,43.78065],[-88.44845,43.78044],[-88.4484,43.77997],[-88.44838,43.77983],[-88.44837,43.77973],[-88.44835,43.77944],[-88.44833,43.77922],[-88.44832,43.7789],[-88.44832,43.7789],[-88.44794,43.77889],[-88.44743,43.7789],[-88.44698,43.77889],[-88.44698,43.77889],[-88.44698,43.77856],[-88.44696,43.77785],[-88.44693,43.77715],[-88.44694,43.77641],[-88.44694,43.77615],[-88.44698,43.77533],[-88.44703,43.77453],[-88.44704,43.77411],[-88.44705,43.7737],[-88.44707,43.77324],[-88.44709,43.77287],[-88.4471,43.77253],[-88.44712,43.77201],[-88.44714,43.77153],[-88.44715,43.77119],[-88.44719,43.77037],[-88.44725,43.76936],[-88.44736,43.76819],[-88.44749,43.76682],[-88.44751,43.76651],[-88.4476,43.76568],[-88.4476,43.76568],[-88.4476,43.76564],[-88.44768,43.76491],[-88.44768,43.76482],[-88.44774,43.76413],[-88.44775,43.764],[-88.44784,43.76331],[-88.44784,43.76317],[-88.44786,43.76295],[-88.44789,43.76262],[-88.4479,43.76251],[-88.44792,43.7623],[-88.44794,43.76208],[-88.44803,43.76111],[-88.44809,43.76062],[-88.44814,43.76008],[-88.44819,43.75952],[-88.44825,43.75888],[-88.44833,43.75799],[-88.44835,43.75784],[-88.4484,43.75726],[-88.44851,43.75607],[-88.44851,43.75607],[-88.44851,43.756],[-88.44854,43.75585],[-88.44864,43.75539],[-88.44871,43.75516],[-88.44875,43.75504],[-88.44904,43.75437],[-88.44906,43.75431],[-88.44931,43.7537],[-88.44946,43.75335],[-88.44956,43.7531],[-88.44964,43.75283],[-88.44969,43.75257],[-88.44972,43.7524],[-88.44974,43.75218],[-88.44975,43.75153],[-88.44976,43.75092],[-88.44978,43.75059],[-88.4498,43.75016],[-88.44984,43.74935],[-88.44985,43.74895],[-88.44987,43.74856],[-88.44987,43.74848],[-88.4499,43.74792],[-88.4499,43.74792],[-88.44991,43.74779],[-88.44847,43.74779],[-88.44743,43.74778],[-88.4471,43.74765],[-88.44698,43.74761],[-88.44696,43.7476],[-88.44694,43.74758],[-88.44691,43.74757],[-88.44688,43.74756],[-88.44684,43.74753],[-88.44676,43.74749],[-88.44671,43.74746],[-88.44667,43.74742],[-88.44661,43.74738],[-88.44655,43.74732],[-88.44647,43.74725],[-88.4464,43.74717],[-88.44637,43.74713],[-88.44634,43.74709],[-88.44632,43.74705],[-88.44629,43.747],[-88.44626,43.74694],[-88.44623,43.74687],[-88.44621,43.74681],[-88.44619,43.74676],[-88.44617,43.74667],[-88.44617,43.7466],[-88.44616,43.74655],[-88.44616,43.74648],[-88.44617,43.74643],[-88.44617,43.74638],[-88.44619,43.74493],[-88.44624,43.74402],[-88.44624,43.74395],[-88.44624,43.74389],[-88.44624,43.74383],[-88.44623,43.74377],[-88.44622,43.74371],[-88.4462,43.74365],[-88.44619,43.74359],[-88.44618,43.74356],[-88.44613,43.74345],[-88.4461,43.74339],[-88.44607,43.74333],[-88.44606,43.7433],[-88.44601,43.74322],[-88.44597,43.74317],[-88.4459,43.74309],[-88.44586,43.74304],[-88.44579,43.74296],[-88.44576,43.74294],[-88.44569,43.74287],[-88.4456,43.7428],[-88.44551,43.74274],[-88.44545,43.7427],[-88.44535,43.74264],[-88.44529,43.74261],[-88.44522,43.74257],[-88.44515,43.74254],[-88.44508,43.74251],[-88.44497,43.74247],[-88.44493,43.74245],[-88.44486,43.74243],[-88.44474,43.74239],[-88.44464,43.74237],[-88.44462,43.74236],[-88.4445,43.74233],[-88.44442,43.74232],[-88.44433,43.7423],[-88.44421,43.74229],[-88.44412,43.74228],[-88.444,43.74227],[-88.44391,43.74226],[-88.44383,43.74226],[-88.44374,43.74226],[-88.44366,43.74226],[-88.44362,43.74227],[-88.44349,43.74228],[-88.44339,43.74229],[-88.44339,43.74229],[-88.4427669428,43.7423693824],[-88.4425931558,43.7423828804],[-88.44211013,43.7424224719],[-88.4416827065,43.7424375444],[-88.4409770039,43.7424405057],[-88.4404379334,43.7424395914],[-88.4401154514,43.7423955617],[-88.4397247337,43.7422509312],[-88.4394016347,43.7420577465],[-88.439174371,43.7418216327],[-88.4390476635,43.7415676871],[-88.4390319189,43.7412546841],[-88.439016751,43.7408622637],[-88.4390156647,43.7405333049],[-88.4390349498,43.7398996052],[-88.4389473202,43.7385895409],[-88.4382571941,43.738593406],[-88.4381951041,43.7385485866],[-88.4381721057,43.73850486],[-88.4381531369,43.7384519596],[-88.4381440813,43.7384064032],[-88.4381408298,43.7383425649],[-88.438151801,43.7382918787],[-88.4381740504,43.738246672],[-88.4382173616,43.7382022672],[-88.438248405,43.7381640769],[-88.4382861538,43.7381258867],[-88.4389150472,43.738107957],[-88.4389309713,43.7383884619],[-88.4389478981,43.7385898128],[-88.4390352186,43.7398992689],[-88.4390145059,43.7405346079],[-88.4390158841,43.7408614795],[-88.4390330018,43.741253335],[-88.4390459703,43.741568183],[-88.4391742738,43.7418234422],[-88.4394000354,43.7420578231],[-88.4397234832,43.7422509333],[-88.4401148983,43.7423949303],[-88.4404370591,43.7424411861],[-88.440977445,43.7424402],[-88.4416813665,43.742437259],[-88.442110435,43.7424223227],[-88.4425920167,43.7423825178],[-88.442766861,43.7423696007],[-88.4433908054,43.7422899931],[-88.4434888643,43.7422796408],[-88.4436192723,43.742269814],[-88.4436605551,43.7422596407],[-88.4437393888,43.7422593295],[-88.4438296803,43.7422595028],[-88.4439090097,43.7422590538],[-88.4439999134,43.7422700581],[-88.4441197674,43.7422796092],[-88.4442090654,43.7422900646],[-88.4443295523,43.7423000766],[-88.4444196286,43.7423197444],[-88.4444991984,43.7423309822],[-88.444619446,43.74236024],[-88.44464,43.74237],[-88.44464,43.74237],[-88.44474,43.74239],[-88.44486,43.74243],[-88.44493,43.74245],[-88.44497,43.74247],[-88.44508,43.74251],[-88.44515,43.74254],[-88.44522,43.74257],[-88.44529,43.74261],[-88.44535,43.74264],[-88.44545,43.7427],[-88.44551,43.74274],[-88.4456,43.7428],[-88.44569,43.74287],[-88.44576,43.74294],[-88.44579,43.74296],[-88.44586,43.74304],[-88.4459,43.74309],[-88.44597,43.74317],[-88.44601,43.74322],[-88.44606,43.7433],[-88.44607,43.74333],[-88.4461,43.74339],[-88.44613,43.74345],[-88.44618,43.74356],[-88.44619,43.74359],[-88.4462,43.74365],[-88.44622,43.74371],[-88.44623,43.74377],[-88.44624,43.74383],[-88.44624,43.74389],[-88.44624,43.74395],[-88.44624,43.74402],[-88.44619,43.74493],[-88.44619,43.74493],[-88.44384,43.74492],[-88.4429073552,43.7449071141],[-88.4429144428,43.7446110822],[-88.4428812972,43.7443322936],[-88.4428811547,43.7443308033],[-88.4428767965,43.7442044872],[-88.4430327001,43.7441892435],[-88.4430241507,43.7443286315],[-88.4428814908,43.7443310022],[-88.4429145156,43.7446114167],[-88.4429065737,43.7449066047],[-88.44384,43.74492],[-88.44619,43.74493],[-88.44619,43.74493],[-88.44617,43.74638],[-88.44617,43.74643],[-88.44616,43.74648],[-88.44616,43.74655],[-88.44617,43.7466],[-88.44617,43.74667],[-88.44619,43.74676],[-88.44621,43.74681],[-88.44623,43.74687],[-88.44626,43.74694],[-88.44629,43.747],[-88.44632,43.74705],[-88.44634,43.74709],[-88.44637,43.74713],[-88.4464,43.74717],[-88.44647,43.74725],[-88.44655,43.74732],[-88.44661,43.74738],[-88.44667,43.74742],[-88.44671,43.74746],[-88.44676,43.74749],[-88.44684,43.74753],[-88.44688,43.74756],[-88.44691,43.74757],[-88.44694,43.74758],[-88.44696,43.7476],[-88.44698,43.74761],[-88.4471,43.74765],[-88.44743,43.74778],[-88.44751,43.7478],[-88.44763,43.74784],[-88.44781,43.74787],[-88.44799,43.74789],[-88.44845,43.74792],[-88.4499,43.74792],[-88.4499,43.74792],[-88.44987,43.74848],[-88.44987,43.74856],[-88.44985,43.74895],[-88.44984,43.74935],[-88.4498,43.75016],[-88.44978,43.75059],[-88.44976,43.75092],[-88.44975,43.75153],[-88.44974,43.75218],[-88.44972,43.7524],[-88.44969,43.75257],[-88.44964,43.75283],[-88.44956,43.7531],[-88.44946,43.75335],[-88.44931,43.7537],[-88.44906,43.75431],[-88.44904,43.75437],[-88.44875,43.75504],[-88.44871,43.75516],[-88.44864,43.75539],[-88.44854,43.75585],[-88.44851,43.756],[-88.4484,43.75726],[-88.44835,43.75784],[-88.44833,43.75799],[-88.44825,43.75888],[-88.44819,43.75952],[-88.44814,43.76008],[-88.44809,43.76062],[-88.44803,43.76111],[-88.44794,43.76208],[-88.44792,43.7623],[-88.4479,43.76251],[-88.44789,43.76262],[-88.44786,43.76295],[-88.44784,43.76317],[-88.44784,43.76331],[-88.44775,43.764],[-88.44774,43.76413],[-88.44768,43.76482],[-88.44768,43.76491],[-88.4476,43.76564],[-88.44751,43.76651],[-88.44749,43.76682],[-88.44736,43.76819],[-88.44726,43.76927],[-88.44726,43.76927],[-88.44725,43.76936],[-88.44719,43.77037],[-88.44715,43.77119],[-88.44714,43.77153],[-88.44712,43.77201],[-88.4471,43.77253],[-88.44709,43.77287],[-88.44707,43.77324],[-88.44705,43.7737],[-88.44704,43.77411],[-88.44703,43.77453],[-88.44698,43.77533],[-88.44694,43.77615],[-88.44694,43.77641],[-88.44693,43.77715],[-88.44696,43.77785],[-88.44698,43.77856],[-88.44698,43.77889],[-88.44699,43.77925],[-88.44703,43.78062],[-88.44704,43.78076],[-88.44704,43.78092],[-88.44704,43.78128],[-88.44703,43.78229],[-88.44703,43.78229],[-88.44883,43.78229],[-88.4488166046,43.7821507846]]}},{"type":"Feature","properties":{"agency":"Fond du Lac","shape_id":"TL-38"},"geometry":{"type":"LineString","coordinates":[[-88.44922,43.78229],[-88.44883,43.78229],[-88.44883,43.78229],[-88.4488,43.78199],[-88.44872,43.78168],[-88.44867,43.7815],[-88.4486,43.78114],[-88.44859,43.78105],[-88.44858,43.78101],[-88.44856,43.78095],[-88.44855,43.78091],[-88.44855,43.7809],[-88.44854,43.78086],[-88.44847,43.78065],[-88.44845,43.78044],[-88.44845,43.78041],[-88.4484,43.77997],[-88.44838,43.77983],[-88.44837,43.77973],[-88.44835,43.77944],[-88.44833,43.77922],[-88.44832,43.7789],[-88.44831,43.77868],[-88.44831,43.77849],[-88.44831,43.77823],[-88.44828,43.77774],[-88.44828,43.7777],[-88.44828,43.77765],[-88.44827,43.7776],[-88.44826,43.77756],[-88.44824,43.77752],[-88.44821,43.77748],[-88.4482,43.77745],[-88.44816,43.77737],[-88.44813,43.77731],[-88.4481,43.77726],[-88.44809,43.7772],[-88.44808,43.77715],[-88.44808,43.77712],[-88.44808,43.77708],[-88.44811,43.77617],[-88.44814,43.77534],[-88.44819,43.77412],[-88.44822,43.7736],[-88.44823,43.77327],[-88.44823,43.77327],[-88.44866,43.77328],[-88.44935,43.7733],[-88.45008,43.77331],[-88.45047,43.77331],[-88.45054,43.77331],[-88.45058,43.77332],[-88.45099,43.77332],[-88.45122,43.77332],[-88.45122,43.77332],[-88.45264,43.77335],[-88.45349,43.77335],[-88.45349,43.77335],[-88.45374,43.77308],[-88.45414,43.77266],[-88.4544,43.77239],[-88.45456,43.77222],[-88.45475,43.77202],[-88.45579,43.77094],[-88.4565,43.77018],[-88.45695,43.76972],[-88.45709,43.76959],[-88.45725,43.76948],[-88.4575,43.76933],[-88.45764,43.76924],[-88.45803,43.76899],[-88.45869,43.7686],[-88.45887,43.76849],[-88.45974,43.76797],[-88.46029,43.76762],[-88.462,43.76657],[-88.46227,43.7664],[-88.46443,43.76509],[-88.46501,43.76473],[-88.46697,43.76353],[-88.46847,43.76261],[-88.46877,43.76243],[-88.46897,43.7623],[-88.46911,43.76222],[-88.46931,43.76209],[-88.46947,43.76206],[-88.46958,43.76201],[-88.46992,43.76183],[-88.47052,43.7615],[-88.47052,43.7615],[-88.47054,43.76151],[-88.47057,43.76152],[-88.4706,43.76153],[-88.47062,43.76153],[-88.47065,43.76154],[-88.47067,43.76154],[-88.4707,43.76154],[-88.47072,43.76154],[-88.47074,43.76153],[-88.47077,43.76153],[-88.47079,43.76152],[-88.47081,43.76152],[-88.47083,43.76151],[-88.47085,43.7615],[-88.47087,43.76148],[-88.47089,43.76147],[-88.4709,43.76146],[-88.47092,43.76144],[-88.47093,43.76143],[-88.47094,43.76141],[-88.47094,43.76139],[-88.47095,43.76138],[-88.47095,43.76136],[-88.47095,43.76134],[-88.47095,43.76133],[-88.47095,43.76131],[-88.47094,43.76129],[-88.47093,43.76126],[-88.47092,43.76125],[-88.47091,43.76123],[-88.4709,43.76122],[-88.47088,43.76121],[-88.47086,43.76119],[-88.47084,43.76118],[-88.47082,43.76117],[-88.4708,43.76116],[-88.47078,43.76116],[-88.47076,43.76115],[-88.47074,43.76115],[-88.4707,43.76114],[-88.47068,43.76114],[-88.47065,43.76114],[-88.47063,43.76115],[-88.46993,43.76076],[-88.46958,43.76051],[-88.46916,43.76016],[-88.4691,43.76011],[-88.46868,43.75975],[-88.46857,43.75964],[-88.46773,43.75883],[-88.46717,43.7583],[-88.46535,43.75651],[-88.4647820443,43.7559542835],[-88.4645701519,43.7557400199],[-88.46457,43.75574],[-88.46449,43.75567],[-88.46425,43.75543],[-88.46409,43.7553],[-88.4639,43.75517],[-88.46372,43.75507],[-88.46364,43.75503],[-88.46349,43.75495],[-88.46349,43.75495],[-88.4634,43.75489],[-88.46331,43.75485],[-88.46321,43.75481],[-88.46308,43.75477],[-88.46294,43.75474],[-88.46283,43.75472],[-88.46273,43.75469],[-88.46266,43.75466],[-88.4626,43.75462],[-88.46254,43.75455],[-88.4625,43.75449],[-88.46248,43.75443],[-88.46244,43.75436],[-88.46242,43.75428],[-88.4624,43.75418],[-88.46238,43.75408],[-88.46235,43.75396],[-88.46233,43.75389],[-88.46229,43.75385],[-88.46223,43.75383],[-88.46223,43.75383],[-88.46222,43.75366],[-88.46221,43.75348],[-88.4622,43.75314],[-88.4622,43.75283],[-88.46221,43.75238],[-88.46222,43.7523],[-88.46232,43.75222],[-88.46233,43.7522],[-88.46234,43.7521],[-88.46233,43.75165],[-88.46233,43.75131],[-88.46233,43.75095],[-88.46232,43.75061],[-88.46232,43.75021],[-88.46232,43.75017],[-88.46232,43.74981],[-88.46231,43.7493],[-88.46231,43.74907],[-88.46231,43.74839],[-88.4623,43.74792],[-88.4623,43.74749],[-88.4623,43.7473],[-88.46232,43.74717],[-88.46237,43.74701],[-88.46239,43.74696],[-88.4624,43.7469],[-88.46239,43.74681],[-88.46247,43.74672],[-88.46318,43.74598],[-88.46395,43.74519],[-88.464,43.74515],[-88.46404,43.74511],[-88.46418,43.74498],[-88.46533,43.74378],[-88.46533,43.74378],[-88.46543,43.74384],[-88.46543,43.74384],[-88.46717,43.74474],[-88.4679,43.74512],[-88.46795,43.74514],[-88.468,43.74516],[-88.46806,43.74519],[-88.46811,43.74521],[-88.46821,43.74524],[-88.46831,43.74527],[-88.46841,43.74529],[-88.46853,43.74532],[-88.46864,43.74533],[-88.46874,43.74535],[-88.46887,43.74536],[-88.46895,43.74536],[-88.46903,43.74536],[-88.46906,43.74536],[-88.46913,43.74536],[-88.46916,43.74536],[-88.46924,43.74535],[-88.46932,43.74535],[-88.46945,43.74533],[-88.46952,43.74532],[-88.46966,43.74529],[-88.46968,43.74529],[-88.46975,43.74527],[-88.46985,43.74524],[-88.46997,43.7452],[-88.47011,43.74515],[-88.4702,43.74511],[-88.4703,43.74505],[-88.47034,43.74503],[-88.47044,43.74497],[-88.47049,43.74493],[-88.47233,43.74299],[-88.47303,43.74225],[-88.4732,43.74207],[-88.47324,43.74204],[-88.47328,43.74199],[-88.47331,43.74196],[-88.47335,43.74191],[-88.47337,43.74188],[-88.47339,43.74184],[-88.47341,43.74181],[-88.47343,43.74177],[-88.47346,43.74172],[-88.47348,43.74166],[-88.4735,43.74161],[-88.47351,43.74155],[-88.47351,43.74151],[-88.47352,43.74145],[-88.47352,43.7414],[-88.47352,43.74134],[-88.47352,43.74126],[-88.47351,43.74072],[-88.47351,43.74072],[-88.47552,43.74069],[-88.47607,43.74069],[-88.47726,43.74069],[-88.4777,43.74068],[-88.47925,43.74069],[-88.47994,43.74072],[-88.47994,43.74072],[-88.47995,43.74096],[-88.47994,43.7423],[-88.47995,43.74233],[-88.47995,43.74241],[-88.47994,43.74254],[-88.47993,43.74261],[-88.47992,43.7427],[-88.4799,43.7428],[-88.47989,43.74284],[-88.47988,43.74291],[-88.47984,43.743],[-88.47984,43.74302],[-88.47983,43.74304],[-88.47982,43.74308],[-88.4798,43.74311],[-88.47976,43.74321],[-88.4797,43.74333],[-88.47967,43.74339],[-88.47961,43.74347],[-88.47957,43.74354],[-88.47952,43.74361],[-88.47945,43.7437],[-88.47941,43.74375],[-88.47924,43.74393],[-88.47827,43.74497],[-88.47785,43.74542],[-88.47765,43.74563],[-88.47737,43.74592],[-88.47668,43.74667],[-88.47618,43.7472],[-88.47422,43.74923],[-88.47349,43.75005],[-88.47259,43.75102],[-88.47189,43.75177],[-88.47189,43.75177],[-88.47232,43.75207],[-88.4725,43.7522],[-88.47304,43.75257],[-88.47345,43.75285],[-88.47364,43.75298],[-88.47373,43.75306],[-88.47396,43.75324],[-88.47434,43.75354],[-88.47462,43.75375],[-88.4749,43.75394],[-88.47495,43.75397],[-88.47585,43.7546],[-88.4763,43.75491],[-88.47696,43.75536],[-88.4775,43.75573],[-88.47756,43.75577],[-88.47756,43.75577],[-88.47791,43.756],[-88.47834,43.75629],[-88.47834,43.75629],[-88.47737,43.75694],[-88.4771,43.75711],[-88.47672,43.75736],[-88.47618,43.7577],[-88.47578,43.75797],[-88.4757,43.75803],[-88.47524,43.75834],[-88.47486,43.75859],[-88.47448,43.75884],[-88.47396,43.75914],[-88.47392,43.75918],[-88.47373,43.75929],[-88.47235,43.76014],[-88.47193,43.76043],[-88.47157,43.76068],[-88.47122,43.76091],[-88.47104,43.76102],[-88.4709,43.76108],[-88.4707,43.76114],[-88.4707,43.76114],[-88.47068,43.76114],[-88.47065,43.76114],[-88.47063,43.76115],[-88.4706,43.76115],[-88.47058,43.76116],[-88.47056,43.76116],[-88.47054,43.76117],[-88.47052,43.76118],[-88.4705,43.76119],[-88.47048,43.7612],[-88.47047,43.76122],[-88.47045,43.76123],[-88.47044,43.76125],[-88.47043,43.76127],[-88.47042,43.76129],[-88.47041,43.76131],[-88.47041,43.76132],[-88.47041,43.76134],[-88.47041,43.76136],[-88.47041,43.76137],[-88.47008,43.76158],[-88.46942,43.76198],[-88.46931,43.76209],[-88.46911,43.76222],[-88.46897,43.7623],[-88.46897,43.7623],[-88.46877,43.76243],[-88.46847,43.76261],[-88.46697,43.76353],[-88.46501,43.76473],[-88.46443,43.76509],[-88.46227,43.7664],[-88.462,43.76657],[-88.46029,43.76762],[-88.45974,43.76797],[-88.45887,43.76849],[-88.45869,43.7686],[-88.45803,43.76899],[-88.45764,43.76924],[-88.4575,43.76933],[-88.45725,43.76948],[-88.45709,43.76959],[-88.45695,43.76972],[-88.4565,43.77018],[-88.45579,43.77094],[-88.45475,43.77202],[-88.45456,43.77222],[-88.4544,43.77239],[-88.45414,43.77266],[-88.45374,43.77308],[-88.45349,43.77335],[-88.45316,43.7737],[-88.45259,43.77429],[-88.45256,43.77433],[-88.45253,43.77437],[-88.45195,43.77521],[-88.4519,43.77529],[-88.45187,43.77533],[-88.45185,43.77537],[-88.45184,43.77541],[-88.45183,43.77546],[-88.45183,43.77551],[-88.45183,43.77621],[-88.45184,43.77703],[-88.45187,43.77788],[-88.4519,43.77888],[-88.4519,43.77888],[-88.4508,43.7789],[-88.4508,43.7789],[-88.45085,43.78033],[-88.45085,43.78035],[-88.45087,43.78048],[-88.45087,43.78056],[-88.45085,43.78064],[-88.45084,43.78073],[-88.45084,43.78074],[-88.4508,43.78085],[-88.45081,43.78092],[-88.45078,43.78099],[-88.45072,43.78126],[-88.4507,43.78147],[-88.45069,43.78168],[-88.45066,43.78231],[-88.45066,43.78231],[-88.4502,43.7823],[-88.44965,43.7823],[-88.44922,43.78229]]}},{"type":"Feature","properties":{"agency":"Fond du Lac","shape_id":"TL-58"},"geometry":{"type":"LineString","coordinates":[[-88.47608,43.78182],[-88.476103699,43.7818204265],[-88.4761029448,43.7818288926],[-88.4760512286,43.7818303387],[-88.476049893,43.7818199724],[-88.47475,43.78183],[-88.4746,43.78185],[-88.4746,43.78185],[-88.4746,43.78169],[-88.47461,43.78154],[-88.47462,43.78139],[-88.47463,43.78124],[-88.47465,43.78109],[-88.47466,43.78103],[-88.47467,43.78094],[-88.4747,43.78078],[-88.47473,43.78062],[-88.47476,43.78046],[-88.4748,43.78031],[-88.47488,43.78002],[-88.47493,43.77989],[-88.47498,43.77976],[-88.47499,43.77971],[-88.47503,43.77961],[-88.47509,43.77945],[-88.47515,43.77929],[-88.4752,43.7792],[-88.47526,43.77905],[-88.47532,43.77892],[-88.47539,43.77877],[-88.4754,43.77873],[-88.47544,43.77865],[-88.47546,43.77856],[-88.47548,43.77852],[-88.47549,43.77848],[-88.4755,43.77844],[-88.47552,43.77836],[-88.47553,43.77828],[-88.47554,43.7782],[-88.47554,43.77812],[-88.47555,43.77804],[-88.47552,43.7771],[-88.47552,43.7771],[-88.47502,43.77709],[-88.47366,43.7771],[-88.47249,43.7771],[-88.47122,43.77708],[-88.47122,43.77708],[-88.47122,43.77598],[-88.47122,43.77593],[-88.47122,43.77582],[-88.47123,43.77575],[-88.47124,43.77567],[-88.47125,43.77564],[-88.47128,43.77553],[-88.4713,43.77546],[-88.47132,43.77539],[-88.47133,43.77532],[-88.47134,43.77525],[-88.47138,43.77433],[-88.47134,43.77344],[-88.47138,43.77266],[-88.47138,43.77196],[-88.4714,43.77045],[-88.4714,43.76976],[-88.4714,43.76976],[-88.4705,43.76975],[-88.4695,43.76973],[-88.4681,43.76971],[-88.46688,43.7697],[-88.46688,43.7697],[-88.46684,43.77249],[-88.46686,43.77283],[-88.46683,43.77332],[-88.46684,43.77424],[-88.46689,43.77513],[-88.46686,43.77605],[-88.46681,43.77696],[-88.46681,43.77696],[-88.46519,43.7769],[-88.46501,43.77689],[-88.4637,43.77685],[-88.46353,43.77685],[-88.46191,43.77681],[-88.46191,43.77681],[-88.46191,43.77675],[-88.46191,43.77675],[-88.46192,43.7759],[-88.46192,43.77411],[-88.46192,43.7732],[-88.46194,43.77226],[-88.46194,43.77203],[-88.46194,43.77178],[-88.46194,43.77153],[-88.46193,43.77098],[-88.46195,43.77016],[-88.46194,43.77015],[-88.46195,43.76918],[-88.46196,43.76882],[-88.46197,43.76831],[-88.46199,43.76776],[-88.46199,43.76751],[-88.462,43.76662],[-88.462,43.76657],[-88.462,43.76648],[-88.46203,43.7654],[-88.46206,43.76457],[-88.46208,43.7638],[-88.46211,43.76311],[-88.46212,43.76236],[-88.46213,43.76214],[-88.46214,43.76029],[-88.46214,43.7599],[-88.46215,43.75965],[-88.46216,43.759],[-88.46217,43.7566],[-88.46218,43.75564],[-88.46219,43.75517],[-88.4623,43.75499],[-88.46236,43.75488],[-88.46236,43.75488],[-88.46242,43.75486],[-88.46243,43.75485],[-88.46244,43.75485],[-88.46246,43.75484],[-88.46247,43.75483],[-88.46248,43.75482],[-88.46249,43.75481],[-88.46249,43.7548],[-88.4625,43.75479],[-88.46251,43.75478],[-88.46251,43.75477],[-88.46252,43.75476],[-88.46252,43.75474],[-88.46252,43.75473],[-88.46252,43.75472],[-88.46252,43.75471],[-88.46251,43.7547],[-88.46251,43.75468],[-88.46251,43.75467],[-88.4625,43.75466],[-88.46249,43.75465],[-88.46249,43.75464],[-88.46248,43.75464],[-88.46248,43.75463],[-88.46247,43.75463],[-88.46247,43.75462],[-88.46245,43.75461],[-88.46244,43.7546],[-88.46242,43.75459],[-88.46241,43.75458],[-88.4624,43.75458],[-88.46238,43.75457],[-88.46236,43.75457],[-88.46235,43.75457],[-88.46233,43.75456],[-88.46232,43.75456],[-88.4623,43.75456],[-88.46228,43.75456],[-88.46227,43.75456],[-88.46225,43.75456],[-88.46223,43.75457],[-88.46222,43.75457],[-88.4622,43.75457],[-88.46219,43.75458],[-88.46217,43.75459],[-88.46216,43.75459],[-88.46214,43.7546],[-88.46213,43.75461],[-88.46212,43.75462],[-88.46211,43.75462],[-88.46211,43.75463],[-88.46166,43.75458],[-88.46156,43.75457],[-88.46144,43.75458],[-88.46084,43.75453],[-88.46081,43.75453],[-88.45979,43.75444],[-88.45842,43.75432],[-88.45756,43.75424],[-88.45756,43.75424],[-88.4573,43.75421],[-88.4573,43.75421],[-88.4573,43.7542],[-88.4573,43.75419],[-88.4573,43.75418],[-88.4573,43.75417],[-88.4573,43.75416],[-88.4573,43.75415],[-88.45729,43.75414],[-88.45729,43.75413],[-88.45728,43.75412],[-88.45727,43.75411],[-88.45727,43.7541],[-88.45726,43.75409],[-88.45725,43.75409],[-88.45724,43.75408],[-88.45723,43.75407],[-88.45721,43.75407],[-88.4572,43.75406],[-88.45719,43.75405],[-88.45718,43.75405],[-88.45716,43.75405],[-88.45715,43.75404],[-88.45713,43.75404],[-88.45712,43.75404],[-88.45711,43.75404],[-88.45709,43.75404],[-88.45708,43.75404],[-88.45706,43.75404],[-88.45705,43.75404],[-88.45703,43.75404],[-88.45702,43.75405],[-88.45701,43.75405],[-88.45699,43.75406],[-88.45698,43.75406],[-88.45697,43.75407],[-88.45696,43.75407],[-88.45695,43.75408],[-88.45694,43.75409],[-88.45693,43.75409],[-88.45692,43.7541],[-88.45691,43.75411],[-88.4569,43.75412],[-88.4569,43.75413],[-88.45689,43.75414],[-88.45689,43.75415],[-88.45688,43.75417],[-88.45688,43.75418],[-88.45688,43.75419],[-88.45688,43.7542],[-88.45688,43.75421],[-88.45688,43.75422],[-88.45689,43.75423],[-88.45689,43.75424],[-88.4569,43.75425],[-88.4569,43.75426],[-88.45691,43.75427],[-88.45692,43.75428],[-88.45693,43.75429],[-88.45694,43.7543],[-88.45695,43.7543],[-88.45696,43.75431],[-88.45697,43.75432],[-88.45698,43.75432],[-88.45699,43.75433],[-88.45701,43.75433],[-88.45702,43.75434],[-88.45703,43.75434],[-88.45705,43.75434],[-88.45706,43.75434],[-88.45706,43.75447],[-88.45704,43.7547],[-88.45705,43.7549],[-88.45685,43.75742],[-88.45676,43.75936],[-88.45672,43.75977],[-88.45666,43.76009],[-88.45656,43.76031],[-88.4563,43.76086],[-88.45572,43.76227],[-88.45572,43.76227],[-88.45686,43.76228],[-88.45804,43.76229],[-88.45911,43.76232],[-88.45919,43.76231],[-88.45971,43.7623],[-88.45971,43.7623],[-88.45969,43.76307],[-88.45968,43.76375],[-88.45966,43.76455],[-88.45964,43.76537],[-88.45961,43.76634],[-88.45961,43.76634],[-88.45961,43.76644],[-88.45961,43.76644],[-88.45913,43.76644],[-88.45894,43.76644],[-88.4587,43.76644],[-88.4587,43.76644],[-88.45865,43.76846],[-88.45869,43.7686],[-88.45869,43.7686],[-88.45803,43.76899],[-88.45764,43.76924],[-88.4575,43.76933],[-88.45725,43.76948],[-88.45709,43.76959],[-88.45695,43.76972],[-88.4565,43.77018],[-88.4565,43.77018],[-88.45663,43.77022],[-88.45763,43.77021],[-88.45763,43.77021],[-88.45732,43.77102],[-88.45712,43.77152],[-88.45685,43.77202],[-88.45622,43.77334],[-88.45622,43.77334],[-88.45588,43.77335],[-88.45454,43.77336],[-88.45454,43.77336],[-88.45453,43.77425],[-88.45452,43.77476],[-88.45448,43.77522],[-88.45447,43.77545],[-88.45445,43.77569],[-88.45445,43.77698],[-88.45444,43.77777],[-88.45445,43.77783],[-88.45444,43.7779],[-88.45443,43.77884],[-88.45443,43.77884],[-88.4543,43.77884],[-88.454,43.77884],[-88.45304,43.77886],[-88.4519,43.77888],[-88.4508,43.7789],[-88.4508,43.7789],[-88.45085,43.78035],[-88.45087,43.78048],[-88.45087,43.78056],[-88.45085,43.78064],[-88.45084,43.78073],[-88.4508,43.78085],[-88.45081,43.78092],[-88.45078,43.78099],[-88.45072,43.78126],[-88.4507,43.78147],[-88.45069,43.78168],[-88.45066,43.78231],[-88.45066,43.78231],[-88.4502,43.7823],[-88.44965,43.7823],[-88.44922,43.78229],[-88.44922,43.78229],[-88.44883,43.78229],[-88.44883,43.78229],[-88.4488,43.78199],[-88.44867,43.7815],[-88.4486,43.78114],[-88.44859,43.78105],[-88.44858,43.78101],[-88.44856,43.78095],[-88.44855,43.7809],[-88.44854,43.78086],[-88.44847,43.78065],[-88.44845,43.78044],[-88.4484,43.77997],[-88.44838,43.77983],[-88.44837,43.77973],[-88.44835,43.77944],[-88.44833,43.77922],[-88.44832,43.7789],[-88.44832,43.7789],[-88.44794,43.77889],[-88.44743,43.7789],[-88.44698,43.77889],[-88.44698,43.77889],[-88.44699,43.77925],[-88.44703,43.78062],[-88.44704,43.78076],[-88.44704,43.78092],[-88.44704,43.78128],[-88.44703,43.78229],[-88.44703,43.78267],[-88.44702,43.78313],[-88.44702,43.78355],[-88.44702,43.78355],[-88.44627,43.78354],[-88.44568,43.78355],[-88.44544,43.78354],[-88.44519,43.78353],[-88.44497,43.78357],[-88.44349,43.78356],[-88.44079,43.78353],[-88.44062,43.78349],[-88.44028,43.78348],[-88.44005,43.78347],[-88.43979,43.78347],[-88.4391,43.78347],[-88.4391,43.78347],[-88.4391,43.78355],[-88.4391,43.78382],[-88.43911,43.78433],[-88.43914,43.78484],[-88.43915,43.7852],[-88.43918,43.78613],[-88.4392,43.78664],[-88.43922,43.78746],[-88.43922,43.78845],[-88.43922,43.78878],[-88.43927,43.78957],[-88.43928,43.78972],[-88.43931,43.79065],[-88.43934,43.79158],[-88.43934,43.79158],[-88.43684,43.79155],[-88.43477,43.79152],[-88.43363,43.79151],[-88.4325,43.79149],[-88.43175,43.79148],[-88.43126,43.79147],[-88.43072,43.79146],[-88.42798,43.79142],[-88.42685,43.7914],[-88.42652,43.7914],[-88.42574,43.79139],[-88.42396,43.79137],[-88.42319,43.79135],[-88.42232,43.79132],[-88.42126,43.79129],[-88.42007,43.79127],[-88.41961,43.79126],[-88.41961,43.79126],[-88.41958,43.79131],[-88.41954,43.79138],[-88.41951,43.79142],[-88.41946,43.7915],[-88.4194,43.79157],[-88.41938,43.79161],[-88.41931,43.79169],[-88.41925,43.79176],[-88.41922,43.79179],[-88.4191,43.79188],[-88.41907,43.7919],[-88.41897,43.79199],[-88.41883,43.7921],[-88.41832,43.79241],[-88.41827,43.79244],[-88.41818,43.7925],[-88.41811,43.79254],[-88.41801,43.79259],[-88.41795,43.79263],[-88.41788,43.79266],[-88.41784,43.79267],[-88.41779,43.79269],[-88.41773,43.79272],[-88.41762,43.79275],[-88.4176,43.79276],[-88.41754,43.79278],[-88.41746,43.7928],[-88.41739,43.79282],[-88.41731,43.79283],[-88.41723,43.79285],[-88.41715,43.79286],[-88.41706,43.79287],[-88.41698,43.79288],[-88.4169,43.79289],[-88.41682,43.7929],[-88.41673,43.7929],[-88.41665,43.7929],[-88.41653,43.7929],[-88.41528,43.79282],[-88.41517,43.79281],[-88.41517,43.79281],[-88.41517,43.79282],[-88.41516,43.79303],[-88.4151,43.79344],[-88.41513,43.79381],[-88.41515,43.79391],[-88.41517,43.79395],[-88.41519,43.79396],[-88.41522,43.79401],[-88.41533,43.79409],[-88.41557,43.79423],[-88.41575,43.79431],[-88.416,43.79438],[-88.416,43.79438],[-88.4160286588,43.7943875023],[-88.41638,43.79443],[-88.41672,43.79443],[-88.41706,43.79436],[-88.41725,43.7943],[-88.4174,43.79423],[-88.41756,43.79414],[-88.4177,43.79404],[-88.41776,43.79397],[-88.41779,43.79389],[-88.41782,43.7938],[-88.41784,43.79371],[-88.41782,43.79286],[-88.41779,43.7927],[-88.41779,43.79269],[-88.41779,43.79269],[-88.41784,43.79267],[-88.41788,43.79266],[-88.41795,43.79263],[-88.41801,43.79259],[-88.41811,43.79254],[-88.41818,43.7925],[-88.41827,43.79244],[-88.41832,43.79241],[-88.41883,43.7921],[-88.41897,43.79199],[-88.41907,43.7919],[-88.4191,43.79188],[-88.41922,43.79179],[-88.41925,43.79176],[-88.41931,43.79169],[-88.41938,43.79161],[-88.4194,43.79157],[-88.41946,43.7915],[-88.41951,43.79142],[-88.41954,43.79138],[-88.41958,43.79131],[-88.41961,43.79126],[-88.41965,43.79119],[-88.41968,43.79111],[-88.41971,43.79103],[-88.41973,43.79099],[-88.41976,43.79091],[-88.41978,43.79083],[-88.41979,43.79079],[-88.41981,43.79071],[-88.41982,43.79067],[-88.41983,43.79059],[-88.41984,43.7905],[-88.41984,43.79042],[-88.41984,43.79038],[-88.41984,43.79034],[-88.41983,43.79026],[-88.41983,43.79017],[-88.41982,43.79009],[-88.4198,43.79001],[-88.41978,43.78993],[-88.41974,43.78981],[-88.4197,43.78968],[-88.41966,43.78961],[-88.41962,43.78953],[-88.41958,43.78945],[-88.41953,43.78937],[-88.41948,43.7893],[-88.41943,43.78923],[-88.41937,43.78915],[-88.41934,43.78912],[-88.41928,43.78905],[-88.41925,43.78901],[-88.41918,43.78895],[-88.41911,43.78888],[-88.41904,43.78882],[-88.41896,43.78875],[-88.41892,43.78872],[-88.41884,43.78866],[-88.41876,43.78861],[-88.4187,43.78857],[-88.41844,43.78841],[-88.41734,43.78771],[-88.41592,43.78682],[-88.41571,43.7867],[-88.41561,43.78665],[-88.41541,43.78656],[-88.41511,43.78644],[-88.41493,43.78636],[-88.41493,43.78636],[-88.41492,43.78598],[-88.41493,43.7851],[-88.41493,43.78413],[-88.41493,43.784],[-88.41493,43.78396],[-88.41493,43.78396],[-88.41494,43.78382],[-88.41345,43.78374],[-88.41252,43.78369],[-88.41197,43.78366],[-88.41192,43.78366],[-88.41057,43.78362],[-88.4099,43.7836],[-88.40988,43.7836],[-88.4087,43.78358],[-88.40869,43.78358],[-88.40808,43.78356],[-88.40671,43.78354],[-88.40655,43.78354],[-88.40397,43.78349],[-88.40271,43.78347],[-88.40228,43.78348],[-88.40205,43.78348],[-88.40181,43.78349],[-88.40166,43.78349],[-88.40125,43.78352],[-88.401,43.78353],[-88.40085,43.78354],[-88.40056,43.78356],[-88.40052,43.78357],[-88.4004,43.78357],[-88.40017,43.78359],[-88.39985,43.78361],[-88.39969,43.78361],[-88.39881,43.78367],[-88.39834,43.78369],[-88.39774,43.7837],[-88.39717,43.7837],[-88.39713,43.7837],[-88.39656,43.7837],[-88.3964,43.7837],[-88.39584,43.7837],[-88.39378,43.78367],[-88.39153,43.78365],[-88.39127,43.78365],[-88.39017,43.78364],[-88.38907,43.78363],[-88.38771,43.78362],[-88.38659,43.78361],[-88.38659,43.78361],[-88.38656,43.78375],[-88.3865,43.78411],[-88.38648,43.78424],[-88.38646,43.78433],[-88.38644,43.7844],[-88.38642,43.78445],[-88.38637,43.78456],[-88.38632,43.78466],[-88.38628,43.78473],[-88.38622,43.78481],[-88.38611,43.78495],[-88.38594,43.78514],[-88.38591,43.78519],[-88.38587,43.78523],[-88.38585,43.78525],[-88.38565,43.78546],[-88.38556,43.78556],[-88.38547,43.78567],[-88.38542,43.78573],[-88.38535,43.78584],[-88.3853,43.78592],[-88.38525,43.78602],[-88.38522,43.7861],[-88.3852,43.78616],[-88.38517,43.78633],[-88.38516,43.78644],[-88.38516,43.78645],[-88.38516,43.78654],[-88.38515,43.78659],[-88.3851497454,43.7865899936],[-88.3851504085,43.7866654027],[-88.3852121285,43.7866687934],[-88.3852150778,43.7865462715],[-88.3851603597,43.7865399304],[-88.3851602204,43.7864398515],[-88.3851699231,43.786330124],[-88.3852000194,43.7861601971],[-88.3852204452,43.7861000094],[-88.3852501042,43.7860198121],[-88.3852999677,43.7859199087],[-88.3853500838,43.7858398885],[-88.3854202424,43.7857297141],[-88.3854702845,43.7856701274],[-88.3855602537,43.7855598935],[-88.3856502211,43.7854600565],[-88.3858504462,43.7852498984],[-88.3858700226,43.7852301722],[-88.3859098459,43.7851897516],[-88.3859405423,43.7851398926],[-88.3860052649,43.7850685484],[-88.3862834317,43.7850820882],[-88.386433523,43.7850840096],[-88.38646,43.78491],[-88.38647,43.78479],[-88.3865,43.78456],[-88.38651,43.7845],[-88.38651,43.7845],[-88.38652,43.7845],[-88.38653,43.7845],[-88.38654,43.78449],[-88.38656,43.78449],[-88.38657,43.78449],[-88.38658,43.78448],[-88.3866,43.78448],[-88.38661,43.78447],[-88.38662,43.78447],[-88.38663,43.78446],[-88.38664,43.78445],[-88.38665,43.78444],[-88.38666,43.78444],[-88.38667,43.78443],[-88.38667,43.78442],[-88.38686,43.78448],[-88.3873,43.78458],[-88.38734,43.78458],[-88.38747,43.78461],[-88.38754,43.78463],[-88.38762,43.78465],[-88.38771,43.78466],[-88.38778,43.78468],[-88.38781,43.78468],[-88.38795,43.78468],[-88.38799,43.78468],[-88.38819,43.78467],[-88.3882,43.78467],[-88.38827,43.78465],[-88.38838,43.78463],[-88.38843,43.78461],[-88.3885,43.78458],[-88.38853,43.78456],[-88.38863,43.78449],[-88.38868,43.78445],[-88.3887,43.78444],[-88.38877,43.78435],[-88.38881,43.7843],[-88.38886,43.78425],[-88.38892,43.78414],[-88.38898,43.78403],[-88.3891,43.78381],[-88.3891,43.78381],[-88.38961,43.78381],[-88.39071,43.78382],[-88.39132,43.78383],[-88.39248,43.78385],[-88.39284,43.78385],[-88.39289,43.78385],[-88.39323,43.78385],[-88.39346,43.78386],[-88.39409,43.78387],[-88.39425,43.78388],[-88.39437,43.78388],[-88.3945,43.78387],[-88.39492,43.78387],[-88.39575,43.78385],[-88.39578,43.78384],[-88.39583,43.78385],[-88.39585,43.78385],[-88.39587,43.78385],[-88.3959,43.78385],[-88.39591,43.78386],[-88.39594,43.78386],[-88.39595,43.78387],[-88.39596,43.78387],[-88.39611,43.78394],[-88.39613,43.78395],[-88.39615,43.78396],[-88.3962,43.78398],[-88.3962,43.78398],[-88.39622,43.784],[-88.39624,43.78402],[-88.39626,43.78404],[-88.39629,43.78406],[-88.39632,43.78408],[-88.39635,43.78409],[-88.39637,43.7841],[-88.39639,43.7841],[-88.39642,43.78411],[-88.39646,43.78412],[-88.39649,43.78412],[-88.39653,43.78412],[-88.39657,43.78412],[-88.39661,43.78411],[-88.39662,43.78411],[-88.39664,43.7841],[-88.39668,43.78409],[-88.39671,43.78407],[-88.39674,43.78406],[-88.39676,43.78404],[-88.39679,43.78402],[-88.3968,43.784],[-88.39681,43.78399],[-88.39731,43.78395],[-88.39874,43.78385],[-88.39915,43.7838],[-88.3994,43.78378],[-88.39973,43.78376],[-88.39973,43.78376],[-88.40031,43.78373],[-88.40051,43.78372],[-88.4006,43.78372],[-88.40085,43.78369],[-88.40086,43.78369],[-88.40097,43.78368],[-88.40103,43.78368],[-88.40167,43.78364],[-88.40172,43.78364],[-88.40181,43.78364],[-88.40207,43.78363],[-88.4023,43.78363],[-88.4032,43.78362],[-88.40399,43.78365],[-88.40512,43.78365],[-88.40575,43.78367],[-88.40656,43.78368],[-88.40669,43.78369],[-88.4087,43.78372],[-88.40988,43.78374],[-88.4099,43.78374],[-88.41057,43.78376],[-88.41085,43.78376],[-88.41157,43.78379],[-88.41165,43.78379],[-88.41192,43.7838],[-88.41197,43.7838],[-88.41287,43.78385],[-88.41312,43.78386],[-88.41337,43.78388],[-88.41345,43.78388],[-88.41434,43.78393],[-88.41493,43.78396],[-88.41542,43.78398],[-88.41624,43.78402],[-88.41649,43.78403],[-88.41695,43.78404],[-88.41696,43.78404],[-88.41913,43.78408],[-88.42045,43.7841],[-88.4211,43.78409],[-88.42182,43.7841],[-88.4222,43.7841],[-88.42229,43.78405],[-88.4228,43.78404],[-88.42369,43.78405],[-88.42525,43.78407],[-88.42532,43.78407],[-88.42626,43.78408],[-88.42678,43.78409],[-88.42731,43.78411],[-88.42799,43.78412],[-88.42837,43.78413],[-88.42854,43.78413],[-88.42903,43.78414],[-88.42953,43.78415],[-88.42977,43.78415],[-88.42999,43.78414],[-88.43021,43.78412],[-88.4304,43.7841],[-88.4307,43.78405],[-88.43107,43.78397],[-88.43128,43.78391],[-88.43142,43.78387],[-88.43164,43.7838],[-88.4319,43.78372],[-88.43202,43.78369],[-88.43217,43.78365],[-88.43244,43.78357],[-88.4326,43.78354],[-88.43266,43.78352],[-88.43284,43.78349],[-88.43315,43.78345],[-88.43316,43.78345],[-88.43342,43.78344],[-88.43378,43.78344],[-88.43501,43.78345],[-88.43551,43.78346],[-88.43572,43.78346],[-88.43721,43.78348],[-88.4374,43.78352],[-88.43768,43.78354],[-88.43837,43.78355],[-88.4391,43.78355],[-88.43979,43.78356],[-88.44005,43.78356],[-88.44028,43.78357],[-88.44062,43.78356],[-88.44079,43.78353],[-88.44349,43.78356],[-88.44497,43.78357],[-88.44519,43.78361],[-88.44544,43.78362],[-88.44568,43.78362],[-88.44628,43.78363],[-88.44662,43.78364],[-88.44701,43.78364],[-88.44783,43.78366],[-88.448,43.78366],[-88.44842,43.78367],[-88.44883,43.78367],[-88.44883,43.78367],[-88.4492371846,43.7836755168],[-88.4494733785,43.7836340749],[-88.4506510603,43.7836448933],[-88.4506546016,43.7829519185],[-88.4506607474,43.7823098195],[-88.44922,43.78229]]}},{"type":"Feature","properties":{"agency":"Fond du Lac","shape_id":"TL-59"},"geometry":{"type":"LineString","coordinates":[[-88.38539,43.78668],[-88.38531,43.78679],[-88.38529,43.78683],[-88.38519,43.78704],[-88.38513,43.78724],[-88.38513,43.78735],[-88.38513,43.78735],[-88.38513,43.78735],[-88.38513,43.78735],[-88.38527,43.78708],[-88.38541,43.78687],[-88.38541,43.78686],[-88.3857,43.78652],[-88.38588,43.78633],[-88.38602,43.78619],[-88.38609,43.78612],[-88.38616,43.78606],[-88.38629,43.78589],[-88.38637,43.78573],[-88.38641,43.78564],[-88.38643,43.78556],[-88.38646,43.78533],[-88.38643,43.78509],[-88.38646,43.78491],[-88.38647,43.78479],[-88.3865,43.78456],[-88.38651,43.7845],[-88.38651,43.7845],[-88.38652,43.7845],[-88.38653,43.7845],[-88.38654,43.78449],[-88.38656,43.78449],[-88.38657,43.78449],[-88.38658,43.78448],[-88.3866,43.78448],[-88.38661,43.78447],[-88.38662,43.78447],[-88.38663,43.78446],[-88.38664,43.78445],[-88.38665,43.78444],[-88.38666,43.78444],[-88.38667,43.78443],[-88.38667,43.78442],[-88.38686,43.78448],[-88.3873,43.78458],[-88.38734,43.78458],[-88.38747,43.78461],[-88.38754,43.78463],[-88.38762,43.78465],[-88.38771,43.78466],[-88.38778,43.78468],[-88.38781,43.78468],[-88.38795,43.78468],[-88.38799,43.78468],[-88.38819,43.78467],[-88.3882,43.78467],[-88.38827,43.78465],[-88.38838,43.78463],[-88.38843,43.78461],[-88.3885,43.78458],[-88.38853,43.78456],[-88.38863,43.78449],[-88.38868,43.78445],[-88.3887,43.78444],[-88.38877,43.78435],[-88.38881,43.7843],[-88.38886,43.78425],[-88.38892,43.78414],[-88.38898,43.78403],[-88.3891,43.78381],[-88.3891,43.78381],[-88.38961,43.78381],[-88.39071,43.78382],[-88.39132,43.78383],[-88.39248,43.78385],[-88.39284,43.78385],[-88.39289,43.78385],[-88.39323,43.78385],[-88.39346,43.78386],[-88.39409,43.78387],[-88.39425,43.78388],[-88.39437,43.78388],[-88.3945,43.78387],[-88.39492,43.78387],[-88.39575,43.78385],[-88.39578,43.78384],[-88.39583,43.78385],[-88.39585,43.78385],[-88.39587,43.78385],[-88.3959,43.78385],[-88.39591,43.78386],[-88.39594,43.78386],[-88.39595,43.78387],[-88.39596,43.78387],[-88.39611,43.78394],[-88.39613,43.78395],[-88.39615,43.78396],[-88.3962,43.78398],[-88.3962,43.78398],[-88.39622,43.784],[-88.39624,43.78402],[-88.39626,43.78404],[-88.39629,43.78406],[-88.39632,43.78408],[-88.39635,43.78409],[-88.39637,43.7841],[-88.39639,43.7841],[-88.39642,43.78411],[-88.39646,43.78412],[-88.39649,43.78412],[-88.39653,43.78412],[-88.39657,43.78412],[-88.39661,43.78411],[-88.39662,43.78411],[-88.39664,43.7841],[-88.39668,43.78409],[-88.39671,43.78407],[-88.39674,43.78406],[-88.39676,43.78404],[-88.39679,43.78402],[-88.3968,43.784],[-88.39681,43.78399],[-88.39731,43.78395],[-88.39874,43.78385],[-88.39915,43.7838],[-88.3994,43.78378],[-88.39973,43.78376],[-88.39973,43.78376],[-88.40031,43.78373],[-88.40051,43.78372],[-88.4006,43.78372],[-88.40085,43.78369],[-88.40086,43.78369],[-88.40097,43.78368],[-88.40103,43.78368],[-88.40167,43.78364],[-88.40172,43.78364],[-88.40181,43.78364],[-88.40207,43.78363],[-88.4023,43.78363],[-88.4032,43.78362],[-88.40399,43.78365],[-88.40512,43.78365],[-88.40575,43.78367],[-88.40656,43.78368],[-88.40669,43.78369],[-88.4087,43.78372],[-88.40988,43.78374],[-88.4099,43.78374],[-88.41057,43.78376],[-88.41085,43.78376],[-88.41157,43.78379],[-88.41165,43.78379],[-88.41192,43.7838],[-88.41197,43.7838],[-88.41287,43.78385],[-88.41312,43.78386],[-88.41337,43.78388],[-88.41345,43.78388],[-88.41434,43.78393],[-88.41493,43.78396],[-88.41493,43.78396],[-88.41493,43.784],[-88.41493,43.78413],[-88.41493,43.78449],[-88.41493,43.7851],[-88.41492,43.78598],[-88.41492,43.786],[-88.41493,43.78636],[-88.41493,43.78636],[-88.41511,43.78644],[-88.41541,43.78656],[-88.41561,43.78665],[-88.41571,43.7867],[-88.41592,43.78682],[-88.41734,43.78771],[-88.41844,43.78841],[-88.4187,43.78857],[-88.41876,43.78861],[-88.41884,43.78866],[-88.41892,43.78872],[-88.41896,43.78875],[-88.41904,43.78882],[-88.41911,43.78888],[-88.41918,43.78895],[-88.41925,43.78901],[-88.41928,43.78905],[-88.41934,43.78912],[-88.41937,43.78915],[-88.41943,43.78923],[-88.41948,43.7893],[-88.41953,43.78937],[-88.41958,43.78945],[-88.41962,43.78953],[-88.41966,43.78961],[-88.4197,43.78968],[-88.41974,43.78981],[-88.41978,43.78993],[-88.4198,43.79001],[-88.41982,43.79009],[-88.41983,43.79017],[-88.41983,43.79026],[-88.41984,43.79034],[-88.41984,43.79038],[-88.41984,43.79042],[-88.41984,43.7905],[-88.41983,43.79059],[-88.41982,43.79067],[-88.41981,43.79071],[-88.41979,43.79079],[-88.41978,43.79083],[-88.41976,43.79091],[-88.41973,43.79099],[-88.41971,43.79103],[-88.41968,43.79111],[-88.41965,43.79119],[-88.41961,43.79126],[-88.41958,43.79131],[-88.41954,43.79138],[-88.41951,43.79142],[-88.41946,43.7915],[-88.4194,43.79157],[-88.41938,43.79161],[-88.41931,43.79169],[-88.41925,43.79176],[-88.41922,43.79179],[-88.4191,43.79188],[-88.41907,43.7919],[-88.41897,43.79199],[-88.41883,43.7921],[-88.41832,43.79241],[-88.41827,43.79244],[-88.41818,43.7925],[-88.41811,43.79254],[-88.41801,43.79259],[-88.41795,43.79263],[-88.41788,43.79266],[-88.41784,43.79267],[-88.41779,43.79269],[-88.41773,43.79272],[-88.41762,43.79275],[-88.4176,43.79276],[-88.4176,43.79276],[-88.41766,43.79287],[-88.41767,43.79347],[-88.41767,43.79362],[-88.41767,43.79362],[-88.41739,43.79353],[-88.41717,43.79349],[-88.41697,43.79346],[-88.41648,43.79347],[-88.416,43.79357],[-88.41579,43.79366],[-88.41561,43.79374],[-88.41533,43.79392],[-88.41522,43.79401],[-88.41522,43.79401],[-88.41533,43.79409],[-88.41557,43.79423],[-88.41575,43.79431],[-88.416,43.79438],[-88.416,43.79438],[-88.41603,43.79438],[-88.41638,43.79443],[-88.41659,43.79443],[-88.41672,43.79443],[-88.41706,43.79436],[-88.41725,43.7943],[-88.4174,43.79423],[-88.41756,43.79414],[-88.41757,43.79412],[-88.4177,43.79404],[-88.41776,43.79397],[-88.41779,43.79389],[-88.41782,43.7938],[-88.41784,43.79371],[-88.41782,43.79286],[-88.41779,43.7927],[-88.41779,43.79269],[-88.41779,43.79269],[-88.41784,43.79267],[-88.41788,43.79266],[-88.41795,43.79263],[-88.41801,43.79259],[-88.41811,43.79254],[-88.41818,43.7925],[-88.41827,43.79244],[-88.41832,43.79241],[-88.41883,43.7921],[-88.41897,43.79199],[-88.41907,43.7919],[-88.4191,43.79188],[-88.41922,43.79179],[-88.41925,43.79176],[-88.41931,43.79169],[-88.41938,43.79161],[-88.4194,43.79157],[-88.41946,43.7915],[-88.41951,43.79142],[-88.41954,43.79138],[-88.41958,43.79131],[-88.41961,43.79126],[-88.41961,43.79126],[-88.42007,43.79127],[-88.42126,43.79129],[-88.42232,43.79132],[-88.42319,43.79135],[-88.42396,43.79137],[-88.42574,43.79139],[-88.42652,43.7914],[-88.42685,43.7914],[-88.42798,43.79142],[-88.42947,43.79144],[-88.43072,43.79146],[-88.43126,43.79147],[-88.43175,43.79148],[-88.43225,43.79148],[-88.4325,43.79149],[-88.43363,43.79151],[-88.43477,43.79152],[-88.43684,43.79155],[-88.43934,43.79158],[-88.43934,43.79158],[-88.43931,43.79065],[-88.43928,43.78972],[-88.43927,43.78957],[-88.43922,43.78878],[-88.43922,43.78845],[-88.43922,43.78746],[-88.4392,43.78664],[-88.43918,43.78613],[-88.43915,43.7852],[-88.43914,43.78484],[-88.43911,43.78433],[-88.43911,43.78433],[-88.4390984804,43.7836172117],[-88.4390985128,43.7836170493],[-88.4391,43.78355],[-88.43979,43.78356],[-88.44005,43.78356],[-88.44028,43.78357],[-88.44062,43.78356],[-88.44079,43.78353],[-88.44349,43.78356],[-88.44497,43.78357],[-88.44519,43.78361],[-88.44544,43.78362],[-88.44568,43.78362],[-88.44628,43.78363],[-88.44662,43.78364],[-88.44701,43.78364],[-88.44783,43.78366],[-88.448,43.78366],[-88.44842,43.78367],[-88.44883,43.78367],[-88.44883,43.78367],[-88.44884,43.78358],[-88.44883,43.78303],[-88.44883,43.78229],[-88.44883,43.78229],[-88.44922,43.78229],[-88.44922,43.78229],[-88.44965,43.7823],[-88.4502,43.7823],[-88.45066,43.78231],[-88.45066,43.78231],[-88.45069,43.78168],[-88.4507,43.78147],[-88.45072,43.78126],[-88.45078,43.78099],[-88.45081,43.78092],[-88.4508,43.78085],[-88.45084,43.78074],[-88.45084,43.78073],[-88.45085,43.78064],[-88.45087,43.78056],[-88.45087,43.78048],[-88.45085,43.78035],[-88.45085,43.78033],[-88.4508,43.7789],[-88.4508,43.7789],[-88.4519,43.77888],[-88.45304,43.77886],[-88.45337,43.77885],[-88.45357,43.77885],[-88.454,43.77884],[-88.4543,43.77884],[-88.45443,43.77884],[-88.45443,43.77884],[-88.45444,43.7779],[-88.45445,43.77783],[-88.45444,43.77777],[-88.45445,43.77698],[-88.45445,43.77569],[-88.45447,43.77545],[-88.45448,43.77522],[-88.45452,43.77476],[-88.45453,43.77425],[-88.45454,43.77336],[-88.45454,43.77336],[-88.45588,43.77335],[-88.45622,43.77334],[-88.45622,43.77334],[-88.45685,43.77202],[-88.45712,43.77152],[-88.45732,43.77102],[-88.45763,43.77021],[-88.45763,43.77021],[-88.45663,43.77022],[-88.4565,43.77018],[-88.4565,43.77018],[-88.45695,43.76972],[-88.45709,43.76959],[-88.45725,43.76948],[-88.4575,43.76933],[-88.4575,43.76933],[-88.45744,43.76924],[-88.45745,43.76908],[-88.45747,43.76836],[-88.4575,43.76679],[-88.4575,43.76679],[-88.45751,43.76642],[-88.45751,43.76642],[-88.4587,43.76644],[-88.45894,43.76644],[-88.45913,43.76644],[-88.45961,43.76644],[-88.45961,43.76644],[-88.45962,43.76591],[-88.45964,43.76537],[-88.45965,43.76501],[-88.45966,43.76455],[-88.45967,43.76419],[-88.45968,43.76375],[-88.45969,43.76307],[-88.45971,43.7623],[-88.45971,43.7623],[-88.45919,43.76231],[-88.45911,43.76232],[-88.45853,43.7623],[-88.45804,43.76229],[-88.45736,43.76228],[-88.45711,43.76228],[-88.45686,43.76228],[-88.45636,43.76228],[-88.45572,43.76227],[-88.45572,43.76227],[-88.4563,43.76086],[-88.45656,43.76031],[-88.45666,43.76009],[-88.45672,43.75977],[-88.45676,43.75936],[-88.45688,43.75742],[-88.45697,43.75635],[-88.45698,43.75614],[-88.45702,43.75557],[-88.45706,43.75498],[-88.45711,43.75485],[-88.45712,43.75456],[-88.45714,43.75447],[-88.45719,43.75434],[-88.45719,43.75434],[-88.4572,43.75434],[-88.45721,43.75434],[-88.45722,43.75433],[-88.45723,43.75433],[-88.45724,43.75432],[-88.45725,43.75432],[-88.45726,43.75431],[-88.45752,43.75431],[-88.45775,43.75432],[-88.45778,43.75432],[-88.45808,43.75435],[-88.45841,43.75437],[-88.45915,43.75444],[-88.45993,43.75451],[-88.46081,43.75462],[-88.46083,43.75462],[-88.46143,43.75466],[-88.4616,43.75465],[-88.46179,43.75467],[-88.46181,43.75467],[-88.46181,43.75467],[-88.46188,43.75469],[-88.46197,43.75473],[-88.46208,43.75479],[-88.46208,43.75479],[-88.46209,43.7548],[-88.4621,43.75481],[-88.4621,43.75482],[-88.46211,43.75482],[-88.46212,43.75493],[-88.46215,43.75517],[-88.46213,43.75563],[-88.46213,43.75564],[-88.46219,43.75606],[-88.46219,43.75611],[-88.46218,43.7566],[-88.46217,43.7581],[-88.46216,43.759],[-88.46215,43.75965],[-88.46214,43.7599],[-88.46214,43.76029],[-88.46213,43.76143],[-88.46213,43.76214],[-88.46212,43.76236],[-88.46211,43.76311],[-88.46208,43.7638],[-88.46206,43.76457],[-88.46203,43.7654],[-88.462,43.76648],[-88.462,43.76657],[-88.462,43.76662],[-88.46199,43.76751],[-88.46199,43.76776],[-88.46197,43.76831],[-88.46196,43.76882],[-88.46195,43.76918],[-88.46194,43.77015],[-88.46195,43.77016],[-88.46193,43.77098],[-88.46194,43.77153],[-88.46194,43.77178],[-88.46194,43.77203],[-88.46194,43.77226],[-88.46192,43.7732],[-88.46192,43.77411],[-88.46192,43.77501],[-88.46192,43.7759],[-88.46191,43.77675],[-88.46191,43.77675],[-88.46191,43.77681],[-88.46191,43.77681],[-88.46353,43.77685],[-88.4637,43.77685],[-88.46376,43.77685],[-88.46501,43.77689],[-88.46519,43.7769],[-88.46681,43.77696],[-88.46681,43.77696],[-88.46686,43.77605],[-88.46689,43.77513],[-88.46684,43.77424],[-88.46683,43.77332],[-88.46686,43.77283],[-88.46684,43.77249],[-88.46686,43.77114],[-88.46688,43.7697],[-88.46688,43.7697],[-88.4681,43.76971],[-88.4695,43.76973],[-88.4705,43.76975],[-88.4713517202,43.7697587894],[-88.4713515892,43.7697587894],[-88.4714,43.76976],[-88.4714,43.76976],[-88.4714,43.77045],[-88.47138,43.77196],[-88.47138,43.77222],[-88.47138,43.77266],[-88.47138,43.77277],[-88.47136,43.77313],[-88.47134,43.77344],[-88.47137,43.77403],[-88.47138,43.77433],[-88.47138,43.77439],[-88.47134,43.77525],[-88.47133,43.77532],[-88.47132,43.77539],[-88.4713,43.77546],[-88.47128,43.77553],[-88.47125,43.77564],[-88.47124,43.77567],[-88.47123,43.77575],[-88.47122,43.77582],[-88.47122,43.77593],[-88.47122,43.77598],[-88.47122,43.7765],[-88.47122,43.77708],[-88.47122,43.77708],[-88.47249,43.7771],[-88.47366,43.7771],[-88.47502,43.77709],[-88.47552,43.7771],[-88.47552,43.7771],[-88.47555,43.77804],[-88.47554,43.77812],[-88.47554,43.7782],[-88.47553,43.77828],[-88.47552,43.77836],[-88.4755,43.77844],[-88.47549,43.77848],[-88.47548,43.77852],[-88.47546,43.77856],[-88.47544,43.77865],[-88.4754,43.77873],[-88.47539,43.77877],[-88.47532,43.77892],[-88.47526,43.77905],[-88.4752,43.7792],[-88.47515,43.77929],[-88.47509,43.77945],[-88.47503,43.77961],[-88.47499,43.77971],[-88.47498,43.77976],[-88.47493,43.77989],[-88.47488,43.78002],[-88.4748,43.78031],[-88.47476,43.78046],[-88.47473,43.78062],[-88.4747,43.78078],[-88.47467,43.78094],[-88.47466,43.78103],[-88.47465,43.78109],[-88.47463,43.78124],[-88.47462,43.78139],[-88.47461,43.78154],[-88.4746,43.78169],[-88.4746,43.78185],[-88.4746,43.78185],[-88.47475,43.78183],[-88.47608,43.78182]]}},{"type":"Feature","properties":{"agency":"Fond du Lac","shape_id":"TL-60"},"geometry":{"type":"LineString","coordinates":[[-88.44922,43.78229],[-88.44883,43.78229],[-88.44883,43.78229],[-88.4488,43.78199],[-88.44872,43.78168],[-88.44867,43.7815],[-88.4486,43.78114],[-88.44859,43.78105],[-88.44858,43.78101],[-88.44856,43.78095],[-88.44855,43.78091],[-88.44855,43.7809],[-88.44854,43.78086],[-88.44847,43.78065],[-88.44845,43.78044],[-88.44845,43.78041],[-88.4484,43.77997],[-88.44838,43.77983],[-88.44837,43.77973],[-88.44835,43.77944],[-88.44833,43.77922],[-88.44832,43.7789],[-88.44831,43.77868],[-88.44831,43.77849],[-88.44831,43.77823],[-88.44828,43.77774],[-88.44828,43.7777],[-88.44828,43.77765],[-88.44827,43.7776],[-88.44826,43.77756],[-88.44824,43.77752],[-88.44821,43.77748],[-88.4482,43.77745],[-88.4482,43.77745],[-88.44819,43.7774],[-88.44819,43.77736],[-88.44819,43.77733],[-88.4482,43.77729],[-88.44822,43.77726],[-88.44825,43.77723],[-88.44829,43.7772],[-88.44834,43.77718],[-88.44841,43.77717],[-88.44853,43.77715],[-88.4487,43.77714],[-88.44874,43.77713],[-88.44917,43.77709],[-88.44961,43.77705],[-88.45097,43.77704],[-88.45184,43.77703],[-88.45318,43.77701],[-88.45382,43.777],[-88.4543,43.77698],[-88.45445,43.77698],[-88.45524,43.77696],[-88.45552,43.77695],[-88.45628,43.77695],[-88.45634,43.77694],[-88.45682,43.77692],[-88.45706,43.77692],[-88.45749,43.77691],[-88.45811,43.77689],[-88.4588,43.77688],[-88.45956,43.77686],[-88.461,43.77683],[-88.46191,43.77681],[-88.46353,43.77685],[-88.4637,43.77685],[-88.46376,43.77685],[-88.46501,43.77689],[-88.46519,43.7769],[-88.4667731196,43.7769568529],[-88.4667731196,43.7769568529],[-88.4668141926,43.7769583554],[-88.46686,43.77605],[-88.46689,43.77513],[-88.46684,43.77424],[-88.46683,43.77332],[-88.46686,43.77283],[-88.46684,43.77249],[-88.46686,43.77114],[-88.46688,43.7697],[-88.46688,43.7697],[-88.4681,43.76971],[-88.4695,43.76973],[-88.4705,43.76975],[-88.4714,43.76976],[-88.4714,43.76976],[-88.4714,43.77045],[-88.47138,43.77196],[-88.47138,43.77222],[-88.47138,43.77266],[-88.47138,43.77277],[-88.47136,43.77313],[-88.47134,43.77342],[-88.47134,43.77342],[-88.47134,43.77344],[-88.47134,43.77344],[-88.47183,43.77345],[-88.47241,43.77345],[-88.47301,43.77345],[-88.47452,43.77345],[-88.47873,43.77345],[-88.4797,43.77345],[-88.48037,43.77345],[-88.48071,43.77345],[-88.48122,43.77345],[-88.48183,43.77345],[-88.48183,43.77345],[-88.48185,43.77387],[-88.48185,43.77393],[-88.48186,43.7743],[-88.48188,43.77484],[-88.4819,43.77582],[-88.4819,43.77598],[-88.48191,43.77634],[-88.48192,43.77663],[-88.48192,43.77711],[-88.48192,43.77711],[-88.48193,43.77751],[-88.48199,43.78039],[-88.482,43.78111],[-88.482,43.78113],[-88.482,43.78129],[-88.482,43.78151],[-88.48199,43.7816],[-88.48197,43.78172],[-88.48191,43.78188],[-88.48188,43.78195],[-88.48182,43.78205],[-88.48176,43.78216],[-88.48172,43.78221],[-88.48164,43.7823],[-88.48151,43.78243],[-88.48142,43.78251],[-88.48142,43.78251],[-88.48129,43.78244],[-88.48124,43.78243],[-88.48118,43.78241],[-88.48112,43.7824],[-88.4811,43.7824],[-88.48105,43.7824],[-88.48102,43.7824],[-88.48054,43.7824],[-88.47968,43.78239],[-88.4792,43.78239],[-88.4792,43.78239],[-88.47901,43.78281],[-88.47901,43.78281],[-88.47874,43.7828],[-88.4787,43.7828],[-88.47867,43.7828],[-88.47866,43.7828],[-88.47861,43.78279],[-88.47856,43.78278],[-88.47851,43.78277],[-88.47845,43.78275],[-88.47845,43.78274],[-88.47838,43.78273],[-88.47821,43.78271],[-88.4782,43.7827],[-88.47797,43.78269],[-88.47774,43.78266],[-88.47748,43.78265],[-88.47744,43.78265],[-88.47725,43.78264],[-88.47716,43.78264],[-88.47701,43.78263],[-88.4768,43.78263],[-88.47659,43.78262],[-88.4764,43.78262],[-88.47636,43.78262],[-88.47616,43.78262],[-88.47591,43.78261],[-88.47566,43.7826],[-88.47553,43.7826],[-88.47545,43.7826],[-88.47541,43.7826],[-88.47536,43.7826],[-88.47536,43.7826],[-88.47523,43.78259],[-88.47501,43.78259],[-88.47491,43.78259],[-88.47484,43.78259],[-88.47481,43.7826],[-88.47479,43.78261],[-88.47476,43.78264],[-88.47476,43.78264],[-88.4747,43.78263],[-88.47465,43.78262],[-88.4746,43.78261],[-88.47456,43.78258],[-88.47456,43.78258],[-88.47457,43.78254],[-88.47458,43.78249],[-88.47459,43.78244],[-88.4746,43.78239],[-88.4746,43.78236],[-88.47461,43.78231],[-88.47461,43.78226],[-88.47461,43.78222],[-88.4746,43.78208],[-88.4746,43.78185],[-88.4746,43.78169],[-88.47461,43.78154],[-88.47462,43.78139],[-88.47463,43.78124],[-88.47465,43.78109],[-88.47466,43.78103],[-88.47467,43.78094],[-88.4747,43.78078],[-88.47473,43.78062],[-88.47476,43.78046],[-88.4748,43.78031],[-88.47488,43.78002],[-88.47488,43.78002],[-88.47478,43.77997],[-88.47472,43.77995],[-88.47465,43.77994],[-88.47456,43.77993],[-88.4745,43.77992],[-88.47445,43.77992],[-88.472,43.77992],[-88.47192,43.77992],[-88.4716,43.7799],[-88.4713,43.77986],[-88.4713,43.77986],[-88.47135,43.78063],[-88.47137,43.78091],[-88.47136,43.78105],[-88.47136,43.78108],[-88.47136,43.78108],[-88.47136,43.78108],[-88.47136,43.78108],[-88.47141,43.78204],[-88.47141,43.78213],[-88.47141,43.78234],[-88.47143,43.78249],[-88.47144,43.78253],[-88.47144,43.78257],[-88.47146,43.78263],[-88.47148,43.78269],[-88.47149,43.78273],[-88.47152,43.78279],[-88.47156,43.78284],[-88.47159,43.7829],[-88.4716,43.78291],[-88.47163,43.78296],[-88.47166,43.783],[-88.47171,43.78305],[-88.47176,43.78311],[-88.47181,43.78316],[-88.47182,43.78317],[-88.47185,43.7832],[-88.47189,43.78323],[-88.47195,43.78328],[-88.47202,43.78333],[-88.47207,43.78336],[-88.47209,43.78337],[-88.47211,43.78339],[-88.47224,43.78345],[-88.47231,43.78349],[-88.47242,43.78353],[-88.4725,43.78356],[-88.47256,43.78358],[-88.47264,43.7836],[-88.47272,43.78362],[-88.47292,43.78367],[-88.47307,43.78371],[-88.47308,43.78398],[-88.47309,43.78427],[-88.47309,43.78427],[-88.47205,43.78427],[-88.47203,43.78427],[-88.47201,43.78427],[-88.472,43.78427],[-88.47196,43.78428],[-88.47193,43.78429],[-88.47189,43.78429],[-88.47174,43.78433],[-88.47139,43.78433],[-88.47102,43.78433],[-88.47044,43.78433],[-88.46969,43.78434],[-88.46962,43.78434],[-88.46847,43.78434],[-88.468,43.78434],[-88.46773,43.78433],[-88.46729,43.78432],[-88.46687,43.78432],[-88.4666,43.78432],[-88.46572,43.78433],[-88.46482,43.78432],[-88.46473,43.78432],[-88.46451,43.78432],[-88.46413,43.78431],[-88.4639,43.78432],[-88.46376,43.78432],[-88.46361,43.78432],[-88.46351,43.78432],[-88.46333,43.78432],[-88.46318,43.78432],[-88.46296,43.78432],[-88.46255,43.78432],[-88.46214,43.78431],[-88.46189,43.7843],[-88.4616,43.7843],[-88.46145,43.78429],[-88.46121,43.78429],[-88.46084,43.78428],[-88.46046,43.78428],[-88.46017,43.78427],[-88.45964,43.78426],[-88.45898,43.78425],[-88.4584,43.78424],[-88.45835,43.78424],[-88.45804,43.78423],[-88.45768,43.78421],[-88.45735,43.78419],[-88.45721,43.78418],[-88.45718,43.78417],[-88.45696,43.78416],[-88.45665,43.78413],[-88.45647,43.78411],[-88.45631,43.78409],[-88.45605,43.78407],[-88.45597,43.78406],[-88.4555,43.784],[-88.45524,43.78397],[-88.45509,43.78395],[-88.45499,43.78394],[-88.4545,43.78387],[-88.4544,43.78386],[-88.45397,43.78381],[-88.45352,43.78377],[-88.45299,43.78373],[-88.4529,43.78372],[-88.45268,43.7837],[-88.45246,43.78369],[-88.45206,43.78367],[-88.45178,43.78366],[-88.4515,43.78366],[-88.45127,43.78365],[-88.45103,43.78365],[-88.45065,43.78364],[-88.45065,43.78364],[-88.45065,43.78303],[-88.45066,43.78231],[-88.45066,43.78231],[-88.4502,43.7823],[-88.44965,43.7823],[-88.44922,43.78229]]}},{"type":"Feature","properties":{"agency":"Fond du Lac","shape_id":"TL-61"},"geometry":{"type":"LineString","coordinates":[[-88.4488161184,43.7821582106],[-88.4488,43.78199],[-88.44872,43.78168],[-88.44867,43.7815],[-88.4486,43.78114],[-88.44859,43.78105],[-88.44858,43.78101],[-88.44856,43.78095],[-88.44855,43.78091],[-88.44855,43.7809],[-88.44854,43.78086],[-88.44847,43.78065],[-88.44845,43.78044],[-88.44845,43.78041],[-88.4484,43.77997],[-88.44838,43.77983],[-88.44837,43.77973],[-88.44835,43.77944],[-88.44833,43.77922],[-88.44832,43.7789],[-88.44832,43.7789],[-88.44794,43.77889],[-88.44743,43.7789],[-88.44698,43.77889],[-88.44637,43.77888],[-88.44584,43.77888],[-88.445,43.77888],[-88.44471,43.77888],[-88.44351,43.77887],[-88.44343,43.77887],[-88.44211,43.77886],[-88.44151,43.77885],[-88.44019,43.77884],[-88.43944,43.77883],[-88.43899,43.77883],[-88.43849,43.77882],[-88.43713,43.7788],[-88.43598,43.77879],[-88.43473,43.77877],[-88.4336,43.77874],[-88.4331,43.77873],[-88.43218,43.77873],[-88.43173,43.77872],[-88.43121,43.77871],[-88.43063,43.77871],[-88.43054,43.7787],[-88.43054,43.7787],[-88.42997,43.77869],[-88.42969,43.77869],[-88.4293,43.77868],[-88.42905,43.77868],[-88.4283,43.77867],[-88.42738,43.77866],[-88.42626,43.77865],[-88.42518,43.77863],[-88.42407,43.77861],[-88.42296,43.7786],[-88.42195,43.77859],[-88.42195,43.77859],[-88.42196,43.7773],[-88.42196,43.77659],[-88.42185,43.77493],[-88.42185,43.77493],[-88.42185,43.77488],[-88.42185,43.77488],[-88.42295,43.77491],[-88.42404,43.77493],[-88.42484,43.77493],[-88.42584,43.77495],[-88.42609,43.77496],[-88.42808,43.775],[-88.42808,43.775],[-88.42807,43.77582],[-88.42807,43.77582],[-88.4283,43.77582],[-88.4283,43.77582],[-88.42957,43.77584],[-88.43007,43.77585],[-88.43032,43.77585],[-88.43045,43.77586],[-88.43144,43.77587],[-88.43219,43.77588],[-88.43269,43.77589],[-88.4336,43.7759],[-88.43468,43.77592],[-88.43468,43.77592],[-88.43473,43.77585],[-88.43474,43.77509],[-88.43477,43.77427],[-88.43477,43.77289],[-88.43477,43.77289],[-88.4345,43.77263],[-88.43431,43.77244],[-88.43383,43.77197],[-88.43289,43.77103],[-88.43227,43.77045],[-88.43146,43.76966],[-88.43089,43.76916],[-88.43044,43.76878],[-88.42944,43.76792],[-88.42845,43.76706],[-88.42757,43.7663],[-88.42757,43.7663],[-88.42745,43.7662],[-88.42592,43.76488],[-88.42544,43.76446],[-88.42384,43.76309],[-88.42281,43.76219],[-88.42273,43.76213],[-88.42234,43.76178],[-88.42168,43.76122],[-88.42168,43.76122],[-88.42169,43.76106],[-88.42169,43.76102],[-88.42169,43.76093],[-88.42171,43.76012],[-88.42171,43.75959],[-88.42173,43.75887],[-88.42174,43.75794],[-88.42176,43.75738],[-88.42176,43.75708],[-88.42177,43.75609],[-88.42179,43.75493],[-88.42179,43.75493],[-88.42229,43.75494],[-88.42283,43.75494],[-88.42293,43.75494],[-88.42412,43.75496],[-88.42462,43.75497],[-88.42562,43.75498],[-88.42582,43.75499],[-88.42622,43.75499],[-88.42803,43.75502],[-88.42803,43.75502],[-88.42804,43.75489],[-88.42804,43.75489],[-88.42809,43.75429],[-88.42809,43.75429],[-88.42817,43.7543],[-88.42897,43.75429],[-88.42962,43.75429],[-88.4297,43.75428],[-88.42975,43.75428],[-88.42977,43.75427],[-88.42982,43.75426],[-88.42985,43.75425],[-88.42987,43.75424],[-88.42992,43.75422],[-88.42996,43.75419],[-88.42999,43.75417],[-88.43001,43.75415],[-88.43004,43.75412],[-88.43006,43.7541],[-88.43007,43.75409],[-88.43009,43.75405],[-88.43011,43.75401],[-88.43012,43.754],[-88.43013,43.75396],[-88.43013,43.75394],[-88.43013,43.75391],[-88.43013,43.75366],[-88.43013,43.75366],[-88.43013,43.75347],[-88.43016,43.7533],[-88.43022,43.7529],[-88.43022,43.7529],[-88.43103,43.75291],[-88.43178,43.75292],[-88.43178,43.75292],[-88.43178,43.75342],[-88.43177,43.75399],[-88.43177,43.75454],[-88.43177,43.75506],[-88.43177,43.75506],[-88.43212,43.75506],[-88.43232,43.75504],[-88.43255,43.75501],[-88.43271,43.75497],[-88.43288,43.75492],[-88.43313,43.75483],[-88.43321,43.7548],[-88.4338,43.75451],[-88.43525,43.7538],[-88.43608,43.7534],[-88.4371,43.7529],[-88.43722,43.75284],[-88.43728,43.75282],[-88.43738,43.75278],[-88.43744,43.75275],[-88.43749,43.75273],[-88.4376,43.75269],[-88.43775,43.75264],[-88.43789,43.75261],[-88.43831,43.75252],[-88.43846,43.7525],[-88.43854,43.75248],[-88.43866,43.75247],[-88.43885,43.75246],[-88.43904,43.75245],[-88.43926,43.75245],[-88.43972,43.75248],[-88.43972,43.75248],[-88.43971,43.75287],[-88.43971,43.7529],[-88.43972,43.75299],[-88.43973,43.75307],[-88.43974,43.75308],[-88.43977,43.75323],[-88.43979,43.75332],[-88.43981,43.75341],[-88.43982,43.75353],[-88.43981,43.7536],[-88.43981,43.75364],[-88.4398,43.75375],[-88.43979,43.75386],[-88.43976,43.75396],[-88.43972,43.75406],[-88.43968,43.75413],[-88.43968,43.75413],[-88.43966,43.75419],[-88.43963,43.75424],[-88.4396,43.75429],[-88.43958,43.75433],[-88.43955,43.75436],[-88.43952,43.75441],[-88.43946,43.75448],[-88.43943,43.75452],[-88.43935,43.7546],[-88.43935,43.7546],[-88.43927,43.75471],[-88.43924,43.75477],[-88.43922,43.75484],[-88.4392,43.75492],[-88.43918,43.75509],[-88.43918,43.75599],[-88.43918,43.7567],[-88.43916,43.75781],[-88.43917,43.75799],[-88.43916,43.75888],[-88.43916,43.75965],[-88.43916,43.76037],[-88.43916,43.76104],[-88.43915,43.76197],[-88.43915,43.7625],[-88.43914,43.76271],[-88.43914,43.76292],[-88.43914,43.76314],[-88.43913,43.76372],[-88.43912,43.76395],[-88.43911,43.76478],[-88.43909,43.76612],[-88.43908,43.76695],[-88.43906,43.76819],[-88.43906,43.76902],[-88.43904,43.76975],[-88.43902,43.77082],[-88.43901,43.77132],[-88.439,43.77165],[-88.43901,43.77197],[-88.43901,43.77248],[-88.43898,43.77332],[-88.43898,43.77436],[-88.43896,43.77517],[-88.43895,43.77599],[-88.43895,43.77599],[-88.44019,43.77602],[-88.44116,43.77605],[-88.44116,43.77605],[-88.44145,43.77605],[-88.44203,43.77606],[-88.44235,43.77607],[-88.4429,43.77608],[-88.44325,43.77609],[-88.44348,43.77609],[-88.44394,43.77609],[-88.44444,43.7761],[-88.44444,43.7761],[-88.44442,43.77661],[-88.44442,43.7767],[-88.44443,43.77673],[-88.44444,43.77677],[-88.44444,43.7768],[-88.44446,43.77684],[-88.44448,43.77688],[-88.44452,43.77694],[-88.44459,43.77707],[-88.44461,43.77711],[-88.44463,43.77715],[-88.44464,43.77719],[-88.44465,43.77722],[-88.44465,43.77725],[-88.44465,43.7773],[-88.44466,43.77735],[-88.44466,43.77744],[-88.44467,43.77785],[-88.44471,43.77888],[-88.44474,43.78063],[-88.44474,43.78063],[-88.44477,43.7807],[-88.4448,43.78074],[-88.44482,43.78078],[-88.44484,43.7808],[-88.44486,43.78081],[-88.44487,43.78083],[-88.44489,43.78084],[-88.44491,43.78085],[-88.44493,43.78087],[-88.44495,43.78088],[-88.44497,43.78089],[-88.44499,43.7809],[-88.44501,43.78091],[-88.44504,43.78092],[-88.44506,43.78093],[-88.4451,43.78094],[-88.44522,43.78098],[-88.44591,43.78092],[-88.44606,43.78091],[-88.44615,43.7809],[-88.44624,43.78089],[-88.44637,43.78089],[-88.44649,43.78088],[-88.4466,43.78088],[-88.44669,43.78088],[-88.44677,43.78089],[-88.44704,43.78092],[-88.44704,43.78092],[-88.44704,43.78128],[-88.44703,43.78229],[-88.44703,43.78229],[-88.44729,43.78229],[-88.44753,43.78229],[-88.44788,43.78229],[-88.4486,43.78229],[-88.44883,43.78229],[-88.4488163253,43.7821583407]]}}]}