{"type":"FeatureCollection","features":[{"type":"Feature","properties":{"agency":"GoCary","shape_id":"0036c470-9222-48fc-91a3-d272881487b5"},"geometry":{"type":"LineString","coordinates":[[-78.767551,35.830585],[-78.7673854709671,35.8303892756085],[-78.769337,35.829156],[-78.7702240015707,35.8278336550888],[-78.7708143191007,35.8279675964084],[-78.7719288738401,35.8291230541382],[-78.774519,35.830365],[-78.778165,35.831406],[-78.7806690975676,35.8315374957354],[-78.782788,35.83141],[-78.78829917191,35.8292462781595],[-78.791202,35.829036],[-78.7925084883272,35.8290837652814],[-78.7943234944641,35.8297159563662],[-78.7957221945817,35.8298373936253],[-78.7971190391254,35.829518784852],[-78.7985,35.828557],[-78.7992707077936,35.8277497184155],[-78.8003368036312,35.8270692923017],[-78.8011980504754,35.8268942736179],[-78.802872,35.827054],[-78.8042399478966,35.8271478719936],[-78.806555,35.826022],[-78.8066276501446,35.8259155905995],[-78.8071364686126,35.824410038233],[-78.8071937382238,35.8228258734149],[-78.8078347173327,35.8218078477693],[-78.808385658764,35.8213809622157],[-78.8096717502431,35.8204647483461],[-78.810339,35.819266],[-78.8109294790102,35.817687389561],[-78.811804,35.816719],[-78.815071,35.81525],[-78.8164515911283,35.8144080164151],[-78.8185221078379,35.8140757847821],[-78.8193481118444,35.8132612755421],[-78.818115,35.812249],[-78.8169361801454,35.8113178513249],[-78.816438,35.809689],[-78.8158877057265,35.8087616759146],[-78.814332,35.807925],[-78.8122929362904,35.8069217503066],[-78.812918222473,35.8052568062976],[-78.813676,35.804613],[-78.816764371312,35.8028040924548],[-78.8175925779958,35.8017411482815],[-78.8175353083846,35.8010462073428],[-78.815021,35.800282],[-78.811473,35.799131],[-78.80863,35.796643],[-78.807078,35.795753],[-78.8057851260583,35.7955954443209],[-78.8028291330539,35.79632259165],[-78.8018775764385,35.7962100361106],[-78.8010427617227,35.7956025907648],[-78.800554,35.795776],[-78.7960757242973,35.7985468707902],[-78.795663,35.798396],[-78.7924523200558,35.795381050719],[-78.789785,35.793596],[-78.7885778105964,35.7928493758427],[-78.7866989268165,35.7921114765943],[-78.783302398342,35.7916201355221],[-78.7832411544924,35.78841547743],[-78.7818049658421,35.788188623678]]}},{"type":"Feature","properties":{"agency":"GoCary","shape_id":"0288c1f5-9841-4b23-b574-87a240b31b1c"},"geometry":{"type":"LineString","coordinates":[[-78.720693,35.785207],[-78.7182954881437,35.7859209058821],[-78.7178295354461,35.78629696084],[-78.7179103639754,35.7864975227568],[-78.7206632885901,35.7863991703416],[-78.7216070805351,35.785573776649],[-78.7220944290207,35.7838651073292],[-78.7231523318305,35.7838265364918],[-78.7236881985478,35.7836248447671],[-78.727406,35.78146],[-78.7298188901459,35.7799489142726],[-78.731499,35.778345],[-78.732314522294,35.7773399940607],[-78.7325759694714,35.7771375243892],[-78.7324904049406,35.7768656357335],[-78.7328611845737,35.7756141646137],[-78.735896,35.773779],[-78.7389653208019,35.771385961004],[-78.740815,35.768813],[-78.7410872634923,35.7677018658887],[-78.741828,35.76781],[-78.7438253284777,35.7678002200343],[-78.7451349411573,35.7672949484251],[-78.74644,35.767446],[-78.747941933126,35.7671753798647],[-78.7485812903145,35.766398179841],[-78.7488498678695,35.7658601138376],[-78.748753,35.765469],[-78.7484553203105,35.7648398998449],[-78.7488736357945,35.7641321066461],[-78.749194,35.764225],[-78.7524012477637,35.7651766100631],[-78.756256,35.766408],[-78.757254908964,35.7668802257621],[-78.761494,35.770342],[-78.766874577665,35.7745131819284],[-78.7672526837444,35.7754377367471],[-78.768265,35.775752],[-78.771285,35.778016],[-78.7773256627777,35.7824743235392],[-78.778832,35.782565],[-78.7803691456026,35.7825794079498],[-78.7805236371165,35.7830816902335],[-78.781145168361,35.783152067344],[-78.781178,35.783635],[-78.78117,35.786402],[-78.7811969643783,35.7883184932504],[-78.7822528947742,35.7882717721624]]}},{"type":"Feature","properties":{"agency":"GoCary","shape_id":"03de24db-b51f-4b4b-9b68-b5919ba604b8"},"geometry":{"type":"LineString","coordinates":[[-78.7818049658421,35.788188623678],[-78.7812937173261,35.7882492879278],[-78.78132,35.783962],[-78.7812109889122,35.7830724728644],[-78.7805477195104,35.7829529020151],[-78.7803836851424,35.7824881168442],[-78.778745,35.782435],[-78.7772812960054,35.7823396164449],[-78.7765690755922,35.7820477459256],[-78.77147,35.777897],[-78.7685042686559,35.7756336664782],[-78.767706,35.775356],[-78.7673132365044,35.7752517748248],[-78.76697090391,35.7743645447115],[-78.761534,35.770067],[-78.75754,35.766941],[-78.7567692254048,35.766363487623],[-78.752464,35.764956],[-78.7487749755922,35.7640295134813],[-78.7483446825396,35.764963154907],[-78.748571,35.765479],[-78.7487084109215,35.7660298846931],[-78.7484920757403,35.7663693833962],[-78.7478074105516,35.7671853317392],[-78.746295,35.767313],[-78.7454562512744,35.7672200527595],[-78.7442866149102,35.7675421859484],[-78.7431597701202,35.7677408662468],[-78.741768,35.767659],[-78.7408490251077,35.7677273637179],[-78.740705,35.7682],[-78.7398267819443,35.7702465101298],[-78.7389329135036,35.7713054536747],[-78.7373138211556,35.7725178165744],[-78.7363297594004,35.7732902115175],[-78.7359850494962,35.7733847225601],[-78.7357544504569,35.7737184035062],[-78.7329420931018,35.7753154235592],[-78.7325379504556,35.7758342552967],[-78.73236,35.776515],[-78.7321552035968,35.777112997132],[-78.7320410927323,35.7775064520208],[-78.729855,35.77974],[-78.726698,35.781676],[-78.723799,35.783414],[-78.723185304098,35.7837455089593],[-78.7219282402589,35.783762318313],[-78.721804,35.784033],[-78.7215428931714,35.7851090068029],[-78.720693,35.785207]]}},{"type":"Feature","properties":{"agency":"GoCary","shape_id":"35262ba8-c6aa-40ad-8c11-bcb748fab8a9"},"geometry":{"type":"LineString","coordinates":[[-78.845471,35.732839],[-78.845023664514,35.7336254886729],[-78.843081,35.735576],[-78.8421514734446,35.7377777596],[-78.842433,35.738116],[-78.842802323193,35.7387398046506],[-78.8434189176916,35.7400215864977],[-78.8458750191108,35.7413617354731],[-78.846851,35.741476],[-78.8484064820799,35.7414646090473],[-78.849137953125,35.741195109557],[-78.849227,35.741478],[-78.851563,35.7468],[-78.8509653492489,35.7501722361926],[-78.8462552523848,35.7503445997844],[-78.8371125261814,35.7548537211234],[-78.8317858348189,35.7586759882521],[-78.8284459479518,35.7600825363381],[-78.828673,35.760695],[-78.828795351501,35.7614807205603],[-78.8273600565294,35.7629122356073],[-78.823277,35.763771],[-78.8230130653146,35.7639267889262],[-78.8217456210675,35.7620727871895],[-78.8150384431333,35.7648579429139],[-78.8097802622706,35.7667202181881],[-78.8079236277249,35.7681433006494],[-78.8076187560006,35.7704696521032],[-78.807201,35.771728],[-78.806548,35.773735],[-78.806116,35.775223],[-78.8054540023794,35.7764362215863],[-78.804107,35.777219],[-78.8022817880607,35.7782417295073],[-78.7993129705236,35.7833644420432],[-78.798719,35.783346],[-78.7952556002735,35.7833418899568],[-78.794159,35.782937],[-78.7933649972628,35.7827947864949],[-78.792219,35.784326],[-78.790103346607,35.786388339591],[-78.787606,35.786723],[-78.7833197257602,35.7872259246692],[-78.7832862325614,35.7883709973022],[-78.7818049658421,35.788188623678]]}},{"type":"Feature","properties":{"agency":"GoCary","shape_id":"47e4aa85-a7db-4ca0-9e95-249732ca8688"},"geometry":{"type":"LineString","coordinates":[[-78.7822528947742,35.7882717721624],[-78.7831867718025,35.7884374486208],[-78.783145,35.790614],[-78.783072,35.793838],[-78.782972,35.796678],[-78.782801,35.801782],[-78.7827627287782,35.8025249785438],[-78.778896,35.802917],[-78.774305,35.802923],[-78.770921,35.802762],[-78.7690011915562,35.8021833861905],[-78.767586,35.801159],[-78.7633845267863,35.7951623831576],[-78.762364,35.795302],[-78.7584360768793,35.7962380966272],[-78.7564526435192,35.7962795447828],[-78.7549255543236,35.7960877263918],[-78.752843484074,35.7954852786855],[-78.750384,35.794406],[-78.7424599859835,35.7909270451125],[-78.7401259757265,35.7904412000862],[-78.739627,35.791573],[-78.7393392388951,35.7935761445796],[-78.739281,35.795778],[-78.738461,35.797929],[-78.737255,35.800288],[-78.7344026306441,35.8033049150578],[-78.73125,35.80118],[-78.7301220273113,35.8006254360591],[-78.726769,35.799643],[-78.7249477534339,35.7993242176123],[-78.7211161925689,35.7989991741972],[-78.716142,35.798617],[-78.7076969867431,35.7982179362263],[-78.7072382657865,35.8004974958774],[-78.7051526239422,35.8003761715579],[-78.705152,35.797477]]}},{"type":"Feature","properties":{"agency":"GoCary","shape_id":"8e3f4fd3-4b21-4bc3-85ab-4da4d27a7f30"},"geometry":{"type":"LineString","coordinates":[[-78.746263,35.751695],[-78.743300353619,35.7516301415152],[-78.7425314612378,35.7511575587642],[-78.7423436946284,35.7507534500634],[-78.7425065049161,35.7503232986908],[-78.7422307969834,35.7501747705468],[-78.7412254137464,35.7502172071878],[-78.741193,35.749962],[-78.740545651084,35.7456098061237],[-78.7406960983302,35.7439282593784],[-78.7403055306125,35.7438736099993],[-78.7398068212778,35.7441736980363],[-78.7384568666995,35.7448436579439],[-78.7380183464224,35.7451088488497],[-78.7376025408326,35.7457087757569],[-78.7375603996753,35.7461557252234],[-78.737539,35.746165],[-78.7371896200412,35.7480133653489],[-78.7319756936666,35.7518448737608],[-78.7303111824798,35.7549776830738],[-78.730927,35.755277],[-78.7321104144193,35.7561021785435],[-78.733146,35.758002],[-78.735932,35.7604],[-78.7419443934805,35.7612615380681],[-78.7414880493159,35.7596510823223],[-78.744246317038,35.7579759808905],[-78.7440454780695,35.7560105607298],[-78.743456,35.755968],[-78.7413703980851,35.7559199072059],[-78.741311,35.756266],[-78.7414345590054,35.7575758012628],[-78.742683,35.759606],[-78.7451453277874,35.762335724259],[-78.7465422861355,35.763339689778],[-78.749194,35.764225],[-78.7524012477637,35.7651766100631],[-78.756256,35.766408],[-78.761494,35.770342],[-78.7640307255152,35.7723545113],[-78.764058,35.775482],[-78.764094,35.780349],[-78.764058,35.785306],[-78.7640842033452,35.7871989208398],[-78.7637778379785,35.7883938126799],[-78.763636,35.790238],[-78.7638845527722,35.7920535798047],[-78.76463,35.792058],[-78.76719,35.79163],[-78.7702392798805,35.7908949727353],[-78.7720024876325,35.7902981863202],[-78.7723792092474,35.7901805803185],[-78.7723423689632,35.7899665755085],[-78.772868,35.789519],[-78.7745507165869,35.7880311448349],[-78.7753204899938,35.7876944258371],[-78.77723,35.787616],[-78.7811531388438,35.7873946167659],[-78.7812711882629,35.788346243483],[-78.7822528947742,35.7882717721624]]}},{"type":"Feature","properties":{"agency":"GoCary","shape_id":"9066599c-eec4-4c39-8ac0-32ce016ae5ee"},"geometry":{"type":"LineString","coordinates":[[-78.845471,35.732839],[-78.845346,35.733225],[-78.8458151113562,35.7334071310473],[-78.845891002308,35.733427665698],[-78.8459618338631,35.7334071310473],[-78.846121204862,35.733327045859],[-78.846353163973,35.7332683841769],[-78.8466600306201,35.7332716022198],[-78.8470065307982,35.7333977352529],[-78.8470433154121,35.7334657488979],[-78.8469860949016,35.7336366121888],[-78.847074,35.73374],[-78.8473028512992,35.7336863781269],[-78.8473621153994,35.7336233412667],[-78.8471141605919,35.7333931477482],[-78.8468168719206,35.733261334875],[-78.8466550333764,35.7332202359546],[-78.8464854814309,35.7332182120124],[-78.8462906946544,35.7332284793628],[-78.8460680811957,35.7332818695634],[-78.8458657053241,35.7333845429254],[-78.8453458269551,35.7332252945232],[-78.8435494210452,35.7349548181864],[-78.843081,35.735576],[-78.8422224922496,35.7375445574109],[-78.8422049193339,35.7378084401002],[-78.842433,35.738116],[-78.842802398469,35.7386607038935],[-78.8429693411686,35.7393203997294],[-78.8431318906392,35.7396662921185],[-78.8433455731479,35.7399598205066],[-78.8436151458221,35.740194042559],[-78.8442038384994,35.7405399311527],[-78.8448979686712,35.7408929499205],[-78.8456448175901,35.741245967123],[-78.8462510831831,35.7414135606005],[-78.846851,35.741476],[-78.8481928903725,35.7414777452431],[-78.8489924580387,35.7412424013005],[-78.849172580425,35.741163953165],[-78.8491945465696,35.7410284516581],[-78.849079,35.740682],[-78.8487686431837,35.7396982454027],[-78.8489439489205,35.7372205331102],[-78.849074,35.736205],[-78.8491084018756,35.7358300296497],[-78.8491974805596,35.7357827521052],[-78.8515614917891,35.7362666503515],[-78.8517841884991,35.7362944605062],[-78.8521028160996,35.7363055845654],[-78.8523974609774,35.7362916794912],[-78.8543846008516,35.7359579569825],[-78.8553644663757,35.7357660659066],[-78.8565841591261,35.735507429377],[-78.857171,35.735441],[-78.8585062030388,35.7353266614115],[-78.8588693699813,35.7353071940677],[-78.8593455983304,35.7353210993138],[-78.8624085346191,35.7357688469402],[-78.8625181699225,35.735843934805],[-78.862941,35.736411],[-78.8640188031378,35.7375625932408],[-78.865363,35.738837],[-78.8672359140717,35.7405576423462],[-78.870595,35.743772],[-78.8721497108649,35.7450440553298],[-78.8723758817946,35.7451775576696],[-78.872598625892,35.7451580885923],[-78.8727973821635,35.7450162423142],[-78.8730166994287,35.7449355845139],[-78.8732360166938,35.7448771770902],[-78.8733491021583,35.7448716144761],[-78.8736369560688,35.7449578349496],[-78.8738768343279,35.7451302756165],[-78.874342883516,35.7455641569322],[-78.874754,35.745855],[-78.8756073846226,35.7460786926066],[-78.8764126902056,35.7462427870682],[-78.8773722032405,35.746509787503],[-78.878228,35.7468],[-78.8789588265801,35.747185628351],[-78.8793940342781,35.7473914388274],[-78.8797881199889,35.7475138123719],[-78.880326132655,35.7475916863478],[-78.8821492074211,35.7474804377874],[-78.8843835020594,35.7473052209897],[-78.8848426975831,35.7471633785376],[-78.8850551611838,35.7471605973106],[-78.8851751003131,35.7471272225781],[-78.8852950394425,35.7470187546008],[-78.886110625522,35.7467322871809],[-78.886724028498,35.7466710998314],[-78.8873819802934,35.7465960062018],[-78.8876287122167,35.7465348187475],[-78.8878685904755,35.7464040999376],[-78.888557383761,35.7456170012893],[-78.8892221892206,35.7447742686673],[-78.8899212630033,35.7437368330893],[-78.8902605193975,35.7433836012682],[-78.8911446421222,35.7427800440572],[-78.8924879603712,35.7419122487117],[-78.893545,35.741207],[-78.8944858035832,35.7407440477321],[-78.8952191456883,35.7406633856031],[-78.8954144751276,35.7405994121325],[-78.8955069995988,35.7404964981805],[-78.896151,35.736275],[-78.8960690000908,35.7351837324172],[-78.8958702438193,35.7350223968118],[-78.8939923397364,35.7358290715702],[-78.8928068514351,35.7361819288839],[-78.8912283122612,35.7365343142473],[-78.8904413737057,35.7366668474042],[-78.8894929819997,35.736773356007],[-78.8888380533152,35.7368623877248],[-78.8886935135803,35.736951467045],[-78.8886961349785,35.7371418970641],[-78.8885953456882,35.7373423341993],[-78.8886642183699,35.7374950478685],[-78.8889745630644,35.7377075509205],[-78.8890040063437,35.7377988019372],[-78.8890280962995,35.7378552906094],[-78.8891271327844,35.7378900528493],[-78.8892151998233,35.7378768307599],[-78.8892823791661,35.7378031472211],[-78.8892723137544,35.7377472974841],[-78.8892151998233,35.7376818490119],[-78.8889985028492,35.737657305821],[-78.8888389198063,35.7375495883936],[-78.8887390168301,35.7374511784569],[-78.888764,35.737313]]}},{"type":"Feature","properties":{"agency":"GoCary","shape_id":"a030a5c1-c725-4a8a-8b21-097b4677add1"},"geometry":{"type":"LineString","coordinates":[[-78.845471,35.732839],[-78.845023664514,35.7336254886729],[-78.843081,35.735576],[-78.8421514734446,35.7377777596],[-78.842433,35.738116],[-78.842802323193,35.7387398046506],[-78.8434189176916,35.7400215864977],[-78.8458750191108,35.7413617354731],[-78.846851,35.741476],[-78.8484064820799,35.7414646090473],[-78.849137953125,35.741195109557],[-78.849227,35.741478],[-78.851563,35.7468],[-78.8509653492489,35.7501722361926],[-78.8462552523848,35.7503445997844],[-78.8371125261814,35.7548537211234],[-78.8317858348189,35.7586759882521],[-78.8284459479518,35.7600825363381],[-78.828673,35.760695],[-78.828795351501,35.7614807205603],[-78.8273600565294,35.7629122356073],[-78.823277,35.763771],[-78.8230130653146,35.7639267889262],[-78.8217456210675,35.7620727871895],[-78.8150384431333,35.7648579429139],[-78.8097802622706,35.7667202181881],[-78.8079236277249,35.7681433006494],[-78.8076187560006,35.7704696521032],[-78.807201,35.771728],[-78.806548,35.773735],[-78.806116,35.775223],[-78.8054540023794,35.7764362215863],[-78.804107,35.777219],[-78.8022817880607,35.7782417295073],[-78.7993129705236,35.7833644420432],[-78.798719,35.783346],[-78.7952556002735,35.7833418899568],[-78.794159,35.782937],[-78.7933649972628,35.7827947864949],[-78.792219,35.784326],[-78.790103346607,35.786388339591],[-78.787606,35.786723],[-78.7833197257602,35.7872259246692],[-78.781218107247,35.7873483737628],[-78.7812106147459,35.7883329816611],[-78.7822528947742,35.7882717721624]]}},{"type":"Feature","properties":{"agency":"GoCary","shape_id":"a4d00212-5895-4d4e-acc9-331c8cbd8c92"},"geometry":{"type":"LineString","coordinates":[[-78.7818049658421,35.788188623678],[-78.7812393010639,35.788251638521],[-78.78132,35.783962],[-78.7812242930887,35.7830524745732],[-78.7805302349933,35.7829942284683],[-78.780535,35.782199],[-78.7805298284965,35.7803213153246],[-78.7815601680552,35.7791065351143],[-78.781690891644,35.7786871423981],[-78.7816885148518,35.7765968946763],[-78.781832,35.776018],[-78.7817241667398,35.7749578243522],[-78.781881,35.77256],[-78.781936,35.769812],[-78.7821080187329,35.7685776624622],[-78.783546,35.765216],[-78.7835982676453,35.7640889692425],[-78.78353,35.761134],[-78.783135,35.757432],[-78.782849578001,35.7552333028315],[-78.783061,35.750652],[-78.7829577220614,35.7491949148554],[-78.782626,35.747579],[-78.781669,35.744935],[-78.7806985807691,35.7420429651503],[-78.780359,35.74123],[-78.7800318904669,35.7405198978651],[-78.7799938617865,35.7399150999237],[-78.7801970775474,35.7382366892264],[-78.77929,35.735908],[-78.778766248449,35.7349222064863],[-78.779284,35.734769],[-78.7798191675366,35.7345228386592],[-78.7809540859662,35.7347119115997],[-78.782017,35.735432]]}},{"type":"Feature","properties":{"agency":"GoCary","shape_id":"ab2db314-c698-4971-941e-8d3184d1d033"},"geometry":{"type":"LineString","coordinates":[[-78.7822528947742,35.7882717721624],[-78.7831875463516,35.7884769377084],[-78.7832234693156,35.7917469987224],[-78.786567616395,35.7921981332174],[-78.789655,35.793715],[-78.7922576576953,35.7954311888164],[-78.793505,35.796638],[-78.7961460902634,35.7987315845385],[-78.796758,35.798444],[-78.8010446596534,35.795764704658],[-78.801438,35.796057],[-78.8023506881208,35.79645385125],[-78.805666,35.795718],[-78.8072552185161,35.7959478485998],[-78.80853,35.796787],[-78.810872,35.798859],[-78.8118966481172,35.7994241325227],[-78.816879,35.801011],[-78.8175618902605,35.8012963300357],[-78.8165111751556,35.8027372811165],[-78.8143715371239,35.8038993194002],[-78.813411,35.804451],[-78.812061093002,35.8071728023244],[-78.813073,35.807692],[-78.81575225179,35.8089615544752],[-78.816208,35.809984],[-78.8169073729564,35.8116176228862],[-78.818871,35.81307],[-78.8193302981418,35.8133886552126],[-78.8182759847029,35.814021793631],[-78.8163102457708,35.814226169242],[-78.814488,35.815293],[-78.811613,35.816556],[-78.8108013929684,35.81740553969],[-78.81005,35.819098],[-78.8094656355715,35.8203176486271],[-78.8081804697621,35.8211958897827],[-78.8069058300254,35.8227921827209],[-78.8067465849271,35.8251394498422],[-78.8059978952827,35.8262147756337],[-78.804779,35.82683],[-78.8037637103118,35.8269393597071],[-78.8010446596664,35.8266811310354],[-78.799174,35.827482],[-78.7978906559896,35.8287796964309],[-78.796226901224,35.8295639945049],[-78.7941424541822,35.8294079063169],[-78.790404,35.828789],[-78.787884359471,35.8291439046088],[-78.784717,35.830504],[-78.782832,35.831099],[-78.77954738551,35.8313457397016],[-78.776721,35.830779],[-78.772649119404,35.8293886361491],[-78.772336,35.829629],[-78.7719764871204,35.8307510254948],[-78.7711945223808,35.8314370288148],[-78.7697185342244,35.8318204943786],[-78.7688224834436,35.8316489949334],[-78.7681474743672,35.8312751633975],[-78.767551,35.830585]]}},{"type":"Feature","properties":{"agency":"GoCary","shape_id":"c6ae473d-d368-414c-a415-9d020a53a252"},"geometry":{"type":"LineString","coordinates":[[-78.705152,35.797477],[-78.7050787834245,35.7960323265545],[-78.7045142952005,35.7955465127423],[-78.7032676675224,35.7957421881071],[-78.7031559582739,35.7953903576716],[-78.7056088081574,35.7948245339504],[-78.7065191196935,35.79607473873],[-78.7075886763287,35.7967880310243],[-78.7076742408596,35.7981712214808],[-78.710049,35.798493],[-78.716364,35.798802],[-78.725632,35.799586],[-78.7303067342999,35.8007512256053],[-78.731249,35.801415],[-78.7343926866298,35.8033426989898],[-78.734821,35.803103],[-78.737714,35.799879],[-78.738727,35.797711],[-78.739499,35.795277],[-78.7393934049692,35.7934241054719],[-78.739925,35.791516],[-78.740158732162,35.7905428216661],[-78.7427507077392,35.7911967437584],[-78.751398,35.79511],[-78.7535865048503,35.7959354888469],[-78.7555497354742,35.7963981664699],[-78.756767,35.796554],[-78.75850408858,35.7964347949994],[-78.760321,35.79613],[-78.7633365172263,35.79536001307],[-78.7666312862613,35.8004142824275],[-78.767904,35.801735],[-78.769258830395,35.8024499290528],[-78.7711281777142,35.8029501580938],[-78.774328,35.803114],[-78.779944,35.803114],[-78.7830234007807,35.8025363642665],[-78.783133,35.801496],[-78.783209,35.79566],[-78.783234,35.793708],[-78.7832458550937,35.7917253650865],[-78.7811405457233,35.7914845386769],[-78.7811945277802,35.7882660859446],[-78.7822528947742,35.7882717721624]]}},{"type":"Feature","properties":{"agency":"GoCary","shape_id":"c85da724-2105-4201-85c6-a8f64b9eb761"},"geometry":{"type":"LineString","coordinates":[[-78.888764,35.737313],[-78.8888329752854,35.7369250983563],[-78.890137,35.736816],[-78.8912305280511,35.7366400436055],[-78.8935240540829,35.7361480583142],[-78.8959586985126,35.7352727335164],[-78.8959142301212,35.7364638947966],[-78.895671,35.738028],[-78.8952154702894,35.740624039308],[-78.894695158644,35.7406099619356],[-78.893927,35.740821],[-78.8900383694183,35.7434253868769],[-78.8894833703301,35.744241841486],[-78.8891798552036,35.7446922956169],[-78.888646,35.745216],[-78.8877923574827,35.7463110941099],[-78.8875416748251,35.7464829532196],[-78.8863875160404,35.746592620922],[-78.8852428304207,35.7468741467385],[-78.8850776614482,35.7468748658196],[-78.88497832624,35.7469071142275],[-78.8848640907505,35.7470764181542],[-78.8845750971425,35.7471627096671],[-78.883581,35.747255],[-78.8804646351445,35.747507576185],[-78.8795454179044,35.747416081132],[-78.878278,35.746706],[-78.8763206527424,35.7461423126544],[-78.8752088770395,35.7458781150507],[-78.874547,35.745468],[-78.8737092556159,35.7448189853818],[-78.8733190218819,35.7446922956168],[-78.8727553509327,35.7447415638827],[-78.8723044141734,35.7449456749453],[-78.871002,35.743802],[-78.867814,35.740806],[-78.865063,35.738247],[-78.863075,35.736155],[-78.8624294914263,35.7353222808434],[-78.861665,35.733557],[-78.8606725130815,35.7315682371425],[-78.8589748060092,35.7297392624461],[-78.857491,35.728588],[-78.854493,35.727216],[-78.851297,35.726105],[-78.848173,35.724946],[-78.8459835258712,35.7236345543644],[-78.8450300430636,35.7225249162708],[-78.843994,35.720795],[-78.843082,35.71916],[-78.8435985358239,35.7185804672655],[-78.8439715952862,35.7182916695772],[-78.844572,35.717491],[-78.844908581843,35.7164602452377],[-78.8454204541286,35.7149246339264],[-78.845949678017,35.7143751878289],[-78.8467218243462,35.7139102689414],[-78.8481319754202,35.7137667068104],[-78.850733,35.714045],[-78.855948,35.714521],[-78.8590848414146,35.7145794695125],[-78.8592323300392,35.7147273973015],[-78.8585122385187,35.7159882944521],[-78.857636,35.716528],[-78.8569158910516,35.7171153364711],[-78.856513,35.717794],[-78.8558849010399,35.7195066344444],[-78.855802,35.720186],[-78.8557722482546,35.7225683762174],[-78.852845,35.72266],[-78.847407778943,35.7230310573],[-78.846483,35.723031],[-78.845181545328,35.7230592204964],[-78.845880260818,35.7238263323204],[-78.8475512771339,35.7248509362251],[-78.8490077167158,35.7255053952638],[-78.8501,35.725827],[-78.853960415957,35.7272756533191],[-78.853603,35.727836],[-78.852957,35.728765],[-78.8515866608373,35.7307088810628],[-78.85045,35.732186],[-78.8503126114793,35.7324456115035],[-78.8464515713722,35.7310803670335],[-78.845721,35.732516],[-78.845471,35.732839]]}},{"type":"Feature","properties":{"agency":"GoCary","shape_id":"c9abf6d3-4109-4ed9-ab97-27d4900690fc"},"geometry":{"type":"LineString","coordinates":[[-78.705152,35.797477],[-78.7050787834245,35.7960323265545],[-78.7045142952005,35.7955465127423],[-78.7032676675224,35.7957421881071],[-78.7031559582739,35.7953903576716],[-78.7056088081574,35.7948245339504],[-78.7065191196935,35.79607473873],[-78.7075886763287,35.7967880310243],[-78.7076742408596,35.7981712214808],[-78.710049,35.798493],[-78.716364,35.798802],[-78.725632,35.799586],[-78.7303067342999,35.8007512256053],[-78.731249,35.801415],[-78.7343926866298,35.8033426989898],[-78.734821,35.803103],[-78.737714,35.799879],[-78.738727,35.797711],[-78.739499,35.795277],[-78.7393934049692,35.7934241054719],[-78.739925,35.791516],[-78.740158732162,35.7905428216661],[-78.7427507077392,35.7911967437584],[-78.751398,35.79511],[-78.7535865048503,35.7959354888469],[-78.7555497354742,35.7963981664699],[-78.756767,35.796554],[-78.75850408858,35.7964347949994],[-78.760321,35.79613],[-78.7633365172263,35.79536001307],[-78.7666312862613,35.8004142824275],[-78.767904,35.801735],[-78.769258830395,35.8024499290528],[-78.7711281777142,35.8029501580938],[-78.774328,35.803114],[-78.779944,35.803114],[-78.7830234007807,35.8025363642665],[-78.783133,35.801496],[-78.783209,35.79566],[-78.783234,35.793708],[-78.7832123557874,35.7883966187523],[-78.7818049658421,35.788188623678]]}},{"type":"Feature","properties":{"agency":"GoCary","shape_id":"cc4de53f-f209-4079-a6f8-937b3cb10840"},"geometry":{"type":"LineString","coordinates":[[-78.845471,35.732839],[-78.845346,35.733225],[-78.8458171616147,35.7334143239521],[-78.8459295590461,35.7334226183004],[-78.8461339180123,35.7333230860634],[-78.846353163973,35.7332683841769],[-78.8466816000417,35.7332799553888],[-78.8470126615672,35.7333977352529],[-78.8469963128499,35.7336515419735],[-78.847074,35.73374],[-78.8473130692475,35.733688036991],[-78.8473437230924,35.7336216824013],[-78.8471700179712,35.7334624311605],[-78.847086230795,35.7333562634896],[-78.8466775128627,35.7332351658173],[-78.8463484949268,35.733215259333],[-78.8461155257054,35.7332716610256],[-78.8459091231495,35.7333579223605],[-78.8453458269551,35.7332252945232],[-78.8445892223948,35.7340001900956],[-78.8445516992696,35.7341334477279],[-78.8446361263012,35.7342400536731],[-78.845757129665,35.7348492277653],[-78.8463715708391,35.7351576203729],[-78.8478285199414,35.7355652354673],[-78.8489137625678,35.7356906418167],[-78.8491529724906,35.7356106888276],[-78.8493124457725,35.7350586302834],[-78.8498143175711,35.7338098216631],[-78.8500769794471,35.7330559581998],[-78.8503523717174,35.7325866902635],[-78.8531166927532,35.7287562715532],[-78.8541180396615,35.7273165834735],[-78.854269400576,35.7272530271131],[-78.8556838422254,35.7277530024448],[-78.8564510854816,35.7281046781284],[-78.8577786008828,35.7288867359464],[-78.8584211844009,35.7294121841951],[-78.859300846148,35.7301977518832],[-78.859983084485,35.7309313955011],[-78.8605928352685,35.7317918882978],[-78.8609164722228,35.7323477769315],[-78.8614417959748,35.7334900016722],[-78.8623376605875,35.7353784439765],[-78.8626050128542,35.7359114639422],[-78.862941,35.736411],[-78.8635759237171,35.7371221674655],[-78.8643123150481,35.7378226919146],[-78.865363,35.738837],[-78.8672250476373,35.740567622349],[-78.8689042074875,35.7421132696837],[-78.870595,35.743772],[-78.871643395623,35.7446981645471],[-78.8721394303681,35.7450663057353],[-78.872317625646,35.7451775576696],[-78.8726123332211,35.7451636511863],[-78.8729138944606,35.7449689601653],[-78.8731811873776,35.7448827397039],[-78.873417638804,35.7448883023171],[-78.8738836879925,35.745116369125],[-78.874754,35.745855],[-78.8757005835292,35.7461104943229],[-78.8764182132977,35.7462665723561],[-78.878228,35.7468],[-78.8788011922957,35.7471216601215],[-78.8792603878196,35.7473385956477],[-78.8796853150209,35.7474887814349],[-78.8801445105448,35.7475749990736],[-78.880803728549,35.7475875132114],[-78.8843458069043,35.7473219083204],[-78.8848529780799,35.7471522536288],[-78.8850517343515,35.7471494724013],[-78.8851648198163,35.7471216601213],[-78.8853190272684,35.7469992859739],[-78.8861132507568,35.7467386113751],[-78.8873139907616,35.7466244086434],[-78.8877971009978,35.7464569110072],[-78.8883364959218,35.745897314076],[-78.8893686464459,35.7445915470816],[-78.8900066870456,35.7436281835977],[-78.8904007709455,35.7432550199062],[-78.8912680080841,35.7427216350521],[-78.893545,35.741207],[-78.8942166007391,35.7408208028932],[-78.8946061046781,35.7407027235379],[-78.8952443279999,35.7406493973201],[-78.8954085766488,35.7406113071426],[-78.8955258971124,35.740477991378],[-78.8958450087735,35.7381506430664],[-78.896151,35.736275],[-78.8960843425194,35.735175651981],[-78.8959951789671,35.7350766106734],[-78.8957933877698,35.7351108942169],[-78.8936581553331,35.735933694833],[-78.8928068514351,35.7361819288839],[-78.8917444812367,35.7364189086591],[-78.8909282324689,35.7366131068332],[-78.890079146107,35.7367197252372],[-78.8888405996281,35.7368323775036],[-78.8886843762282,35.7369728204489],[-78.8886961349786,35.7371446241034],[-78.8885835869378,35.7373532423283],[-78.8886608587269,35.7374936843548],[-78.8888422794494,35.7376327626225],[-78.8889985028492,35.737724117823],[-78.8890035423138,35.7378045648531],[-78.8890522571374,35.7378713767315],[-78.8891845279446,35.7378851317099],[-78.889263914647,35.7378277444907],[-78.88926727429,35.7377254813327],[-78.8891799235718,35.7376654868855],[-78.8890539369589,35.7376682139068],[-78.8889598669547,35.7376354896449],[-78.8888221215913,35.737531862727],[-78.8887179726581,35.7374200545854],[-78.888764,35.737313]]}},{"type":"Feature","properties":{"agency":"GoCary","shape_id":"d8d44514-b99f-47a4-a7d5-4b7cf02635a6"},"geometry":{"type":"LineString","coordinates":[[-78.888764,35.737313],[-78.8889695685569,35.7369154380963],[-78.890137,35.736816],[-78.8927562730474,35.7363047463079],[-78.8938588938586,35.7360064083094],[-78.8944996059521,35.7357564485847],[-78.8958157974614,35.7352283052963],[-78.8959399664716,35.7352524951418],[-78.8959648002737,35.735389570794],[-78.8958157974614,35.7369135136219],[-78.895671,35.738028],[-78.8953290549405,35.7405216746718],[-78.8952297197323,35.7405821452515],[-78.8948721129826,35.7405619883967],[-78.8944002707434,35.7406264903142],[-78.893927,35.740821],[-78.8913308128083,35.7425373359126],[-78.8901338235487,35.7433153675004],[-78.8892050393514,35.7445811643009],[-78.888646,35.745216],[-78.8877795791128,35.7463105165675],[-78.8874964737693,35.7464677285469],[-78.8871388670196,35.746544318886],[-78.8864882214056,35.7465805984945],[-78.8853210327084,35.7468909900252],[-78.8850975284899,35.7468950210761],[-78.8849584591984,35.7469232384265],[-78.8848144231464,35.7470885112781],[-78.8843723814697,35.7472215355192],[-78.883581,35.747255],[-78.8806026103161,35.7475037074159],[-78.8801705021602,35.7475037074159],[-78.8798625630147,35.7474593661841],[-78.8790927151508,35.7471691320569],[-78.878278,35.746706],[-78.8762914622778,35.7460928379299],[-78.8752434758308,35.7458308165577],[-78.874547,35.745468],[-78.8737236471443,35.7448190028555],[-78.8733412065925,35.74470613041],[-78.872973666322,35.7447020992483],[-78.8727253283014,35.7447786912862],[-78.8723428877496,35.7449963735178],[-78.871002,35.743802],[-78.867814,35.740806],[-78.865063,35.738247],[-78.8639325935878,35.7372239298996],[-78.863075,35.736155],[-78.8624294914263,35.7353222808434],[-78.861665,35.733557],[-78.8606325377099,35.7315257806733],[-78.8594803630282,35.7302383004208],[-78.857491,35.728588],[-78.8560451755514,35.7278480352608],[-78.854493,35.727216],[-78.851297,35.726105],[-78.848173,35.724946],[-78.8467922171514,35.7241470242674],[-78.8460525494547,35.7235811759195],[-78.8449430479091,35.7225014337367],[-78.843994,35.720795],[-78.843082,35.71916],[-78.843221898076,35.7188001743476],[-78.844018463288,35.7182227392821],[-78.844572,35.717491],[-78.8451350770222,35.7157628190204],[-78.845384003651,35.7149717017658],[-78.8459814275599,35.7142960698636],[-78.8467353196352,35.7139438150617],[-78.8475887823623,35.7137878985047],[-78.850733,35.714045],[-78.855948,35.714521],[-78.8592100998284,35.714596351416],[-78.8592669973435,35.7147349425201],[-78.85860556373,35.7157974663116],[-78.8581859445559,35.7161381638756],[-78.857636,35.716528],[-78.8567706188668,35.7172699622752],[-78.856513,35.717794],[-78.8559171561393,35.7192794422735],[-78.855802,35.720186],[-78.8557464635938,35.7225418521561],[-78.8543026891471,35.7225591743299],[-78.852845,35.72266],[-78.8479728405876,35.7230499676893],[-78.846483,35.723031],[-78.8455404718184,35.7230384196461],[-78.8453982280306,35.723159674028],[-78.8458889690986,35.7236735595977],[-78.8467851049621,35.724314468416],[-78.8476456798785,35.7248398943216],[-78.8485987132571,35.7252729350453],[-78.8501,35.725827],[-78.8513155696012,35.7262775804572],[-78.851219,35.72651],[-78.8492544596871,35.7296961803112],[-78.849127263184,35.7297124838412],[-78.8479195501963,35.729231956313],[-78.8473866794566,35.7291635964949],[-78.8467113878576,35.7303971945751],[-78.846188354506,35.7315112861582],[-78.8458268486552,35.7322231876366],[-78.8456527902824,35.732603590398],[-78.845471,35.732839]]}},{"type":"Feature","properties":{"agency":"GoCary","shape_id":"e06dc6e2-5f24-4404-8e61-1a8bbf316fc6"},"geometry":{"type":"LineString","coordinates":[[-78.767551,35.830585],[-78.7673870442944,35.8303153347144],[-78.769337,35.829156],[-78.7696246946454,35.8287570118566],[-78.7701357050381,35.8276171640245],[-78.770537,35.825724],[-78.771208,35.821312],[-78.7713652677624,35.8200324262436],[-78.771862,35.818777],[-78.7721987609492,35.8180959528137],[-78.774487,35.815963],[-78.77686,35.813866],[-78.781029,35.810109],[-78.7820341470139,35.8090041953655],[-78.7828707779822,35.8072713432592],[-78.783057,35.80512],[-78.783133,35.801496],[-78.783209,35.79566],[-78.783234,35.793708],[-78.7832843398822,35.7915814321799],[-78.7832415576168,35.7883993122794],[-78.7818049658421,35.788188623678]]}},{"type":"Feature","properties":{"agency":"GoCary","shape_id":"e67a2b20-a380-49f6-96e4-0155bbb53795"},"geometry":{"type":"LineString","coordinates":[[-78.782017,35.735432],[-78.7844343057928,35.7360854221503],[-78.7847767496568,35.7372026282776],[-78.782978,35.738049],[-78.7800567321732,35.739795189203],[-78.780016,35.741237],[-78.780664130558,35.7424035777197],[-78.7814675565461,35.7451188407877],[-78.7820635405786,35.7466608337965],[-78.78235,35.747502],[-78.7827978192481,35.7493866409091],[-78.782803,35.750801],[-78.782664,35.754888],[-78.782666110069,35.7561633410752],[-78.782865,35.757571],[-78.7830495217436,35.7586567566663],[-78.783306,35.76228],[-78.7833713760001,35.7640728809877],[-78.7832752005799,35.7650757662141],[-78.781771,35.769125],[-78.7816,35.771626],[-78.78155,35.77493],[-78.7815661535479,35.7785892831172],[-78.7804542151089,35.7801359908699],[-78.78039,35.780944],[-78.7804777233205,35.7830500514639],[-78.7811241991568,35.7831091706977],[-78.781178,35.783635],[-78.78117,35.786402],[-78.781269950072,35.7883591647321],[-78.7822528947742,35.7882717721624]]}},{"type":"Feature","properties":{"agency":"GoCary","shape_id":"e7dd9c99-8aad-46a7-a9cf-6fd9ce755468"},"geometry":{"type":"LineString","coordinates":[[-78.7818049658421,35.788188623678],[-78.781249343834,35.7882495490318],[-78.7811578373218,35.7873173480647],[-78.778285,35.787444],[-78.775191,35.787624],[-78.7747155411888,35.7878350246168],[-78.772862,35.789255],[-78.7720024325238,35.7901813970982],[-78.768611,35.791127],[-78.765733,35.791744],[-78.7639272799275,35.7919319733501],[-78.76389,35.790265],[-78.7638003323942,35.7890077736556],[-78.764051,35.788295],[-78.7642707264466,35.7862029342194],[-78.7643142798134,35.7842028608443],[-78.764325,35.781009],[-78.764309,35.7767],[-78.7641067277611,35.7722270895071],[-78.761534,35.770067],[-78.75754,35.766941],[-78.75647729137,35.7662479580344],[-78.752464,35.764956],[-78.748005,35.763587],[-78.7466516310809,35.7631911489737],[-78.7455796976531,35.7624756265432],[-78.7445945171524,35.7614302964908],[-78.7417411777286,35.7577995000788],[-78.7416853231042,35.7559970591237],[-78.743975,35.756205],[-78.7441144050621,35.7562381584605],[-78.7441536221386,35.7579644083698],[-78.7412943407336,35.7595806843909],[-78.7416936418773,35.7602123346524],[-78.7417613804641,35.7609703083467],[-78.7416211497053,35.7610985652675],[-78.7413276158287,35.7611246023617],[-78.735827,35.760163],[-78.7347439005405,35.7599413524848],[-78.7343992656246,35.7593791338654],[-78.734096,35.758765],[-78.7333962591799,35.7580299858439],[-78.7320034587612,35.7557135253746],[-78.731373,35.755217],[-78.7304395292813,35.7548098753416],[-78.731442,35.753036],[-78.7321234867832,35.7518336405656],[-78.734987,35.749969],[-78.7369578827739,35.7483731213714],[-78.7374665163736,35.7476680751815],[-78.737807,35.746069],[-78.737882455065,35.7457525556426],[-78.7456997256715,35.7460476991201],[-78.7457662758621,35.7465830055752],[-78.7455642484975,35.7468742879358],[-78.745744,35.747353],[-78.7463093729532,35.7482400214765],[-78.7462808514428,35.7490000381849],[-78.746481690411,35.7494205519252],[-78.746508,35.749901],[-78.7465743853191,35.7517150132219],[-78.746263,35.751695]]}},{"type":"Feature","properties":{"agency":"GoCary","shape_id":"ef5a80cf-31f6-459b-85aa-8b80d0b26f2e"},"geometry":{"type":"LineString","coordinates":[[-78.7822528947742,35.7882717721624],[-78.7831875124909,35.7884326699378],[-78.783145,35.790614],[-78.783072,35.793838],[-78.782972,35.796678],[-78.782801,35.801782],[-78.782774,35.806475],[-78.7822434807072,35.8083436229935],[-78.781199,35.809588],[-78.777095,35.813321],[-78.773337,35.816694],[-78.7716404220025,35.8185888771131],[-78.771214,35.819648],[-78.7701104072148,35.8274122164532],[-78.7708278113109,35.8278840912681],[-78.7715615708551,35.828838285601],[-78.7724992155052,35.8294385532987],[-78.772336,35.829629],[-78.7719461793933,35.8308069401665],[-78.771644063214,35.8312097300976],[-78.7708366721643,35.8315894596338],[-78.7695836573315,35.8318292070178],[-78.7683899509295,35.8314519208649],[-78.767551,35.830585]]}},{"type":"Feature","properties":{"agency":"GoCary","shape_id":"f98fbac3-1c1d-4075-ad6d-75053e5a1c36"},"geometry":{"type":"LineString","coordinates":[[-78.869821,35.786646],[-78.8697652561421,35.7877623715624],[-78.8693184191478,35.7879330017979],[-78.8672803195598,35.7885769589349],[-78.862297,35.78874],[-78.8597042933945,35.7889432795289],[-78.8564385804686,35.7894484135787],[-78.854617,35.78947],[-78.8521318324178,35.789660491803],[-78.8500269562022,35.7900514179499],[-78.846287,35.791711],[-78.8453532201437,35.7920222337827],[-78.8433115553669,35.792243944732],[-78.8397927023974,35.7928972745299],[-78.838879,35.792808],[-78.8344532496356,35.7908751107306],[-78.8328,35.790639],[-78.8305006436707,35.7903410662827],[-78.828499,35.788425],[-78.8269188173394,35.7869747684952],[-78.8250542236054,35.7864031006706],[-78.8253525110671,35.7854024310733],[-78.8255996974894,35.7851479235014],[-78.8260287085398,35.7849184803708],[-78.8263044164724,35.785008136799],[-78.826284,35.785524],[-78.8262485618481,35.7859152999161],[-78.8257327978708,35.7860271280212],[-78.8251133272144,35.7859532345036],[-78.825014,35.786138],[-78.8248945977573,35.7864431076406],[-78.820994,35.785406],[-78.818669,35.784698],[-78.814482250466,35.7836362859764],[-78.813176202975,35.7834916762883],[-78.810469,35.783386],[-78.807415,35.783263],[-78.8060184922937,35.783638214103],[-78.802494,35.783469],[-78.798719,35.783346],[-78.7980586141361,35.7835283107658],[-78.7978720359231,35.7841086757885],[-78.7973431995868,35.7842908825378],[-78.796217,35.784115],[-78.7955451560436,35.7841231366566],[-78.7951078262195,35.7842243626615],[-78.7947608145113,35.7831957076377],[-78.794159,35.782937],[-78.7933882168297,35.7827956179738],[-78.792219,35.784326],[-78.7909582469943,35.7858915179886],[-78.7901213155079,35.7864185251454],[-78.789493842282,35.7865573453391],[-78.787606,35.786723],[-78.783371224744,35.7871974575394],[-78.7832804107037,35.7876831044856],[-78.7832483721306,35.7879408528703],[-78.7832557613575,35.7883764188882],[-78.7827188108697,35.7883844109029],[-78.7824330940964,35.7883004947082],[-78.7821350619449,35.7882065883853],[-78.7818049658421,35.788188623678]]}},{"type":"Feature","properties":{"agency":"GoCary","shape_id":"fbb3405b-0044-4a4c-ae0d-e250880ff6d7"},"geometry":{"type":"LineString","coordinates":[[-78.7818049658421,35.788188623678],[-78.7812050520828,35.7882914438847],[-78.781222052719,35.7873260937225],[-78.7833083440845,35.7871988884925],[-78.788407,35.786801],[-78.7907514745445,35.7865001730025],[-78.791278,35.785711],[-78.793735,35.78296],[-78.796918,35.783476],[-78.7993452727404,35.7834612300075],[-78.8013797283995,35.7798013555885],[-78.8025397838676,35.7780820595075],[-78.805181,35.776819],[-78.8055679980259,35.7763292358118],[-78.8061447436637,35.7754989424003],[-78.806993,35.773124],[-78.8074126856051,35.7716600465067],[-78.807733,35.770864],[-78.8078854267529,35.7683496635169],[-78.809253353432,35.7669683257918],[-78.8125927038546,35.7658578911935],[-78.815253455356,35.7648413339163],[-78.8188033591988,35.7631636120774],[-78.82138,35.762306],[-78.8241476609795,35.7613598264074],[-78.828815,35.760066],[-78.8293873566024,35.7597840285173],[-78.8312970895348,35.7590128933795],[-78.8347397050106,35.7566498670965],[-78.8381742738589,35.7543538960429],[-78.8459607270932,35.7504231184973],[-78.8510005981326,35.750203177345],[-78.851992,35.747797],[-78.8504681796114,35.744232579722],[-78.8493578543804,35.7415111650679],[-78.849079,35.740682],[-78.8487153559158,35.7396580719744],[-78.849074,35.736205],[-78.8491723019012,35.7350683304642],[-78.8497694641214,35.7337545295808],[-78.8502248771106,35.7325734566474],[-78.849915,35.732284],[-78.8464135810282,35.731128975182],[-78.845471,35.732839]]}},{"type":"Feature","properties":{"agency":"GoCary","shape_id":"ff626794-36ac-4627-b501-26bbd3c9b464"},"geometry":{"type":"LineString","coordinates":[[-78.7822528947742,35.7882717721624],[-78.7833346731502,35.78837802638],[-78.7834122824833,35.7872765238734],[-78.788407,35.786801],[-78.7901386053226,35.7864840958452],[-78.7905723699579,35.78630671428],[-78.791278,35.785711],[-78.7935421722154,35.7828448024155],[-78.793735,35.78296],[-78.7947697855534,35.7833557596266],[-78.7950977829216,35.7842986116698],[-78.7957269725637,35.7841639688113],[-78.79619,35.784228],[-78.797693115965,35.784264560986],[-78.7980162380944,35.7840177884112],[-78.7981044254628,35.7835341118412],[-78.800158,35.78357],[-78.804446,35.783697],[-78.8060429425966,35.7837577660979],[-78.8076235096241,35.7834068466692],[-78.808425,35.783487],[-78.8118899650508,35.7836395969176],[-78.8134193181906,35.7836353300988],[-78.8138447640523,35.783672928575],[-78.818582,35.784896],[-78.820947,35.785621],[-78.8261054482807,35.7868263169619],[-78.8268279932076,35.7871058837255],[-78.82839,35.788759],[-78.8300913293414,35.7903025151575],[-78.8310337275767,35.7906640079056],[-78.8340890943647,35.7909541648947],[-78.838668,35.792995],[-78.8397791356641,35.7930237921603],[-78.845336,35.792285],[-78.84774,35.79138],[-78.850962,35.790056],[-78.855399,35.789683],[-78.860496,35.789034],[-78.863152,35.788951],[-78.867010047596,35.7887842276564],[-78.8709139276891,35.7876592299176],[-78.87109,35.787175],[-78.8713215476074,35.7841954488482],[-78.8698562550174,35.7841742395929],[-78.8698764577538,35.7844808091865],[-78.8695496487819,35.7849503018382],[-78.8696895229128,35.7853283682436],[-78.8700749199295,35.785642485125],[-78.869821,35.786646]]}}]}