{"type":"FeatureCollection","features":[{"type":"Feature","properties":{"agency":"Graham Transit","shape_id":"p_1275242"},"geometry":{"type":"LineString","coordinates":[[-81.269456,37.253255],[-81.268932,37.25341],[-81.268999,37.253554],[-81.269011,37.253631],[-81.268997,37.253753],[-81.269002,37.253805],[-81.269011,37.253836],[-81.269032,37.253915],[-81.269112,37.254162],[-81.269122,37.254194],[-81.269279,37.254788],[-81.269214,37.254799],[-81.26901,37.254847],[-81.268912,37.25487],[-81.268883,37.254887],[-81.268862,37.254911],[-81.268852,37.254946],[-81.268859,37.254981],[-81.268964,37.255231],[-81.267853,37.255545],[-81.267581,37.255616],[-81.26715,37.2557],[-81.266626,37.255837],[-81.266233,37.255957],[-81.266093,37.255996],[-81.266049,37.256025],[-81.266026,37.256048],[-81.266009,37.256071],[-81.265992,37.256125],[-81.265994,37.256163],[-81.26605,37.256403],[-81.266108,37.256653],[-81.266105,37.25673],[-81.266084,37.256805],[-81.266031,37.25691],[-81.266018,37.256986],[-81.266031,37.257062],[-81.26606,37.257123],[-81.266152,37.257284],[-81.266317,37.257577],[-81.266452,37.257783],[-81.266474,37.257831],[-81.266504,37.257897],[-81.266538,37.258015],[-81.266553,37.258135],[-81.266581,37.258457],[-81.26657,37.25848],[-81.266549,37.2585],[-81.266671,37.258789],[-81.266741,37.259007],[-81.266793,37.259119],[-81.266834,37.259232],[-81.266835,37.25926],[-81.266835,37.259265],[-81.266814,37.259312],[-81.266771,37.259347],[-81.266723,37.259364],[-81.266622,37.259368],[-81.266568,37.259388],[-81.266529,37.259424],[-81.266515,37.259454],[-81.266527,37.259512],[-81.266562,37.259605],[-81.266707,37.259883],[-81.266766,37.259952],[-81.266836,37.260015],[-81.266766,37.259952],[-81.266707,37.259883],[-81.266562,37.259605],[-81.266527,37.259512],[-81.266515,37.259454],[-81.266529,37.259424],[-81.266568,37.259388],[-81.266622,37.259368],[-81.266723,37.259364],[-81.266771,37.259347],[-81.266814,37.259312],[-81.266835,37.259265],[-81.266834,37.259232],[-81.266793,37.259119],[-81.266741,37.259007],[-81.266671,37.258789],[-81.266549,37.2585],[-81.26657,37.25848],[-81.266581,37.258457],[-81.266553,37.258135],[-81.266538,37.258015],[-81.266504,37.257897],[-81.266452,37.257783],[-81.266317,37.257577],[-81.266152,37.257284],[-81.26606,37.257123],[-81.266031,37.257062],[-81.266018,37.256986],[-81.266031,37.25691],[-81.266084,37.256805],[-81.266105,37.25673],[-81.266108,37.256653],[-81.26605,37.256403],[-81.265994,37.256163],[-81.265992,37.256125],[-81.266009,37.256071],[-81.266026,37.256048],[-81.266049,37.256025],[-81.266093,37.255996],[-81.266233,37.255957],[-81.266626,37.255837],[-81.26715,37.2557],[-81.267581,37.255616],[-81.267853,37.255545],[-81.268964,37.255231],[-81.268859,37.254981],[-81.268852,37.254946],[-81.268862,37.254911],[-81.268883,37.254887],[-81.268912,37.25487],[-81.26901,37.254847],[-81.269214,37.254799],[-81.269279,37.254788],[-81.269373,37.254781],[-81.269654,37.254773],[-81.270039,37.25475],[-81.27022,37.25474],[-81.270529,37.254732],[-81.270817,37.254732],[-81.27116,37.254732],[-81.271718,37.254722],[-81.271777,37.254718],[-81.271839,37.254707],[-81.271874,37.2547],[-81.271975,37.254664],[-81.271881,37.254571],[-81.271806,37.254443],[-81.271748,37.254311],[-81.271665,37.254022],[-81.271593,37.253774],[-81.271529,37.253553],[-81.271763,37.253566],[-81.272092,37.253599],[-81.272697,37.253654],[-81.273603,37.253722],[-81.27382,37.25373],[-81.274091,37.253729],[-81.274362,37.253714],[-81.274685,37.253678],[-81.274903,37.253642],[-81.275084,37.253629],[-81.275271,37.253629],[-81.275458,37.253643],[-81.275642,37.253673],[-81.275821,37.253716],[-81.275926,37.253748],[-81.276217,37.253848],[-81.276465,37.253933],[-81.276635,37.253976],[-81.27681,37.254005],[-81.276988,37.254019],[-81.277167,37.254019],[-81.277393,37.253998],[-81.27766,37.253973],[-81.277747,37.253965],[-81.278562,37.253874],[-81.278249,37.253187],[-81.278076,37.252809],[-81.278052,37.252763],[-81.277973,37.252606],[-81.277963,37.252558],[-81.27797,37.252509],[-81.278014,37.252455],[-81.278544,37.251909],[-81.278695,37.251777],[-81.278799,37.251712],[-81.279047,37.251573],[-81.279316,37.251439],[-81.279807,37.251206],[-81.280285,37.250975],[-81.28021,37.250873],[-81.280176,37.250825],[-81.280159,37.250802],[-81.280108,37.25076],[-81.280065,37.250736],[-81.280044,37.250727],[-81.279707,37.250636],[-81.279681,37.250627],[-81.279577,37.250592],[-81.279455,37.250558],[-81.279363,37.250526],[-81.279264,37.250509],[-81.279085,37.250502],[-81.27881,37.250524],[-81.27874,37.250528],[-81.27881,37.250524],[-81.279085,37.250502],[-81.279264,37.250509],[-81.279363,37.250526],[-81.279455,37.250558],[-81.279577,37.250592],[-81.279681,37.250627],[-81.279707,37.250636],[-81.280044,37.250727],[-81.280065,37.250736],[-81.280108,37.25076],[-81.280159,37.250802],[-81.280176,37.250825],[-81.28021,37.250873],[-81.280285,37.250975],[-81.279807,37.251206],[-81.279316,37.251439],[-81.279047,37.251573],[-81.278799,37.251712],[-81.278695,37.251777],[-81.278544,37.251909],[-81.278014,37.252455],[-81.27797,37.252509],[-81.277963,37.252558],[-81.277973,37.252606],[-81.278052,37.252763],[-81.278076,37.252809],[-81.278249,37.253187],[-81.278562,37.253874],[-81.277747,37.253965],[-81.27766,37.253973],[-81.277393,37.253998],[-81.277167,37.254019],[-81.276988,37.254019],[-81.27681,37.254005],[-81.276635,37.253976],[-81.276465,37.253933],[-81.276217,37.253848],[-81.275926,37.253748],[-81.275821,37.253716],[-81.275642,37.253673],[-81.275458,37.253643],[-81.275271,37.253629],[-81.275084,37.253629],[-81.274903,37.253642],[-81.274685,37.253678],[-81.274362,37.253714],[-81.274091,37.253729],[-81.27382,37.25373],[-81.273603,37.253722],[-81.272697,37.253654],[-81.272092,37.253599],[-81.27057667113071,37.25353944283198],[-81.26989865715407,37.253464242161385],[-81.26966524250686,37.2533624999587],[-81.26953437223766,37.25316291699245],[-81.269544,37.253165],[-81.269395,37.252853],[-81.269315,37.252685],[-81.269061,37.252133],[-81.269658,37.251986],[-81.270279,37.251815],[-81.270883,37.25162],[-81.270677,37.250976],[-81.270555,37.250632],[-81.270482,37.250477],[-81.270393,37.250327],[-81.270363,37.250285],[-81.270182,37.250039],[-81.270115,37.249955],[-81.270026,37.249865],[-81.269956,37.249816],[-81.269909,37.249793],[-81.26984,37.24977],[-81.26972,37.249745],[-81.269589,37.249733],[-81.269055,37.249728],[-81.268883,37.249715],[-81.268746,37.249694],[-81.268613,37.249665],[-81.268464,37.249611],[-81.268351,37.249558],[-81.268219,37.249481],[-81.26796,37.249306],[-81.267697,37.249106],[-81.26763,37.24905],[-81.267466,37.248907],[-81.267391,37.248818],[-81.267331,37.248721],[-81.267296,37.248629],[-81.267242,37.24836],[-81.267136,37.247937],[-81.267095,37.247821],[-81.267028,37.24768],[-81.266659,37.247029],[-81.266516,37.246801],[-81.266378,37.24662],[-81.266241,37.246468],[-81.266035,37.246205],[-81.265886,37.245975],[-81.265359,37.244974],[-81.265182,37.244674],[-81.265096,37.244539],[-81.264871,37.244216],[-81.264758,37.244095],[-81.264664,37.243999],[-81.264592,37.243916],[-81.264507,37.243839],[-81.26441,37.243771],[-81.264242,37.243671],[-81.264039,37.243532],[-81.263751,37.243363],[-81.263579,37.24327],[-81.263363,37.24317],[-81.263246,37.243125],[-81.26301,37.243035],[-81.262251,37.242806],[-81.262062,37.242741],[-81.261896,37.242673],[-81.261833,37.242638],[-81.261667,37.242546],[-81.261498,37.242426],[-81.261349,37.242296],[-81.261244,37.242187],[-81.261134,37.242048],[-81.261062,37.241932],[-81.26105,37.241914],[-81.26104,37.241892],[-81.261,37.24181],[-81.260947,37.241682],[-81.260642,37.241033],[-81.260625,37.240971],[-81.260558,37.240786],[-81.260236,37.23999],[-81.260189,37.239797],[-81.260157,37.239604],[-81.260153,37.239483],[-81.260001,37.23949],[-81.25891,37.239541],[-81.25853,37.239568],[-81.258235,37.239598],[-81.257922,37.239651],[-81.257688,37.239702],[-81.257036,37.239861],[-81.256859,37.239413],[-81.256787,37.239231],[-81.256726,37.239075],[-81.256661,37.238912],[-81.256596,37.238745],[-81.256531,37.238581],[-81.256467,37.238419],[-81.256401,37.238251],[-81.256336,37.238087],[-81.256273,37.237928],[-81.255504,37.23812],[-81.255394,37.238147],[-81.255311,37.238168],[-81.255115,37.238217],[-81.254936,37.238262],[-81.254748,37.238309],[-81.254567,37.238354],[-81.254372,37.238403],[-81.254176,37.238452],[-81.253971,37.238503],[-81.2538,37.238546],[-81.253611,37.238593],[-81.253429,37.238639],[-81.253235,37.238687],[-81.253831,37.240199],[-81.253649,37.240217],[-81.253488,37.240339],[-81.253436,37.240372],[-81.253374,37.24039],[-81.253039,37.240491],[-81.252873,37.24054],[-81.25282,37.240404],[-81.252635,37.239945],[-81.252619,37.239928],[-81.25259,37.239917],[-81.252557,37.23992],[-81.251909,37.240107],[-81.251822,37.239912],[-81.25175,37.239752],[-81.251676,37.239587],[-81.251608,37.239436],[-81.251537,37.239278],[-81.251458,37.239101],[-81.251345,37.239005],[-81.251291,37.238917],[-81.251145,37.238956],[-81.251143,37.238957],[-81.250284,37.239187],[-81.250245,37.239187],[-81.249285,37.239432],[-81.249628,37.240244],[-81.249724,37.240495],[-81.249848,37.240837],[-81.250009,37.241218],[-81.250117,37.241505],[-81.250141,37.241558],[-81.250205,37.241657],[-81.249667,37.241802],[-81.249153,37.241958],[-81.248865,37.242058],[-81.24873,37.24211],[-81.248701,37.242121],[-81.248541,37.242183],[-81.248263,37.242305],[-81.24791,37.242454],[-81.247479,37.242661],[-81.247067,37.242876],[-81.246534,37.243181],[-81.246213,37.243379],[-81.245953,37.24355],[-81.245712,37.243723],[-81.24549,37.243883],[-81.24517,37.244134],[-81.244897,37.244346],[-81.244809,37.244413],[-81.244591,37.244582],[-81.244198,37.244887],[-81.24364,37.245337],[-81.243242,37.245633],[-81.242995,37.24581],[-81.242822,37.245926],[-81.242683,37.24601],[-81.242539,37.246095],[-81.24228,37.24624],[-81.242078,37.246364],[-81.241987,37.246418],[-81.24176,37.246545],[-81.241348,37.246091],[-81.240992,37.245708],[-81.240755,37.245455],[-81.240375,37.245065],[-81.239952,37.244643],[-81.239738,37.244419],[-81.239581,37.244224],[-81.239506,37.244113],[-81.239389,37.243912],[-81.2392,37.243566],[-81.239097,37.243403],[-81.239021,37.243296],[-81.238964,37.243215],[-81.239241,37.243257],[-81.239443,37.243287],[-81.239938,37.24337],[-81.24004,37.243382],[-81.24017,37.243383],[-81.240495,37.243362],[-81.24071803262153,37.24333399188758],[-81.24068193839238,37.24289149283403],[-81.24068329757529,37.24289062814148],[-81.24070359492994,37.24279954465287],[-81.23955975291935,37.24282840702503],[-81.239443,37.243287],[-81.239241,37.243257],[-81.238964,37.243215],[-81.239021,37.243296],[-81.239097,37.243403],[-81.2392,37.243566],[-81.239389,37.243912],[-81.23974340648272,37.24443493145336],[-81.24018138673885,37.24423721608144],[-81.24006922106345,37.244077767822674],[-81.24008081657033,37.24406231790032],[-81.23980821098179,37.243683200133376],[-81.23961771550987,37.24362567865073],[-81.23929584385108,37.24373026313232],[-81.2392,37.243566],[-81.239097,37.243403],[-81.239021,37.243296],[-81.238964,37.243215],[-81.239241,37.243257],[-81.239443,37.243287],[-81.239938,37.24337],[-81.24004,37.243382],[-81.24017,37.243383],[-81.240495,37.243362],[-81.240792,37.243328],[-81.241424,37.243221],[-81.241833,37.243135],[-81.242043,37.2431],[-81.242231,37.243078],[-81.24243,37.243073],[-81.242628,37.243082],[-81.243082,37.243128],[-81.243398,37.243171],[-81.243405,37.243132],[-81.243399,37.243068],[-81.243171,37.242504],[-81.24316,37.242478],[-81.243144,37.242395],[-81.243147,37.242311],[-81.243178,37.242218],[-81.243388,37.241729],[-81.24339792735562,37.24172981185052],[-81.243178,37.242218],[-81.243147,37.242311],[-81.243144,37.242395],[-81.24316,37.242478],[-81.243171,37.242504],[-81.243399,37.243068],[-81.243405,37.243132],[-81.243398,37.243171],[-81.243082,37.243128],[-81.242628,37.243082],[-81.24243,37.243073],[-81.242231,37.243078],[-81.242043,37.2431],[-81.241833,37.243135],[-81.241424,37.243221],[-81.240792,37.243328],[-81.240495,37.243362],[-81.24017,37.243383],[-81.24004,37.243382],[-81.239938,37.24337],[-81.239443,37.243287],[-81.239241,37.243257],[-81.238964,37.243215],[-81.239021,37.243296],[-81.239097,37.243403],[-81.2392,37.243566],[-81.239389,37.243912],[-81.239506,37.244113],[-81.239581,37.244224],[-81.239738,37.244419],[-81.239952,37.244643],[-81.240375,37.245065],[-81.240755,37.245455],[-81.240992,37.245708],[-81.241348,37.246091],[-81.24176,37.246545],[-81.241987,37.246418],[-81.242078,37.246364],[-81.24228,37.24624],[-81.242539,37.246095],[-81.242683,37.24601],[-81.242822,37.245926],[-81.242896,37.245997],[-81.24296,37.246051],[-81.24316,37.246226],[-81.243762,37.24642],[-81.243898,37.246465],[-81.244026,37.246523],[-81.24413,37.246584],[-81.244209,37.246641],[-81.244435,37.246889],[-81.245037,37.247612],[-81.245109,37.247725],[-81.245153,37.247834],[-81.245163,37.247868],[-81.24518,37.247973],[-81.245181,37.248058],[-81.245167,37.248163],[-81.245135,37.248267],[-81.245086,37.248388],[-81.245022,37.248492],[-81.244943,37.248575],[-81.244747,37.248712],[-81.244647,37.248782],[-81.243618,37.249462],[-81.242628,37.25027],[-81.242189,37.250562],[-81.242142,37.250593],[-81.241166,37.251101],[-81.240028,37.25165],[-81.238999,37.252178],[-81.238897,37.252223],[-81.239202,37.252785],[-81.239385,37.25315],[-81.239797,37.253261],[-81.239652,37.253465],[-81.239539,37.253586],[-81.239513,37.253673],[-81.239324,37.254962],[-81.239251,37.255098],[-81.23912,37.255225],[-81.238982,37.255303],[-81.238212,37.25559],[-81.237489,37.254477],[-81.237399,37.254458],[-81.236332,37.254892],[-81.235913,37.254906],[-81.235571,37.255035],[-81.235372,37.255037],[-81.235057,37.255164],[-81.234918,37.255226],[-81.234888,37.255364],[-81.23481,37.255466],[-81.234888,37.255364],[-81.234918,37.255226],[-81.235057,37.255164],[-81.235372,37.255037],[-81.235571,37.255035],[-81.235913,37.254906],[-81.236332,37.254892],[-81.237399,37.254458],[-81.237489,37.254477],[-81.238212,37.25559],[-81.238982,37.255303],[-81.23912,37.255225],[-81.239251,37.255098],[-81.239324,37.254962],[-81.239366,37.254674],[-81.239513,37.253673],[-81.239539,37.253586],[-81.239652,37.253465],[-81.239797,37.253261],[-81.239385,37.25315],[-81.239202,37.252785],[-81.238897,37.252223],[-81.238999,37.252178],[-81.240028,37.25165],[-81.240616,37.251366],[-81.241166,37.251101],[-81.242142,37.250593],[-81.242189,37.250562],[-81.242628,37.25027],[-81.243618,37.249462],[-81.24467295447889,37.2487858979658],[-81.24506119751412,37.24947447369854],[-81.24792221844292,37.248329783334185],[-81.24828321635307,37.2479827800546],[-81.24768382359676,37.24719659483823],[-81.2459605694204,37.24780927781586],[-81.2451561666323,37.24784229431509],[-81.244435,37.246889],[-81.244209,37.246641],[-81.24413,37.246584],[-81.244026,37.246523],[-81.243898,37.246465],[-81.243762,37.24642],[-81.24316,37.246226],[-81.24296,37.246051],[-81.242896,37.245997],[-81.242822,37.245926],[-81.242995,37.24581],[-81.243242,37.245633],[-81.24364,37.245337],[-81.244198,37.244887],[-81.244809,37.244413],[-81.244897,37.244346],[-81.24517,37.244134],[-81.24549,37.243883],[-81.245712,37.243723],[-81.245953,37.24355],[-81.246213,37.243379],[-81.246534,37.243181],[-81.247067,37.242876],[-81.247479,37.242661],[-81.24791,37.242454],[-81.248263,37.242305],[-81.248541,37.242183],[-81.248701,37.242121],[-81.24873,37.24211],[-81.248865,37.242058],[-81.249153,37.241958],[-81.249667,37.241802],[-81.250205,37.241657],[-81.25064,37.24154],[-81.251287,37.241374],[-81.253036,37.240926],[-81.254,37.240653],[-81.254497,37.240512],[-81.255449,37.240262],[-81.256385,37.240022],[-81.257036,37.239861],[-81.256859,37.239413],[-81.256787,37.239231],[-81.256726,37.239075],[-81.256661,37.238912],[-81.256596,37.238745],[-81.256531,37.238581],[-81.256467,37.238419],[-81.256401,37.238251],[-81.256336,37.238087],[-81.256273,37.237928],[-81.255504,37.23812],[-81.255394,37.238147],[-81.255504,37.23812],[-81.256273,37.237928],[-81.256336,37.238087],[-81.256401,37.238251],[-81.256467,37.238419],[-81.256531,37.238581],[-81.256596,37.238745],[-81.256661,37.238912],[-81.256726,37.239075],[-81.256787,37.239231],[-81.256859,37.239413],[-81.257036,37.239861],[-81.257704,37.239731],[-81.258431,37.239597],[-81.258691,37.239556],[-81.259101,37.239619],[-81.259244,37.239644],[-81.259382,37.239684],[-81.259548,37.23975],[-81.259683,37.239822],[-81.25976,37.23987],[-81.25989,37.239965],[-81.259981,37.24005],[-81.260087,37.240183],[-81.260349,37.240561],[-81.260471,37.240779],[-81.260642,37.241033],[-81.260947,37.241682],[-81.261,37.24181],[-81.26104,37.241892],[-81.26105,37.241914],[-81.261062,37.241932],[-81.261134,37.242048],[-81.261244,37.242187],[-81.261349,37.242296],[-81.261498,37.242426],[-81.261667,37.242546],[-81.261896,37.242673],[-81.262062,37.242741],[-81.262251,37.242806],[-81.26301,37.243035],[-81.263246,37.243125],[-81.263363,37.24317],[-81.263579,37.24327],[-81.263751,37.243363],[-81.264039,37.243532],[-81.264242,37.243671],[-81.26441,37.243771],[-81.264507,37.243839],[-81.264592,37.243916],[-81.264664,37.243999],[-81.264758,37.244095],[-81.264871,37.244216],[-81.265096,37.244539],[-81.265182,37.244674],[-81.265359,37.244974],[-81.265886,37.245975],[-81.266035,37.246205],[-81.266241,37.246468],[-81.266378,37.24662],[-81.266516,37.246801],[-81.266659,37.247029],[-81.267028,37.24768],[-81.267095,37.247821],[-81.267136,37.247937],[-81.267242,37.24836],[-81.267296,37.248629],[-81.267331,37.248721],[-81.267391,37.248818],[-81.267466,37.248907],[-81.26763,37.24905],[-81.267697,37.249106],[-81.26796,37.249306],[-81.268219,37.249481],[-81.268351,37.249558],[-81.268464,37.249611],[-81.268613,37.249665],[-81.268746,37.249694],[-81.268883,37.249715],[-81.269055,37.249728],[-81.269589,37.249733],[-81.26972,37.249745],[-81.26984,37.24977],[-81.269909,37.249793],[-81.269956,37.249816],[-81.270026,37.249865],[-81.270115,37.249955],[-81.270182,37.250039],[-81.270363,37.250285],[-81.270393,37.250327],[-81.270482,37.250477],[-81.270555,37.250632],[-81.270677,37.250976],[-81.270883,37.25162],[-81.270962,37.251866],[-81.27105,37.252112],[-81.271073,37.252178],[-81.271176,37.252451],[-81.271217,37.25256],[-81.271272,37.252721],[-81.271026,37.252793],[-81.270701,37.252889],[-81.270615,37.252914],[-81.269571,37.253221],[-81.269456,37.253255]]}},{"type":"Feature","properties":{"agency":"Graham Transit","shape_id":"p_1275420"},"geometry":{"type":"LineString","coordinates":[[-81.269456,37.253255],[-81.268932,37.25341],[-81.268999,37.253554],[-81.269011,37.253631],[-81.268997,37.253753],[-81.269002,37.253805],[-81.269011,37.253836],[-81.269032,37.253915],[-81.269112,37.254162],[-81.269122,37.254194],[-81.269279,37.254788],[-81.269214,37.254799],[-81.26901,37.254847],[-81.268912,37.25487],[-81.268883,37.254887],[-81.268862,37.254911],[-81.268852,37.254946],[-81.268859,37.254981],[-81.268964,37.255231],[-81.267853,37.255545],[-81.267581,37.255616],[-81.26715,37.2557],[-81.266626,37.255837],[-81.266233,37.255957],[-81.266093,37.255996],[-81.266049,37.256025],[-81.266026,37.256048],[-81.266009,37.256071],[-81.265992,37.256125],[-81.265994,37.256163],[-81.26605,37.256403],[-81.266108,37.256653],[-81.266105,37.25673],[-81.266084,37.256805],[-81.266031,37.25691],[-81.266018,37.256986],[-81.266031,37.257062],[-81.26606,37.257123],[-81.266152,37.257284],[-81.266317,37.257577],[-81.266452,37.257783],[-81.266474,37.257831],[-81.266504,37.257897],[-81.266538,37.258015],[-81.266553,37.258135],[-81.266581,37.258457],[-81.26657,37.25848],[-81.266549,37.2585],[-81.266671,37.258789],[-81.266741,37.259007],[-81.266793,37.259119],[-81.266834,37.259232],[-81.266835,37.25926],[-81.266835,37.259265],[-81.266814,37.259312],[-81.266771,37.259347],[-81.266723,37.259364],[-81.266622,37.259368],[-81.266568,37.259388],[-81.266529,37.259424],[-81.266515,37.259454],[-81.266527,37.259512],[-81.266562,37.259605],[-81.266707,37.259883],[-81.266766,37.259952],[-81.266836,37.260015],[-81.266766,37.259952],[-81.266707,37.259883],[-81.266562,37.259605],[-81.266527,37.259512],[-81.266515,37.259454],[-81.266529,37.259424],[-81.266568,37.259388],[-81.266622,37.259368],[-81.266723,37.259364],[-81.266771,37.259347],[-81.266814,37.259312],[-81.266835,37.259265],[-81.266834,37.259232],[-81.266793,37.259119],[-81.266741,37.259007],[-81.266671,37.258789],[-81.266549,37.2585],[-81.26657,37.25848],[-81.266581,37.258457],[-81.266553,37.258135],[-81.266538,37.258015],[-81.266504,37.257897],[-81.266452,37.257783],[-81.266317,37.257577],[-81.266152,37.257284],[-81.26606,37.257123],[-81.266031,37.257062],[-81.266018,37.256986],[-81.266031,37.25691],[-81.266084,37.256805],[-81.266105,37.25673],[-81.266108,37.256653],[-81.26605,37.256403],[-81.265994,37.256163],[-81.265992,37.256125],[-81.266009,37.256071],[-81.266026,37.256048],[-81.266049,37.256025],[-81.266093,37.255996],[-81.266233,37.255957],[-81.266626,37.255837],[-81.26715,37.2557],[-81.267581,37.255616],[-81.267853,37.255545],[-81.268964,37.255231],[-81.268859,37.254981],[-81.268852,37.254946],[-81.268862,37.254911],[-81.268883,37.254887],[-81.268912,37.25487],[-81.26901,37.254847],[-81.269214,37.254799],[-81.269279,37.254788],[-81.269373,37.254781],[-81.269654,37.254773],[-81.270039,37.25475],[-81.27022,37.25474],[-81.270529,37.254732],[-81.270817,37.254732],[-81.27116,37.254732],[-81.271718,37.254722],[-81.271777,37.254718],[-81.271839,37.254707],[-81.271874,37.2547],[-81.271975,37.254664],[-81.271881,37.254571],[-81.271806,37.254443],[-81.271748,37.254311],[-81.271665,37.254022],[-81.271593,37.253774],[-81.271529,37.253553],[-81.271763,37.253566],[-81.272092,37.253599],[-81.272697,37.253654],[-81.273603,37.253722],[-81.27382,37.25373],[-81.274091,37.253729],[-81.274362,37.253714],[-81.274685,37.253678],[-81.274903,37.253642],[-81.275084,37.253629],[-81.275271,37.253629],[-81.275458,37.253643],[-81.275642,37.253673],[-81.275821,37.253716],[-81.275926,37.253748],[-81.276217,37.253848],[-81.276465,37.253933],[-81.276635,37.253976],[-81.27681,37.254005],[-81.276988,37.254019],[-81.277167,37.254019],[-81.277393,37.253998],[-81.27766,37.253973],[-81.277747,37.253965],[-81.278562,37.253874],[-81.278249,37.253187],[-81.278076,37.252809],[-81.278052,37.252763],[-81.277973,37.252606],[-81.277963,37.252558],[-81.27797,37.252509],[-81.278014,37.252455],[-81.278544,37.251909],[-81.278695,37.251777],[-81.278799,37.251712],[-81.279047,37.251573],[-81.279316,37.251439],[-81.279807,37.251206],[-81.280285,37.250975],[-81.28021,37.250873],[-81.280176,37.250825],[-81.280159,37.250802],[-81.280108,37.25076],[-81.280065,37.250736],[-81.280044,37.250727],[-81.279707,37.250636],[-81.279681,37.250627],[-81.279577,37.250592],[-81.279455,37.250558],[-81.279363,37.250526],[-81.279264,37.250509],[-81.279085,37.250502],[-81.27881,37.250524],[-81.27874,37.250528],[-81.27881,37.250524],[-81.279085,37.250502],[-81.279264,37.250509],[-81.279363,37.250526],[-81.279455,37.250558],[-81.279577,37.250592],[-81.279681,37.250627],[-81.279707,37.250636],[-81.280044,37.250727],[-81.280065,37.250736],[-81.280108,37.25076],[-81.280159,37.250802],[-81.280176,37.250825],[-81.28021,37.250873],[-81.280285,37.250975],[-81.279807,37.251206],[-81.279316,37.251439],[-81.279047,37.251573],[-81.278799,37.251712],[-81.278695,37.251777],[-81.278544,37.251909],[-81.278014,37.252455],[-81.27797,37.252509],[-81.277963,37.252558],[-81.277973,37.252606],[-81.278052,37.252763],[-81.278076,37.252809],[-81.278249,37.253187],[-81.278562,37.253874],[-81.277747,37.253965],[-81.27766,37.253973],[-81.277393,37.253998],[-81.277167,37.254019],[-81.276988,37.254019],[-81.27681,37.254005],[-81.276635,37.253976],[-81.276465,37.253933],[-81.276217,37.253848],[-81.275926,37.253748],[-81.275821,37.253716],[-81.275642,37.253673],[-81.275458,37.253643],[-81.275271,37.253629],[-81.275084,37.253629],[-81.274903,37.253642],[-81.274685,37.253678],[-81.274362,37.253714],[-81.274091,37.253729],[-81.27382,37.25373],[-81.273603,37.253722],[-81.272697,37.253654],[-81.272092,37.253599],[-81.27057667113071,37.25353944283198],[-81.26989865715407,37.253464242161385],[-81.26966524250686,37.2533624999587],[-81.26953437223766,37.25316291699245],[-81.269544,37.253165],[-81.269395,37.252853],[-81.269315,37.252685],[-81.269061,37.252133],[-81.269658,37.251986],[-81.270279,37.251815],[-81.270883,37.25162],[-81.270677,37.250976],[-81.270555,37.250632],[-81.270482,37.250477],[-81.270393,37.250327],[-81.270363,37.250285],[-81.270182,37.250039],[-81.270115,37.249955],[-81.270026,37.249865],[-81.269956,37.249816],[-81.269909,37.249793],[-81.26984,37.24977],[-81.26972,37.249745],[-81.269589,37.249733],[-81.269055,37.249728],[-81.268883,37.249715],[-81.268746,37.249694],[-81.268613,37.249665],[-81.268464,37.249611],[-81.268351,37.249558],[-81.268219,37.249481],[-81.26796,37.249306],[-81.267697,37.249106],[-81.26763,37.24905],[-81.267466,37.248907],[-81.267391,37.248818],[-81.267331,37.248721],[-81.267296,37.248629],[-81.267242,37.24836],[-81.267136,37.247937],[-81.267095,37.247821],[-81.267028,37.24768],[-81.266659,37.247029],[-81.266516,37.246801],[-81.266378,37.24662],[-81.266241,37.246468],[-81.266035,37.246205],[-81.265886,37.245975],[-81.265359,37.244974],[-81.265182,37.244674],[-81.265096,37.244539],[-81.264871,37.244216],[-81.264758,37.244095],[-81.264664,37.243999],[-81.264592,37.243916],[-81.264507,37.243839],[-81.26441,37.243771],[-81.264242,37.243671],[-81.264039,37.243532],[-81.263751,37.243363],[-81.263579,37.24327],[-81.263363,37.24317],[-81.263246,37.243125],[-81.26301,37.243035],[-81.262251,37.242806],[-81.262062,37.242741],[-81.261896,37.242673],[-81.261833,37.242638]]}},{"type":"Feature","properties":{"agency":"Graham Transit","shape_id":"p_1275421"},"geometry":{"type":"LineString","coordinates":[[-81.269456,37.253255],[-81.269571,37.253221],[-81.269628,37.253331],[-81.269664,37.253371],[-81.269721,37.253413],[-81.269788,37.253442],[-81.269926,37.253473],[-81.270126,37.253508],[-81.270329,37.253529],[-81.271215,37.253554],[-81.271529,37.253553],[-81.271763,37.253566],[-81.272092,37.253599],[-81.272697,37.253654],[-81.273603,37.253722],[-81.27382,37.25373],[-81.274091,37.253729],[-81.274362,37.253714],[-81.274685,37.253678],[-81.274903,37.253642],[-81.275084,37.253629],[-81.275271,37.253629],[-81.275458,37.253643],[-81.275642,37.253673],[-81.275821,37.253716],[-81.275926,37.253748],[-81.276217,37.253848],[-81.276465,37.253933],[-81.276635,37.253976],[-81.27681,37.254005],[-81.276988,37.254019],[-81.277167,37.254019],[-81.277393,37.253998],[-81.27766,37.253973],[-81.277747,37.253965],[-81.278562,37.253874],[-81.27905,37.253819],[-81.280395,37.253667],[-81.280497,37.253642],[-81.280583,37.253607],[-81.280713,37.253538],[-81.281736,37.252942],[-81.28205,37.252769],[-81.282152,37.252713],[-81.282504,37.252547],[-81.283124,37.252253],[-81.28323,37.252197],[-81.28329,37.25217],[-81.283305,37.25195],[-81.28332,37.251547],[-81.283359,37.250562],[-81.283371,37.250513],[-81.283394,37.250488],[-81.283443,37.250456],[-81.283502,37.250437],[-81.284111,37.250499],[-81.284617,37.250528],[-81.284803,37.250531],[-81.285418,37.250525],[-81.28547,37.250523],[-81.285688,37.250516],[-81.286477,37.250451],[-81.287169,37.250389],[-81.287512,37.250339],[-81.287598,37.250324],[-81.287796,37.250278],[-81.287951,37.250231],[-81.288101,37.250177],[-81.28857,37.249975],[-81.288729,37.249918],[-81.288782,37.249901],[-81.288966,37.249855],[-81.289209,37.249814],[-81.28973,37.249727],[-81.290196,37.249648],[-81.290978,37.249515],[-81.291251,37.249469],[-81.291413,37.249442],[-81.293949,37.249016],[-81.296957,37.248513],[-81.297373,37.248446],[-81.297479,37.248424],[-81.298896,37.248185],[-81.300892,37.247849],[-81.3013,37.247781],[-81.301441,37.247762],[-81.302189,37.247629],[-81.303223,37.247457],[-81.303329,37.247439],[-81.30386580793817,37.24734543109106],[-81.3038863676648,37.24729224105154],[-81.30388122773329,37.24701810717504],[-81.30384524821096,37.24690354346855],[-81.30378356903051,37.246862627817],[-81.30340321408482,37.24687081094925],[-81.30314621750003,37.24701810717504],[-81.30314621750003,37.24718176931079],[-81.30321817654406,37.24743953645402],[-81.302189,37.247629],[-81.301441,37.247762],[-81.3013,37.247781],[-81.300892,37.247849],[-81.298896,37.248185],[-81.297479,37.248424],[-81.297373,37.248446],[-81.296957,37.248513],[-81.293949,37.249016],[-81.291413,37.249442],[-81.291251,37.249469],[-81.290978,37.249515],[-81.290196,37.249648],[-81.28973,37.249727],[-81.289209,37.249814],[-81.288966,37.249855],[-81.288782,37.249901],[-81.288729,37.249918],[-81.28857,37.249975],[-81.288101,37.250177],[-81.287951,37.250231],[-81.287796,37.250278],[-81.287598,37.250324],[-81.287512,37.250339],[-81.287169,37.250389],[-81.286477,37.250451],[-81.285688,37.250516],[-81.28547,37.250523],[-81.285418,37.250525],[-81.28542,37.250417],[-81.285432,37.250188],[-81.285434,37.250151],[-81.285436,37.250023],[-81.285447,37.249453],[-81.285473,37.248621],[-81.285533,37.248618],[-81.285612,37.248601],[-81.28579,37.248522],[-81.285849,37.248484],[-81.285887,37.248446],[-81.285908,37.248413],[-81.285921,37.248392],[-81.285928,37.24835],[-81.285911,37.248273],[-81.285878,37.248213],[-81.28481,37.247066],[-81.28474,37.246974],[-81.2847,37.2469],[-81.284665,37.246811],[-81.284534,37.24642],[-81.284502,37.246202],[-81.284487,37.245905],[-81.284536,37.245897],[-81.284487,37.245905],[-81.284479,37.245847],[-81.284357,37.245463],[-81.284183,37.244962],[-81.28406,37.244633],[-81.284014,37.244466],[-81.283986,37.244297],[-81.283974,37.244069],[-81.283982,37.24401],[-81.284006,37.243954],[-81.284045,37.243904],[-81.284065,37.243886],[-81.284135,37.243843],[-81.284213,37.243818],[-81.28435,37.243769],[-81.284477,37.243707],[-81.284611,37.243621],[-81.284711,37.243536],[-81.284748,37.243482],[-81.284769,37.243422],[-81.284772,37.243361],[-81.284757,37.243301],[-81.284711,37.24321],[-81.284511,37.242879],[-81.284377,37.242669],[-81.284302,37.24258],[-81.284213,37.2425],[-81.283909,37.242291],[-81.283583,37.242042],[-81.283238,37.24175],[-81.283152,37.241676],[-81.282194,37.240707],[-81.282122,37.240641],[-81.281982,37.240499],[-81.281888,37.240396],[-81.281767,37.240249],[-81.281627,37.240013],[-81.281514,37.239788],[-81.28119,37.239143],[-81.281132,37.239027],[-81.281313,37.238963],[-81.281557,37.238885],[-81.284721,37.237815],[-81.284936,37.237741],[-81.285434,37.237571],[-81.28605,37.2374],[-81.28615,37.237377],[-81.286294,37.237356],[-81.286477,37.23735],[-81.286709,37.23735],[-81.287004,37.237363],[-81.287358,37.237377],[-81.287744,37.23738],[-81.289774,37.237239],[-81.291271,37.237047],[-81.291529,37.23701],[-81.291771,37.236942],[-81.291966,37.236859],[-81.292139,37.236765],[-81.292291,37.236657],[-81.292446,37.236518],[-81.292559,37.236372],[-81.292651,37.236223],[-81.292712,37.236081],[-81.292754,37.23593],[-81.292781,37.235793],[-81.292779,37.235658],[-81.292765,37.235524],[-81.292748,37.23543],[-81.292685,37.23519],[-81.292658,37.234906],[-81.292641,37.234639],[-81.292808,37.234651],[-81.293004,37.234678],[-81.293221,37.234728],[-81.293432,37.234791],[-81.293636,37.234869],[-81.293867,37.234976],[-81.293907,37.236054],[-81.293913,37.236118],[-81.293941,37.236277],[-81.293976,37.236401],[-81.294007,37.236581],[-81.294148,37.236561],[-81.29508940636926,37.23646218358108],[-81.29616903778182,37.23657269619088],[-81.29627700092303,37.23598329373327],[-81.29626157761726,37.23523425479523],[-81.29550583562835,37.23534476920516],[-81.29462670719246,37.2352588135668],[-81.293867,37.234976],[-81.293636,37.234869],[-81.293432,37.234791],[-81.293221,37.234728],[-81.293004,37.234678],[-81.292808,37.234651],[-81.292641,37.234639],[-81.292534,37.234631],[-81.292305,37.234634],[-81.29205,37.234658],[-81.291822,37.234702],[-81.291541,37.234772],[-81.290501,37.235099],[-81.290265,37.235164],[-81.290038,37.235215],[-81.289612,37.235271],[-81.289429,37.235243],[-81.288802,37.235135],[-81.288277,37.23503],[-81.288134,37.234996],[-81.288079,37.234979],[-81.287957,37.234941],[-81.287897,37.234922],[-81.287677,37.234845],[-81.287248,37.234695],[-81.287118,37.234649],[-81.286378,37.234386],[-81.285868,37.234224],[-81.285758,37.234182],[-81.285605,37.234126],[-81.285474,37.234078],[-81.285238,37.234022],[-81.285102,37.234003],[-81.284857,37.233994],[-81.284651,37.234],[-81.284485,37.234019],[-81.284279,37.234058],[-81.284078,37.234111],[-81.283926,37.234165],[-81.283746,37.234246],[-81.283609,37.234321],[-81.283446,37.234402],[-81.283271,37.234481],[-81.283199,37.234528],[-81.283141,37.234587],[-81.283114,37.234626],[-81.283042,37.234449],[-81.28302,37.234337],[-81.283013,37.234175],[-81.283026,37.234039],[-81.28304,37.23397],[-81.283078,37.233598],[-81.283082,37.2334],[-81.283068,37.233206],[-81.283033,37.232996],[-81.283004,37.23287],[-81.28261589611847,37.23171693343704],[-81.28263861490606,37.23127376173412],[-81.28307027187432,37.230776321005536],[-81.28330881914574,37.229844741359074],[-81.28299075611675,37.22900359645102],[-81.28332017853985,37.22971811799435],[-81.2832520221764,37.23030601038949],[-81.28296803732916,37.23089389820146],[-81.28269541187538,37.23113809640627],[-81.28255909914914,37.23148178142927],[-81.28283,37.232283],[-81.282881,37.232455],[-81.283004,37.23287],[-81.283033,37.232996],[-81.283068,37.233206],[-81.283082,37.2334],[-81.283078,37.233598],[-81.28304,37.23397],[-81.283026,37.234039],[-81.283013,37.234175],[-81.28302,37.234337],[-81.283042,37.234449],[-81.283114,37.234626],[-81.282907,37.234682],[-81.282591,37.234743],[-81.282027,37.234836],[-81.281397,37.234926],[-81.28081,37.235003],[-81.280601,37.235034],[-81.280231,37.235091],[-81.280078,37.235123],[-81.27989,37.235175],[-81.279696,37.235249],[-81.279491,37.235338],[-81.279244,37.235462],[-81.279052,37.235564],[-81.278903,37.235633],[-81.278708,37.235707],[-81.278507,37.235768],[-81.2783,37.235814],[-81.278047,37.23585],[-81.277877,37.235864],[-81.277705,37.235868],[-81.277534,37.235864],[-81.277221,37.235837],[-81.276754,37.235792],[-81.276418,37.235763],[-81.27615,37.235755],[-81.275952,37.235758],[-81.275737,37.235772],[-81.275531,37.235794],[-81.275421,37.235813],[-81.275331,37.235828],[-81.274941,37.235894],[-81.274715,37.235932],[-81.273842,37.236074],[-81.272867,37.23624],[-81.272435,37.236308],[-81.271861,37.236408],[-81.271455,37.236472],[-81.270658,37.23661],[-81.269899,37.236753],[-81.269458,37.236831],[-81.269342,37.236335],[-81.269183,37.235788],[-81.26914920262453,37.23568511210662],[-81.26915384636784,37.23567956641016],[-81.269131,37.235625],[-81.268704,37.235685],[-81.268536,37.235704],[-81.26837,37.235737],[-81.268258,37.23577],[-81.267985,37.235871],[-81.267095,37.236211],[-81.267035,37.236233],[-81.266717,37.236355],[-81.2664,37.236476],[-81.266363,37.236431],[-81.266218,37.236292],[-81.266099,37.236204],[-81.265957,37.236121],[-81.265803,37.236044],[-81.265643,37.235974],[-81.265435,37.2359],[-81.264904,37.235723],[-81.26469921838408,37.235649720470136],[-81.26467892381139,37.23541705072046],[-81.26457339203445,37.23521992717591],[-81.2645461679932,37.2352125411629],[-81.2646911005549,37.2354235137785],[-81.2647073362128,37.2356529519889],[-81.264904,37.235723],[-81.265435,37.2359],[-81.265643,37.235974],[-81.265803,37.236044],[-81.265957,37.236121],[-81.266099,37.236204],[-81.266218,37.236292],[-81.266363,37.236431],[-81.2664,37.236476],[-81.266455,37.236575],[-81.26658,37.236966],[-81.266675,37.237317],[-81.266236,37.23738],[-81.265933,37.237412],[-81.265868,37.2374],[-81.265799,37.237396],[-81.265578,37.237398],[-81.265324,37.237393],[-81.265009,37.237369],[-81.264809,37.237344],[-81.264641,37.237315],[-81.264564,37.2373],[-81.26431,37.23723],[-81.264064,37.237144],[-81.26371,37.236985],[-81.263505,37.236901],[-81.263343,37.236846],[-81.263192,37.236807],[-81.263,37.236769],[-81.262843,37.236751],[-81.262646,37.236744],[-81.262449,37.236751],[-81.262273,37.23677],[-81.26208,37.236775],[-81.262001,37.236784],[-81.261443,37.236892],[-81.260707,37.237014],[-81.26046,37.23704],[-81.260085,37.237057],[-81.259921,37.237058],[-81.259511,37.237046],[-81.259317,37.237029],[-81.258249,37.236872],[-81.257837,37.236779],[-81.256875,37.236551],[-81.25647,37.236451],[-81.256065,37.236361],[-81.255784,37.236304],[-81.255231,37.236218],[-81.254935,37.236184],[-81.254661,37.236159],[-81.254377,37.236143],[-81.254093,37.236134],[-81.253657,37.236136],[-81.253383,37.236149],[-81.252947,37.236178],[-81.252645,37.236208],[-81.252377,37.236242],[-81.251816,37.236335],[-81.251538,37.236393],[-81.251124,37.236489],[-81.25072,37.236603],[-81.250445,37.236688],[-81.250067,37.236819],[-81.249685,37.236969],[-81.249478,37.237059],[-81.249435,37.237078],[-81.24919,37.237191],[-81.248374,37.23761],[-81.244784,37.239466],[-81.244525,37.2396],[-81.242982,37.240404],[-81.242375,37.240707],[-81.242063,37.240856],[-81.24156,37.241082],[-81.24099,37.241315],[-81.240226,37.241606],[-81.239787,37.24176],[-81.239174,37.241953],[-81.238167,37.242244],[-81.238126,37.242256],[-81.238145,37.242278],[-81.238262,37.242407],[-81.238619,37.2428],[-81.238692,37.242881],[-81.238848,37.243064],[-81.238903,37.243128],[-81.238964,37.243215],[-81.239241,37.243257],[-81.239443,37.243287],[-81.239938,37.24337],[-81.24004,37.243382],[-81.24017,37.243383],[-81.240495,37.243362],[-81.24072691614826,37.2433292372327],[-81.24067024257245,37.2429119105487],[-81.24067496537025,37.2428968717058],[-81.24060884619882,37.24279535943978],[-81.23959344463312,37.24282543716306],[-81.239443,37.243287],[-81.239241,37.243257],[-81.238964,37.243215],[-81.238903,37.243128],[-81.238848,37.243064],[-81.238692,37.242881],[-81.238619,37.2428],[-81.238564,37.242641],[-81.238545,37.242552],[-81.238545,37.242481],[-81.23858,37.242406],[-81.238644,37.242296],[-81.239119,37.242159],[-81.239639,37.241999],[-81.24017,37.241823],[-81.240587,37.241675],[-81.241073,37.241485],[-81.241535,37.241293],[-81.242194,37.241],[-81.242528,37.240839],[-81.242983,37.24061],[-81.244741,37.239702],[-81.245428,37.239347],[-81.246977,37.238539],[-81.248507,37.237754],[-81.248603,37.237885],[-81.248681,37.23801],[-81.24875,37.238143],[-81.248918,37.238537],[-81.249069,37.238918],[-81.249192,37.239212],[-81.249285,37.239432],[-81.250245,37.239187],[-81.250284,37.239187],[-81.251145,37.238956],[-81.251291,37.238917],[-81.251345,37.239005],[-81.251458,37.239101],[-81.251537,37.239278],[-81.251608,37.239436],[-81.251676,37.239587],[-81.25175,37.239752],[-81.251822,37.239912],[-81.251909,37.240107],[-81.252557,37.23992],[-81.25259,37.239917],[-81.252619,37.239928],[-81.252635,37.239945],[-81.25282,37.240404],[-81.252873,37.24054],[-81.253039,37.240491],[-81.253374,37.24039],[-81.253436,37.240372],[-81.253488,37.240339],[-81.253649,37.240217],[-81.253831,37.240199],[-81.253235,37.238687],[-81.253429,37.238639],[-81.253611,37.238593],[-81.2538,37.238546],[-81.253971,37.238503],[-81.254176,37.238452],[-81.254372,37.238403],[-81.254567,37.238354],[-81.254748,37.238309],[-81.254936,37.238262],[-81.255115,37.238217],[-81.255311,37.238168],[-81.255394,37.238147],[-81.255504,37.23812],[-81.256273,37.237928],[-81.256336,37.238087],[-81.256401,37.238251],[-81.256467,37.238419],[-81.256531,37.238581],[-81.256596,37.238745],[-81.256661,37.238912],[-81.256726,37.239075],[-81.256787,37.239231],[-81.256859,37.239413],[-81.257036,37.239861],[-81.257688,37.239702],[-81.257922,37.239651],[-81.258235,37.239598],[-81.25853,37.239568],[-81.259101,37.239619],[-81.259244,37.239644],[-81.259382,37.239684],[-81.259548,37.23975],[-81.259683,37.239822],[-81.25976,37.23987],[-81.25989,37.239965],[-81.259981,37.24005],[-81.260087,37.240183],[-81.260349,37.240561],[-81.260471,37.240779],[-81.260642,37.241033],[-81.260947,37.241682],[-81.261,37.24181],[-81.26104,37.241892],[-81.26105,37.241914],[-81.261062,37.241932],[-81.261134,37.242048],[-81.261244,37.242187],[-81.261349,37.242296],[-81.261498,37.242426],[-81.261667,37.242546],[-81.261833,37.242638],[-81.261896,37.242673],[-81.262062,37.242741],[-81.262251,37.242806],[-81.26301,37.243035],[-81.263246,37.243125],[-81.263363,37.24317],[-81.263579,37.24327],[-81.263751,37.243363],[-81.264039,37.243532],[-81.264242,37.243671],[-81.26441,37.243771],[-81.264507,37.243839],[-81.264592,37.243916],[-81.264664,37.243999],[-81.264758,37.244095],[-81.264871,37.244216],[-81.265096,37.244539],[-81.265182,37.244674],[-81.265359,37.244974],[-81.265886,37.245975],[-81.266035,37.246205],[-81.266241,37.246468],[-81.266378,37.24662],[-81.266516,37.246801],[-81.266659,37.247029],[-81.267028,37.24768],[-81.267095,37.247821],[-81.267136,37.247937],[-81.267242,37.24836],[-81.267296,37.248629],[-81.267331,37.248721],[-81.267391,37.248818],[-81.267466,37.248907],[-81.26763,37.24905],[-81.267697,37.249106],[-81.26796,37.249306],[-81.268219,37.249481],[-81.268351,37.249558],[-81.268464,37.249611],[-81.268613,37.249665],[-81.268746,37.249694],[-81.268883,37.249715],[-81.269055,37.249728],[-81.269589,37.249733],[-81.26972,37.249745],[-81.26984,37.24977],[-81.269909,37.249793],[-81.269956,37.249816],[-81.270026,37.249865],[-81.270115,37.249955],[-81.270182,37.250039],[-81.270363,37.250285],[-81.270393,37.250327],[-81.270482,37.250477],[-81.270555,37.250632],[-81.270677,37.250976],[-81.270883,37.25162],[-81.270962,37.251866],[-81.27105,37.252112],[-81.271073,37.252178],[-81.271176,37.252451],[-81.271217,37.25256],[-81.271272,37.252721],[-81.271026,37.252793],[-81.270701,37.252889],[-81.270615,37.252914],[-81.269571,37.253221],[-81.269456,37.253255]]}},{"type":"Feature","properties":{"agency":"Graham Transit","shape_id":"p_1307816"},"geometry":{"type":"LineString","coordinates":[[-81.269456,37.253255],[-81.269571,37.253221],[-81.269628,37.253331],[-81.269664,37.253371],[-81.269721,37.253413],[-81.269788,37.253442],[-81.269926,37.253473],[-81.270126,37.253508],[-81.270329,37.253529],[-81.271215,37.253554],[-81.271529,37.253553],[-81.271763,37.253566],[-81.272092,37.253599],[-81.272697,37.253654],[-81.273603,37.253722],[-81.27382,37.25373],[-81.274091,37.253729],[-81.274362,37.253714],[-81.274685,37.253678],[-81.274903,37.253642],[-81.275084,37.253629],[-81.275271,37.253629],[-81.275458,37.253643],[-81.275642,37.253673],[-81.275821,37.253716],[-81.275926,37.253748],[-81.276217,37.253848],[-81.276465,37.253933],[-81.276635,37.253976],[-81.27681,37.254005],[-81.276988,37.254019],[-81.277167,37.254019],[-81.277393,37.253998],[-81.27766,37.253973],[-81.277747,37.253965],[-81.278562,37.253874],[-81.27905,37.253819],[-81.280395,37.253667],[-81.280497,37.253642],[-81.280583,37.253607],[-81.280713,37.253538],[-81.281736,37.252942],[-81.28205,37.252769],[-81.282152,37.252713],[-81.282504,37.252547],[-81.283124,37.252253],[-81.28323,37.252197],[-81.28329,37.25217],[-81.283305,37.25195],[-81.28332,37.251547],[-81.283359,37.250562],[-81.283371,37.250513],[-81.283394,37.250488],[-81.283443,37.250456],[-81.283502,37.250437],[-81.284111,37.250499],[-81.284617,37.250528],[-81.284803,37.250531],[-81.285418,37.250525],[-81.28547,37.250523],[-81.285688,37.250516],[-81.286477,37.250451],[-81.287169,37.250389],[-81.287512,37.250339],[-81.287598,37.250324],[-81.287796,37.250278],[-81.287951,37.250231],[-81.288101,37.250177],[-81.28857,37.249975],[-81.288729,37.249918],[-81.288782,37.249901],[-81.288966,37.249855],[-81.289209,37.249814],[-81.28973,37.249727],[-81.290196,37.249648],[-81.290978,37.249515],[-81.291251,37.249469],[-81.291413,37.249442],[-81.293949,37.249016],[-81.296957,37.248513],[-81.297373,37.248446],[-81.297479,37.248424],[-81.298896,37.248185],[-81.300892,37.247849],[-81.3013,37.247781],[-81.301441,37.247762],[-81.302189,37.247629],[-81.303223,37.247457],[-81.303329,37.247439],[-81.30386580793817,37.24734543109106],[-81.3038863676648,37.24729224105154],[-81.30388122773329,37.24701810717504],[-81.30384524821096,37.24690354346855],[-81.30378356903051,37.246862627817],[-81.30340321408482,37.24687081094925],[-81.30314621750003,37.24701810717504],[-81.30314621750003,37.24718176931079],[-81.30321817654406,37.24743953645402],[-81.302189,37.247629],[-81.301441,37.247762],[-81.3013,37.247781],[-81.300892,37.247849],[-81.298896,37.248185],[-81.297479,37.248424],[-81.297373,37.248446],[-81.296957,37.248513],[-81.293949,37.249016],[-81.291413,37.249442],[-81.291251,37.249469],[-81.290978,37.249515],[-81.290196,37.249648],[-81.28973,37.249727],[-81.289209,37.249814],[-81.288966,37.249855],[-81.288782,37.249901],[-81.288729,37.249918],[-81.28857,37.249975],[-81.288101,37.250177],[-81.287951,37.250231],[-81.287796,37.250278],[-81.287598,37.250324],[-81.287512,37.250339],[-81.287169,37.250389],[-81.286477,37.250451],[-81.285688,37.250516],[-81.28547,37.250523],[-81.285418,37.250525],[-81.28542,37.250417],[-81.285432,37.250188],[-81.285434,37.250151],[-81.285436,37.250023],[-81.285447,37.249453],[-81.285473,37.248621],[-81.285533,37.248618],[-81.285612,37.248601],[-81.28579,37.248522],[-81.285849,37.248484],[-81.285887,37.248446],[-81.285908,37.248413],[-81.285921,37.248392],[-81.285928,37.24835],[-81.285911,37.248273],[-81.285878,37.248213],[-81.28481,37.247066],[-81.28474,37.246974],[-81.2847,37.2469],[-81.284665,37.246811],[-81.284534,37.24642],[-81.284502,37.246202],[-81.284487,37.245905],[-81.284536,37.245897],[-81.284487,37.245905],[-81.284479,37.245847],[-81.284357,37.245463],[-81.284183,37.244962],[-81.28406,37.244633],[-81.284014,37.244466],[-81.283986,37.244297],[-81.283974,37.244069],[-81.283982,37.24401],[-81.284006,37.243954],[-81.284045,37.243904],[-81.284065,37.243886],[-81.284135,37.243843],[-81.284213,37.243818],[-81.28435,37.243769],[-81.284477,37.243707],[-81.284611,37.243621],[-81.284711,37.243536],[-81.284748,37.243482],[-81.284769,37.243422],[-81.284772,37.243361],[-81.284757,37.243301],[-81.284711,37.24321],[-81.284511,37.242879],[-81.284377,37.242669],[-81.284302,37.24258],[-81.284213,37.2425],[-81.283909,37.242291],[-81.283583,37.242042],[-81.283238,37.24175],[-81.283152,37.241676],[-81.282194,37.240707],[-81.282122,37.240641],[-81.281982,37.240499],[-81.281888,37.240396],[-81.281767,37.240249],[-81.281627,37.240013],[-81.281514,37.239788],[-81.28119,37.239143],[-81.281132,37.239027],[-81.281313,37.238963],[-81.281557,37.238885],[-81.284721,37.237815],[-81.284936,37.237741],[-81.285434,37.237571],[-81.28605,37.2374],[-81.28615,37.237377],[-81.286294,37.237356],[-81.286477,37.23735],[-81.286709,37.23735],[-81.287004,37.237363],[-81.287358,37.237377],[-81.287744,37.23738],[-81.289774,37.237239],[-81.291271,37.237047],[-81.291529,37.23701],[-81.291771,37.236942],[-81.291966,37.236859],[-81.292139,37.236765],[-81.292291,37.236657],[-81.292446,37.236518],[-81.292559,37.236372],[-81.292651,37.236223],[-81.292712,37.236081],[-81.292754,37.23593],[-81.292781,37.235793],[-81.292779,37.235658],[-81.292765,37.235524],[-81.292748,37.23543],[-81.292685,37.23519],[-81.292658,37.234906],[-81.292641,37.234639],[-81.292808,37.234651],[-81.293004,37.234678],[-81.293221,37.234728],[-81.293432,37.234791],[-81.293636,37.234869],[-81.293867,37.234976],[-81.293907,37.236054],[-81.293913,37.236118],[-81.293941,37.236277],[-81.293976,37.236401],[-81.294007,37.236581],[-81.294148,37.236561],[-81.29508940636926,37.23646218358108],[-81.29616903778182,37.23657269619088],[-81.29627700092303,37.23598329373327],[-81.29626157761726,37.23523425479523],[-81.29550583562835,37.23534476920516],[-81.29462670719246,37.2352588135668],[-81.293867,37.234976],[-81.293636,37.234869],[-81.293432,37.234791],[-81.293221,37.234728],[-81.293004,37.234678],[-81.292808,37.234651],[-81.292641,37.234639],[-81.292534,37.234631],[-81.292305,37.234634],[-81.29205,37.234658],[-81.291822,37.234702],[-81.291541,37.234772],[-81.290501,37.235099],[-81.290265,37.235164],[-81.290038,37.235215],[-81.289612,37.235271],[-81.289429,37.235243],[-81.288802,37.235135],[-81.288277,37.23503],[-81.288134,37.234996],[-81.288079,37.234979],[-81.287957,37.234941],[-81.287897,37.234922],[-81.287677,37.234845],[-81.287248,37.234695],[-81.287118,37.234649],[-81.286378,37.234386],[-81.285868,37.234224],[-81.285758,37.234182],[-81.285605,37.234126],[-81.285474,37.234078],[-81.285238,37.234022],[-81.285102,37.234003],[-81.284857,37.233994],[-81.284651,37.234],[-81.284485,37.234019],[-81.284279,37.234058],[-81.284078,37.234111],[-81.283926,37.234165],[-81.283746,37.234246],[-81.283609,37.234321],[-81.283446,37.234402],[-81.283271,37.234481],[-81.283199,37.234528],[-81.283141,37.234587],[-81.283114,37.234626],[-81.283042,37.234449],[-81.28302,37.234337],[-81.283013,37.234175],[-81.283026,37.234039],[-81.28304,37.23397],[-81.283078,37.233598],[-81.283082,37.2334],[-81.283068,37.233206],[-81.283033,37.232996],[-81.283004,37.23287],[-81.28261589611847,37.23171693343704],[-81.28263861490606,37.23127376173412],[-81.28307027187432,37.230776321005536],[-81.28330881914574,37.229844741359074],[-81.28299075611675,37.22900359645102],[-81.28332017853985,37.22971811799435],[-81.2832520221764,37.23030601038949],[-81.28296803732916,37.23089389820146],[-81.28269541187538,37.23113809640627],[-81.28255909914914,37.23148178142927],[-81.28283,37.232283],[-81.282881,37.232455],[-81.283004,37.23287],[-81.283033,37.232996],[-81.283068,37.233206],[-81.283082,37.2334],[-81.283078,37.233598],[-81.28304,37.23397],[-81.283026,37.234039],[-81.283013,37.234175],[-81.28302,37.234337],[-81.283042,37.234449],[-81.283114,37.234626],[-81.282907,37.234682],[-81.282591,37.234743],[-81.282027,37.234836],[-81.281397,37.234926],[-81.28081,37.235003],[-81.280601,37.235034],[-81.280231,37.235091],[-81.280078,37.235123],[-81.27989,37.235175],[-81.279696,37.235249],[-81.279491,37.235338],[-81.279244,37.235462],[-81.279052,37.235564],[-81.278903,37.235633],[-81.278708,37.235707],[-81.278507,37.235768],[-81.2783,37.235814],[-81.278047,37.23585],[-81.277877,37.235864],[-81.277705,37.235868],[-81.277534,37.235864],[-81.277221,37.235837],[-81.276754,37.235792],[-81.276418,37.235763],[-81.27615,37.235755],[-81.275952,37.235758],[-81.275737,37.235772],[-81.275531,37.235794],[-81.275421,37.235813],[-81.275331,37.235828],[-81.274941,37.235894],[-81.274715,37.235932],[-81.273842,37.236074],[-81.272867,37.23624],[-81.272435,37.236308],[-81.271861,37.236408],[-81.271455,37.236472],[-81.270658,37.23661],[-81.269899,37.236753],[-81.269458,37.236831],[-81.269342,37.236335],[-81.269183,37.235788],[-81.26914920262453,37.23568511210662],[-81.26915384636784,37.23567956641016],[-81.269131,37.235625],[-81.268704,37.235685],[-81.268536,37.235704],[-81.26837,37.235737],[-81.268258,37.23577],[-81.267985,37.235871],[-81.267095,37.236211],[-81.267035,37.236233],[-81.266717,37.236355],[-81.2664,37.236476],[-81.266363,37.236431],[-81.266218,37.236292],[-81.266099,37.236204],[-81.265957,37.236121],[-81.265803,37.236044],[-81.265643,37.235974],[-81.265435,37.2359],[-81.264904,37.235723],[-81.26469921838408,37.235649720470136],[-81.26467892381139,37.23541705072046],[-81.26457339203445,37.23521992717591],[-81.2645461679932,37.2352125411629],[-81.2646911005549,37.2354235137785],[-81.2647073362128,37.2356529519889],[-81.264904,37.235723],[-81.265435,37.2359],[-81.265643,37.235974],[-81.265803,37.236044],[-81.265957,37.236121],[-81.266099,37.236204],[-81.266218,37.236292],[-81.266363,37.236431],[-81.2664,37.236476],[-81.266455,37.236575],[-81.26658,37.236966],[-81.266675,37.237317],[-81.266236,37.23738],[-81.265933,37.237412],[-81.265868,37.2374],[-81.265799,37.237396],[-81.265578,37.237398],[-81.265324,37.237393],[-81.265009,37.237369],[-81.264809,37.237344],[-81.264641,37.237315],[-81.264564,37.2373],[-81.26431,37.23723],[-81.264064,37.237144],[-81.26371,37.236985],[-81.263505,37.236901],[-81.263343,37.236846],[-81.263192,37.236807],[-81.263,37.236769],[-81.262843,37.236751],[-81.262646,37.236744],[-81.262449,37.236751],[-81.262273,37.23677],[-81.26208,37.236775],[-81.262001,37.236784],[-81.261443,37.236892],[-81.260707,37.237014],[-81.26046,37.23704],[-81.260085,37.237057],[-81.259921,37.237058],[-81.259511,37.237046],[-81.259317,37.237029],[-81.258249,37.236872],[-81.257837,37.236779],[-81.256875,37.236551],[-81.25647,37.236451],[-81.256065,37.236361],[-81.255784,37.236304],[-81.255231,37.236218],[-81.254935,37.236184],[-81.254661,37.236159],[-81.254377,37.236143],[-81.254093,37.236134],[-81.253657,37.236136],[-81.253383,37.236149],[-81.252947,37.236178],[-81.252645,37.236208],[-81.252377,37.236242],[-81.251816,37.236335],[-81.251538,37.236393],[-81.251124,37.236489],[-81.25072,37.236603],[-81.250445,37.236688],[-81.250067,37.236819],[-81.249685,37.236969],[-81.249478,37.237059],[-81.249435,37.237078],[-81.24919,37.237191],[-81.248374,37.23761],[-81.244784,37.239466],[-81.244525,37.2396],[-81.242982,37.240404],[-81.242375,37.240707],[-81.242063,37.240856],[-81.24156,37.241082],[-81.24099,37.241315],[-81.240226,37.241606],[-81.239787,37.24176],[-81.239174,37.241953],[-81.238167,37.242244],[-81.238126,37.242256],[-81.238145,37.242278],[-81.238262,37.242407],[-81.238619,37.2428],[-81.238692,37.242881],[-81.238848,37.243064],[-81.238903,37.243128],[-81.238964,37.243215],[-81.239241,37.243257],[-81.239443,37.243287],[-81.239938,37.24337],[-81.24004,37.243382],[-81.24017,37.243383],[-81.240495,37.243362],[-81.24072691614826,37.2433292372327],[-81.24067024257245,37.2429119105487],[-81.24067496537025,37.2428968717058],[-81.24060884619882,37.24279535943978],[-81.23959344463312,37.24282543716306],[-81.239443,37.243287],[-81.239241,37.243257],[-81.238964,37.243215],[-81.238903,37.243128],[-81.238848,37.243064],[-81.238692,37.242881],[-81.238619,37.2428],[-81.238564,37.242641],[-81.238545,37.242552],[-81.238545,37.242481],[-81.23858,37.242406],[-81.238644,37.242296],[-81.239119,37.242159],[-81.239639,37.241999],[-81.24017,37.241823],[-81.240587,37.241675],[-81.241073,37.241485],[-81.241535,37.241293],[-81.242194,37.241],[-81.242528,37.240839],[-81.242983,37.24061],[-81.244741,37.239702],[-81.245428,37.239347],[-81.246977,37.238539],[-81.248507,37.237754],[-81.248603,37.237885],[-81.248681,37.23801],[-81.24875,37.238143],[-81.248918,37.238537],[-81.249069,37.238918],[-81.249192,37.239212],[-81.249285,37.239432],[-81.250245,37.239187],[-81.250284,37.239187],[-81.251145,37.238956],[-81.251291,37.238917],[-81.251345,37.239005],[-81.251458,37.239101],[-81.251537,37.239278],[-81.251608,37.239436],[-81.251676,37.239587],[-81.25175,37.239752],[-81.251822,37.239912],[-81.251909,37.240107],[-81.252557,37.23992],[-81.25259,37.239917],[-81.252619,37.239928],[-81.252635,37.239945],[-81.25282,37.240404],[-81.252873,37.24054],[-81.253039,37.240491],[-81.253374,37.24039],[-81.253436,37.240372],[-81.253488,37.240339],[-81.253649,37.240217],[-81.253831,37.240199],[-81.253235,37.238687],[-81.253429,37.238639],[-81.253611,37.238593],[-81.2538,37.238546],[-81.253971,37.238503],[-81.254176,37.238452],[-81.254372,37.238403],[-81.254567,37.238354],[-81.254748,37.238309],[-81.254936,37.238262],[-81.255115,37.238217],[-81.255311,37.238168],[-81.255394,37.238147],[-81.255504,37.23812],[-81.256273,37.237928],[-81.256336,37.238087],[-81.256401,37.238251],[-81.256467,37.238419],[-81.256531,37.238581],[-81.256596,37.238745],[-81.256661,37.238912],[-81.256726,37.239075],[-81.256787,37.239231],[-81.256859,37.239413],[-81.257036,37.239861],[-81.257688,37.239702],[-81.257922,37.239651],[-81.258235,37.239598],[-81.25853,37.239568],[-81.259101,37.239619],[-81.259244,37.239644],[-81.259382,37.239684],[-81.259548,37.23975],[-81.259683,37.239822],[-81.25976,37.23987],[-81.25989,37.239965],[-81.259981,37.24005],[-81.260087,37.240183],[-81.260349,37.240561],[-81.260471,37.240779],[-81.260642,37.241033],[-81.260947,37.241682],[-81.261,37.24181],[-81.26104,37.241892],[-81.26105,37.241914],[-81.261062,37.241932],[-81.261134,37.242048],[-81.261244,37.242187],[-81.261349,37.242296],[-81.261498,37.242426],[-81.261667,37.242546],[-81.261833,37.242638]]}},{"type":"Feature","properties":{"agency":"Graham Transit","shape_id":"p_1438134"},"geometry":{"type":"LineString","coordinates":[[-81.27874,37.250528],[-81.27881,37.250524],[-81.279085,37.250502],[-81.279264,37.250509],[-81.279363,37.250526],[-81.279455,37.250558],[-81.279577,37.250592],[-81.279681,37.250627],[-81.279707,37.250636],[-81.280044,37.250727],[-81.280065,37.250736],[-81.280108,37.25076],[-81.280159,37.250802],[-81.280176,37.250825],[-81.28021,37.250873],[-81.280285,37.250975],[-81.279807,37.251206],[-81.279316,37.251439],[-81.279047,37.251573],[-81.278799,37.251712],[-81.278695,37.251777],[-81.278544,37.251909],[-81.278014,37.252455],[-81.27797,37.252509],[-81.277963,37.252558],[-81.277973,37.252606],[-81.278052,37.252763],[-81.278076,37.252809],[-81.278249,37.253187],[-81.278562,37.253874],[-81.277747,37.253965],[-81.27766,37.253973],[-81.277393,37.253998],[-81.277167,37.254019],[-81.276988,37.254019],[-81.27681,37.254005],[-81.276635,37.253976],[-81.276465,37.253933],[-81.276217,37.253848],[-81.275926,37.253748],[-81.275821,37.253716],[-81.275642,37.253673],[-81.275458,37.253643],[-81.275271,37.253629],[-81.275084,37.253629],[-81.274903,37.253642],[-81.274685,37.253678],[-81.274362,37.253714],[-81.274091,37.253729],[-81.27382,37.25373],[-81.273603,37.253722],[-81.272697,37.253654],[-81.272092,37.253599],[-81.271763,37.253566],[-81.271529,37.253553],[-81.271593,37.253774],[-81.271665,37.254022],[-81.271748,37.254311],[-81.271806,37.254443],[-81.271881,37.254571],[-81.271975,37.254664],[-81.272008,37.254692],[-81.272154,37.254799],[-81.272203,37.254827],[-81.272289,37.254875],[-81.272968,37.255184],[-81.273082,37.255223],[-81.273202,37.255247],[-81.273325,37.255257],[-81.273521,37.255243],[-81.273955,37.255178],[-81.274123,37.255167],[-81.274329,37.255167],[-81.274561,37.255186],[-81.274791,37.25522],[-81.275202,37.255302],[-81.275344,37.255348],[-81.275453,37.255393],[-81.275604,37.255476],[-81.275785,37.255596],[-81.276215,37.25586],[-81.276275,37.25591],[-81.276338,37.25598],[-81.276386,37.256058],[-81.276407,37.256107],[-81.276429,37.256252],[-81.276455,37.256747],[-81.276481,37.256885],[-81.276516,37.256995],[-81.276546,37.257075],[-81.276584,37.257151],[-81.276649,37.25726],[-81.276732,37.257369],[-81.276831,37.257466],[-81.276982,37.257583],[-81.277576,37.258038],[-81.277743,37.258183],[-81.277901,37.258334],[-81.278033,37.258477],[-81.278159,37.258622],[-81.278269,37.258765],[-81.278359,37.2589],[-81.278419,37.258994],[-81.278479,37.259096],[-81.278596,37.259322],[-81.27869,37.259516],[-81.278954,37.26007],[-81.279324,37.260848],[-81.279475,37.261184],[-81.279593,37.261402],[-81.279689,37.261609],[-81.279827,37.261887],[-81.280023,37.262309],[-81.280146,37.262563],[-81.280306,37.262916],[-81.280745,37.263817],[-81.281209,37.264793],[-81.281693,37.265811],[-81.282489,37.267461],[-81.282687,37.267877],[-81.282772,37.268014],[-81.282862,37.268149],[-81.28294,37.268239],[-81.283063,37.268372],[-81.283196,37.268496],[-81.283324,37.268596],[-81.283475,37.268707],[-81.283616,37.26879],[-81.283722,37.268847],[-81.283892,37.26893],[-81.284046,37.26899],[-81.284221,37.269049],[-81.284387,37.269094],[-81.284541,37.26913],[-81.284714,37.269162],[-81.284919,37.269183],[-81.285067,37.269191],[-81.285221,37.269192],[-81.285402,37.269186],[-81.285586,37.269168],[-81.285742,37.269147],[-81.285903,37.269114],[-81.286038,37.269083],[-81.286187,37.269038],[-81.286399,37.268963],[-81.28658,37.268883],[-81.286721,37.268814],[-81.286934,37.268689],[-81.287667,37.268207],[-81.288872,37.267415],[-81.289113,37.267257],[-81.290819,37.266141],[-81.291938,37.265406],[-81.292513,37.265035],[-81.292615,37.264967],[-81.292744,37.264894],[-81.292849,37.264841],[-81.292959,37.264797],[-81.293056,37.264767],[-81.293134,37.264748],[-81.293218,37.264729],[-81.293306,37.264717],[-81.293436,37.264703],[-81.29354,37.264699],[-81.293654,37.264707],[-81.293739,37.264716],[-81.293819,37.264732],[-81.293955,37.264768],[-81.294114,37.264826],[-81.294266,37.264901],[-81.294374,37.264966],[-81.294511,37.265067],[-81.294609,37.265152],[-81.294839,37.265359],[-81.29539,37.265868],[-81.295496,37.265961],[-81.295532,37.265994],[-81.295602,37.266059],[-81.295978,37.2664],[-81.296166,37.266565],[-81.297126,37.267424],[-81.297324,37.267595],[-81.297451,37.267707],[-81.297549,37.267785],[-81.29763,37.267846],[-81.297776,37.267936],[-81.297869,37.267986],[-81.297953,37.268027],[-81.298031,37.268059],[-81.298158,37.268106],[-81.29826,37.268138],[-81.298347,37.268164],[-81.298467,37.268195],[-81.298581,37.268222],[-81.298783,37.268263],[-81.299465,37.268391],[-81.299799,37.268454],[-81.300204,37.268542],[-81.302393,37.268989],[-81.302886,37.269085],[-81.303146,37.269133],[-81.303348,37.269176],[-81.303441,37.269198],[-81.303539,37.269229],[-81.303619,37.269261],[-81.30369,37.269297],[-81.303771,37.269344],[-81.30384,37.269392],[-81.30392,37.269459],[-81.303979,37.26952],[-81.30409,37.269649],[-81.304124,37.269694],[-81.304402,37.27004],[-81.304863,37.270606],[-81.304946,37.270719],[-81.305005,37.270811],[-81.30506,37.270913],[-81.305242,37.271313],[-81.305278,37.271383],[-81.305349,37.271502],[-81.305418,37.271601],[-81.305582,37.27182],[-81.305696,37.27196],[-81.306041,37.272367],[-81.306124,37.272459],[-81.306205,37.272547],[-81.306262,37.272605],[-81.306358,37.272697],[-81.306437,37.272768],[-81.306493,37.272819],[-81.306575,37.272887],[-81.306698,37.272986],[-81.306801,37.273064],[-81.306902,37.273136],[-81.306999,37.2732],[-81.307121,37.27328],[-81.307228,37.273342],[-81.307315,37.273393],[-81.307449,37.273463],[-81.307768,37.273619],[-81.308123,37.273784],[-81.308511,37.273946],[-81.308931,37.274108],[-81.310297,37.274604],[-81.310346,37.274621],[-81.310697,37.274746],[-81.310985,37.274864],[-81.311068,37.274909],[-81.311129,37.274951],[-81.311166,37.274981],[-81.311206,37.275015],[-81.311244,37.275059],[-81.311269,37.275092],[-81.311299,37.275144],[-81.311315,37.275184],[-81.311324,37.275211],[-81.311333,37.275241],[-81.311362,37.275465],[-81.311375,37.275614],[-81.311401,37.275853],[-81.31144,37.276204],[-81.31147,37.276402],[-81.311493,37.276548],[-81.311524,37.276688],[-81.311559,37.276829],[-81.311613,37.27702],[-81.311669,37.277168],[-81.311701,37.277234],[-81.31174,37.277312],[-81.31179,37.27739],[-81.311824,37.277436],[-81.311887,37.277511],[-81.311941,37.277568],[-81.312016,37.277639],[-81.312082,37.277695],[-81.312355,37.27792],[-81.312446,37.278006],[-81.312511,37.278076],[-81.312585,37.278164],[-81.312633,37.278226],[-81.312685,37.2783],[-81.312727,37.278366],[-81.312784,37.278471],[-81.312931,37.278749],[-81.313126,37.279109],[-81.313281,37.279427],[-81.313331,37.279551],[-81.313402,37.279745],[-81.313425,37.279816],[-81.313453,37.279923],[-81.313469,37.279994],[-81.313495,37.280157],[-81.313519,37.280357],[-81.313543,37.280695],[-81.313553,37.280824],[-81.313604,37.281423],[-81.31369,37.281969],[-81.313979,37.28334],[-81.314052,37.283715],[-81.314073,37.283844],[-81.314084,37.283961],[-81.314091,37.284046],[-81.314093,37.284127],[-81.314092,37.284191],[-81.314091,37.284235],[-81.314086,37.284301],[-81.314076,37.284371],[-81.314062,37.284456],[-81.314043,37.28454],[-81.314005,37.284679],[-81.313916,37.284976],[-81.313875,37.285107],[-81.313847,37.285207],[-81.31383,37.285283],[-81.313813,37.285374],[-81.313799,37.285463],[-81.313791,37.285549],[-81.313785,37.285623],[-81.31379,37.285702],[-81.313797,37.285774],[-81.313814,37.285872],[-81.313854,37.286066],[-81.313896,37.286266],[-81.313961,37.286596],[-81.31405,37.286984],[-81.314109,37.287297],[-81.314184,37.287667],[-81.314245,37.287958],[-81.314293,37.288203],[-81.314302,37.288271],[-81.314312,37.288388],[-81.314314,37.288468],[-81.314314,37.288568],[-81.314303,37.288706],[-81.314288,37.28885],[-81.314265,37.289019],[-81.314239,37.289159],[-81.314221,37.289242],[-81.314196,37.289328],[-81.314167,37.289408],[-81.314139,37.289474],[-81.314098,37.289554],[-81.314058,37.289612],[-81.314003,37.289691],[-81.31395,37.289749],[-81.313899,37.289804],[-81.313795,37.289892],[-81.313658,37.290002],[-81.313434,37.290155],[-81.313213,37.290292],[-81.313106,37.290363],[-81.312945,37.290484],[-81.312867,37.290544],[-81.3128,37.290602],[-81.312737,37.290664],[-81.312627,37.290781],[-81.312545,37.290882],[-81.312436,37.29102],[-81.311846,37.291839],[-81.311637,37.292147],[-81.311514,37.292296],[-81.311376,37.292436],[-81.311268,37.292529],[-81.311208,37.292572],[-81.311129,37.29262],[-81.31107,37.292651],[-81.311025,37.292671],[-81.310969,37.292687],[-81.31093,37.292695],[-81.310878,37.292701],[-81.310823,37.292705],[-81.310761,37.292699],[-81.31069,37.292683],[-81.310632,37.292664],[-81.31058,37.292644],[-81.310514,37.292615],[-81.310429,37.292567],[-81.310305,37.29249],[-81.310231,37.292448],[-81.310165,37.292417],[-81.310081,37.292388],[-81.310023,37.292371],[-81.309957,37.292359],[-81.309842,37.292345],[-81.309765,37.292345],[-81.309673,37.292346],[-81.309582,37.292353],[-81.309492,37.292371],[-81.309403,37.292401],[-81.309334,37.292429],[-81.309236,37.292471],[-81.309118,37.292526],[-81.308978,37.292597],[-81.308856,37.292659],[-81.308788,37.292696],[-81.308659,37.292767],[-81.308453,37.292874],[-81.308236,37.292982],[-81.308067,37.29307],[-81.307916,37.293145],[-81.307541,37.293338],[-81.307416,37.293404],[-81.307249,37.293494],[-81.307174,37.293534],[-81.306947,37.293648],[-81.306398,37.293936],[-81.30628,37.293997],[-81.305571,37.294359],[-81.305262,37.29452],[-81.305146,37.294585],[-81.305059,37.294637],[-81.304974,37.294692],[-81.304909,37.294732],[-81.304807,37.294809],[-81.304723,37.294872],[-81.304639,37.294945],[-81.304537,37.295033],[-81.304457,37.295111],[-81.30439,37.295184],[-81.304315,37.295272],[-81.304241,37.295365],[-81.304147,37.295504],[-81.304109,37.295566],[-81.304066,37.295636],[-81.30397,37.295825],[-81.303941,37.295891],[-81.303916,37.295961],[-81.303875,37.296083],[-81.303842,37.296195],[-81.303816,37.296318],[-81.303794,37.296429],[-81.303777,37.296564],[-81.303773,37.296693],[-81.303778,37.296818],[-81.303798,37.29707],[-81.303858,37.297638],[-81.30409,37.29985],[-81.304133,37.300271],[-81.304212,37.301021],[-81.304252,37.301383],[-81.304278,37.301529],[-81.304306,37.30165],[-81.304332,37.301744],[-81.304355,37.301822],[-81.304397,37.30192],[-81.304434,37.301999],[-81.304475,37.302074],[-81.304517,37.302144],[-81.304599,37.302267],[-81.304775,37.302484],[-81.304903,37.302641],[-81.305248,37.302977],[-81.306139,37.303449],[-81.30696,37.303734],[-81.308135,37.304141],[-81.311371,37.305277],[-81.312456,37.305775],[-81.31344,37.30636],[-81.313806,37.306619],[-81.314119,37.306813],[-81.314339,37.30702],[-81.314639,37.307369],[-81.314847,37.307724],[-81.315095,37.308277],[-81.315961,37.310557],[-81.315971,37.310728],[-81.316018,37.311476],[-81.316128,37.311805],[-81.31621,37.311962],[-81.316459,37.312245],[-81.316866,37.312514],[-81.317464,37.312772],[-81.318035,37.313008],[-81.320549,37.313986],[-81.321222,37.314207],[-81.321635,37.314288],[-81.321983,37.314315],[-81.323473,37.314103],[-81.32389,37.314114],[-81.324375,37.314185],[-81.325331,37.31453],[-81.32568,37.314581],[-81.3261,37.314478],[-81.326339,37.314307],[-81.326715,37.31387],[-81.327091,37.31344],[-81.327149,37.313315],[-81.327146,37.313106],[-81.326534,37.312074],[-81.326428,37.31184],[-81.326455,37.311614],[-81.32652,37.311432],[-81.326657,37.311288],[-81.326969,37.31114],[-81.327566,37.310853],[-81.327819,37.310688],[-81.328034,37.310454],[-81.328143,37.310264],[-81.328194,37.310011],[-81.328048,37.308894],[-81.328013,37.308571],[-81.328024,37.308201],[-81.328136,37.307892],[-81.328273,37.307693],[-81.328546,37.30748],[-81.328806,37.307328],[-81.328861,37.307297],[-81.329238,37.307371],[-81.329914,37.307712],[-81.330303,37.307929],[-81.330404,37.308],[-81.330492,37.308082],[-81.330556,37.308171],[-81.330588,37.308232],[-81.330604,37.308262],[-81.33068,37.308491],[-81.330751,37.308744],[-81.330761,37.308997],[-81.330839,37.309288],[-81.331041,37.309792],[-81.33111,37.309895],[-81.331185,37.309996],[-81.331202,37.31002],[-81.331754,37.310381],[-81.331797,37.31041],[-81.332646,37.310946],[-81.33332,37.311347],[-81.333504,37.311492],[-81.333882,37.311643],[-81.333927,37.311654],[-81.334097,37.311681],[-81.33424,37.311689],[-81.334384,37.311682],[-81.334526,37.311662],[-81.334664,37.311628],[-81.334794,37.311583],[-81.334921,37.311521],[-81.334979,37.311485],[-81.335081,37.311409],[-81.335169,37.311323],[-81.335242,37.311229],[-81.335307,37.311065],[-81.335328,37.310998],[-81.335338,37.310956],[-81.335369,37.310829],[-81.335376,37.310736],[-81.335367,37.310653],[-81.335234,37.310515],[-81.33498,37.310223],[-81.334835,37.310022],[-81.33458,37.309632],[-81.334465,37.309447],[-81.334428,37.309357],[-81.334399,37.309241],[-81.334413,37.308777],[-81.334439,37.308562],[-81.334469,37.308508],[-81.334516,37.308462],[-81.334575,37.308426],[-81.334638,37.308405],[-81.334754,37.308384],[-81.334884,37.308377],[-81.334969,37.308382],[-81.33511,37.308406],[-81.335454,37.308524],[-81.335542,37.30856],[-81.336329,37.308879],[-81.336453,37.308918],[-81.336664,37.308971],[-81.337118,37.309027],[-81.337429,37.309065],[-81.337679,37.309079],[-81.337922,37.30908],[-81.338092,37.309085],[-81.338302,37.309107],[-81.338567,37.309156],[-81.338722,37.309177],[-81.338806,37.309176],[-81.338896,37.309165],[-81.338988,37.309136],[-81.339029,37.309114],[-81.339079,37.309079],[-81.339129,37.309027],[-81.339165,37.308968],[-81.339184,37.308904],[-81.339199,37.308461],[-81.339194,37.308402],[-81.339189,37.30836],[-81.33916,37.308236],[-81.339124,37.308139],[-81.3391,37.308093],[-81.339078,37.308035],[-81.339073,37.307974],[-81.339114,37.30774],[-81.33911,37.307617],[-81.339107,37.307577],[-81.339079,37.307471],[-81.339075,37.307438],[-81.339078,37.307343],[-81.3391,37.307248],[-81.339179,37.307071],[-81.33924,37.306909],[-81.339286,37.306749],[-81.339352,37.30645],[-81.339388,37.306216],[-81.339429,37.306074],[-81.339475,37.305963],[-81.339529,37.305906],[-81.339602,37.305849],[-81.339628,37.305832],[-81.339782,37.305752],[-81.339871,37.30569],[-81.339946,37.305618],[-81.340134,37.305388],[-81.340207,37.305312],[-81.34029,37.305243],[-81.340399,37.305169],[-81.340423,37.305149],[-81.340454,37.305101],[-81.340461,37.305055],[-81.34045,37.305011],[-81.340111,37.304519],[-81.339796,37.304063],[-81.339737,37.304088],[-81.339796,37.304063],[-81.340111,37.304519],[-81.34045,37.305011],[-81.340461,37.305055],[-81.340454,37.305101],[-81.340423,37.305149],[-81.340399,37.305169],[-81.34029,37.305243],[-81.340207,37.305312],[-81.340134,37.305388],[-81.339946,37.305618],[-81.339871,37.30569],[-81.339782,37.305752],[-81.339628,37.305832],[-81.339602,37.305849],[-81.339529,37.305906],[-81.339475,37.305963],[-81.339458,37.306004],[-81.339475,37.305963],[-81.339529,37.305906],[-81.339602,37.305849],[-81.339628,37.305832],[-81.339782,37.305752],[-81.339871,37.30569],[-81.339946,37.305618],[-81.340134,37.305388],[-81.340207,37.305312],[-81.34029,37.305243],[-81.340399,37.305169],[-81.340423,37.305149],[-81.340454,37.305101],[-81.340461,37.305055],[-81.34045,37.305011],[-81.340111,37.304519],[-81.340527,37.304336],[-81.341419,37.303936],[-81.341697,37.303811],[-81.341736,37.303798],[-81.341837,37.303775],[-81.341942,37.303767],[-81.342047,37.303772],[-81.342149,37.303792],[-81.342185,37.303803],[-81.342461,37.303904],[-81.342788,37.304049],[-81.343414,37.30435],[-81.34388,37.304591],[-81.344522,37.304945],[-81.345295,37.305386],[-81.345917,37.305792],[-81.345832,37.305906],[-81.345825,37.305915],[-81.345814,37.305959],[-81.345822,37.306003],[-81.345865,37.306063],[-81.345912,37.30613],[-81.345935,37.306175],[-81.346037,37.306471],[-81.346075,37.306583],[-81.346136,37.3068],[-81.346136,37.306868],[-81.346117,37.306934],[-81.346003,37.307146],[-81.345949,37.307234],[-81.345891,37.307362],[-81.345949,37.307234],[-81.346003,37.307146],[-81.346117,37.306934],[-81.346136,37.306868],[-81.346136,37.3068],[-81.346075,37.306583],[-81.346037,37.306471],[-81.345935,37.306175],[-81.345912,37.30613],[-81.345865,37.306063],[-81.345822,37.306003],[-81.345814,37.305959],[-81.345825,37.305915],[-81.345832,37.305906],[-81.345917,37.305792],[-81.345295,37.305386],[-81.344522,37.304945],[-81.34388,37.304591],[-81.343414,37.30435],[-81.342788,37.304049],[-81.342461,37.303904],[-81.342185,37.303803],[-81.342149,37.303792],[-81.342047,37.303772],[-81.341942,37.303767],[-81.341837,37.303775],[-81.341736,37.303798],[-81.341697,37.303811],[-81.341419,37.303936],[-81.340527,37.304336],[-81.340111,37.304519],[-81.339796,37.304063],[-81.339474,37.303597],[-81.339424,37.303525],[-81.339474,37.303597],[-81.339796,37.304063],[-81.340111,37.304519],[-81.339985,37.304574],[-81.338841,37.305076],[-81.338122,37.305397],[-81.33815402957198,37.30546844366052],[-81.33815476054593,37.305465347671856],[-81.33873245473998,37.30631429908817],[-81.33948966123798,37.30591340117198],[-81.339429,37.306074],[-81.339388,37.306216],[-81.339352,37.30645],[-81.339286,37.306749],[-81.33924,37.306909],[-81.339179,37.307071],[-81.3391,37.307248],[-81.339078,37.307343],[-81.339075,37.307438],[-81.339079,37.307471],[-81.339107,37.307577],[-81.33911,37.307617],[-81.339114,37.30774],[-81.339073,37.307974],[-81.339078,37.308035],[-81.3391,37.308093],[-81.339124,37.308139],[-81.33916,37.308236],[-81.339189,37.30836],[-81.339194,37.308402],[-81.339199,37.308461],[-81.339184,37.308904],[-81.339165,37.308968],[-81.339129,37.309027],[-81.339079,37.309079],[-81.339029,37.309114],[-81.338988,37.309136],[-81.338896,37.309165],[-81.338806,37.309176],[-81.338722,37.309177],[-81.338567,37.309156],[-81.338302,37.309107],[-81.338092,37.309085],[-81.337922,37.30908],[-81.337679,37.309079],[-81.337429,37.309065],[-81.337118,37.309027],[-81.336664,37.308971],[-81.336453,37.308918],[-81.336329,37.308879],[-81.335542,37.30856],[-81.335454,37.308524],[-81.33511,37.308406],[-81.334969,37.308382],[-81.334884,37.308377],[-81.334754,37.308384],[-81.334638,37.308405],[-81.334575,37.308426],[-81.334516,37.308462],[-81.334469,37.308508],[-81.334439,37.308562],[-81.334413,37.308777],[-81.334399,37.309241],[-81.334428,37.309357],[-81.334465,37.309447],[-81.33458,37.309632],[-81.334835,37.310022],[-81.33498,37.310223],[-81.335234,37.310515],[-81.335367,37.310653],[-81.335376,37.310736],[-81.335369,37.310829],[-81.335338,37.310956],[-81.335328,37.310998],[-81.335307,37.311065],[-81.335242,37.311229],[-81.335169,37.311323],[-81.335081,37.311409],[-81.334979,37.311485],[-81.334921,37.311521],[-81.334794,37.311583],[-81.334664,37.311628],[-81.334526,37.311662],[-81.334384,37.311682],[-81.33424,37.311689],[-81.334097,37.311681],[-81.333927,37.311654],[-81.333882,37.311643],[-81.333504,37.311492],[-81.33332,37.311347],[-81.332646,37.310946],[-81.331797,37.31041],[-81.331754,37.310381],[-81.331202,37.31002],[-81.331185,37.309996],[-81.33111,37.309895],[-81.331041,37.309792],[-81.330839,37.309288],[-81.330761,37.308997],[-81.330751,37.308744],[-81.33068,37.308491],[-81.330604,37.308262],[-81.330588,37.308232],[-81.330556,37.308171],[-81.330492,37.308082],[-81.330404,37.308],[-81.330303,37.307929],[-81.329914,37.307712],[-81.329238,37.307371],[-81.328861,37.307297],[-81.328806,37.307328],[-81.328546,37.30748],[-81.328273,37.307693],[-81.328136,37.307892],[-81.328024,37.308201],[-81.328013,37.308571],[-81.328048,37.308894],[-81.328194,37.310011],[-81.328143,37.310264],[-81.328034,37.310454],[-81.327819,37.310688],[-81.327566,37.310853],[-81.326969,37.31114],[-81.326657,37.311288],[-81.32652,37.311432],[-81.326455,37.311614],[-81.326428,37.31184],[-81.326534,37.312074],[-81.327146,37.313106],[-81.327149,37.313315],[-81.327091,37.31344],[-81.326715,37.31387],[-81.326339,37.314307],[-81.3261,37.314478],[-81.32568,37.314581],[-81.325331,37.31453],[-81.324375,37.314185],[-81.32389,37.314114],[-81.323473,37.314103],[-81.321983,37.314315],[-81.321635,37.314288],[-81.321222,37.314207],[-81.320549,37.313986],[-81.318035,37.313008],[-81.317464,37.312772],[-81.316866,37.312514],[-81.316459,37.312245],[-81.31621,37.311962],[-81.316128,37.311805],[-81.316018,37.311476],[-81.315971,37.310728],[-81.315961,37.310557],[-81.315095,37.308277],[-81.314847,37.307724],[-81.314639,37.307369],[-81.314339,37.30702],[-81.314119,37.306813],[-81.313806,37.306619],[-81.31344,37.30636],[-81.312456,37.305775],[-81.311371,37.305277],[-81.308135,37.304141],[-81.30696,37.303734],[-81.306139,37.303449],[-81.305248,37.302977],[-81.304903,37.302641],[-81.304775,37.302484],[-81.304599,37.302267],[-81.304517,37.302144],[-81.304475,37.302074],[-81.304434,37.301999],[-81.304397,37.30192],[-81.304355,37.301822],[-81.304332,37.301744],[-81.304306,37.30165],[-81.304278,37.301529],[-81.304252,37.301383],[-81.304212,37.301021],[-81.304133,37.300271],[-81.30409,37.29985],[-81.303858,37.297638],[-81.303798,37.29707],[-81.303778,37.296818],[-81.303773,37.296693],[-81.303777,37.296564],[-81.303794,37.296429],[-81.303816,37.296318],[-81.303842,37.296195],[-81.303875,37.296083],[-81.303916,37.295961],[-81.303941,37.295891],[-81.30397,37.295825],[-81.304066,37.295636],[-81.304109,37.295566],[-81.304147,37.295504],[-81.304241,37.295365],[-81.304315,37.295272],[-81.30439,37.295184],[-81.304457,37.295111],[-81.304537,37.295033],[-81.304639,37.294945],[-81.304723,37.294872],[-81.304807,37.294809],[-81.304909,37.294732],[-81.304974,37.294692],[-81.305059,37.294637],[-81.305146,37.294585],[-81.305262,37.29452],[-81.305571,37.294359],[-81.30628,37.293997],[-81.306398,37.293936],[-81.306947,37.293648],[-81.307174,37.293534],[-81.307416,37.293404],[-81.307541,37.293338],[-81.307916,37.293145],[-81.308067,37.29307],[-81.308236,37.292982],[-81.308453,37.292874],[-81.308659,37.292767],[-81.308788,37.292696],[-81.308856,37.292659],[-81.308978,37.292597],[-81.309118,37.292526],[-81.309236,37.292471],[-81.309334,37.292429],[-81.309403,37.292401],[-81.309492,37.292371],[-81.309582,37.292353],[-81.309673,37.292346],[-81.309765,37.292345],[-81.309842,37.292345],[-81.309957,37.292359],[-81.310023,37.292371],[-81.310081,37.292388],[-81.310165,37.292417],[-81.310231,37.292448],[-81.310305,37.29249],[-81.310429,37.292567],[-81.310514,37.292615],[-81.31058,37.292644],[-81.310632,37.292664],[-81.31069,37.292683],[-81.310761,37.292699],[-81.310823,37.292705],[-81.310878,37.292701],[-81.31093,37.292695],[-81.310969,37.292687],[-81.311025,37.292671],[-81.31107,37.292651],[-81.311129,37.29262],[-81.311208,37.292572],[-81.311268,37.292529],[-81.311376,37.292436],[-81.311514,37.292296],[-81.311637,37.292147],[-81.311846,37.291839],[-81.312436,37.29102],[-81.312545,37.290882],[-81.312627,37.290781],[-81.312737,37.290664],[-81.3128,37.290602],[-81.312867,37.290544],[-81.312945,37.290484],[-81.313106,37.290363],[-81.313213,37.290292],[-81.313434,37.290155],[-81.313658,37.290002],[-81.313795,37.289892],[-81.313899,37.289804],[-81.31395,37.289749],[-81.314003,37.289691],[-81.314058,37.289612],[-81.314098,37.289554],[-81.314139,37.289474],[-81.314167,37.289408],[-81.314196,37.289328],[-81.314221,37.289242],[-81.314239,37.289159],[-81.314265,37.289019],[-81.314288,37.28885],[-81.314303,37.288706],[-81.314314,37.288568],[-81.314314,37.288468],[-81.314312,37.288388],[-81.314302,37.288271],[-81.314293,37.288203],[-81.314245,37.287958],[-81.314184,37.287667],[-81.314109,37.287297],[-81.31405,37.286984],[-81.313961,37.286596],[-81.313896,37.286266],[-81.313854,37.286066],[-81.313814,37.285872],[-81.313797,37.285774],[-81.31379,37.285702],[-81.313785,37.285623],[-81.313791,37.285549],[-81.313799,37.285463],[-81.313813,37.285374],[-81.31383,37.285283],[-81.313847,37.285207],[-81.313875,37.285107],[-81.313916,37.284976],[-81.314005,37.284679],[-81.314043,37.28454],[-81.314062,37.284456],[-81.314076,37.284371],[-81.314086,37.284301],[-81.314091,37.284235],[-81.314092,37.284191],[-81.314093,37.284127],[-81.314091,37.284046],[-81.314084,37.283961],[-81.314073,37.283844],[-81.314052,37.283715],[-81.313979,37.28334],[-81.31369,37.281969],[-81.313604,37.281423],[-81.313553,37.280824],[-81.313543,37.280695],[-81.313519,37.280357],[-81.313495,37.280157],[-81.313469,37.279994],[-81.313453,37.279923],[-81.313425,37.279816],[-81.313402,37.279745],[-81.313331,37.279551],[-81.313281,37.279427],[-81.313126,37.279109],[-81.312931,37.278749],[-81.312784,37.278471],[-81.312727,37.278366],[-81.312685,37.2783],[-81.312633,37.278226],[-81.312585,37.278164],[-81.312511,37.278076],[-81.312446,37.278006],[-81.312355,37.27792],[-81.312082,37.277695],[-81.312016,37.277639],[-81.311941,37.277568],[-81.311887,37.277511],[-81.311824,37.277436],[-81.31179,37.27739],[-81.31174,37.277312],[-81.311701,37.277234],[-81.311669,37.277168],[-81.311613,37.27702],[-81.311559,37.276829],[-81.311524,37.276688],[-81.311493,37.276548],[-81.31147,37.276402],[-81.31144,37.276204],[-81.311401,37.275853],[-81.311375,37.275614],[-81.311362,37.275465],[-81.311333,37.275241],[-81.311324,37.275211],[-81.311315,37.275184],[-81.311299,37.275144],[-81.311269,37.275092],[-81.311244,37.275059],[-81.311206,37.275015],[-81.311166,37.274981],[-81.311129,37.274951],[-81.311068,37.274909],[-81.310985,37.274864],[-81.310697,37.274746],[-81.310346,37.274621],[-81.310297,37.274604],[-81.308931,37.274108],[-81.308511,37.273946],[-81.308123,37.273784],[-81.307768,37.273619],[-81.307449,37.273463],[-81.307315,37.273393],[-81.307228,37.273342],[-81.307121,37.27328],[-81.306999,37.2732],[-81.306902,37.273136],[-81.306801,37.273064],[-81.306698,37.272986],[-81.306575,37.272887],[-81.306493,37.272819],[-81.306437,37.272768],[-81.306358,37.272697],[-81.306262,37.272605],[-81.306205,37.272547],[-81.306124,37.272459],[-81.306041,37.272367],[-81.305696,37.27196],[-81.305582,37.27182],[-81.305418,37.271601],[-81.305349,37.271502],[-81.305278,37.271383],[-81.305242,37.271313],[-81.30506,37.270913],[-81.305005,37.270811],[-81.304946,37.270719],[-81.304863,37.270606],[-81.304402,37.27004],[-81.304124,37.269694],[-81.30409,37.269649],[-81.303979,37.26952],[-81.30392,37.269459],[-81.30384,37.269392],[-81.303771,37.269344],[-81.30369,37.269297],[-81.303619,37.269261],[-81.303539,37.269229],[-81.303441,37.269198],[-81.303348,37.269176],[-81.303146,37.269133],[-81.302886,37.269085],[-81.302393,37.268989],[-81.300204,37.268542],[-81.299799,37.268454],[-81.299465,37.268391],[-81.298783,37.268263],[-81.298581,37.268222],[-81.298467,37.268195],[-81.298347,37.268164],[-81.29826,37.268138],[-81.298158,37.268106],[-81.298031,37.268059],[-81.297953,37.268027],[-81.297869,37.267986],[-81.297776,37.267936],[-81.29763,37.267846],[-81.297549,37.267785],[-81.297451,37.267707],[-81.297324,37.267595],[-81.297126,37.267424],[-81.296166,37.266565],[-81.295978,37.2664],[-81.295602,37.266059],[-81.295532,37.265994],[-81.295496,37.265961],[-81.29539,37.265868],[-81.294839,37.265359],[-81.294609,37.265152],[-81.294511,37.265067],[-81.294374,37.264966],[-81.294266,37.264901],[-81.294114,37.264826],[-81.293955,37.264768],[-81.293819,37.264732],[-81.293739,37.264716],[-81.293654,37.264707],[-81.29354,37.264699],[-81.293436,37.264703],[-81.293306,37.264717],[-81.293218,37.264729],[-81.293134,37.264748],[-81.293056,37.264767],[-81.292959,37.264797],[-81.292849,37.264841],[-81.292744,37.264894],[-81.292615,37.264967],[-81.292513,37.265035],[-81.291938,37.265406],[-81.290819,37.266141],[-81.289113,37.267257],[-81.288872,37.267415],[-81.286934,37.268689],[-81.286721,37.268814],[-81.28658,37.268883],[-81.286399,37.268963],[-81.286187,37.269038],[-81.286038,37.269083],[-81.285903,37.269114],[-81.285742,37.269147],[-81.285586,37.269168],[-81.285402,37.269186],[-81.285221,37.269192],[-81.285067,37.269191],[-81.284919,37.269183],[-81.284714,37.269162],[-81.284541,37.26913],[-81.284387,37.269094],[-81.284221,37.269049],[-81.284046,37.26899],[-81.283892,37.26893],[-81.283722,37.268847],[-81.283616,37.26879],[-81.283475,37.268707],[-81.283324,37.268596],[-81.283196,37.268496],[-81.283063,37.268372],[-81.28294,37.268239],[-81.282862,37.268149],[-81.282772,37.268014],[-81.282687,37.267877],[-81.282489,37.267461],[-81.281693,37.265811],[-81.281209,37.264793],[-81.280745,37.263817],[-81.280306,37.262916],[-81.280146,37.262563],[-81.280023,37.262309],[-81.279827,37.261887],[-81.279689,37.261609],[-81.279593,37.261402],[-81.279475,37.261184],[-81.279324,37.260848],[-81.278954,37.26007],[-81.27869,37.259516],[-81.278596,37.259322],[-81.278479,37.259096],[-81.278419,37.258994],[-81.278359,37.2589],[-81.278269,37.258765],[-81.278159,37.258622],[-81.278033,37.258477],[-81.277901,37.258334],[-81.277743,37.258183],[-81.277576,37.258038],[-81.276982,37.257583],[-81.276831,37.257466],[-81.276732,37.257369],[-81.276649,37.25726],[-81.276584,37.257151],[-81.276546,37.257075],[-81.276516,37.256995],[-81.276481,37.256885],[-81.276455,37.256747],[-81.276429,37.256252],[-81.276407,37.256107],[-81.276386,37.256058],[-81.276338,37.25598],[-81.276275,37.25591],[-81.276215,37.25586],[-81.275785,37.255596],[-81.275604,37.255476],[-81.275453,37.255393],[-81.275344,37.255348],[-81.275202,37.255302],[-81.274791,37.25522],[-81.274561,37.255186],[-81.274329,37.255167],[-81.274123,37.255167],[-81.273955,37.255178],[-81.273521,37.255243],[-81.273325,37.255257],[-81.273202,37.255247],[-81.273082,37.255223],[-81.272968,37.255184],[-81.272289,37.254875],[-81.272203,37.254827],[-81.272154,37.254799],[-81.272008,37.254692],[-81.271975,37.254664],[-81.271881,37.254571],[-81.271806,37.254443],[-81.271748,37.254311],[-81.271665,37.254022],[-81.271593,37.253774],[-81.271529,37.253553],[-81.271376,37.253049],[-81.271321,37.252867],[-81.271272,37.252721],[-81.271217,37.25256],[-81.271073,37.252178],[-81.27105,37.252112],[-81.270962,37.251866],[-81.270883,37.25162],[-81.270677,37.250976],[-81.270555,37.250632],[-81.270482,37.250477],[-81.270393,37.250327],[-81.270363,37.250285],[-81.270182,37.250039],[-81.270115,37.249955],[-81.270026,37.249865],[-81.269956,37.249816],[-81.269909,37.249793],[-81.26984,37.24977],[-81.26972,37.249745],[-81.269589,37.249733],[-81.269055,37.249728],[-81.268883,37.249715],[-81.268746,37.249694],[-81.268613,37.249665],[-81.268464,37.249611],[-81.268351,37.249558],[-81.268219,37.249481],[-81.26796,37.249306],[-81.267697,37.249106],[-81.26763,37.24905],[-81.267466,37.248907],[-81.267391,37.248818],[-81.267331,37.248721],[-81.267296,37.248629],[-81.267242,37.24836],[-81.267136,37.247937],[-81.267095,37.247821],[-81.267028,37.24768],[-81.266659,37.247029],[-81.266516,37.246801],[-81.266378,37.24662],[-81.266241,37.246468],[-81.266035,37.246205],[-81.265886,37.245975],[-81.265359,37.244974],[-81.265182,37.244674],[-81.265096,37.244539],[-81.264871,37.244216],[-81.264758,37.244095],[-81.264664,37.243999],[-81.264592,37.243916],[-81.264507,37.243839],[-81.26441,37.243771],[-81.264242,37.243671],[-81.264039,37.243532],[-81.263751,37.243363],[-81.263579,37.24327],[-81.263363,37.24317],[-81.263246,37.243125],[-81.26301,37.243035],[-81.262251,37.242806],[-81.262062,37.242741],[-81.261896,37.242673],[-81.261667,37.242546],[-81.261498,37.242426],[-81.261349,37.242296],[-81.261244,37.242187],[-81.261134,37.242048],[-81.261062,37.241932],[-81.26105,37.241914],[-81.26104,37.241892],[-81.261,37.24181],[-81.260947,37.241682],[-81.260642,37.241033],[-81.260625,37.240971],[-81.260558,37.240786],[-81.260236,37.23999],[-81.260189,37.239797],[-81.260157,37.239604],[-81.260153,37.239483],[-81.260001,37.23949],[-81.25891,37.239541],[-81.25853,37.239568],[-81.258235,37.239598],[-81.257922,37.239651],[-81.257688,37.239702],[-81.257036,37.239861],[-81.256859,37.239413],[-81.256787,37.239231],[-81.256726,37.239075],[-81.256661,37.238912],[-81.256596,37.238745],[-81.256531,37.238581],[-81.256467,37.238419],[-81.256401,37.238251],[-81.256336,37.238087],[-81.256273,37.237928],[-81.255504,37.23812],[-81.255394,37.238147],[-81.25530003617655,37.23817229766806],[-81.25589329915638,37.23965082708301],[-81.256859,37.239413],[-81.257036,37.239861],[-81.257704,37.239731],[-81.258431,37.239597],[-81.258691,37.239556],[-81.259101,37.239619],[-81.259244,37.239644],[-81.259382,37.239684],[-81.259548,37.23975],[-81.259683,37.239822],[-81.25976,37.23987],[-81.25989,37.239965],[-81.259981,37.24005],[-81.260087,37.240183],[-81.260349,37.240561],[-81.260471,37.240779],[-81.260642,37.241033],[-81.260947,37.241682],[-81.261,37.24181],[-81.26104,37.241892],[-81.26105,37.241914],[-81.261062,37.241932],[-81.261134,37.242048],[-81.261244,37.242187],[-81.261349,37.242296],[-81.261498,37.242426],[-81.261667,37.242546],[-81.261896,37.242673],[-81.262062,37.242741],[-81.262251,37.242806],[-81.26301,37.243035],[-81.263246,37.243125],[-81.263363,37.24317],[-81.263579,37.24327],[-81.263673,37.243321],[-81.263751,37.243363],[-81.264039,37.243532],[-81.264242,37.243671],[-81.26441,37.243771],[-81.264507,37.243839],[-81.264592,37.243916],[-81.264664,37.243999],[-81.264758,37.244095],[-81.264871,37.244216],[-81.265096,37.244539],[-81.265182,37.244674],[-81.265359,37.244974],[-81.265886,37.245975],[-81.266035,37.246205],[-81.266241,37.246468],[-81.266378,37.24662],[-81.266516,37.246801],[-81.266659,37.247029],[-81.267028,37.24768],[-81.267095,37.247821],[-81.267136,37.247937],[-81.267242,37.24836],[-81.267296,37.248629],[-81.267331,37.248721],[-81.267391,37.248818],[-81.267466,37.248907],[-81.26763,37.24905],[-81.267697,37.249106],[-81.26796,37.249306],[-81.268219,37.249481],[-81.268351,37.249558],[-81.268464,37.249611],[-81.268613,37.249665],[-81.268746,37.249694],[-81.268883,37.249715],[-81.269055,37.249728],[-81.269589,37.249733],[-81.26972,37.249745],[-81.26984,37.24977],[-81.269909,37.249793],[-81.269956,37.249816],[-81.270026,37.249865],[-81.270115,37.249955],[-81.270182,37.250039],[-81.270363,37.250285],[-81.270393,37.250327],[-81.270482,37.250477],[-81.270555,37.250632],[-81.270677,37.250976],[-81.270883,37.25162],[-81.270962,37.251866],[-81.27105,37.252112],[-81.271073,37.252178],[-81.271176,37.252451],[-81.271217,37.25256],[-81.271272,37.252721],[-81.271321,37.252867],[-81.271376,37.253049],[-81.271529,37.253553],[-81.271763,37.253566],[-81.272092,37.253599],[-81.272697,37.253654],[-81.273603,37.253722],[-81.27382,37.25373],[-81.274091,37.253729],[-81.274362,37.253714],[-81.274685,37.253678],[-81.274903,37.253642],[-81.275084,37.253629],[-81.275271,37.253629],[-81.275458,37.253643],[-81.275642,37.253673],[-81.275821,37.253716],[-81.275926,37.253748],[-81.276217,37.253848],[-81.276465,37.253933],[-81.276635,37.253976],[-81.27681,37.254005],[-81.276988,37.254019],[-81.277167,37.254019],[-81.277393,37.253998],[-81.27766,37.253973],[-81.277747,37.253965],[-81.278562,37.253874],[-81.278249,37.253187],[-81.278076,37.252809],[-81.278052,37.252763],[-81.277973,37.252606],[-81.277963,37.252558],[-81.27797,37.252509],[-81.278014,37.252455],[-81.278544,37.251909],[-81.278695,37.251777],[-81.278799,37.251712],[-81.279047,37.251573],[-81.279316,37.251439],[-81.279807,37.251206],[-81.280285,37.250975],[-81.28021,37.250873],[-81.280176,37.250825],[-81.280159,37.250802],[-81.280108,37.25076],[-81.280065,37.250736],[-81.280044,37.250727],[-81.279707,37.250636],[-81.279681,37.250627],[-81.279577,37.250592],[-81.279455,37.250558],[-81.279363,37.250526],[-81.279264,37.250509],[-81.279085,37.250502],[-81.27881,37.250524],[-81.27874,37.250528]]}}]}