{"type":"FeatureCollection","features":[{"type":"Feature","properties":{"agency":"Greater Valley Forge TMA","shape_id":"EB_BL_GR"},"geometry":{"type":"LineString","coordinates":[[-75.371977,40.102196],[-75.371494,40.102161],[-75.371466,40.102395],[-75.371462,40.102426],[-75.371447,40.102536],[-75.371159,40.102515],[-75.370815,40.10249],[-75.370361,40.102455],[-75.37015,40.102441],[-75.370188,40.102588],[-75.370222,40.102766],[-75.370263,40.102934],[-75.370314,40.103096],[-75.370355,40.103218],[-75.370398,40.103332],[-75.37045,40.103446],[-75.370536,40.103592],[-75.370621,40.103723],[-75.37074,40.103893],[-75.371297,40.104686],[-75.371507,40.104986],[-75.372116,40.105853],[-75.372543,40.10646],[-75.37276,40.106769],[-75.372871,40.106923],[-75.372965,40.107053],[-75.373011,40.107116],[-75.37318,40.107351],[-75.373256,40.107465],[-75.373278,40.107498],[-75.374414,40.109202],[-75.374559,40.10942],[-75.374631,40.109528],[-75.374721,40.109663],[-75.375025,40.110092],[-75.375264,40.110428],[-75.375301,40.11048],[-75.375408,40.110631],[-75.375484,40.110737],[-75.375514,40.11078],[-75.375544,40.110822],[-75.375573,40.110863],[-75.375751,40.111113],[-75.375799,40.11118],[-75.376019,40.11149],[-75.376052,40.111536],[-75.37627,40.111842],[-75.37631,40.111898],[-75.376325,40.111919],[-75.376504,40.112176],[-75.376527,40.112208],[-75.376555,40.112248],[-75.376674,40.112416],[-75.376688,40.112435],[-75.376785,40.112571],[-75.377076,40.112982],[-75.378201,40.112451],[-75.378495,40.112316],[-75.37865,40.112245],[-75.378928,40.112104],[-75.379182,40.112018],[-75.379302,40.111988],[-75.379838,40.111932],[-75.379838,40.111762],[-75.379839,40.111418],[-75.37984,40.111239],[-75.37984,40.111149],[-75.379849,40.111057],[-75.379858,40.110963],[-75.37988,40.110884],[-75.379907,40.110791],[-75.379945,40.110718],[-75.379978,40.110654],[-75.380016,40.110581],[-75.380054,40.110508],[-75.380063,40.110498],[-75.380177,40.110365],[-75.380198,40.110341],[-75.380295,40.110228],[-75.380321,40.110197],[-75.380399,40.110103],[-75.38045,40.110041],[-75.380464,40.110025],[-75.380594,40.109869],[-75.380654,40.109797],[-75.380661,40.109788],[-75.38071,40.109726],[-75.380835,40.109567],[-75.380847,40.109552],[-75.380959,40.109408],[-75.381076,40.109259],[-75.381091,40.109239],[-75.381095,40.109235],[-75.381235,40.109092],[-75.381263,40.109063],[-75.3814,40.108922],[-75.38143,40.108898],[-75.381474,40.108862],[-75.381543,40.108808],[-75.381607,40.108756],[-75.381706,40.108677],[-75.381745,40.108645],[-75.381813,40.108596],[-75.381873,40.108553],[-75.382048,40.108427],[-75.382129,40.108361],[-75.38222,40.108288],[-75.382508,40.108046],[-75.38258,40.107995],[-75.382684,40.107921],[-75.382859,40.107796],[-75.382875,40.107783],[-75.382911,40.107752],[-75.383053,40.107633],[-75.383229,40.107485],[-75.383244,40.107466],[-75.383267,40.107439],[-75.383369,40.107316],[-75.383478,40.107186],[-75.383377,40.107137],[-75.383331,40.107115],[-75.38325,40.107079],[-75.383165,40.107029],[-75.383119,40.106996],[-75.383079,40.106968],[-75.382886,40.106734],[-75.383041,40.106662],[-75.383206,40.106585],[-75.38329,40.106546],[-75.383512,40.106443],[-75.383608,40.106398],[-75.383626,40.10639],[-75.383736,40.106339],[-75.383824,40.106298],[-75.384155,40.106144],[-75.384215,40.106117],[-75.384254,40.106099],[-75.384407,40.106027],[-75.384569,40.105952],[-75.384887,40.105814],[-75.385064,40.105736],[-75.385245,40.105658],[-75.385327,40.105622],[-75.385215,40.105465],[-75.385046,40.105228],[-75.384992,40.105141],[-75.384951,40.105052],[-75.38491,40.104948],[-75.384866,40.104838],[-75.384825,40.104736],[-75.384795,40.104659],[-75.384688,40.104385],[-75.384619,40.104209],[-75.384597,40.104152],[-75.384592,40.10414],[-75.384556,40.104063],[-75.384516,40.103993],[-75.384497,40.103962],[-75.384455,40.103895],[-75.384348,40.103722],[-75.384304,40.103652],[-75.384286,40.103612],[-75.384261,40.103528],[-75.384026,40.10357],[-75.383884,40.103595],[-75.383719,40.103624],[-75.383573,40.103651],[-75.38347,40.103668],[-75.383289,40.1037],[-75.383146,40.103655],[-75.383115,40.103642],[-75.383089,40.103628],[-75.383045,40.103595],[-75.383007,40.103531],[-75.382982,40.103494],[-75.382939,40.10346],[-75.382842,40.10342],[-75.382665,40.10341],[-75.382547,40.103438],[-75.382437,40.10344],[-75.38232,40.103442],[-75.382102,40.103396],[-75.382025,40.103409],[-75.381977,40.103458],[-75.381977,40.103458],[-75.381986,40.103583],[-75.382259,40.103616],[-75.382524,40.103616],[-75.382751,40.103591],[-75.38292,40.103556],[-75.383007,40.103531],[-75.383042,40.103522],[-75.383076,40.103514],[-75.383387,40.103464],[-75.383425,40.103446],[-75.383447,40.103425],[-75.383458,40.103395],[-75.383446,40.103341],[-75.383427,40.10329],[-75.383303,40.102852],[-75.383283,40.102783],[-75.383281,40.102747],[-75.383292,40.102712],[-75.383292,40.102691],[-75.383341,40.102667],[-75.383347,40.102664],[-75.383381,40.102652],[-75.383426,40.102648],[-75.383491,40.102648],[-75.383596,40.102653],[-75.383647,40.102658],[-75.383688,40.102662],[-75.383793,40.102676],[-75.383859,40.102689],[-75.383889,40.102696],[-75.383916,40.102703],[-75.383977,40.102721],[-75.384049,40.102747],[-75.384153,40.102792],[-75.384188,40.102807],[-75.384258,40.102837],[-75.384213,40.102907],[-75.384178,40.102986],[-75.384161,40.103063],[-75.384161,40.103074],[-75.384158,40.103139],[-75.384169,40.10322],[-75.384235,40.103439],[-75.384261,40.103528],[-75.384286,40.103612],[-75.384304,40.103652],[-75.384348,40.103722],[-75.384455,40.103895],[-75.384497,40.103962],[-75.384516,40.103993],[-75.384556,40.104063],[-75.384592,40.10414],[-75.384597,40.104152],[-75.384619,40.104209],[-75.384688,40.104385],[-75.384795,40.104659],[-75.384825,40.104736],[-75.384866,40.104838],[-75.38491,40.104948],[-75.384951,40.105052],[-75.384992,40.105141],[-75.385046,40.105228],[-75.385215,40.105465],[-75.385327,40.105622],[-75.385416,40.105586],[-75.385824,40.105422],[-75.38599,40.105356],[-75.386128,40.1053],[-75.386223,40.105263],[-75.386433,40.105178],[-75.386542,40.105135],[-75.386742,40.105054],[-75.386855,40.105009],[-75.38704,40.104935],[-75.387165,40.104885],[-75.387348,40.104811],[-75.38747,40.104762],[-75.387683,40.104677],[-75.3878,40.10463],[-75.387981,40.104558],[-75.388271,40.104441],[-75.388418,40.104383],[-75.388704,40.104268],[-75.38901,40.104145],[-75.389351,40.104008],[-75.389211,40.103806],[-75.389143,40.103708],[-75.388992,40.103489],[-75.38895,40.103427],[-75.38889,40.10334],[-75.388843,40.103286],[-75.38883,40.103273],[-75.388793,40.103236],[-75.388786,40.103231],[-75.388733,40.103193],[-75.388707,40.103177],[-75.3886,40.10311],[-75.388569,40.103082],[-75.388462,40.102953],[-75.388445,40.102927],[-75.388433,40.1029],[-75.388425,40.102871],[-75.3884,40.102787],[-75.388494,40.10277],[-75.389199,40.102645],[-75.389535,40.102585],[-75.389861,40.102527],[-75.39016,40.102474],[-75.39047,40.102419],[-75.390792,40.102361],[-75.39125,40.10228],[-75.391383,40.102256],[-75.391429,40.102249],[-75.391506,40.102237],[-75.391576,40.102229],[-75.391638,40.102226],[-75.391706,40.102227],[-75.391777,40.102235],[-75.391851,40.102249],[-75.391924,40.102271],[-75.392038,40.102318],[-75.392306,40.10243],[-75.392324,40.102437],[-75.392423,40.102479],[-75.392677,40.102585],[-75.39288,40.102669],[-75.393105,40.102763],[-75.393285,40.102838],[-75.393329,40.102857],[-75.393421,40.102897],[-75.393547,40.102953],[-75.393623,40.102989],[-75.393666,40.103009],[-75.393852,40.1031],[-75.394095,40.103219],[-75.394215,40.103277],[-75.39435,40.103341],[-75.394365,40.103348],[-75.394527,40.103417],[-75.394641,40.103462],[-75.394675,40.103475],[-75.394846,40.103533],[-75.394998,40.103581],[-75.395109,40.103611],[-75.395187,40.103632],[-75.395386,40.103676],[-75.395404,40.10368],[-75.395656,40.103728],[-75.39568,40.103733],[-75.395879,40.103768],[-75.395959,40.103779],[-75.396073,40.103796],[-75.396234,40.103816],[-75.396261,40.103819],[-75.396461,40.103835],[-75.39654,40.10384],[-75.396612,40.103844],[-75.396635,40.103845],[-75.39682,40.103846],[-75.396865,40.103845],[-75.397043,40.103839],[-75.397161,40.103831],[-75.397243,40.103825],[-75.397434,40.103806],[-75.397742,40.103774],[-75.397762,40.103772],[-75.397891,40.103761],[-75.398021,40.103754],[-75.398147,40.103756],[-75.398261,40.103763],[-75.398378,40.103777],[-75.398485,40.103797],[-75.39859,40.103823],[-75.398686,40.103855],[-75.39878,40.10389],[-75.398876,40.103932],[-75.398969,40.103984],[-75.399058,40.104039],[-75.399565,40.104409],[-75.399718,40.10452],[-75.399617,40.1046],[-75.39954,40.104651],[-75.399458,40.104697],[-75.39937,40.104741],[-75.399272,40.104784],[-75.399173,40.10482],[-75.399059,40.104856],[-75.397908,40.105187],[-75.397806,40.105223],[-75.3977,40.105266],[-75.3976,40.105317],[-75.397513,40.105368],[-75.397434,40.105424],[-75.397354,40.105486],[-75.397289,40.105549],[-75.397225,40.105619],[-75.397164,40.105698],[-75.397118,40.105773],[-75.397075,40.105856],[-75.397049,40.10592],[-75.397026,40.106006],[-75.39701,40.106096],[-75.397003,40.106184],[-75.397005,40.106275],[-75.397017,40.106365],[-75.39704,40.106465],[-75.397074,40.106548],[-75.397121,40.106657],[-75.397589,40.107621],[-75.397898,40.108256],[-75.398092,40.108656],[-75.398158,40.108764],[-75.398467,40.108682],[-75.398493,40.108674],[-75.398932,40.108545],[-75.399909,40.108256],[-75.402048,40.107622],[-75.402735,40.107432],[-75.403454,40.107245],[-75.404216,40.107025],[-75.404684,40.106901],[-75.404935,40.106841],[-75.40543,40.106731],[-75.40554,40.106704],[-75.405643,40.106669],[-75.405731,40.106634],[-75.405804,40.106598],[-75.405867,40.10656],[-75.405926,40.106516],[-75.406217,40.106238],[-75.406325,40.106142],[-75.406428,40.106056],[-75.406535,40.105976],[-75.406735,40.105842],[-75.406875,40.105748],[-75.406931,40.105796],[-75.406995,40.105846],[-75.407077,40.1059],[-75.407227,40.105985],[-75.407439,40.106106],[-75.407496,40.106132],[-75.40755,40.106151],[-75.407607,40.106166],[-75.407663,40.106174],[-75.407725,40.106176],[-75.407788,40.106172],[-75.407855,40.10616],[-75.407914,40.106142],[-75.407969,40.106118],[-75.408018,40.106085],[-75.408065,40.106039],[-75.408107,40.105983],[-75.408141,40.105919],[-75.408211,40.105732],[-75.408249,40.10565],[-75.408294,40.105575],[-75.408347,40.105501],[-75.408406,40.105435],[-75.408544,40.105305],[-75.40885,40.105016],[-75.408962,40.104918],[-75.409108,40.10482],[-75.409279,40.104716],[-75.409399,40.104654],[-75.409462,40.104621],[-75.409724,40.10449],[-75.410068,40.104319],[-75.410213,40.104241],[-75.410341,40.104168],[-75.410751,40.103907],[-75.410976,40.103768],[-75.411196,40.103638],[-75.411393,40.103528],[-75.411743,40.103356],[-75.411926,40.103269],[-75.411945,40.10326],[-75.412157,40.103165],[-75.412294,40.103111],[-75.41237,40.103227],[-75.412451,40.103365],[-75.412474,40.103422],[-75.412505,40.103496],[-75.412545,40.103591],[-75.412557,40.103641],[-75.41256,40.103695],[-75.412551,40.103754],[-75.412529,40.103815],[-75.412502,40.103872],[-75.412393,40.104043],[-75.412367,40.104096],[-75.41232,40.104235],[-75.412314,40.104281],[-75.412316,40.104324],[-75.412312,40.104403],[-75.412333,40.104432],[-75.41237,40.104473],[-75.412418,40.104517],[-75.412472,40.104558],[-75.412527,40.104591],[-75.412578,40.104616],[-75.412625,40.104631],[-75.412738,40.104657],[-75.412795,40.10467],[-75.41284,40.104681],[-75.412869,40.104687],[-75.413325,40.104792],[-75.413416,40.104789],[-75.413406,40.104803],[-75.413369,40.104947],[-75.413399,40.105092],[-75.413492,40.10522],[-75.413591,40.105287],[-75.413636,40.105317],[-75.413778,40.105363],[-75.413969,40.105376],[-75.414154,40.105338],[-75.414312,40.105254],[-75.414352,40.105212],[-75.414414,40.105146],[-75.414414,40.105146],[-75.41447,40.105006],[-75.414466,40.104943],[-75.41446,40.104859],[-75.414384,40.104724],[-75.414253,40.104617],[-75.414137,40.104566],[-75.41395,40.104533],[-75.41393,40.104535],[-75.413759,40.104551],[-75.413589,40.104618],[-75.413518,40.104675],[-75.413458,40.104726],[-75.413416,40.104789],[-75.413348,40.104731],[-75.412914,40.104632],[-75.412892,40.104627],[-75.412848,40.104617],[-75.412811,40.104608],[-75.412653,40.104572],[-75.412616,40.10456],[-75.412575,40.10454],[-75.412457,40.104468],[-75.412421,40.104438],[-75.412391,40.104405],[-75.412375,40.104382],[-75.412316,40.104324],[-75.412314,40.104281],[-75.41232,40.104235],[-75.412367,40.104096],[-75.412393,40.104043],[-75.412502,40.103872],[-75.412529,40.103815],[-75.412551,40.103754],[-75.41256,40.103695],[-75.412557,40.103641],[-75.412545,40.103591],[-75.412505,40.103496],[-75.412474,40.103422],[-75.412451,40.103365],[-75.412622,40.103302],[-75.412877,40.10321],[-75.412979,40.103175],[-75.413088,40.103144],[-75.4131,40.103141],[-75.413224,40.103112],[-75.413924,40.102966],[-75.414229,40.102903],[-75.414754,40.102785],[-75.415142,40.102698],[-75.415369,40.102647],[-75.415474,40.102633],[-75.41557,40.102624],[-75.415829,40.102608],[-75.416012,40.102603],[-75.416138,40.102605],[-75.416256,40.10261],[-75.416383,40.10262],[-75.416384,40.102875],[-75.416388,40.102929],[-75.416399,40.102986],[-75.416444,40.103111],[-75.416473,40.103181],[-75.416493,40.10325],[-75.416496,40.103275],[-75.416521,40.10351],[-75.41657,40.104996],[-75.41658,40.105599],[-75.416583,40.105833],[-75.416591,40.105904],[-75.416615,40.105959],[-75.416649,40.106005],[-75.416692,40.106046],[-75.41674,40.106077],[-75.416799,40.106101],[-75.416863,40.106118],[-75.416932,40.10613],[-75.416991,40.10613],[-75.417051,40.10613],[-75.417198,40.106107],[-75.417348,40.106074],[-75.417382,40.106059],[-75.417898,40.105831],[-75.418213,40.105692],[-75.418287,40.105635],[-75.418353,40.105553],[-75.418398,40.105463],[-75.418495,40.105037],[-75.418504,40.104919],[-75.418504,40.104912],[-75.418503,40.104807],[-75.418473,40.104675],[-75.418051,40.103293],[-75.417922,40.102871],[-75.417679,40.102823],[-75.417227,40.102733],[-75.417039,40.102701],[-75.416755,40.102662],[-75.416503,40.102632],[-75.416383,40.10262],[-75.416256,40.10261],[-75.416138,40.102605],[-75.416012,40.102603],[-75.415829,40.102608],[-75.41557,40.102624],[-75.415474,40.102633],[-75.415369,40.102647],[-75.415142,40.102698],[-75.414754,40.102785],[-75.414229,40.102903],[-75.413924,40.102966],[-75.413905,40.102877],[-75.413879,40.102846],[-75.413866,40.102813],[-75.413864,40.102774],[-75.413871,40.102734],[-75.41392,40.102605],[-75.414401,40.102465],[-75.414671,40.10239],[-75.415303,40.102201],[-75.415504,40.102184],[-75.41567,40.102132],[-75.416132,40.101998],[-75.416811,40.101809],[-75.417247,40.101687],[-75.417385,40.101645],[-75.418107,40.101438],[-75.418377,40.101359],[-75.419077,40.101155],[-75.419329,40.101087],[-75.41976,40.100946],[-75.41984,40.100871],[-75.420016,40.100822],[-75.42031,40.100739],[-75.420417,40.100704],[-75.42035,40.100614],[-75.420213,40.100423],[-75.420086,40.100249],[-75.419985,40.10011],[-75.419719,40.099714],[-75.418997,40.09872],[-75.418482,40.09801],[-75.418404,40.0979],[-75.417894,40.097186],[-75.417815,40.097063],[-75.417804,40.096948],[-75.417705,40.096711],[-75.417648,40.096566],[-75.417592,40.096399],[-75.417516,40.096141],[-75.417465,40.095959],[-75.417423,40.095766],[-75.417385,40.095555],[-75.417296,40.095066],[-75.417285,40.095005],[-75.417266,40.094901],[-75.41725,40.094808],[-75.417171,40.094326],[-75.417134,40.094161],[-75.417088,40.093997],[-75.417032,40.09383],[-75.416967,40.09366],[-75.416895,40.093511],[-75.41681,40.093353],[-75.416714,40.093192],[-75.416618,40.093045],[-75.416511,40.092899],[-75.416208,40.092512],[-75.416112,40.092382],[-75.414971,40.090851],[-75.414859,40.090714],[-75.41474,40.090591],[-75.4146,40.090469],[-75.41446,40.090362],[-75.414326,40.090271],[-75.414188,40.090187],[-75.414024,40.090099],[-75.413879,40.090031],[-75.413689,40.089951],[-75.41354,40.0899],[-75.413378,40.089849],[-75.413239,40.089806],[-75.413118,40.089768],[-75.413092,40.089761],[-75.410859,40.089135],[-75.410825,40.089125],[-75.410618,40.089067],[-75.410188,40.088947],[-75.409325,40.088705],[-75.408628,40.088509],[-75.408439,40.088456],[-75.408486,40.088359],[-75.408501,40.088325],[-75.408586,40.088146],[-75.408671,40.087967],[-75.408742,40.087914],[-75.409086,40.087186],[-75.409122,40.08711],[-75.409154,40.087043],[-75.409174,40.086988],[-75.409189,40.086934],[-75.409198,40.086877],[-75.409199,40.086822],[-75.409191,40.086763],[-75.409175,40.086705],[-75.409153,40.08665],[-75.409123,40.086598],[-75.409089,40.086547],[-75.409084,40.086541],[-75.409045,40.086497],[-75.408996,40.086452],[-75.408942,40.086413],[-75.408884,40.086377],[-75.408823,40.086349],[-75.408759,40.086324],[-75.408698,40.086305],[-75.408611,40.086277],[-75.408546,40.086254],[-75.408479,40.086227],[-75.408416,40.086198],[-75.408356,40.086168],[-75.408305,40.086139],[-75.408194,40.086117],[-75.408074,40.086036],[-75.407963,40.085935],[-75.4079,40.08587],[-75.407874,40.085841],[-75.407846,40.085809],[-75.407792,40.08574],[-75.407742,40.085665],[-75.407702,40.085596],[-75.407668,40.085523],[-75.407639,40.085447],[-75.407617,40.085372],[-75.407601,40.085302],[-75.407571,40.085173],[-75.407457,40.084687],[-75.407337,40.084181],[-75.40733,40.084148],[-75.407296,40.084007],[-75.40708,40.084036],[-75.406863,40.084064],[-75.40626,40.084138],[-75.406246,40.084074],[-75.406222,40.083967],[-75.406177,40.083771],[-75.406133,40.083583],[-75.406131,40.083574],[-75.406128,40.083564],[-75.406108,40.083478],[-75.405988,40.083495],[-75.405278,40.083592],[-75.405164,40.083608],[-75.404941,40.083639],[-75.40474,40.083667],[-75.404695,40.083673],[-75.403661,40.083817],[-75.40354,40.083834],[-75.403129,40.083892],[-75.402921,40.083919],[-75.402699,40.083948],[-75.402477,40.083977],[-75.402278,40.084003],[-75.402254,40.084006],[-75.402064,40.084031],[-75.401855,40.084059],[-75.401652,40.084085],[-75.401438,40.084114],[-75.401354,40.084125],[-75.401231,40.084141],[-75.401111,40.084156],[-75.401087,40.084166],[-75.401079,40.084182],[-75.401073,40.084211],[-75.401068,40.084367],[-75.401072,40.084398],[-75.401194,40.084855],[-75.401071,40.084872],[-75.40102,40.084861],[-75.400982,40.084849],[-75.400895,40.084812],[-75.400909,40.08403],[-75.400911,40.083881],[-75.400916,40.083587],[-75.400918,40.083484],[-75.400924,40.083144],[-75.400938,40.082992],[-75.400844,40.082979],[-75.400478,40.08296],[-75.400298,40.082964],[-75.400183,40.082972],[-75.400126,40.082976],[-75.400081,40.082983],[-75.400016,40.082997],[-75.399969,40.08301],[-75.399917,40.083013],[-75.399863,40.083018],[-75.399783,40.08302],[-75.399504,40.083014],[-75.399408,40.083012],[-75.399411,40.083189],[-75.399404,40.084023],[-75.399242,40.084021],[-75.399023,40.084017],[-75.398918,40.084016],[-75.398803,40.084014],[-75.398674,40.084012],[-75.398666,40.084012],[-75.39856,40.08401],[-75.398338,40.084007],[-75.398301,40.084006],[-75.398111,40.084003],[-75.397884,40.084],[-75.397638,40.083996],[-75.397615,40.083939],[-75.39763,40.08343],[-75.397651,40.083356],[-75.397898,40.083098],[-75.397931,40.083089],[-75.39874,40.082872],[-75.398953,40.082856],[-75.399415,40.08287],[-75.399408,40.083012],[-75.399504,40.083014],[-75.399783,40.08302],[-75.399863,40.083018],[-75.399917,40.083013],[-75.399969,40.08301],[-75.400016,40.082997],[-75.400081,40.082983],[-75.400126,40.082976],[-75.400183,40.082972],[-75.400298,40.082964],[-75.400478,40.08296],[-75.400844,40.082979],[-75.400938,40.082992],[-75.400951,40.082895],[-75.40098,40.08282],[-75.401029,40.082739],[-75.401078,40.082674],[-75.40114,40.082606],[-75.401217,40.082528],[-75.401312,40.082451],[-75.401425,40.082379],[-75.401537,40.082324],[-75.401644,40.08228],[-75.401766,40.082244],[-75.40189,40.08222],[-75.402092,40.082191],[-75.402867,40.082079],[-75.403108,40.082045],[-75.403036,40.081903],[-75.403028,40.081892],[-75.402956,40.081796],[-75.402514,40.081281],[-75.402392,40.081142],[-75.402067,40.080772],[-75.401789,40.080453],[-75.401706,40.080358],[-75.401536,40.080163],[-75.401343,40.079942],[-75.401242,40.079826],[-75.401179,40.07976],[-75.400967,40.079528],[-75.400645,40.079176],[-75.400536,40.079054],[-75.400438,40.078944],[-75.400377,40.078875],[-75.400332,40.078825],[-75.400109,40.078556],[-75.399797,40.078194],[-75.399671,40.078048],[-75.399574,40.077924],[-75.39926,40.077571],[-75.398484,40.076713],[-75.39818,40.076377],[-75.397882,40.07605],[-75.397357,40.075472],[-75.397249,40.075348],[-75.397115,40.07516],[-75.397019,40.074987],[-75.396295,40.073556],[-75.395802,40.072582],[-75.395657,40.072288],[-75.395578,40.072126],[-75.395417,40.071799],[-75.395275,40.07151],[-75.3952,40.071395],[-75.395103,40.071303],[-75.395066,40.071268],[-75.394905,40.071165],[-75.394888,40.071155],[-75.394116,40.070658],[-75.393696,40.070759],[-75.393377,40.070835],[-75.393329,40.070857],[-75.393269,40.070903],[-75.393223,40.07096],[-75.393138,40.071222],[-75.393113,40.071288],[-75.393054,40.071369],[-75.392993,40.071439],[-75.392674,40.071728],[-75.391196,40.072711],[-75.390825,40.072957],[-75.390609,40.073101],[-75.390326,40.073272],[-75.389651,40.073681],[-75.389284,40.07383],[-75.388928,40.073989],[-75.388113,40.074358],[-75.387806,40.074492],[-75.387592,40.074586],[-75.386613,40.074989],[-75.386259,40.075153],[-75.385902,40.075317],[-75.385648,40.075444],[-75.385626,40.075455],[-75.385486,40.075513],[-75.385368,40.075571],[-75.384949,40.075741],[-75.384286,40.076021],[-75.383278,40.07645],[-75.383025,40.076558],[-75.382367,40.076859],[-75.382183,40.076943],[-75.381774,40.07713],[-75.381022,40.077497],[-75.37931,40.078241],[-75.378181,40.078731],[-75.377703,40.078938],[-75.377318,40.079105],[-75.376692,40.079376],[-75.375944,40.079671],[-75.375532,40.079833],[-75.375207,40.079961],[-75.375267,40.080272],[-75.37532,40.080547],[-75.375326,40.080581],[-75.375459,40.08127],[-75.375596,40.081304],[-75.380259,40.082469],[-75.380418,40.082508],[-75.380773,40.082598],[-75.380886,40.082626],[-75.38156,40.082795],[-75.382163,40.082946],[-75.382854,40.083119],[-75.384107,40.083484],[-75.384457,40.08359],[-75.384507,40.083605],[-75.385624,40.083919],[-75.386691,40.084253],[-75.387172,40.084403],[-75.387426,40.084483],[-75.387632,40.084582],[-75.387845,40.08466],[-75.387882,40.084673],[-75.387939,40.084694],[-75.388088,40.08475],[-75.388198,40.084797],[-75.388388,40.084893],[-75.388534,40.084988],[-75.388631,40.085066],[-75.388714,40.085134],[-75.388883,40.085274],[-75.389302,40.085587],[-75.389393,40.08564],[-75.389481,40.085683],[-75.389565,40.085715],[-75.389656,40.085748],[-75.389752,40.085774],[-75.389822,40.08579],[-75.389846,40.085796],[-75.389933,40.085813],[-75.390024,40.085824],[-75.390114,40.085831],[-75.390208,40.085833],[-75.390304,40.08583],[-75.390415,40.085823],[-75.390542,40.085811],[-75.390708,40.085791],[-75.391038,40.085744],[-75.392573,40.085528],[-75.392781,40.0855],[-75.393062,40.08547],[-75.393238,40.085453],[-75.39337,40.085441],[-75.393437,40.085438],[-75.393538,40.085434],[-75.39373,40.085428],[-75.393886,40.085426],[-75.394608,40.085424],[-75.394909,40.085427],[-75.395277,40.085431],[-75.395793,40.085444],[-75.395876,40.085482],[-75.395919,40.085506],[-75.395959,40.08554],[-75.39601,40.085589],[-75.396043,40.08562],[-75.396067,40.085651],[-75.396088,40.085684],[-75.396118,40.085745],[-75.39612,40.085829],[-75.396127,40.08592],[-75.396138,40.086014],[-75.396153,40.086108],[-75.396177,40.086218],[-75.396295,40.086695],[-75.396443,40.08668],[-75.39717,40.086593],[-75.397367,40.086569],[-75.397512,40.086552],[-75.397689,40.08656],[-75.39773,40.086568],[-75.397845,40.086589],[-75.397969,40.086625],[-75.398151,40.086679],[-75.398677,40.086872],[-75.399256,40.087085],[-75.399906,40.087302],[-75.400011,40.08734],[-75.40023,40.087418],[-75.400364,40.087482],[-75.40048,40.087549],[-75.400618,40.087635],[-75.400726,40.087719],[-75.400811,40.08781],[-75.400876,40.087891],[-75.400926,40.087982],[-75.400962,40.08809],[-75.400991,40.088207],[-75.401008,40.088342],[-75.401021,40.088476],[-75.40103,40.088519],[-75.401049,40.088612],[-75.400685,40.088586],[-75.400491,40.088572],[-75.4,40.08854],[-75.3998,40.088544],[-75.399585,40.088559],[-75.399417,40.088577],[-75.399238,40.088613],[-75.39902,40.088665],[-75.398822,40.088723],[-75.398605,40.088799],[-75.398402,40.088892],[-75.398235,40.088976],[-75.398114,40.089058],[-75.397917,40.089197],[-75.397792,40.089301],[-75.397671,40.089431],[-75.397518,40.089606],[-75.397404,40.089768],[-75.397328,40.089871],[-75.397284,40.089973],[-75.397262,40.090048],[-75.397253,40.090076],[-75.397241,40.090125],[-75.397242,40.090158],[-75.397252,40.090322],[-75.397244,40.090653],[-75.397253,40.090845],[-75.397246,40.090944],[-75.39722,40.091062],[-75.397205,40.091132],[-75.3972,40.091152],[-75.397196,40.091173],[-75.397181,40.091213],[-75.396662,40.091147],[-75.396585,40.091128],[-75.396529,40.091113],[-75.396505,40.091104],[-75.396469,40.091091],[-75.396394,40.091058],[-75.396357,40.091038],[-75.396277,40.090995],[-75.396203,40.09095],[-75.396125,40.090885],[-75.396047,40.090801],[-75.395988,40.090729],[-75.395924,40.09065],[-75.395895,40.090614],[-75.395831,40.090541],[-75.395774,40.090498],[-75.395683,40.090434],[-75.395533,40.090487],[-75.395378,40.09053],[-75.395268,40.090561],[-75.395121,40.090594],[-75.395005,40.090612],[-75.394895,40.090624],[-75.394718,40.090634],[-75.394408,40.090648],[-75.393848,40.090655],[-75.393714,40.090656],[-75.393468,40.090659],[-75.393244,40.09066],[-75.393074,40.090663],[-75.392918,40.090664],[-75.392168,40.090686],[-75.392079,40.090689],[-75.391773,40.090702],[-75.391495,40.090708],[-75.391257,40.090706],[-75.39104,40.090696],[-75.390836,40.090671],[-75.390628,40.090641],[-75.390451,40.090611],[-75.390215,40.090549],[-75.390105,40.09051],[-75.390009,40.090477],[-75.389781,40.090397],[-75.389586,40.090311],[-75.389431,40.09023],[-75.389319,40.090161],[-75.389195,40.090074],[-75.389117,40.089999],[-75.389045,40.08992],[-75.388972,40.08978],[-75.388947,40.089736],[-75.388931,40.089703],[-75.388901,40.089637],[-75.388874,40.089558],[-75.388861,40.089487],[-75.38921,40.089451],[-75.389425,40.089471],[-75.389501,40.089503],[-75.389579,40.089572],[-75.389746,40.089797],[-75.389838,40.089879],[-75.390048,40.089985],[-75.390216,40.090055],[-75.390274,40.090076],[-75.390358,40.090105],[-75.390437,40.090118],[-75.390518,40.090148],[-75.390692,40.090183],[-75.390966,40.090227],[-75.391167,40.090258],[-75.391445,40.090268],[-75.391675,40.090262],[-75.391916,40.090254],[-75.392153,40.090248],[-75.392362,40.090238],[-75.392647,40.090226],[-75.392742,40.090226],[-75.392893,40.090223],[-75.393244,40.090218],[-75.393245,40.090577],[-75.393244,40.09066],[-75.393074,40.090663],[-75.392918,40.090664],[-75.392168,40.090686],[-75.392079,40.090689],[-75.391773,40.090702],[-75.391495,40.090708],[-75.391257,40.090706],[-75.39104,40.090696],[-75.390836,40.090671],[-75.390628,40.090641],[-75.390451,40.090611],[-75.390215,40.090549],[-75.390105,40.09051],[-75.390009,40.090477],[-75.389781,40.090397],[-75.389586,40.090311],[-75.389431,40.09023],[-75.389319,40.090161],[-75.389195,40.090074],[-75.389117,40.089999],[-75.389045,40.08992],[-75.388972,40.08978],[-75.388947,40.089736],[-75.388931,40.089703],[-75.388901,40.089637],[-75.388874,40.089558],[-75.388861,40.089487],[-75.38921,40.089451],[-75.389412,40.08947],[-75.389425,40.089471],[-75.389501,40.089503],[-75.389579,40.089572],[-75.389746,40.089797],[-75.389838,40.089879],[-75.390048,40.089985],[-75.390216,40.090055],[-75.390358,40.090105],[-75.390437,40.090118],[-75.390518,40.090148],[-75.390692,40.090183],[-75.390966,40.090227],[-75.391167,40.090258],[-75.391445,40.090268],[-75.391675,40.090262],[-75.391916,40.090254],[-75.392153,40.090248],[-75.392362,40.090238],[-75.392647,40.090226],[-75.392742,40.090226],[-75.392893,40.090223],[-75.393244,40.090218],[-75.393245,40.090577],[-75.393244,40.09066],[-75.393074,40.090663],[-75.392918,40.090664],[-75.392168,40.090686],[-75.392079,40.090689],[-75.391773,40.090702],[-75.391495,40.090708],[-75.391257,40.090706],[-75.39104,40.090696],[-75.390836,40.090671],[-75.390628,40.090641],[-75.390451,40.090611],[-75.390215,40.090549],[-75.390105,40.09051],[-75.390009,40.090477],[-75.389781,40.090397],[-75.389586,40.090311],[-75.389431,40.09023],[-75.389319,40.090161],[-75.389195,40.090074],[-75.389117,40.089999],[-75.389045,40.08992],[-75.388972,40.08978],[-75.388947,40.089736],[-75.388931,40.089703],[-75.388901,40.089637],[-75.388874,40.089558],[-75.388861,40.089487],[-75.388849,40.089414],[-75.388702,40.089432],[-75.388166,40.089484],[-75.387827,40.089488],[-75.387679,40.089512],[-75.387548,40.089545],[-75.387414,40.08959],[-75.387285,40.08964],[-75.387156,40.089699],[-75.385997,40.0903],[-75.385899,40.090346],[-75.385539,40.090507],[-75.385187,40.090665],[-75.384778,40.090847],[-75.384563,40.090864],[-75.384462,40.090863],[-75.384423,40.09086],[-75.384284,40.090832],[-75.38415,40.090791],[-75.384038,40.090746],[-75.383946,40.090689],[-75.383799,40.090586],[-75.383739,40.090546],[-75.383695,40.090516],[-75.383516,40.090388],[-75.383472,40.090357],[-75.383279,40.090172],[-75.383223,40.089958],[-75.383239,40.089909],[-75.38338,40.089862],[-75.383436,40.089827],[-75.383474,40.089762],[-75.383594,40.089726],[-75.383853,40.089612],[-75.387676,40.087933],[-75.387819,40.087871],[-75.387944,40.087816],[-75.388065,40.087763],[-75.387915,40.087577],[-75.38783,40.087491],[-75.387712,40.087409],[-75.387502,40.087282],[-75.38732,40.08722],[-75.386843,40.087097],[-75.386785,40.087076],[-75.386722,40.087049],[-75.386649,40.087003],[-75.386582,40.086939],[-75.386395,40.086686],[-75.386371,40.086662],[-75.386344,40.086636],[-75.386223,40.086579],[-75.386107,40.086453],[-75.385982,40.086507],[-75.385629,40.086661],[-75.385568,40.086687],[-75.385021,40.086927],[-75.384363,40.08721],[-75.384126,40.087312],[-75.38404,40.087349],[-75.383946,40.08739],[-75.383465,40.087601],[-75.383224,40.087706],[-75.383162,40.087733],[-75.382761,40.087907],[-75.38221,40.088144],[-75.382036,40.088217],[-75.381878,40.088282],[-75.381208,40.08856],[-75.380781,40.088723],[-75.38034,40.088885],[-75.379937,40.089021],[-75.37975,40.089087],[-75.377194,40.089926],[-75.375868,40.090364],[-75.375616,40.090453],[-75.375168,40.090606],[-75.374902,40.090698],[-75.374437,40.090859],[-75.374127,40.090966],[-75.37399,40.091013],[-75.373651,40.09113],[-75.373275,40.09126],[-75.373178,40.091294],[-75.372026,40.091683],[-75.371255,40.091944],[-75.370358,40.092248],[-75.370255,40.092283],[-75.368307,40.09294],[-75.367822,40.093104],[-75.36772,40.093139],[-75.367783,40.093259],[-75.367832,40.093351],[-75.368128,40.093912],[-75.368219,40.094083],[-75.367634,40.094261],[-75.367555,40.094285],[-75.367354,40.094346],[-75.367111,40.09442],[-75.366863,40.093937],[-75.366777,40.093772],[-75.366715,40.093791],[-75.36646,40.093868],[-75.366403,40.093914],[-75.366389,40.09396],[-75.366495,40.094176],[-75.366479,40.094247],[-75.366431,40.094272],[-75.366325,40.094304],[-75.366231,40.094333],[-75.366009,40.094401],[-75.365789,40.094465],[-75.365912,40.094725],[-75.365729,40.09478],[-75.365474,40.094856],[-75.365255,40.094921],[-75.365044,40.094984],[-75.365089,40.095036],[-75.365268,40.095372],[-75.365196,40.095394],[-75.365101,40.095423],[-75.364807,40.095513],[-75.364686,40.095524],[-75.364593,40.095553],[-75.364527,40.095576],[-75.364482,40.095587],[-75.364477,40.095588],[-75.36444,40.095594],[-75.364388,40.095599],[-75.364259,40.095601],[-75.363857,40.095346],[-75.363822,40.095253],[-75.363437,40.095001],[-75.363192,40.094841],[-75.363157,40.094818],[-75.362933,40.094735],[-75.362789,40.094623],[-75.362408,40.094127],[-75.36236,40.094065],[-75.362091,40.093715],[-75.361928,40.09347],[-75.361615,40.093001],[-75.361169,40.092331],[-75.361096,40.092222],[-75.360971,40.092272],[-75.360943,40.092284],[-75.360841,40.092317],[-75.360744,40.092326],[-75.360627,40.092318],[-75.360537,40.092299],[-75.360497,40.09229],[-75.360392,40.092261],[-75.360303,40.09224],[-75.360199,40.092233],[-75.36004,40.092244],[-75.359865,40.092299],[-75.359541,40.092402],[-75.359498,40.092326],[-75.35932,40.092004],[-75.359197,40.092043],[-75.35904,40.092092],[-75.358819,40.092162],[-75.358738,40.092018],[-75.358521,40.09163],[-75.358393,40.091672],[-75.358276,40.091709],[-75.358246,40.091719],[-75.35808,40.091773],[-75.358068,40.091777],[-75.357871,40.09184],[-75.357834,40.091852],[-75.357655,40.09191],[-75.357612,40.091922],[-75.357426,40.091976],[-75.357294,40.09174],[-75.357161,40.091502],[-75.357097,40.091388],[-75.356974,40.091168],[-75.356517,40.091314],[-75.356409,40.091374],[-75.35635,40.091441],[-75.356332,40.091513],[-75.356345,40.091586],[-75.356524,40.09196],[-75.356742,40.092415],[-75.357219,40.093411],[-75.357473,40.09395],[-75.357583,40.094167],[-75.357658,40.094324],[-75.357716,40.094474],[-75.357781,40.094662],[-75.357836,40.094835],[-75.357949,40.094821],[-75.358154,40.094795],[-75.358253,40.094786],[-75.358391,40.094813],[-75.358398,40.094814],[-75.358535,40.094841],[-75.358797,40.094858],[-75.359075,40.094866],[-75.359103,40.095055],[-75.359129,40.09518]]}},{"type":"Feature","properties":{"agency":"Greater Valley Forge TMA","shape_id":"WB_BL_GR"},"geometry":{"type":"LineString","coordinates":[[-75.359129,40.09518],[-75.359145,40.095255],[-75.359167,40.095415],[-75.359155,40.095475],[-75.359148,40.095529],[-75.359129,40.095594],[-75.359095,40.095657],[-75.35904,40.095767],[-75.358938,40.095799],[-75.358695,40.095875],[-75.358142,40.096049],[-75.358087,40.096067],[-75.357814,40.096137],[-75.357838,40.096037],[-75.357913,40.095963],[-75.357965,40.095657],[-75.357916,40.095612],[-75.357927,40.095499],[-75.357918,40.095247],[-75.357836,40.094835],[-75.357781,40.094662],[-75.357716,40.094474],[-75.357658,40.094324],[-75.357583,40.094167],[-75.357473,40.09395],[-75.357219,40.093411],[-75.356751,40.092434],[-75.356742,40.092415],[-75.356524,40.09196],[-75.356345,40.091586],[-75.356332,40.091513],[-75.35635,40.091441],[-75.356409,40.091374],[-75.356517,40.091314],[-75.356974,40.091168],[-75.357097,40.091388],[-75.357161,40.091502],[-75.357294,40.09174],[-75.357426,40.091976],[-75.357513,40.092136],[-75.357677,40.092435],[-75.357739,40.092519],[-75.357833,40.092599],[-75.357922,40.092658],[-75.358076,40.092719],[-75.358139,40.09273],[-75.358253,40.092749],[-75.358402,40.09275],[-75.358552,40.092727],[-75.358827,40.092639],[-75.359141,40.092534],[-75.359333,40.09247],[-75.359408,40.092445],[-75.359541,40.092402],[-75.359498,40.092326],[-75.359394,40.092137],[-75.35932,40.092004],[-75.359487,40.091951],[-75.359654,40.091898],[-75.35957,40.091759],[-75.359336,40.091367],[-75.359141,40.09143],[-75.359068,40.091454],[-75.358943,40.091494],[-75.358784,40.091545],[-75.358722,40.091565],[-75.358521,40.09163],[-75.358393,40.091672],[-75.358276,40.091709],[-75.358246,40.091719],[-75.35808,40.091773],[-75.358068,40.091777],[-75.357871,40.09184],[-75.357834,40.091852],[-75.357655,40.09191],[-75.357612,40.091922],[-75.357426,40.091976],[-75.357294,40.09174],[-75.357161,40.091502],[-75.357097,40.091388],[-75.356974,40.091168],[-75.358131,40.090796],[-75.359506,40.090347],[-75.359641,40.090303],[-75.360086,40.090858],[-75.36016,40.090957],[-75.360265,40.091098],[-75.360369,40.091238],[-75.360789,40.091802],[-75.361027,40.092127],[-75.361096,40.092222],[-75.361169,40.092331],[-75.361361,40.092619],[-75.361615,40.093001],[-75.361928,40.09347],[-75.362091,40.093715],[-75.36236,40.094065],[-75.362408,40.094127],[-75.362789,40.094623],[-75.362933,40.094735],[-75.363382,40.094598],[-75.363535,40.094552],[-75.363805,40.094469],[-75.364023,40.094403],[-75.364659,40.094208],[-75.364996,40.094105],[-75.365291,40.094016],[-75.365337,40.094002],[-75.365506,40.093957],[-75.365512,40.094051],[-75.365513,40.094066],[-75.365701,40.094417],[-75.365789,40.094465],[-75.366009,40.094401],[-75.366231,40.094333],[-75.366325,40.094304],[-75.366431,40.094272],[-75.366479,40.094247],[-75.366495,40.094176],[-75.366389,40.09396],[-75.366403,40.093914],[-75.36646,40.093868],[-75.366715,40.093791],[-75.366777,40.093772],[-75.366863,40.093937],[-75.367111,40.09442],[-75.367354,40.094346],[-75.367555,40.094285],[-75.367634,40.094261],[-75.368219,40.094083],[-75.367832,40.093351],[-75.367783,40.093259],[-75.367914,40.093214],[-75.368583,40.092988],[-75.36909,40.092817],[-75.369503,40.092677],[-75.369584,40.09265],[-75.369603,40.092643],[-75.37033,40.092406],[-75.370439,40.09237],[-75.370739,40.092255],[-75.371182,40.092101],[-75.372279,40.091717],[-75.372469,40.091656],[-75.373245,40.091405],[-75.376089,40.090408],[-75.377398,40.089955],[-75.377946,40.089791],[-75.378362,40.089666],[-75.378772,40.08953],[-75.379191,40.08939],[-75.379344,40.089339],[-75.379505,40.089286],[-75.379789,40.089188],[-75.380073,40.08909],[-75.380306,40.08901],[-75.380491,40.088946],[-75.380666,40.088886],[-75.380764,40.088852],[-75.381053,40.088763],[-75.381212,40.088702],[-75.381375,40.088639],[-75.38142,40.08862],[-75.381885,40.088455],[-75.381935,40.088434],[-75.381969,40.088419],[-75.382134,40.08835],[-75.382166,40.088449],[-75.382176,40.088478],[-75.38226,40.088599],[-75.382324,40.08871],[-75.382401,40.088864],[-75.382542,40.089186],[-75.382696,40.089531],[-75.382864,40.089695],[-75.382932,40.089808],[-75.382986,40.089871],[-75.383115,40.090021],[-75.383279,40.090172],[-75.383472,40.090357],[-75.383516,40.090388],[-75.383695,40.090516],[-75.383739,40.090546],[-75.383799,40.090586],[-75.383946,40.090689],[-75.384038,40.090746],[-75.384367,40.090983],[-75.384474,40.091074],[-75.384629,40.091037],[-75.384808,40.090955],[-75.384874,40.090929],[-75.384937,40.090925],[-75.385005,40.09092],[-75.385289,40.090799],[-75.385429,40.090802],[-75.385483,40.090823],[-75.385633,40.090746],[-75.385682,40.09074],[-75.386132,40.090836],[-75.386177,40.0907],[-75.386279,40.090651],[-75.38616,40.090502],[-75.386119,40.09045],[-75.386071,40.090388],[-75.385997,40.0903],[-75.385899,40.090346],[-75.385539,40.090507],[-75.385187,40.090665],[-75.384778,40.090847],[-75.384563,40.090864],[-75.384462,40.090863],[-75.384423,40.09086],[-75.384284,40.090832],[-75.38415,40.090791],[-75.384038,40.090746],[-75.383946,40.090689],[-75.383799,40.090586],[-75.383739,40.090546],[-75.383695,40.090516],[-75.383516,40.090388],[-75.383472,40.090357],[-75.383279,40.090172],[-75.383223,40.089958],[-75.383239,40.089909],[-75.38338,40.089862],[-75.383436,40.089827],[-75.383474,40.089762],[-75.383594,40.089726],[-75.383853,40.089612],[-75.387676,40.087933],[-75.387819,40.087871],[-75.387944,40.087816],[-75.388003,40.0879],[-75.38845,40.088543],[-75.388494,40.088605],[-75.388538,40.088669],[-75.388629,40.088812],[-75.388666,40.088989],[-75.388674,40.089128],[-75.388676,40.089169],[-75.388683,40.089281],[-75.388702,40.089432],[-75.388711,40.089506],[-75.388861,40.089487],[-75.38921,40.089451],[-75.389425,40.089471],[-75.389501,40.089503],[-75.389579,40.089572],[-75.389746,40.089797],[-75.389838,40.089879],[-75.390048,40.089985],[-75.390102,40.090007],[-75.390216,40.090055],[-75.390358,40.090105],[-75.390437,40.090118],[-75.390518,40.090148],[-75.390692,40.090183],[-75.390966,40.090227],[-75.391167,40.090258],[-75.391445,40.090268],[-75.391675,40.090262],[-75.391916,40.090254],[-75.392153,40.090248],[-75.392362,40.090238],[-75.392647,40.090226],[-75.392742,40.090226],[-75.392893,40.090223],[-75.393244,40.090218],[-75.393245,40.090577],[-75.393244,40.09066],[-75.393252,40.090814],[-75.394509,40.090787],[-75.394696,40.090783],[-75.394863,40.090774],[-75.395007,40.090758],[-75.395147,40.090742],[-75.395265,40.090717],[-75.39542,40.090676],[-75.395644,40.090611],[-75.395733,40.090577],[-75.395786,40.090659],[-75.395812,40.090692],[-75.395899,40.090802],[-75.395975,40.090897],[-75.396053,40.090975],[-75.396146,40.091045],[-75.396208,40.091084],[-75.396265,40.091117],[-75.396363,40.091164],[-75.396456,40.091201],[-75.396578,40.091236],[-75.396705,40.091259],[-75.397096,40.091309],[-75.397157,40.091321],[-75.397258,40.091332],[-75.397286,40.091228],[-75.397294,40.091165],[-75.397311,40.091031],[-75.397322,40.090866],[-75.397317,40.090816],[-75.397303,40.090669],[-75.397252,40.090322],[-75.397242,40.090158],[-75.397241,40.090125],[-75.397253,40.090076],[-75.397262,40.090048],[-75.397284,40.089973],[-75.397328,40.089871],[-75.397404,40.089768],[-75.397518,40.089606],[-75.397671,40.089431],[-75.397792,40.089301],[-75.397917,40.089197],[-75.398114,40.089058],[-75.398235,40.088976],[-75.398402,40.088892],[-75.398605,40.088799],[-75.398822,40.088723],[-75.39902,40.088665],[-75.399238,40.088613],[-75.399417,40.088577],[-75.399585,40.088559],[-75.3998,40.088544],[-75.4,40.08854],[-75.400491,40.088572],[-75.401049,40.088612],[-75.40103,40.088519],[-75.401021,40.088476],[-75.401008,40.088342],[-75.400991,40.088207],[-75.400962,40.08809],[-75.400926,40.087982],[-75.400876,40.087891],[-75.400811,40.08781],[-75.400726,40.087719],[-75.400618,40.087635],[-75.40048,40.087549],[-75.400364,40.087482],[-75.40023,40.087418],[-75.400011,40.08734],[-75.399906,40.087302],[-75.399256,40.087085],[-75.398677,40.086872],[-75.398151,40.086679],[-75.397969,40.086625],[-75.397845,40.086589],[-75.39773,40.086568],[-75.397689,40.08656],[-75.397512,40.086552],[-75.397367,40.086569],[-75.397315,40.086575],[-75.39717,40.086593],[-75.396443,40.08668],[-75.396318,40.086198],[-75.396297,40.086099],[-75.396278,40.086001],[-75.396266,40.085911],[-75.396259,40.085825],[-75.396253,40.08558],[-75.396252,40.08551],[-75.39625,40.085454],[-75.3967,40.085459],[-75.396986,40.085462],[-75.397531,40.085462],[-75.39814,40.085461],[-75.399016,40.085458],[-75.399418,40.085456],[-75.39961,40.085456],[-75.39995,40.085455],[-75.400429,40.085453],[-75.400641,40.085456],[-75.400902,40.085469],[-75.400924,40.08536],[-75.400931,40.084959],[-75.400932,40.084909],[-75.400895,40.084812],[-75.400909,40.08403],[-75.400911,40.083881],[-75.400918,40.083484],[-75.400924,40.083144],[-75.400938,40.082992],[-75.400951,40.082895],[-75.40098,40.08282],[-75.401029,40.082739],[-75.401078,40.082674],[-75.40114,40.082606],[-75.401217,40.082528],[-75.401312,40.082451],[-75.401425,40.082379],[-75.401537,40.082324],[-75.401644,40.08228],[-75.401766,40.082244],[-75.40189,40.08222],[-75.402092,40.082191],[-75.402867,40.082079],[-75.403108,40.082045],[-75.403036,40.081903],[-75.403028,40.081892],[-75.402956,40.081796],[-75.402514,40.081281],[-75.402443,40.0812],[-75.402392,40.081142],[-75.402067,40.080772],[-75.401789,40.080453],[-75.401706,40.080358],[-75.401536,40.080163],[-75.401343,40.079942],[-75.401242,40.079826],[-75.401179,40.07976],[-75.400967,40.079528],[-75.400645,40.079176],[-75.400536,40.079054],[-75.400438,40.078944],[-75.400377,40.078875],[-75.400332,40.078825],[-75.400109,40.078556],[-75.399671,40.078048],[-75.399574,40.077924],[-75.39926,40.077571],[-75.398484,40.076713],[-75.39818,40.076377],[-75.397882,40.07605],[-75.397357,40.075472],[-75.397249,40.075348],[-75.397115,40.07516],[-75.397019,40.074987],[-75.396295,40.073556],[-75.395802,40.072582],[-75.395657,40.072288],[-75.395578,40.072126],[-75.395417,40.071799],[-75.395275,40.07151],[-75.3952,40.071395],[-75.395103,40.071303],[-75.395066,40.071268],[-75.394905,40.071165],[-75.394888,40.071155],[-75.394116,40.070658],[-75.393696,40.070759],[-75.393377,40.070835],[-75.393329,40.070857],[-75.393269,40.070903],[-75.393223,40.07096],[-75.393138,40.071222],[-75.393113,40.071288],[-75.393054,40.071369],[-75.392993,40.071439],[-75.392674,40.071728],[-75.391196,40.072711],[-75.390825,40.072957],[-75.390609,40.073101],[-75.390326,40.073272],[-75.389651,40.073681],[-75.389284,40.07383],[-75.388928,40.073989],[-75.388113,40.074358],[-75.387806,40.074492],[-75.387592,40.074586],[-75.386613,40.074989],[-75.386204,40.075178],[-75.385902,40.075317],[-75.385648,40.075444],[-75.385626,40.075455],[-75.385486,40.075513],[-75.385368,40.075571],[-75.384949,40.075741],[-75.384286,40.076021],[-75.383278,40.07645],[-75.383025,40.076558],[-75.382367,40.076859],[-75.382183,40.076943],[-75.381774,40.07713],[-75.381022,40.077497],[-75.37931,40.078241],[-75.378181,40.078731],[-75.377703,40.078938],[-75.377318,40.079105],[-75.376692,40.079376],[-75.375944,40.079671],[-75.375532,40.079833],[-75.375207,40.079961],[-75.375267,40.080272],[-75.375326,40.080581],[-75.375459,40.08127],[-75.375596,40.081304],[-75.377731,40.081837],[-75.380259,40.082469],[-75.380418,40.082508],[-75.380773,40.082598],[-75.380886,40.082626],[-75.38156,40.082795],[-75.382163,40.082946],[-75.382854,40.083119],[-75.384107,40.083484],[-75.384457,40.08359],[-75.384507,40.083605],[-75.385624,40.083919],[-75.386691,40.084253],[-75.387172,40.084403],[-75.387426,40.084483],[-75.387632,40.084582],[-75.387845,40.08466],[-75.387882,40.084673],[-75.387939,40.084694],[-75.388088,40.08475],[-75.388198,40.084797],[-75.388388,40.084893],[-75.388534,40.084988],[-75.388631,40.085066],[-75.388714,40.085134],[-75.388883,40.085274],[-75.389302,40.085587],[-75.389393,40.08564],[-75.389481,40.085683],[-75.389565,40.085715],[-75.389656,40.085748],[-75.389752,40.085774],[-75.389846,40.085796],[-75.389933,40.085813],[-75.390024,40.085824],[-75.390114,40.085831],[-75.390208,40.085833],[-75.390304,40.08583],[-75.390415,40.085823],[-75.390542,40.085811],[-75.390708,40.085791],[-75.391038,40.085744],[-75.392573,40.085528],[-75.392781,40.0855],[-75.393062,40.08547],[-75.393238,40.085453],[-75.39337,40.085441],[-75.393437,40.085438],[-75.393538,40.085434],[-75.39373,40.085428],[-75.393886,40.085426],[-75.394608,40.085424],[-75.394909,40.085427],[-75.395277,40.085431],[-75.395793,40.085444],[-75.395977,40.085449],[-75.396019,40.08545],[-75.396143,40.085453],[-75.39625,40.085454],[-75.3967,40.085459],[-75.396986,40.085462],[-75.397531,40.085462],[-75.39814,40.085461],[-75.399016,40.085458],[-75.399418,40.085456],[-75.39961,40.085456],[-75.39995,40.085455],[-75.400187,40.085454],[-75.400429,40.085453],[-75.400641,40.085456],[-75.400902,40.085469],[-75.400924,40.08536],[-75.400931,40.084959],[-75.400932,40.084909],[-75.400895,40.084812],[-75.400909,40.08403],[-75.400911,40.083881],[-75.400918,40.083484],[-75.400924,40.083144],[-75.400938,40.082992],[-75.400844,40.082979],[-75.400514,40.082962],[-75.400478,40.08296],[-75.400298,40.082964],[-75.400183,40.082972],[-75.400126,40.082976],[-75.400081,40.082983],[-75.400016,40.082997],[-75.399969,40.08301],[-75.399917,40.083013],[-75.399863,40.083018],[-75.399783,40.08302],[-75.399504,40.083014],[-75.399408,40.083012],[-75.399415,40.08287],[-75.398953,40.082856],[-75.39874,40.082872],[-75.397898,40.083098],[-75.397651,40.083356],[-75.39763,40.08343],[-75.397615,40.083939],[-75.397638,40.083996],[-75.397884,40.084],[-75.398111,40.084003],[-75.398301,40.084006],[-75.398338,40.084007],[-75.39856,40.08401],[-75.398666,40.084012],[-75.398674,40.084012],[-75.398803,40.084014],[-75.398918,40.084016],[-75.399023,40.084017],[-75.399242,40.084021],[-75.399404,40.084023],[-75.399411,40.083189],[-75.399408,40.083012],[-75.399504,40.083014],[-75.399783,40.08302],[-75.399863,40.083018],[-75.399917,40.083013],[-75.399969,40.08301],[-75.400016,40.082997],[-75.400081,40.082983],[-75.400126,40.082976],[-75.400183,40.082972],[-75.400298,40.082964],[-75.400478,40.08296],[-75.400518,40.082962],[-75.400844,40.082979],[-75.400938,40.082992],[-75.401079,40.082994],[-75.40114,40.082987],[-75.401196,40.082975],[-75.401267,40.082943],[-75.401557,40.08286],[-75.401748,40.082829],[-75.401849,40.082816],[-75.402835,40.082683],[-75.403247,40.082621],[-75.403385,40.083193],[-75.403437,40.083413],[-75.403523,40.083764],[-75.40354,40.083834],[-75.403649,40.084288],[-75.403652,40.084298],[-75.403686,40.084438],[-75.403524,40.084462],[-75.403468,40.084474],[-75.403359,40.08451],[-75.403255,40.084507],[-75.403203,40.084537],[-75.403155,40.08457],[-75.403107,40.08461],[-75.403061,40.084653],[-75.403011,40.08471],[-75.402955,40.084676],[-75.40293,40.084661],[-75.402903,40.084647],[-75.40287,40.084636],[-75.402838,40.084631],[-75.402803,40.084633],[-75.402645,40.084655],[-75.402463,40.08468],[-75.402447,40.084682],[-75.402231,40.084712],[-75.402064,40.084031],[-75.402254,40.084006],[-75.402278,40.084003],[-75.402477,40.083977],[-75.402699,40.083948],[-75.402921,40.083919],[-75.403129,40.083892],[-75.40354,40.083834],[-75.403661,40.083817],[-75.404695,40.083673],[-75.40474,40.083667],[-75.404941,40.083639],[-75.405164,40.083608],[-75.405278,40.083592],[-75.405939,40.083502],[-75.405988,40.083495],[-75.406108,40.083478],[-75.406128,40.083564],[-75.406133,40.083583],[-75.406177,40.083771],[-75.406222,40.083967],[-75.406246,40.084074],[-75.40626,40.084138],[-75.406863,40.084064],[-75.40708,40.084036],[-75.407296,40.084007],[-75.407499,40.083975],[-75.407587,40.083952],[-75.40768,40.08392],[-75.407757,40.083887],[-75.407946,40.083798],[-75.408125,40.083706],[-75.408738,40.083407],[-75.408926,40.083315],[-75.409099,40.083341],[-75.409131,40.083344],[-75.409162,40.08335],[-75.409192,40.083358],[-75.40927,40.083394],[-75.409642,40.08386],[-75.410217,40.084575],[-75.410251,40.084617],[-75.41035,40.084741],[-75.410535,40.084977],[-75.411025,40.085598],[-75.411227,40.085853],[-75.41197,40.08679],[-75.412781,40.087852],[-75.413202,40.088404],[-75.413269,40.088504],[-75.413327,40.08861],[-75.413402,40.088776],[-75.413426,40.088847],[-75.413443,40.088917],[-75.413457,40.088997],[-75.413463,40.089081],[-75.413462,40.089175],[-75.413455,40.089251],[-75.413442,40.089325],[-75.413421,40.089396],[-75.413396,40.089461],[-75.413281,40.089713],[-75.413239,40.089806],[-75.41317,40.089898],[-75.413258,40.089921],[-75.413329,40.08994],[-75.41355,40.090007],[-75.41371,40.090064],[-75.413857,40.09012],[-75.413978,40.090171],[-75.414128,40.090248],[-75.414263,40.090327],[-75.414394,40.090416],[-75.414532,40.090517],[-75.414667,40.090635],[-75.414782,40.090754],[-75.414892,40.090888],[-75.415066,40.091122],[-75.415893,40.092282],[-75.415967,40.092386],[-75.415997,40.092427],[-75.416027,40.092469],[-75.41615,40.092635],[-75.416396,40.09295],[-75.416501,40.093093],[-75.416594,40.093236],[-75.416688,40.093394],[-75.416771,40.093548],[-75.416841,40.093692],[-75.416855,40.093728],[-75.416905,40.093857],[-75.416959,40.09402],[-75.417004,40.09418],[-75.41704,40.094341],[-75.417085,40.094617],[-75.417098,40.0947],[-75.417119,40.094826],[-75.417131,40.094917],[-75.41715,40.095018],[-75.417289,40.095782],[-75.417324,40.095948],[-75.417337,40.096001],[-75.417383,40.096163],[-75.41743,40.096321],[-75.417478,40.096453],[-75.417542,40.096617],[-75.417584,40.096714],[-75.417625,40.096799],[-75.417671,40.096881],[-75.41773,40.096973],[-75.417815,40.097063],[-75.417894,40.097186],[-75.418404,40.0979],[-75.418482,40.09801],[-75.418997,40.09872],[-75.419719,40.099714],[-75.419985,40.10011],[-75.420086,40.100249],[-75.420213,40.100423],[-75.420224,40.100502],[-75.420226,40.100533],[-75.420221,40.100568],[-75.420211,40.100598],[-75.420198,40.100625],[-75.420179,40.100651],[-75.420152,40.100681],[-75.420119,40.100709],[-75.420016,40.100822],[-75.419893,40.100856],[-75.41984,40.100871],[-75.419711,40.100881],[-75.419285,40.100998],[-75.419033,40.101068],[-75.418708,40.101165],[-75.418336,40.101275],[-75.418066,40.101357],[-75.417287,40.101578],[-75.417138,40.101623],[-75.41671,40.101749],[-75.416486,40.101816],[-75.416048,40.101942],[-75.41567,40.102049],[-75.415469,40.102111],[-75.415303,40.102201],[-75.414671,40.10239],[-75.414401,40.102465],[-75.41392,40.102605],[-75.413244,40.102801],[-75.412973,40.10288],[-75.412704,40.102967],[-75.412439,40.103058],[-75.412294,40.103111],[-75.41237,40.103227],[-75.412451,40.103365],[-75.412622,40.103302],[-75.412877,40.10321],[-75.412979,40.103175],[-75.4131,40.103141],[-75.413224,40.103112],[-75.413924,40.102966],[-75.414229,40.102903],[-75.414754,40.102785],[-75.415142,40.102698],[-75.415369,40.102647],[-75.415474,40.102633],[-75.41557,40.102624],[-75.415829,40.102608],[-75.416012,40.102603],[-75.416138,40.102605],[-75.416256,40.10261],[-75.416383,40.10262],[-75.416384,40.102875],[-75.416388,40.102929],[-75.416399,40.102986],[-75.416444,40.103111],[-75.416473,40.103181],[-75.416493,40.10325],[-75.416496,40.103275],[-75.416521,40.10351],[-75.41657,40.104996],[-75.41658,40.105599],[-75.416581,40.105712],[-75.416583,40.105833],[-75.416591,40.105904],[-75.416615,40.105959],[-75.416649,40.106005],[-75.416692,40.106046],[-75.41674,40.106077],[-75.416799,40.106101],[-75.416863,40.106118],[-75.416932,40.10613],[-75.416991,40.10613],[-75.417051,40.10613],[-75.417198,40.106107],[-75.417348,40.106074],[-75.417382,40.106059],[-75.417898,40.105831],[-75.418213,40.105692],[-75.418287,40.105635],[-75.418353,40.105553],[-75.418398,40.105463],[-75.418495,40.105037],[-75.418504,40.104919],[-75.418504,40.104912],[-75.418503,40.104807],[-75.418473,40.104675],[-75.418023,40.103203],[-75.417922,40.102871],[-75.417679,40.102823],[-75.417227,40.102733],[-75.417039,40.102701],[-75.416755,40.102662],[-75.416503,40.102632],[-75.416383,40.10262],[-75.416256,40.10261],[-75.416138,40.102605],[-75.416012,40.102603],[-75.415829,40.102608],[-75.41557,40.102624],[-75.415474,40.102633],[-75.415369,40.102647],[-75.415142,40.102698],[-75.414754,40.102785],[-75.414229,40.102903],[-75.413924,40.102966],[-75.413224,40.103112],[-75.4131,40.103141],[-75.412979,40.103175],[-75.412877,40.10321],[-75.412622,40.103302],[-75.412451,40.103365],[-75.412474,40.103422],[-75.412505,40.103496],[-75.412545,40.103591],[-75.412557,40.103641],[-75.41256,40.103695],[-75.412551,40.103754],[-75.412529,40.103815],[-75.412502,40.103872],[-75.412393,40.104043],[-75.412367,40.104096],[-75.41232,40.104235],[-75.412314,40.104281],[-75.412316,40.104324],[-75.412312,40.104403],[-75.412333,40.104432],[-75.41237,40.104473],[-75.412418,40.104517],[-75.412472,40.104558],[-75.412527,40.104591],[-75.412578,40.104616],[-75.4126,40.104623],[-75.412625,40.104631],[-75.412738,40.104657],[-75.412795,40.10467],[-75.41284,40.104681],[-75.412869,40.104687],[-75.413325,40.104792],[-75.413416,40.104789],[-75.413406,40.104803],[-75.413369,40.104947],[-75.413399,40.105092],[-75.413492,40.10522],[-75.413636,40.105317],[-75.413778,40.105363],[-75.413955,40.105375],[-75.413969,40.105376],[-75.414154,40.105338],[-75.414312,40.105254],[-75.414352,40.105212],[-75.414414,40.105146],[-75.414414,40.105146],[-75.41447,40.105006],[-75.414466,40.104943],[-75.41446,40.104859],[-75.414384,40.104724],[-75.414253,40.104617],[-75.414137,40.104566],[-75.41395,40.104533],[-75.413759,40.104551],[-75.413589,40.104618],[-75.413518,40.104675],[-75.413458,40.104726],[-75.413416,40.104789],[-75.413348,40.104731],[-75.412914,40.104632],[-75.412892,40.104627],[-75.412848,40.104617],[-75.412811,40.104608],[-75.412653,40.104572],[-75.412616,40.10456],[-75.412575,40.10454],[-75.412457,40.104468],[-75.412421,40.104438],[-75.412391,40.104405],[-75.412375,40.104382],[-75.412316,40.104324],[-75.412314,40.104281],[-75.41232,40.104235],[-75.412367,40.104096],[-75.412393,40.104043],[-75.412502,40.103872],[-75.412529,40.103815],[-75.412551,40.103754],[-75.41256,40.103695],[-75.412557,40.103641],[-75.412545,40.103591],[-75.412505,40.103496],[-75.412474,40.103422],[-75.412451,40.103365],[-75.41237,40.103227],[-75.412294,40.103111],[-75.412157,40.103165],[-75.411945,40.10326],[-75.411743,40.103356],[-75.411393,40.103528],[-75.411196,40.103638],[-75.410976,40.103768],[-75.410751,40.103907],[-75.410341,40.104168],[-75.410213,40.104241],[-75.410068,40.104319],[-75.409724,40.10449],[-75.409462,40.104621],[-75.409399,40.104654],[-75.409279,40.104716],[-75.409108,40.10482],[-75.408962,40.104918],[-75.40885,40.105016],[-75.408544,40.105305],[-75.408406,40.105435],[-75.408347,40.105501],[-75.408294,40.105575],[-75.408249,40.10565],[-75.408211,40.105732],[-75.408141,40.105919],[-75.408107,40.105983],[-75.408065,40.106039],[-75.408018,40.106085],[-75.407969,40.106118],[-75.407914,40.106142],[-75.407855,40.10616],[-75.407788,40.106172],[-75.407725,40.106176],[-75.407663,40.106174],[-75.407607,40.106166],[-75.40755,40.106151],[-75.407496,40.106132],[-75.407439,40.106106],[-75.407227,40.105985],[-75.407077,40.1059],[-75.406995,40.105846],[-75.406931,40.105796],[-75.406875,40.105748],[-75.406735,40.105842],[-75.406535,40.105976],[-75.406428,40.106056],[-75.406325,40.106142],[-75.406217,40.106238],[-75.405926,40.106516],[-75.405867,40.10656],[-75.405804,40.106598],[-75.405731,40.106634],[-75.405643,40.106669],[-75.40554,40.106704],[-75.40543,40.106731],[-75.404935,40.106841],[-75.404684,40.106901],[-75.404216,40.107025],[-75.403454,40.107245],[-75.402735,40.107432],[-75.402048,40.107622],[-75.399909,40.108256],[-75.398932,40.108545],[-75.398494,40.108674],[-75.398467,40.108682],[-75.398158,40.108764],[-75.398092,40.108656],[-75.397898,40.108256],[-75.397589,40.107621],[-75.397121,40.106657],[-75.397074,40.106548],[-75.39704,40.106465],[-75.397017,40.106365],[-75.397005,40.106275],[-75.397003,40.106184],[-75.39701,40.106096],[-75.397026,40.106006],[-75.397049,40.10592],[-75.397075,40.105856],[-75.397118,40.105773],[-75.397164,40.105698],[-75.397225,40.105619],[-75.397289,40.105549],[-75.397354,40.105486],[-75.397434,40.105424],[-75.397513,40.105368],[-75.3976,40.105317],[-75.3977,40.105266],[-75.397806,40.105223],[-75.397908,40.105187],[-75.399059,40.104856],[-75.399173,40.10482],[-75.399272,40.104784],[-75.39937,40.104741],[-75.399458,40.104697],[-75.39954,40.104651],[-75.399617,40.1046],[-75.399718,40.10452],[-75.399565,40.104409],[-75.399058,40.104039],[-75.398969,40.103984],[-75.398876,40.103932],[-75.39878,40.10389],[-75.398686,40.103855],[-75.39859,40.103823],[-75.398485,40.103797],[-75.398378,40.103777],[-75.398261,40.103763],[-75.398147,40.103756],[-75.398021,40.103754],[-75.397891,40.103761],[-75.397762,40.103772],[-75.397742,40.103774],[-75.397434,40.103806],[-75.397318,40.103818],[-75.397243,40.103825],[-75.397161,40.103831],[-75.397043,40.103839],[-75.396865,40.103845],[-75.39682,40.103846],[-75.396635,40.103845],[-75.396612,40.103844],[-75.39654,40.10384],[-75.396461,40.103835],[-75.396261,40.103819],[-75.396234,40.103816],[-75.396073,40.103796],[-75.395959,40.103779],[-75.395879,40.103768],[-75.39568,40.103733],[-75.395656,40.103728],[-75.395404,40.10368],[-75.395386,40.103676],[-75.395187,40.103632],[-75.395109,40.103611],[-75.394998,40.103581],[-75.394846,40.103533],[-75.394675,40.103475],[-75.394641,40.103462],[-75.394527,40.103417],[-75.394365,40.103348],[-75.39435,40.103341],[-75.394215,40.103277],[-75.394095,40.103219],[-75.393852,40.1031],[-75.393666,40.103009],[-75.393623,40.102989],[-75.393547,40.102953],[-75.393421,40.102897],[-75.393329,40.102857],[-75.393285,40.102838],[-75.393105,40.102763],[-75.39288,40.102669],[-75.392677,40.102585],[-75.392423,40.102479],[-75.392324,40.102437],[-75.392306,40.10243],[-75.392038,40.102318],[-75.391924,40.102271],[-75.391851,40.102249],[-75.391777,40.102235],[-75.391706,40.102227],[-75.391638,40.102226],[-75.391576,40.102229],[-75.391506,40.102237],[-75.391383,40.102256],[-75.39125,40.10228],[-75.390792,40.102361],[-75.390737,40.102371],[-75.39047,40.102419],[-75.39016,40.102474],[-75.389861,40.102527],[-75.389535,40.102585],[-75.389199,40.102645],[-75.388494,40.10277],[-75.3884,40.102787],[-75.388425,40.102871],[-75.388433,40.1029],[-75.388445,40.102927],[-75.388462,40.102953],[-75.388569,40.103082],[-75.3886,40.10311],[-75.388707,40.103177],[-75.388733,40.103193],[-75.388786,40.103231],[-75.388793,40.103236],[-75.388843,40.103286],[-75.38889,40.10334],[-75.38895,40.103427],[-75.388992,40.103489],[-75.389143,40.103708],[-75.389211,40.103806],[-75.389351,40.104008],[-75.38901,40.104145],[-75.388704,40.104268],[-75.388418,40.104383],[-75.388271,40.104441],[-75.387981,40.104558],[-75.3878,40.10463],[-75.387683,40.104677],[-75.38747,40.104762],[-75.387348,40.104811],[-75.387165,40.104885],[-75.38704,40.104935],[-75.386855,40.105009],[-75.386742,40.105054],[-75.386542,40.105135],[-75.386433,40.105178],[-75.386223,40.105263],[-75.386128,40.1053],[-75.38599,40.105356],[-75.385824,40.105422],[-75.385496,40.105554],[-75.385416,40.105586],[-75.385327,40.105622],[-75.385215,40.105465],[-75.385046,40.105228],[-75.384992,40.105141],[-75.384951,40.105052],[-75.38491,40.104948],[-75.384866,40.104838],[-75.384825,40.104736],[-75.384795,40.104659],[-75.384688,40.104385],[-75.384619,40.104209],[-75.384597,40.104152],[-75.384592,40.10414],[-75.384556,40.104063],[-75.384516,40.103993],[-75.384497,40.103962],[-75.384455,40.103895],[-75.384348,40.103722],[-75.384304,40.103652],[-75.384286,40.103612],[-75.384261,40.103528],[-75.384026,40.10357],[-75.383803,40.103609],[-75.383719,40.103624],[-75.383573,40.103651],[-75.38347,40.103668],[-75.383289,40.1037],[-75.383146,40.103655],[-75.383115,40.103642],[-75.383089,40.103628],[-75.383045,40.103595],[-75.383007,40.103531],[-75.382982,40.103494],[-75.382939,40.10346],[-75.382842,40.10342],[-75.382665,40.10341],[-75.382547,40.103438],[-75.38232,40.103442],[-75.382102,40.103396],[-75.382025,40.103409],[-75.381977,40.103458],[-75.381977,40.103458],[-75.381986,40.103583],[-75.382259,40.103616],[-75.382524,40.103616],[-75.382751,40.103591],[-75.38292,40.103556],[-75.383007,40.103531],[-75.383042,40.103522],[-75.383076,40.103514],[-75.383387,40.103464],[-75.383425,40.103446],[-75.383447,40.103425],[-75.383458,40.103395],[-75.383446,40.103341],[-75.383427,40.10329],[-75.383303,40.102852],[-75.383283,40.102783],[-75.383281,40.102747],[-75.383292,40.102712],[-75.383292,40.102691],[-75.383347,40.102664],[-75.383381,40.102652],[-75.383426,40.102648],[-75.383491,40.102648],[-75.383596,40.102653],[-75.383647,40.102658],[-75.383688,40.102662],[-75.383793,40.102676],[-75.383859,40.102689],[-75.383889,40.102696],[-75.383916,40.102703],[-75.383977,40.102721],[-75.38403,40.10274],[-75.384049,40.102747],[-75.384153,40.102792],[-75.384188,40.102807],[-75.384258,40.102837],[-75.384213,40.102907],[-75.384178,40.102986],[-75.384161,40.103063],[-75.384161,40.103074],[-75.384158,40.103139],[-75.384169,40.10322],[-75.384235,40.103439],[-75.384261,40.103528],[-75.384286,40.103612],[-75.384304,40.103652],[-75.384348,40.103722],[-75.384455,40.103895],[-75.384497,40.103962],[-75.384516,40.103993],[-75.384556,40.104063],[-75.384592,40.10414],[-75.384597,40.104152],[-75.384619,40.104209],[-75.384688,40.104385],[-75.384795,40.104659],[-75.384825,40.104736],[-75.384866,40.104838],[-75.38491,40.104948],[-75.384951,40.105052],[-75.384992,40.105141],[-75.385046,40.105228],[-75.385215,40.105465],[-75.385327,40.105622],[-75.385245,40.105658],[-75.385064,40.105736],[-75.384887,40.105814],[-75.384569,40.105952],[-75.384407,40.106027],[-75.384254,40.106099],[-75.384215,40.106117],[-75.384155,40.106144],[-75.383824,40.106298],[-75.383736,40.106339],[-75.383626,40.10639],[-75.383608,40.106398],[-75.383512,40.106443],[-75.38329,40.106546],[-75.383206,40.106585],[-75.383041,40.106662],[-75.382886,40.106734],[-75.383079,40.106968],[-75.383119,40.106996],[-75.383165,40.107029],[-75.38325,40.107079],[-75.383331,40.107115],[-75.383377,40.107137],[-75.383478,40.107186],[-75.383369,40.107316],[-75.383267,40.107439],[-75.383244,40.107466],[-75.383229,40.107485],[-75.383053,40.107633],[-75.382911,40.107752],[-75.382875,40.107783],[-75.382859,40.107796],[-75.382684,40.107921],[-75.38258,40.107995],[-75.382508,40.108046],[-75.38222,40.108288],[-75.382129,40.108361],[-75.382048,40.108427],[-75.381873,40.108553],[-75.381813,40.108596],[-75.381745,40.108645],[-75.381706,40.108677],[-75.381607,40.108756],[-75.381543,40.108808],[-75.381474,40.108862],[-75.38143,40.108898],[-75.3814,40.108922],[-75.381263,40.109063],[-75.381235,40.109092],[-75.381095,40.109235],[-75.381091,40.109239],[-75.381076,40.109259],[-75.380959,40.109408],[-75.380847,40.109552],[-75.380835,40.109567],[-75.38071,40.109726],[-75.380661,40.109788],[-75.380654,40.109797],[-75.380594,40.109869],[-75.380464,40.110025],[-75.38045,40.110041],[-75.380399,40.110103],[-75.380321,40.110197],[-75.380295,40.110228],[-75.380198,40.110341],[-75.380177,40.110365],[-75.380063,40.110498],[-75.380054,40.110508],[-75.380016,40.110581],[-75.379978,40.110654],[-75.379945,40.110718],[-75.379907,40.110791],[-75.37988,40.110884],[-75.379858,40.110963],[-75.37984,40.111149],[-75.37984,40.111213],[-75.37984,40.111239],[-75.379839,40.111418],[-75.379838,40.111762],[-75.379838,40.111932],[-75.379302,40.111988],[-75.379182,40.112018],[-75.378928,40.112104],[-75.37865,40.112245],[-75.378495,40.112316],[-75.378201,40.112451],[-75.377076,40.112982],[-75.376785,40.112571],[-75.376688,40.112435],[-75.376674,40.112416],[-75.376555,40.112248],[-75.376527,40.112208],[-75.376504,40.112176],[-75.376325,40.111919],[-75.37631,40.111898],[-75.37627,40.111842],[-75.376052,40.111536],[-75.376019,40.11149],[-75.375799,40.11118],[-75.375751,40.111113],[-75.375573,40.110863],[-75.375544,40.110822],[-75.375514,40.11078],[-75.375408,40.110631],[-75.375301,40.11048],[-75.375264,40.110428],[-75.375025,40.110092],[-75.374721,40.109663],[-75.374631,40.109528],[-75.374559,40.10942],[-75.374414,40.109202],[-75.373278,40.107498],[-75.373256,40.107465],[-75.37318,40.107351],[-75.373011,40.107116],[-75.372965,40.107053],[-75.372871,40.106923],[-75.37276,40.106769],[-75.372543,40.10646],[-75.372116,40.105853],[-75.371507,40.104986],[-75.371297,40.104686],[-75.37074,40.103893],[-75.370621,40.103723],[-75.370536,40.103592],[-75.37045,40.103446],[-75.370398,40.103332],[-75.370355,40.103218],[-75.370314,40.103096],[-75.370263,40.102934],[-75.370222,40.102766],[-75.370188,40.102588],[-75.37015,40.102441],[-75.370361,40.102455],[-75.370815,40.10249],[-75.371159,40.102515],[-75.371447,40.102536],[-75.37193,40.102572],[-75.372088,40.102584],[-75.372105,40.102585],[-75.372457,40.102611],[-75.372513,40.102526],[-75.372529,40.102356],[-75.372529,40.102306],[-75.372513,40.102238],[-75.371979,40.102196],[-75.371977,40.102196]]}}]}