{"type":"FeatureCollection","features":[{"type":"Feature","properties":{"agency":"JAX Mass Transit","shape_id":"64282"},"geometry":{"type":"LineString","coordinates":[[-89.217849,37.712779],[-89.217847,37.713043],[-89.217832,37.713145],[-89.217816,37.71325],[-89.217771,37.713405],[-89.217727,37.713473],[-89.217701,37.713514],[-89.217638,37.713587],[-89.217603,37.713627],[-89.217487,37.713701],[-89.217402,37.713729],[-89.21735,37.713746],[-89.217148,37.71378],[-89.21707,37.713785],[-89.216985,37.713791],[-89.216672,37.713812],[-89.216424,37.7138],[-89.216041,37.713814],[-89.215999,37.713815],[-89.215832,37.71382],[-89.215555,37.713838],[-89.215387,37.713848],[-89.215191,37.713859],[-89.215019,37.713873],[-89.215028,37.713941],[-89.215031,37.713963],[-89.215091,37.714591],[-89.215096,37.714635],[-89.215118,37.714804],[-89.215128,37.71488],[-89.215142,37.714984],[-89.215148,37.715029],[-89.215171,37.71522],[-89.2152,37.715458],[-89.215212,37.715678],[-89.215231,37.716034],[-89.215269,37.71631],[-89.215321,37.716561],[-89.215339,37.716646],[-89.215455,37.71708],[-89.215469,37.717134],[-89.215504,37.717256],[-89.215553,37.717409],[-89.215685,37.717825],[-89.215717,37.717926],[-89.215797,37.718224],[-89.215807,37.718261],[-89.215839,37.718425],[-89.215871,37.718778],[-89.21588,37.718839],[-89.215907,37.719033],[-89.215917,37.719105],[-89.21595,37.719341],[-89.215961,37.719418],[-89.215987,37.719738],[-89.215992,37.7198],[-89.216011,37.719956],[-89.216048,37.720238],[-89.216149,37.721006],[-89.216194,37.721352],[-89.216239,37.72169],[-89.21626,37.721854],[-89.216293,37.722103],[-89.216341,37.722474],[-89.216408,37.722981],[-89.216446,37.723272],[-89.216469,37.723442],[-89.21655,37.724064],[-89.216593,37.72439],[-89.216612,37.724486],[-89.216674,37.724797],[-89.216746,37.725247],[-89.216623,37.725258],[-89.216397,37.725278],[-89.215977,37.725315],[-89.215872,37.725326],[-89.215799,37.725334],[-89.215766,37.725338],[-89.215428,37.725368],[-89.215138,37.725394],[-89.215091,37.725398],[-89.214162,37.725474],[-89.214118,37.725478],[-89.208635,37.725942],[-89.208648,37.726429],[-89.208646,37.72674],[-89.208645,37.726923],[-89.208627,37.727416],[-89.208605,37.727872],[-89.20855,37.727978],[-89.208521,37.728078],[-89.208521,37.728157],[-89.208521,37.728317],[-89.208522,37.728869],[-89.20855,37.729847],[-89.208536,37.730215],[-89.208527,37.730447],[-89.208523,37.730542],[-89.208518,37.730631],[-89.208494,37.731068],[-89.208482,37.731364],[-89.208482,37.731706],[-89.208482,37.731878],[-89.208481,37.732355],[-89.208481,37.732505],[-89.208473,37.732884],[-89.208471,37.732927],[-89.208461,37.733133],[-89.208446,37.733451],[-89.208435,37.734271],[-89.208435,37.734307],[-89.208898,37.734306],[-89.20913,37.734305],[-89.209535,37.734304],[-89.209858,37.734303],[-89.210879,37.7343],[-89.212299,37.734287],[-89.213284,37.73429],[-89.213996,37.734289],[-89.214579,37.734283],[-89.216173,37.734289],[-89.216217,37.734289],[-89.216128,37.733439],[-89.216019,37.732478],[-89.215971,37.732038],[-89.215905,37.731573],[-89.215811,37.730714],[-89.215751,37.730252],[-89.215694,37.729786],[-89.215632,37.729284],[-89.215508,37.72848],[-89.215516,37.728319],[-89.215397,37.727346],[-89.215395,37.727331],[-89.215341,37.726957],[-89.215324,37.726843],[-89.215259,37.726395],[-89.215138,37.725394],[-89.215017,37.724488],[-89.214998,37.724333],[-89.214977,37.72416],[-89.214972,37.72412],[-89.214944,37.723887],[-89.214871,37.723356],[-89.21482,37.722981],[-89.214785,37.722698],[-89.214704,37.721954],[-89.214649,37.721519],[-89.214609,37.721195],[-89.214569,37.720747],[-89.214555,37.720591],[-89.214548,37.720507],[-89.214545,37.72049],[-89.214657,37.720423],[-89.214831,37.720303],[-89.215008,37.72021],[-89.215165,37.720142],[-89.215229,37.720121],[-89.215431,37.720054],[-89.215508,37.720029],[-89.215556,37.720018],[-89.215637,37.72],[-89.215887,37.719971],[-89.216011,37.719956],[-89.216666,37.719899],[-89.216479,37.719753],[-89.216346,37.719587],[-89.216296,37.719529],[-89.216259,37.719473],[-89.216219,37.719404],[-89.21619,37.719355],[-89.216157,37.719301],[-89.216106,37.719182],[-89.216037,37.718964],[-89.21602,37.718828],[-89.216004,37.718692],[-89.215992,37.718594],[-89.215952,37.718265],[-89.215923,37.718118],[-89.215913,37.71808],[-89.215863,37.717897],[-89.215769,37.717586],[-89.215701,37.717383],[-89.21565,37.717226],[-89.215592,37.717055],[-89.215531,37.716871],[-89.215461,37.716623],[-89.215404,37.716423],[-89.215365,37.716229],[-89.215323,37.715966],[-89.2152,37.715458],[-89.215193,37.7154],[-89.215148,37.715029],[-89.215142,37.714984],[-89.215128,37.71488],[-89.215118,37.714804],[-89.215096,37.714635],[-89.215091,37.714591],[-89.215156,37.714318],[-89.215192,37.714214],[-89.215237,37.71416],[-89.215272,37.714118],[-89.215341,37.71405],[-89.215513,37.713995],[-89.216148,37.713906],[-89.216264,37.71389],[-89.216425,37.713867],[-89.216672,37.713812],[-89.21707,37.713785],[-89.217148,37.71378],[-89.21735,37.713746],[-89.217487,37.713701],[-89.217603,37.713627],[-89.217638,37.713587],[-89.217701,37.713514],[-89.217771,37.713405],[-89.217806,37.713285],[-89.217816,37.71325],[-89.217847,37.713043],[-89.217854,37.712014],[-89.217855,37.711896],[-89.217855,37.711877],[-89.217854,37.711834],[-89.217854,37.711811],[-89.217852,37.711464],[-89.21785,37.711239],[-89.21786,37.710942],[-89.217863,37.710865],[-89.217881,37.710768],[-89.217885,37.710749],[-89.217945,37.710624],[-89.218024,37.710527],[-89.218122,37.710453],[-89.218258,37.710375],[-89.218452,37.710338],[-89.218535,37.710343],[-89.218616,37.710348],[-89.21911,37.710377],[-89.219171,37.710381],[-89.219796,37.710432],[-89.219951,37.710444],[-89.220203,37.710483],[-89.220345,37.710528],[-89.220508,37.710592],[-89.22069,37.710705],[-89.220845,37.710851],[-89.220917,37.710924],[-89.221042,37.711051],[-89.22108,37.71109],[-89.221461,37.711454],[-89.221606,37.711573],[-89.221722,37.711669],[-89.221853,37.711736],[-89.22198,37.711807],[-89.222122,37.711861],[-89.222212,37.711878],[-89.222476,37.711925],[-89.222667,37.711945],[-89.222946,37.711964],[-89.223157,37.711987],[-89.223349,37.712012],[-89.223452,37.712025],[-89.22362,37.712063],[-89.223749,37.712117],[-89.223871,37.712191],[-89.224004,37.712286],[-89.224111,37.712417],[-89.22419,37.712554],[-89.224226,37.712723],[-89.224239,37.712894],[-89.224232,37.712977],[-89.224217,37.71304],[-89.224312,37.713054],[-89.224495,37.713081],[-89.224618,37.713101],[-89.224802,37.713122],[-89.225161,37.713149],[-89.225533,37.713147],[-89.22574,37.713151],[-89.226088,37.71314],[-89.226233,37.713128],[-89.226775,37.713083],[-89.227133,37.713053],[-89.227477,37.713012],[-89.228242,37.712913],[-89.228302,37.712904],[-89.228314,37.712961],[-89.228343,37.713107],[-89.228379,37.713339],[-89.228394,37.713647],[-89.228369,37.713822],[-89.228314,37.714046],[-89.228174,37.714387],[-89.228109,37.714522],[-89.228026,37.714744],[-89.22797,37.714981],[-89.227943,37.715163],[-89.227926,37.715323],[-89.227911,37.715506],[-89.227894,37.716171],[-89.227899,37.716381],[-89.227894,37.716541],[-89.227892,37.716615],[-89.227891,37.716656],[-89.227912,37.716908],[-89.227908,37.717226],[-89.227902,37.717608],[-89.227895,37.718098],[-89.227882,37.718789],[-89.227876,37.719153],[-89.227881,37.719217],[-89.227887,37.719366],[-89.227861,37.720236],[-89.227863,37.720405],[-89.227871,37.721193],[-89.227851,37.721631],[-89.227889,37.722127],[-89.227901,37.723033],[-89.227905,37.72341],[-89.227896,37.724335],[-89.227881,37.724792],[-89.227859,37.725437],[-89.227856,37.725738],[-89.227856,37.725834],[-89.227851,37.726312],[-89.227978,37.726307],[-89.227984,37.726307],[-89.228542,37.726287],[-89.229033,37.72627],[-89.229641,37.726267],[-89.230291,37.726332],[-89.230753,37.726414],[-89.231105,37.726477],[-89.231304,37.726524],[-89.231971,37.726676],[-89.231998,37.726685],[-89.232305,37.726788],[-89.23266,37.726907],[-89.232766,37.72694],[-89.232965,37.727002],[-89.233146,37.727054],[-89.233827,37.727247],[-89.234106,37.727326],[-89.234325,37.727388],[-89.234751,37.727537],[-89.235711,37.727823],[-89.235879,37.727873],[-89.236181,37.72796],[-89.236283,37.727989],[-89.237302,37.728281],[-89.239101,37.728847],[-89.240728,37.729351],[-89.241993,37.729792],[-89.242198,37.729864],[-89.242406,37.729975],[-89.242784,37.730176],[-89.243409,37.730462],[-89.243921,37.730682],[-89.244875,37.731104],[-89.245182,37.731251],[-89.245754,37.731557],[-89.24654,37.732007],[-89.24656,37.732018],[-89.246675,37.731861],[-89.246679,37.731855],[-89.246747,37.731762],[-89.246794,37.731687],[-89.246822,37.731664],[-89.246826,37.73166],[-89.247512,37.731157],[-89.24755,37.731132],[-89.247705,37.731305],[-89.247778,37.73136],[-89.247831,37.731377],[-89.247836,37.731343],[-89.247843,37.73132],[-89.247874,37.731292],[-89.248132,37.731161],[-89.248167,37.731143],[-89.248228,37.731136],[-89.248801,37.731142],[-89.24888,37.731143],[-89.249496,37.731149],[-89.249593,37.731151],[-89.24963,37.731147],[-89.249683,37.73113],[-89.249725,37.731111],[-89.249755,37.731095],[-89.249789,37.731072],[-89.249814,37.731041],[-89.249855,37.730987],[-89.249865,37.73093],[-89.24988,37.73055],[-89.249557,37.730549],[-89.249375,37.730555],[-89.24922,37.730569],[-89.249067,37.730586],[-89.248895,37.730612],[-89.248745,37.730641],[-89.248685,37.730652],[-89.248498,37.730701],[-89.248082,37.730851],[-89.247911,37.730927],[-89.247781,37.730995],[-89.247754,37.731011],[-89.247751,37.731013],[-89.247704,37.73104],[-89.247702,37.731041],[-89.247617,37.731091],[-89.247571,37.731118],[-89.24755,37.731132],[-89.247364,37.731256],[-89.247123,37.731431],[-89.246958,37.73155],[-89.246854,37.731637],[-89.246826,37.73166],[-89.246822,37.731664],[-89.246794,37.731687],[-89.246747,37.731762],[-89.246679,37.731855],[-89.246675,37.731861],[-89.24656,37.732018],[-89.246569,37.732024],[-89.247394,37.732545],[-89.248018,37.732943],[-89.249239,37.733849],[-89.249862,37.734359],[-89.250484,37.7349],[-89.251208,37.735577],[-89.251841,37.736247],[-89.252275,37.736761],[-89.252775,37.737387],[-89.253347,37.738172],[-89.253768,37.738742],[-89.254643,37.73991],[-89.255574,37.741151],[-89.255633,37.741229],[-89.256123,37.741865],[-89.256168,37.741927],[-89.256266,37.742059],[-89.257513,37.743729],[-89.257824,37.744153],[-89.258673,37.745311],[-89.258744,37.745402],[-89.258998,37.745719],[-89.259286,37.746077],[-89.260471,37.74756],[-89.260571,37.747688],[-89.260771,37.74792],[-89.260894,37.748067],[-89.261267,37.748511],[-89.262146,37.749558],[-89.262675,37.750171],[-89.263107,37.750603],[-89.26331,37.750784],[-89.263797,37.751218],[-89.26465,37.751997],[-89.265099,37.752417],[-89.265378,37.752667],[-89.2658,37.753045],[-89.266527,37.753632],[-89.266676,37.753757],[-89.266816,37.753873],[-89.267224,37.754205],[-89.267551,37.75447],[-89.26887,37.755439],[-89.269389,37.755819],[-89.269956,37.756205],[-89.270228,37.75639],[-89.271293,37.757072],[-89.272184,37.757643],[-89.272793,37.757985],[-89.274234,37.75881],[-89.275192,37.759303],[-89.275529,37.759476],[-89.276111,37.759778],[-89.276912,37.760159],[-89.277902,37.760617],[-89.278248,37.760766],[-89.278592,37.760912],[-89.279811,37.761404],[-89.280071,37.76151],[-89.280416,37.761664],[-89.280431,37.76167],[-89.280235,37.761961],[-89.280197,37.762025],[-89.280033,37.761957],[-89.279935,37.76191],[-89.279839,37.761846],[-89.279779,37.761808],[-89.279422,37.76158],[-89.279394,37.761564],[-89.279279,37.761497],[-89.279017,37.761375],[-89.27896,37.761348],[-89.278858,37.761311],[-89.278735,37.761266],[-89.278687,37.761256],[-89.278549,37.761226],[-89.278443,37.761205],[-89.278356,37.761189],[-89.278279,37.761174],[-89.277801,37.761121],[-89.277727,37.761114],[-89.277724,37.761342],[-89.278287,37.761359],[-89.278327,37.761355],[-89.278361,37.761328],[-89.278393,37.761279],[-89.278443,37.761205],[-89.278549,37.761226],[-89.278735,37.761266],[-89.278895,37.761324],[-89.27896,37.761348],[-89.279279,37.761497],[-89.279336,37.76153],[-89.279422,37.76158],[-89.279764,37.761798],[-89.279839,37.761846],[-89.279935,37.76191],[-89.280033,37.761957],[-89.280197,37.762025],[-89.280235,37.761961],[-89.28031,37.76185],[-89.280431,37.76167],[-89.280916,37.761845],[-89.282189,37.762304],[-89.282537,37.762421],[-89.282707,37.76248],[-89.283472,37.762739],[-89.284385,37.763028],[-89.285106,37.763237],[-89.2880135,37.7639961],[-89.28805,37.764006],[-89.288913,37.764204],[-89.289207,37.764272],[-89.289567,37.76435],[-89.290134,37.764472],[-89.29154,37.764733],[-89.292429,37.76489],[-89.293113,37.765004],[-89.294373,37.765172],[-89.295938,37.765356],[-89.297006,37.765462],[-89.297424,37.765495],[-89.298839,37.765585],[-89.300462,37.765645],[-89.301786,37.765672],[-89.302677,37.765667],[-89.305972,37.765663],[-89.307673,37.765651],[-89.309271,37.765639],[-89.311578,37.765631],[-89.313564,37.765622],[-89.313839,37.765621],[-89.317129,37.765604],[-89.320496,37.765584],[-89.321853,37.765567],[-89.321911,37.765563],[-89.32214,37.765547],[-89.322461,37.765514],[-89.322563,37.765503],[-89.322639,37.765495],[-89.322758,37.765481],[-89.323019,37.765449],[-89.323291,37.765416],[-89.323806,37.765337],[-89.323881,37.765325],[-89.32438,37.765229],[-89.325013,37.765073],[-89.325517,37.764927],[-89.325919,37.764802],[-89.32596,37.76479],[-89.326314,37.76468],[-89.326495,37.764629],[-89.326921,37.764495],[-89.327187,37.764429],[-89.327565,37.764367],[-89.327931,37.764336],[-89.328679,37.764297],[-89.329038,37.764287],[-89.329835,37.76431],[-89.329982,37.764314],[-89.330337,37.764324],[-89.330571,37.764323],[-89.330733,37.764323],[-89.331758,37.76432],[-89.332224,37.764319],[-89.332989,37.764317],[-89.33448,37.764321],[-89.33448,37.764011],[-89.334481,37.7637],[-89.335307,37.7637],[-89.335306,37.764009],[-89.335305,37.764324],[-89.33448,37.764321],[-89.333833,37.764318],[-89.332989,37.764317],[-89.332224,37.764319],[-89.331758,37.76432],[-89.331146,37.764322],[-89.330733,37.764323],[-89.330571,37.764323],[-89.330337,37.764324],[-89.329982,37.764314],[-89.329835,37.76431],[-89.329038,37.764287],[-89.328679,37.764297],[-89.327962,37.764273],[-89.327525,37.764288],[-89.327335,37.764309],[-89.327181,37.764336],[-89.327049,37.764359],[-89.326742,37.76445],[-89.326537,37.764487],[-89.326325,37.76455],[-89.326117,37.764606],[-89.325897,37.764665],[-89.325204,37.764855],[-89.32442,37.765063],[-89.323883,37.765158],[-89.323786,37.765169],[-89.323078,37.765251],[-89.32297,37.765263],[-89.322845,37.765276],[-89.322652,37.765297],[-89.322044,37.765362],[-89.321869,37.765374],[-89.321854,37.765375],[-89.321523,37.765403],[-89.321181,37.765422],[-89.320491,37.765422],[-89.317278,37.765418],[-89.313639,37.765438],[-89.311723,37.765446],[-89.309272,37.765471],[-89.307673,37.765467],[-89.307061,37.765465],[-89.303205,37.765491],[-89.302679,37.765495],[-89.301536,37.765486],[-89.299693,37.765434],[-89.298396,37.76538],[-89.297444,37.765317],[-89.295896,37.765172],[-89.294181,37.764959],[-89.293154,37.764823],[-89.29312,37.764817],[-89.292123,37.764652],[-89.291841,37.764605],[-89.290486,37.764358],[-89.289836,37.764209],[-89.289725,37.764185],[-89.28929,37.764089],[-89.288905,37.764004],[-89.288249,37.76386],[-89.288186,37.763846],[-89.28706,37.763581],[-89.285769,37.763246],[-89.285201,37.763067],[-89.284482,37.762861],[-89.283569,37.762571],[-89.282415,37.762189],[-89.28093,37.761655],[-89.280909,37.761647],[-89.280531,37.761515],[-89.280216,37.761384],[-89.278605,37.760702],[-89.277616,37.760265],[-89.27679,37.759884],[-89.27555,37.759279],[-89.275392,37.759198],[-89.274731,37.758858],[-89.273851,37.758379],[-89.273276,37.758045],[-89.272929,37.757843],[-89.272493,37.75759],[-89.272361,37.757501],[-89.271552,37.756994],[-89.271361,37.756874],[-89.269694,37.755762],[-89.26911,37.755372],[-89.267573,37.754207],[-89.267334,37.754026],[-89.266874,37.753645],[-89.266822,37.753602],[-89.266681,37.753488],[-89.266539,37.753368],[-89.266375,37.753232],[-89.265753,37.752719],[-89.265259,37.752282],[-89.264285,37.751386],[-89.263502,37.750684],[-89.263417,37.7506],[-89.263201,37.750387],[-89.262628,37.74979],[-89.262227,37.749331],[-89.261705,37.748711],[-89.26109,37.747973],[-89.260877,37.747717],[-89.260747,37.747554],[-89.260496,37.747255],[-89.259251,37.745717],[-89.258941,37.745334],[-89.258891,37.745267],[-89.258479,37.744692],[-89.257425,37.743293],[-89.256472,37.74198],[-89.256425,37.741915],[-89.256075,37.741449],[-89.255819,37.741108],[-89.255753,37.74102],[-89.255302,37.740414],[-89.253263,37.73771],[-89.252825,37.737145],[-89.252175,37.73631],[-89.251929,37.736048],[-89.251548,37.735659],[-89.251208,37.735314],[-89.250704,37.734843],[-89.25005,37.734264],[-89.249626,37.73391],[-89.249197,37.73356],[-89.248632,37.733143],[-89.248198,37.732842],[-89.24761,37.732448],[-89.246679,37.731855],[-89.246643,37.731834],[-89.246061,37.7315],[-89.245377,37.731159],[-89.244443,37.730712],[-89.243953,37.73048],[-89.243423,37.73027],[-89.242198,37.729864],[-89.241993,37.729792],[-89.240728,37.729351],[-89.239101,37.728847],[-89.237302,37.728281],[-89.236519,37.728057],[-89.236283,37.727989],[-89.236181,37.72796],[-89.235879,37.727873],[-89.235711,37.727823],[-89.234751,37.727537],[-89.234325,37.727388],[-89.233254,37.726984],[-89.232816,37.726846],[-89.232392,37.726713],[-89.232347,37.726699],[-89.232029,37.726599],[-89.231782,37.726521],[-89.231433,37.726392],[-89.231397,37.726379],[-89.231072,37.726228],[-89.230907,37.726109],[-89.230739,37.72596],[-89.230694,37.72592],[-89.230624,37.725858],[-89.230562,37.725804],[-89.2305,37.725744],[-89.230025,37.725225],[-89.229835,37.725017],[-89.229536,37.724728],[-89.229448,37.724666],[-89.229288,37.724558],[-89.229169,37.724496],[-89.2291,37.724466],[-89.229074,37.724455],[-89.228722,37.72437],[-89.22863,37.724348],[-89.228559,37.724337],[-89.22831,37.724336],[-89.227896,37.724335],[-89.227905,37.72341],[-89.227901,37.723033],[-89.227889,37.722127],[-89.227851,37.721631],[-89.227871,37.721193],[-89.227861,37.720236],[-89.227887,37.719366],[-89.227881,37.719217],[-89.227876,37.719153],[-89.227882,37.718789],[-89.227895,37.718098],[-89.227902,37.717608],[-89.227908,37.717226],[-89.227912,37.716908],[-89.227896,37.716712],[-89.227891,37.716656],[-89.227892,37.716615],[-89.227899,37.716381],[-89.227894,37.716171],[-89.227911,37.715506],[-89.227926,37.715323],[-89.227943,37.715163],[-89.22797,37.714981],[-89.228026,37.714744],[-89.228109,37.714522],[-89.228174,37.714387],[-89.228314,37.714046],[-89.228369,37.713822],[-89.228394,37.713647],[-89.228379,37.713339],[-89.228343,37.713107],[-89.228314,37.712961],[-89.228302,37.712904],[-89.228358,37.712889],[-89.228302,37.712904],[-89.228242,37.712913],[-89.227477,37.713012],[-89.227133,37.713053],[-89.226775,37.713083],[-89.226172,37.713133],[-89.226088,37.71314],[-89.22574,37.713151],[-89.225533,37.713147],[-89.225161,37.713149],[-89.224802,37.713122],[-89.224618,37.713101],[-89.224495,37.713081],[-89.224312,37.713054],[-89.224217,37.71304],[-89.224232,37.712977],[-89.224239,37.712894],[-89.224226,37.712723],[-89.22419,37.712554],[-89.224111,37.712417],[-89.224004,37.712286],[-89.223871,37.712191],[-89.223749,37.712117],[-89.22362,37.712063],[-89.223452,37.712025],[-89.223349,37.712012],[-89.223157,37.711987],[-89.222946,37.711964],[-89.222667,37.711945],[-89.222476,37.711925],[-89.222212,37.711878],[-89.222122,37.711861],[-89.222039,37.711829],[-89.22198,37.711807],[-89.221853,37.711736],[-89.221722,37.711669],[-89.221606,37.711573],[-89.221461,37.711454],[-89.22108,37.71109],[-89.221042,37.711051],[-89.220917,37.710924],[-89.220845,37.710851],[-89.22069,37.710705],[-89.220508,37.710592],[-89.220345,37.710528],[-89.220203,37.710483],[-89.220088,37.710465],[-89.219951,37.710444],[-89.219796,37.710432],[-89.219171,37.710381],[-89.21911,37.710377],[-89.218616,37.710348],[-89.218535,37.710343],[-89.218452,37.710338],[-89.218258,37.710375],[-89.218122,37.710453],[-89.218067,37.710495],[-89.218024,37.710527],[-89.217945,37.710624],[-89.217881,37.710768],[-89.217863,37.710865],[-89.21786,37.710942],[-89.21785,37.711239],[-89.217852,37.711464],[-89.217853,37.711644],[-89.217854,37.711811],[-89.217855,37.711877],[-89.217855,37.711896],[-89.217854,37.712014],[-89.217849,37.712809]]}},{"type":"Feature","properties":{"agency":"JAX Mass Transit","shape_id":"74046"},"geometry":{"type":"LineString","coordinates":[[-89.217849,37.712799],[-89.217847,37.713043],[-89.217816,37.71325],[-89.217771,37.713405],[-89.217701,37.713514],[-89.217638,37.713587],[-89.217603,37.713627],[-89.217487,37.713701],[-89.21735,37.713746],[-89.217148,37.71378],[-89.21707,37.713785],[-89.216672,37.713812],[-89.216424,37.7138],[-89.216041,37.713814],[-89.215832,37.71382],[-89.215555,37.713838],[-89.215387,37.713848],[-89.215191,37.713859],[-89.215019,37.713873],[-89.215028,37.713941],[-89.215031,37.713963],[-89.215091,37.714591],[-89.215096,37.714635],[-89.215118,37.714804],[-89.215128,37.71488],[-89.215142,37.714984],[-89.215148,37.715029],[-89.2152,37.715458],[-89.215212,37.715678],[-89.215231,37.716034],[-89.215269,37.71631],[-89.215339,37.716646],[-89.215455,37.71708],[-89.215469,37.717134],[-89.215504,37.717256],[-89.215384,37.717281],[-89.215343,37.717289],[-89.21491,37.717316],[-89.214483,37.717351],[-89.214292,37.717366],[-89.214056,37.717388],[-89.213666,37.717425],[-89.21364,37.717428],[-89.213433,37.717448],[-89.213302,37.71746],[-89.212583,37.717515],[-89.212131,37.717546],[-89.2106,37.717644],[-89.210476,37.717647],[-89.210476,37.71772],[-89.210477,37.717898],[-89.21048,37.718445],[-89.210474,37.718692],[-89.210465,37.71912],[-89.210457,37.719452],[-89.210443,37.719704],[-89.210441,37.719747],[-89.210416,37.720379],[-89.210413,37.720834],[-89.21041,37.721273],[-89.210838,37.721265],[-89.211394,37.721252],[-89.211802,37.721243],[-89.211992,37.721238],[-89.212076,37.721236],[-89.212706,37.721234],[-89.213048,37.721226],[-89.213306,37.721172],[-89.21354,37.721093],[-89.21374,37.720998],[-89.213908,37.720896],[-89.213935,37.72088],[-89.214548,37.720507],[-89.214657,37.720423],[-89.214831,37.720303],[-89.215008,37.72021],[-89.215165,37.720142],[-89.215229,37.720121],[-89.215431,37.720054],[-89.215508,37.720029],[-89.215556,37.720018],[-89.215637,37.72],[-89.216011,37.719956],[-89.216048,37.720238],[-89.216146,37.72098],[-89.216149,37.721006],[-89.216194,37.721352],[-89.216239,37.72169],[-89.21626,37.721854],[-89.216341,37.722474],[-89.216362,37.722632],[-89.216408,37.722981],[-89.216446,37.723272],[-89.216469,37.723442],[-89.21655,37.724064],[-89.21658,37.724292],[-89.216585,37.724331],[-89.21659,37.724364],[-89.216593,37.72439],[-89.216612,37.724486],[-89.216674,37.724797],[-89.216746,37.725247],[-89.216584,37.725261],[-89.216442,37.725274],[-89.216397,37.725278],[-89.216295,37.725287],[-89.215977,37.725315],[-89.215872,37.725326],[-89.215842,37.725329],[-89.215799,37.725334],[-89.215766,37.725338],[-89.215138,37.725394],[-89.215136,37.72538],[-89.2148845,37.723398],[-89.2148524,37.7231954],[-89.2148275,37.723013],[-89.2146646,37.7216508],[-89.214548,37.720507],[-89.214657,37.720423],[-89.21481,37.720317],[-89.214831,37.720303],[-89.215008,37.72021],[-89.215165,37.720142],[-89.215198,37.720131],[-89.215229,37.720121],[-89.215431,37.720054],[-89.215508,37.720029],[-89.215556,37.720018],[-89.215595,37.720009],[-89.215637,37.72],[-89.215887,37.719971],[-89.216011,37.719956],[-89.216048,37.720238],[-89.216149,37.721006],[-89.216194,37.721352],[-89.216239,37.72169],[-89.21626,37.721854],[-89.216341,37.722474],[-89.216365,37.722658],[-89.216408,37.722981],[-89.216446,37.723272],[-89.216469,37.723442],[-89.21655,37.724064],[-89.216593,37.72439],[-89.216612,37.724486],[-89.216674,37.724797],[-89.216746,37.725247],[-89.216755,37.725323],[-89.216865,37.726232],[-89.216922,37.726727],[-89.216979,37.727223],[-89.21704,37.727691],[-89.21704,37.727694],[-89.217042,37.727708],[-89.217105,37.728195],[-89.217171,37.728678],[-89.217236,37.729153],[-89.217375,37.73037],[-89.217423,37.730725],[-89.217915,37.730671],[-89.218372,37.730596],[-89.218709,37.730548],[-89.219018,37.730538],[-89.21976,37.730537],[-89.220576,37.730532],[-89.220974,37.73053],[-89.221792,37.730526],[-89.2226,37.730523],[-89.222861,37.730522],[-89.22297,37.730522],[-89.222987,37.730522],[-89.223069,37.730522],[-89.224261,37.730526],[-89.225146,37.730506],[-89.225436,37.730505],[-89.225838,37.730501],[-89.226533,37.730503],[-89.226605,37.7305],[-89.227783,37.730503],[-89.228261,37.7305],[-89.22834,37.7305],[-89.229388,37.730498],[-89.230082,37.73051],[-89.230917,37.730503],[-89.232488,37.73049],[-89.233847,37.730509],[-89.234377,37.730516],[-89.234588,37.730516],[-89.234862,37.730517],[-89.235251,37.730519],[-89.235486,37.730518],[-89.236157,37.730502],[-89.236405,37.730504],[-89.236551,37.730507],[-89.236666,37.73051],[-89.23701,37.730516],[-89.237296,37.730514],[-89.237415,37.730513],[-89.237756,37.73051],[-89.237839,37.73051],[-89.238109,37.730508],[-89.238637,37.7305],[-89.23891,37.730496],[-89.240391,37.73049],[-89.240898,37.730488],[-89.241297,37.730486],[-89.241456,37.730486],[-89.241702,37.730485],[-89.241789,37.73047],[-89.24187,37.730438],[-89.241954,37.730377],[-89.241988,37.73033],[-89.24202,37.730287],[-89.242125,37.730061],[-89.242198,37.729864],[-89.242784,37.730176],[-89.243409,37.730462],[-89.243921,37.730682],[-89.24398,37.730708],[-89.244875,37.731104],[-89.245182,37.731251],[-89.245754,37.731557],[-89.24654,37.732007],[-89.24656,37.732018],[-89.246426,37.732376],[-89.246396,37.732509],[-89.246379,37.732641],[-89.246358,37.732833],[-89.246351,37.733095],[-89.246342,37.733472],[-89.246336,37.733729],[-89.246331,37.734104],[-89.246329,37.734255],[-89.246319,37.734682],[-89.24631,37.735213],[-89.246303,37.735576],[-89.246304,37.735665],[-89.246308,37.735981],[-89.246311,37.736193],[-89.246311,37.73628],[-89.246309,37.736647],[-89.246302,37.737236],[-89.246282,37.737802],[-89.246278,37.737918],[-89.246274,37.738059],[-89.246254,37.738739],[-89.246248,37.739092],[-89.246236,37.739689],[-89.246227,37.74012],[-89.246218,37.740855],[-89.246199,37.741583],[-89.246192,37.741844],[-89.246093,37.745288],[-89.246088,37.745676],[-89.246087,37.745755],[-89.24607,37.746453],[-89.246067,37.74656],[-89.246066,37.746622],[-89.246065,37.746665],[-89.246064,37.746781],[-89.24606,37.747495],[-89.246055,37.747892],[-89.246051,37.74831],[-89.246047,37.748586],[-89.246039,37.749339],[-89.246036,37.749976],[-89.24601,37.751],[-89.246002,37.751548],[-89.245995,37.752047],[-89.245991,37.752282],[-89.245989,37.752419],[-89.245988,37.752464],[-89.24599,37.752735],[-89.245974,37.753214],[-89.245974,37.753268],[-89.245973,37.753367],[-89.245971,37.754362],[-89.245968,37.754468],[-89.245965,37.754571],[-89.245953,37.754789],[-89.245942,37.754987],[-89.245897,37.756358],[-89.245886,37.75668],[-89.245861,37.757804],[-89.245849,37.758355],[-89.245845,37.758494],[-89.24584,37.75863],[-89.245837,37.758723],[-89.245833,37.758873],[-89.245826,37.759031],[-89.245821,37.759198],[-89.245819,37.759297],[-89.245829,37.760047],[-89.245821,37.760144],[-89.24581,37.760244],[-89.245809,37.760281],[-89.245807,37.760425],[-89.245786,37.760817],[-89.245782,37.761174],[-89.245782,37.761186],[-89.245798,37.761766],[-89.245799,37.761805],[-89.245771,37.762068],[-89.245767,37.762411],[-89.245756,37.762966],[-89.245749,37.763344],[-89.245731,37.76451],[-89.24572,37.765177],[-89.245716,37.765436],[-89.246372,37.765315],[-89.24667,37.765302],[-89.247273,37.765308],[-89.252273,37.765394],[-89.252263,37.765744],[-89.252208,37.767654],[-89.25203,37.77211],[-89.252017,37.772695],[-89.252013,37.77295],[-89.252001,37.773349],[-89.251965,37.774237],[-89.251953,37.774783],[-89.251936,37.775538],[-89.251929,37.775865],[-89.252157,37.775873],[-89.252662,37.775646],[-89.25335,37.775337],[-89.254617,37.774775],[-89.254647,37.774759],[-89.254755,37.774703],[-89.254882,37.774604],[-89.254966,37.774539],[-89.255019,37.774461],[-89.255073,37.774353],[-89.255103,37.774201],[-89.255128,37.773612],[-89.255131,37.77339],[-89.255154,37.772152],[-89.255154,37.772126],[-89.255155,37.771035],[-89.255201,37.76767],[-89.255242,37.765446],[-89.252273,37.765394],[-89.247273,37.765308],[-89.24667,37.765302],[-89.246372,37.765315],[-89.245716,37.765436],[-89.245717,37.765397],[-89.245731,37.76451],[-89.245735,37.764247],[-89.245989,37.752772],[-89.24599,37.752735],[-89.245988,37.752464],[-89.245989,37.752419],[-89.245991,37.752282],[-89.245995,37.752047],[-89.246002,37.751548],[-89.24601,37.751],[-89.246036,37.749976],[-89.246039,37.749339],[-89.246047,37.748586],[-89.246051,37.74831],[-89.246055,37.747892],[-89.24606,37.747495],[-89.246064,37.746781],[-89.246065,37.746665],[-89.246066,37.746622],[-89.246067,37.74656],[-89.24607,37.746453],[-89.246087,37.745755],[-89.246088,37.745676],[-89.246093,37.745288],[-89.246192,37.741844],[-89.246199,37.741583],[-89.246218,37.740855],[-89.246227,37.74012],[-89.246236,37.739689],[-89.246248,37.739092],[-89.246254,37.738739],[-89.246274,37.738059],[-89.246278,37.737918],[-89.246282,37.737802],[-89.246302,37.737236],[-89.246309,37.736647],[-89.246311,37.73628],[-89.246311,37.736193],[-89.246308,37.735981],[-89.246304,37.735665],[-89.246303,37.735576],[-89.24631,37.735213],[-89.246319,37.734682],[-89.246329,37.734255],[-89.246331,37.734104],[-89.246336,37.733729],[-89.246351,37.733095],[-89.246358,37.732833],[-89.246379,37.732641],[-89.246396,37.732509],[-89.246426,37.732376],[-89.246485,37.732218],[-89.24656,37.732018],[-89.246675,37.731861],[-89.246679,37.731855],[-89.246643,37.731834],[-89.246061,37.7315],[-89.245377,37.731159],[-89.244443,37.730712],[-89.243953,37.73048],[-89.243423,37.73027],[-89.243248,37.730212],[-89.242198,37.729864],[-89.242277,37.729637],[-89.242299,37.729547],[-89.2423,37.729469],[-89.242298,37.729459],[-89.242281,37.729352],[-89.242213,37.729225],[-89.242075,37.729093],[-89.241907,37.728982],[-89.241871,37.728956],[-89.241833,37.728929],[-89.241154,37.728907],[-89.240678,37.72889],[-89.240163,37.728837],[-89.239323,37.728589],[-89.238755,37.728421],[-89.238235,37.728245],[-89.238153,37.728198],[-89.237969,37.728018],[-89.237952,37.728],[-89.23778,37.727797],[-89.237812,37.727754],[-89.237887,37.727654],[-89.237974,37.727522],[-89.238025,37.727446],[-89.238073,37.727335],[-89.238112,37.727194],[-89.238128,37.727036],[-89.23813,37.726812],[-89.238072,37.726812],[-89.237728,37.726813],[-89.237151,37.726814],[-89.23622,37.7268],[-89.235809,37.726798],[-89.235718,37.726798],[-89.23483,37.726809],[-89.233667,37.726797],[-89.23351,37.726796],[-89.233452,37.726819],[-89.233373,37.726902],[-89.233337,37.72694],[-89.233254,37.726984],[-89.232816,37.726846],[-89.232347,37.726699],[-89.232029,37.726599],[-89.231782,37.726521],[-89.231397,37.726379],[-89.231072,37.726228],[-89.230907,37.726109],[-89.230739,37.72596],[-89.230694,37.72592],[-89.230562,37.725804],[-89.230459,37.725918],[-89.23043,37.72595],[-89.230372,37.726041],[-89.230357,37.726083],[-89.23009,37.726041],[-89.229665,37.726046],[-89.229667,37.725907],[-89.229673,37.725457],[-89.229471,37.725456],[-89.229189,37.725458],[-89.228658,37.725462],[-89.22853,37.725449],[-89.228389,37.725439],[-89.228227,37.725439],[-89.228068,37.725438],[-89.227859,37.725437],[-89.227861,37.725382],[-89.227881,37.724792],[-89.227896,37.724335],[-89.227254,37.724393],[-89.226723,37.724442],[-89.225879,37.724506],[-89.225423,37.724536],[-89.224635,37.724616],[-89.223591,37.724702],[-89.222918,37.724763],[-89.221856,37.72484],[-89.221786,37.724258],[-89.221767,37.724099],[-89.221747,37.723939],[-89.221693,37.723491],[-89.221638,37.723032],[-89.221608,37.722784],[-89.221443,37.721427],[-89.221344,37.720607],[-89.221262,37.71993],[-89.221219,37.719575],[-89.221214,37.719533],[-89.221308,37.719506],[-89.221973,37.719451],[-89.222612,37.719401],[-89.222728,37.719392],[-89.22311,37.719363],[-89.223368,37.719351],[-89.223666,37.719341],[-89.223914,37.719332],[-89.224555,37.719317],[-89.224609,37.719315],[-89.225278,37.719292],[-89.225292,37.719218],[-89.225282,37.718931],[-89.225318,37.718123],[-89.225318,37.718093],[-89.225315,37.717913],[-89.22531,37.717463],[-89.225311,37.717386],[-89.225312,37.717326],[-89.225314,37.717233],[-89.225318,37.717033],[-89.225319,37.716974],[-89.225321,37.716834],[-89.225325,37.716649],[-89.225328,37.716474],[-89.225331,37.716306],[-89.225201,37.716303],[-89.224529,37.716291],[-89.224444,37.716289],[-89.2244,37.715964],[-89.224365,37.71578],[-89.224339,37.715654],[-89.224309,37.715542],[-89.224269,37.715396],[-89.224205,37.715151],[-89.224173,37.715045],[-89.224072,37.714645],[-89.224044,37.714494],[-89.224027,37.714327],[-89.224024,37.714224],[-89.224009,37.713836],[-89.224023,37.713634],[-89.224071,37.713474],[-89.22411,37.71329],[-89.22417,37.713157],[-89.224217,37.71304],[-89.224232,37.712977],[-89.224239,37.712894],[-89.224226,37.712723],[-89.22419,37.712554],[-89.22414,37.712468],[-89.224111,37.712417],[-89.224004,37.712286],[-89.223871,37.712191],[-89.223749,37.712117],[-89.22362,37.712063],[-89.223452,37.712025],[-89.223349,37.712012],[-89.223157,37.711987],[-89.222946,37.711964],[-89.222667,37.711945],[-89.222476,37.711925],[-89.222212,37.711878],[-89.222122,37.711861],[-89.22198,37.711807],[-89.221853,37.711736],[-89.221722,37.711669],[-89.221606,37.711573],[-89.221461,37.711454],[-89.22108,37.71109],[-89.221042,37.711051],[-89.220917,37.710924],[-89.220845,37.710851],[-89.22069,37.710705],[-89.220503,37.71059],[-89.220345,37.710528],[-89.220203,37.710483],[-89.219951,37.710444],[-89.219796,37.710432],[-89.219171,37.710381],[-89.21911,37.710377],[-89.218616,37.710348],[-89.218535,37.710343],[-89.218452,37.710338],[-89.218258,37.710375],[-89.218122,37.710453],[-89.218024,37.710527],[-89.217945,37.710624],[-89.217885,37.710749],[-89.217881,37.710768],[-89.217863,37.710865],[-89.21786,37.710942],[-89.21785,37.711239],[-89.217852,37.711464],[-89.217854,37.711811],[-89.217855,37.711877],[-89.217855,37.711896],[-89.217854,37.712014],[-89.217849,37.712799]]}},{"type":"Feature","properties":{"agency":"JAX Mass Transit","shape_id":"74047"},"geometry":{"type":"LineString","coordinates":[[-89.23727,37.699633],[-89.237001,37.699545],[-89.236948,37.699528],[-89.236816,37.699484],[-89.236753,37.699665],[-89.236741,37.699698],[-89.236654,37.69981],[-89.236589,37.69988],[-89.236535,37.699938],[-89.236329,37.700104],[-89.236299,37.700128],[-89.236185,37.700206],[-89.236072,37.700284],[-89.236003,37.700328],[-89.23594,37.700363],[-89.235897,37.700386],[-89.235849,37.700415],[-89.23578,37.700444],[-89.235673,37.700491],[-89.235615,37.700517],[-89.235503,37.700541],[-89.235504,37.700824],[-89.234592,37.700812],[-89.23409,37.700806],[-89.23304,37.70077],[-89.232941,37.700767],[-89.232784,37.700772],[-89.232736,37.700771],[-89.231979,37.700757],[-89.231218,37.700744],[-89.228719,37.700698],[-89.228592,37.700695],[-89.227985,37.70068],[-89.227973,37.70068],[-89.223829,37.700557],[-89.221756,37.700495],[-89.221247,37.700477],[-89.220307,37.700443],[-89.218913,37.700394],[-89.218746,37.700388],[-89.218773,37.700242],[-89.218809,37.700051],[-89.21883,37.699804],[-89.218831,37.699533],[-89.218831,37.699401],[-89.218834,37.698834],[-89.218839,37.698719],[-89.218838,37.698622],[-89.218834,37.698261],[-89.218893,37.697538],[-89.218927,37.697211],[-89.219026,37.696913],[-89.21909,37.696684],[-89.21921,37.6963],[-89.219293,37.696085],[-89.219421,37.695782],[-89.219529,37.695559],[-89.219644,37.695355],[-89.219672,37.695305],[-89.219848,37.695033],[-89.220114,37.694668],[-89.220209,37.694549],[-89.221172,37.695119],[-89.221208,37.695174],[-89.221308,37.695232],[-89.221553,37.695373],[-89.221547,37.695412],[-89.221558,37.69545],[-89.221584,37.695483],[-89.221616,37.695501],[-89.221634,37.695511],[-89.221682,37.69552],[-89.221732,37.695515],[-89.221776,37.695497],[-89.22181,37.695468],[-89.221825,37.695439],[-89.221832,37.695394],[-89.221818,37.695356],[-89.221788,37.695324],[-89.221743,37.695301],[-89.221714,37.695296],[-89.221694,37.695293],[-89.221645,37.695299],[-89.221601,37.695317],[-89.221358,37.695176],[-89.221242,37.695108],[-89.221172,37.695119],[-89.220209,37.694549],[-89.220114,37.694668],[-89.219848,37.695033],[-89.219672,37.695305],[-89.219644,37.695355],[-89.219529,37.695559],[-89.219421,37.695782],[-89.219293,37.696085],[-89.21921,37.6963],[-89.21909,37.696684],[-89.219026,37.696913],[-89.218927,37.697211],[-89.218893,37.697538],[-89.218879,37.69771],[-89.218834,37.698261],[-89.218839,37.698719],[-89.218834,37.698834],[-89.218831,37.699401],[-89.218831,37.699533],[-89.21883,37.699804],[-89.218809,37.700051],[-89.21875,37.700369],[-89.218746,37.700388],[-89.218577,37.700384],[-89.218563,37.700384],[-89.218071,37.700372],[-89.217606,37.700358],[-89.217267,37.700381],[-89.216943,37.700429],[-89.216567,37.700497],[-89.216166,37.700528],[-89.216133,37.700766],[-89.21607,37.701088],[-89.216019,37.701347],[-89.215961,37.701971],[-89.215993,37.702099],[-89.216045,37.702313],[-89.215985,37.702369],[-89.215939,37.702487],[-89.215931,37.702504],[-89.215897,37.702578],[-89.215881,37.702604],[-89.215841,37.702668],[-89.215676,37.703126],[-89.215303,37.704191],[-89.215125,37.704709],[-89.215108,37.704759],[-89.215148,37.704955],[-89.215212,37.70509],[-89.215304,37.705194],[-89.21547,37.705279],[-89.215947,37.705471],[-89.216107,37.705574],[-89.215818,37.705941],[-89.215705,37.706128],[-89.215314,37.706775],[-89.215065,37.70729],[-89.214834,37.707906],[-89.214648,37.708628],[-89.214619,37.708858],[-89.214557,37.709535],[-89.214549,37.709788],[-89.214559,37.709961],[-89.214583,37.710371],[-89.214625,37.710714],[-89.214689,37.711386],[-89.214759,37.711904],[-89.214785,37.712096],[-89.214809,37.712276],[-89.214825,37.712391],[-89.215019,37.713873],[-89.215028,37.713941],[-89.215031,37.713963],[-89.215439,37.713939],[-89.216264,37.71389],[-89.216425,37.713867],[-89.216672,37.713812],[-89.21707,37.713785],[-89.217148,37.71378],[-89.21735,37.713746],[-89.217469,37.713707],[-89.217603,37.713627],[-89.217638,37.713587],[-89.217701,37.713514],[-89.217771,37.713405],[-89.217816,37.71325],[-89.217847,37.713043],[-89.217852,37.712361],[-89.217854,37.712014],[-89.217855,37.711896],[-89.217855,37.711877],[-89.217854,37.711811],[-89.217852,37.711464],[-89.21785,37.711239],[-89.21786,37.710942],[-89.217863,37.710865],[-89.217881,37.710768],[-89.217945,37.710624],[-89.218024,37.710527],[-89.218122,37.710453],[-89.218258,37.710375],[-89.218427,37.710343],[-89.218452,37.710338],[-89.218535,37.710343],[-89.218616,37.710348],[-89.21911,37.710377],[-89.219171,37.710381],[-89.219796,37.710432],[-89.219951,37.710444],[-89.220203,37.710483],[-89.220345,37.710528],[-89.220508,37.710592],[-89.220619,37.710661],[-89.22069,37.710705],[-89.220845,37.710851],[-89.220917,37.710924],[-89.221042,37.711051],[-89.22108,37.71109],[-89.221461,37.711454],[-89.221606,37.711573],[-89.221722,37.711669],[-89.221853,37.711736],[-89.221974,37.711804],[-89.222122,37.711861],[-89.222212,37.711878],[-89.222476,37.711925],[-89.222667,37.711945],[-89.222946,37.711964],[-89.223157,37.711987],[-89.223349,37.712012],[-89.223452,37.712025],[-89.22362,37.712063],[-89.223749,37.712117],[-89.223871,37.712191],[-89.224004,37.712286],[-89.224111,37.712417],[-89.224146,37.712478],[-89.22419,37.712554],[-89.224226,37.712723],[-89.224239,37.712894],[-89.224232,37.712977],[-89.224217,37.71304],[-89.22417,37.713157],[-89.22411,37.71329],[-89.224071,37.713474],[-89.224023,37.713634],[-89.224009,37.713836],[-89.224024,37.714224],[-89.224027,37.714327],[-89.224044,37.714494],[-89.224072,37.714645],[-89.224123,37.714847],[-89.224173,37.715045],[-89.224205,37.715151],[-89.224269,37.715396],[-89.224309,37.715542],[-89.224339,37.715654],[-89.224365,37.71578],[-89.2244,37.715964],[-89.224444,37.716289],[-89.224529,37.716291],[-89.225201,37.716303],[-89.225331,37.716306],[-89.225611,37.716304],[-89.225689,37.716305],[-89.225793,37.716299],[-89.225975,37.716263],[-89.226062,37.716233],[-89.226158,37.71619],[-89.226254,37.716107],[-89.226343,37.716004],[-89.22639,37.715909],[-89.22644,37.715822],[-89.226538,37.715702],[-89.226614,37.715644],[-89.22668,37.7156],[-89.226735,37.715574],[-89.22687,37.715527],[-89.227026,37.715514],[-89.227911,37.715506],[-89.227926,37.715323],[-89.227943,37.715163],[-89.22797,37.714981],[-89.228026,37.714744],[-89.228035,37.71472],[-89.228109,37.714522],[-89.228174,37.714387],[-89.228314,37.714046],[-89.228369,37.713822],[-89.228394,37.713647],[-89.228379,37.713339],[-89.228347,37.713134],[-89.228343,37.713107],[-89.228314,37.712961],[-89.228302,37.712904],[-89.228423,37.712906],[-89.228695,37.71291],[-89.229178,37.712933],[-89.229359,37.712942],[-89.229597,37.712955],[-89.229743,37.712962],[-89.229814,37.712965],[-89.229997,37.712974],[-89.230172,37.712981],[-89.230389,37.712989],[-89.230558,37.712996],[-89.230656,37.713],[-89.230917,37.713004],[-89.230933,37.713004],[-89.231158,37.713007],[-89.231397,37.71301],[-89.231402,37.712835],[-89.231402,37.71278],[-89.231402,37.712647],[-89.231403,37.712557],[-89.231404,37.712482],[-89.231405,37.712409],[-89.2314179,37.7122964],[-89.2314503,37.7120403],[-89.231468,37.711962],[-89.231483,37.711885],[-89.23149,37.71185],[-89.231495,37.711826],[-89.231503,37.71181],[-89.231528,37.711763],[-89.23154,37.711741],[-89.231568,37.71169],[-89.231586,37.711656],[-89.231603,37.711626],[-89.231693,37.711457],[-89.231784,37.711289],[-89.23189,37.711091],[-89.232015,37.710859],[-89.232018,37.710854],[-89.232028,37.710834],[-89.232049,37.710796],[-89.232086,37.710726],[-89.2322285,37.7107619],[-89.232362,37.710794],[-89.232499,37.710816],[-89.23265,37.710828],[-89.2328,37.710833],[-89.233169,37.710865],[-89.233423,37.710883],[-89.233669,37.710903],[-89.233719,37.710908],[-89.234045,37.710938],[-89.234223,37.71095],[-89.23435,37.710957],[-89.234555,37.71097],[-89.234766,37.710974],[-89.234882,37.710977],[-89.23499,37.710974],[-89.235129,37.710964],[-89.235218,37.710939],[-89.235268,37.710926],[-89.235323,37.710904],[-89.235373,37.710882],[-89.235451,37.710849],[-89.235556,37.710792],[-89.236021,37.710468],[-89.236388,37.710231],[-89.236469,37.710182],[-89.236549,37.710141],[-89.236685,37.710086],[-89.236751,37.710068],[-89.236832,37.710044],[-89.236951,37.710031],[-89.237104,37.710027],[-89.237399,37.710033],[-89.237522,37.710036],[-89.237528,37.709414],[-89.237528,37.709402],[-89.237571,37.706426],[-89.237665,37.702598],[-89.237709,37.7011],[-89.237715,37.700876],[-89.237855,37.700879],[-89.240192,37.700923],[-89.242538,37.700967],[-89.243493,37.700983],[-89.244973,37.701014],[-89.245485,37.70103],[-89.247122,37.70108],[-89.247125,37.701049],[-89.247156,37.700725],[-89.247153,37.700382],[-89.247157,37.700025],[-89.247187,37.699577],[-89.247203,37.699458],[-89.247193,37.699261],[-89.247228,37.698211],[-89.247228,37.698206],[-89.247232,37.697898],[-89.247232,37.697896],[-89.247245,37.69654],[-89.247245,37.696295],[-89.247088,37.696288],[-89.246968,37.696283],[-89.246846,37.696241],[-89.246759,37.696185],[-89.246738,37.696155],[-89.246707,37.69611],[-89.246664,37.696016],[-89.246648,37.695897],[-89.246648,37.695409],[-89.246852,37.695412],[-89.247083,37.695415],[-89.247267,37.695417],[-89.247257,37.69586],[-89.247245,37.696295],[-89.247245,37.69654],[-89.247232,37.697896],[-89.24723,37.698054],[-89.247228,37.698211],[-89.247193,37.699261],[-89.247203,37.699458],[-89.247187,37.699577],[-89.247157,37.700025],[-89.247153,37.700382],[-89.247156,37.700725],[-89.247129,37.701006],[-89.247122,37.70108],[-89.245485,37.70103],[-89.244973,37.701014],[-89.243493,37.700983],[-89.242538,37.700967],[-89.24189,37.700955],[-89.240192,37.700923],[-89.237862,37.700879],[-89.237715,37.700876],[-89.237735,37.699845],[-89.237736,37.699802],[-89.237593121,37.699740754],[-89.237437504,37.699687983],[-89.2372765,37.69963653]]}},{"type":"Feature","properties":{"agency":"JAX Mass Transit","shape_id":"74048"},"geometry":{"type":"LineString","coordinates":[[-89.2087268,37.7228753],[-89.208723,37.722554],[-89.208724,37.722316],[-89.208724,37.722213],[-89.208733,37.721411],[-89.208734,37.721355],[-89.208735,37.721273],[-89.208736,37.72118],[-89.20874,37.720848],[-89.208746,37.720395],[-89.208773,37.719907],[-89.208799,37.719453],[-89.208824,37.718667],[-89.208847,37.717975],[-89.208854,37.717833],[-89.208867,37.717582],[-89.20887,37.717476],[-89.208862,37.717385],[-89.208868,37.717039],[-89.208891,37.716129],[-89.208893,37.716016],[-89.2089,37.715751],[-89.208898,37.715713],[-89.208897,37.715691],[-89.20889,37.715507],[-89.208904,37.715153],[-89.208905,37.715121],[-89.208918,37.714772],[-89.208922,37.714685],[-89.208925,37.714602],[-89.208929,37.71451],[-89.208929,37.714504],[-89.208935,37.714341],[-89.208978,37.713246],[-89.209006,37.712845],[-89.209069,37.711832],[-89.209082,37.711637],[-89.209109,37.710943],[-89.209114,37.710828],[-89.209146,37.709996],[-89.209148,37.709234],[-89.209149,37.708933],[-89.209152,37.707852],[-89.209152,37.707816],[-89.209203,37.706966],[-89.209213,37.706624],[-89.209228,37.706113],[-89.209227,37.706091],[-89.209223,37.705933],[-89.209203,37.705234],[-89.209182,37.704494],[-89.209097,37.703142],[-89.209192,37.702071],[-89.20922,37.70187],[-89.209355,37.700887],[-89.209391,37.700088],[-89.209558,37.700091],[-89.209724,37.700093],[-89.210124,37.700124],[-89.210346,37.700157],[-89.210393,37.700167],[-89.210622,37.700215],[-89.210923,37.700285],[-89.211283,37.70035],[-89.211668,37.700383],[-89.211943,37.700396],[-89.212096,37.70039],[-89.212521,37.700409],[-89.213067,37.700431],[-89.21404,37.700447],[-89.214675,37.700467],[-89.215105,37.700485],[-89.215818,37.700526],[-89.216166,37.700528],[-89.216567,37.700497],[-89.216943,37.700429],[-89.217267,37.700381],[-89.217606,37.700358],[-89.218071,37.700372],[-89.218563,37.700384],[-89.218577,37.700384],[-89.218746,37.700388],[-89.218765,37.700285],[-89.218809,37.700051],[-89.21883,37.699804],[-89.218831,37.699533],[-89.218831,37.699401],[-89.218834,37.698834],[-89.218839,37.698719],[-89.218838,37.698622],[-89.218834,37.698261],[-89.218893,37.697538],[-89.218927,37.697211],[-89.219026,37.696913],[-89.21909,37.696684],[-89.21921,37.6963],[-89.219293,37.696085],[-89.219421,37.695782],[-89.219529,37.695559],[-89.219644,37.695355],[-89.219672,37.695305],[-89.219848,37.695033],[-89.220114,37.694668],[-89.220174,37.694593],[-89.220209,37.694549],[-89.221172,37.695119],[-89.221208,37.695174],[-89.221308,37.695232],[-89.221553,37.695373],[-89.221547,37.695412],[-89.221558,37.69545],[-89.221584,37.695483],[-89.221616,37.695501],[-89.221634,37.695511],[-89.221682,37.69552],[-89.221732,37.695515],[-89.221776,37.695497],[-89.22181,37.695468],[-89.221825,37.695439],[-89.221832,37.695394],[-89.221818,37.695356],[-89.221788,37.695324],[-89.221743,37.695301],[-89.221694,37.695293],[-89.221645,37.695299],[-89.221601,37.695317],[-89.221358,37.695176],[-89.221242,37.695108],[-89.221172,37.695119],[-89.220209,37.694549],[-89.220114,37.694668],[-89.219848,37.695033],[-89.219672,37.695305],[-89.219644,37.695355],[-89.219529,37.695559],[-89.219421,37.695782],[-89.219293,37.696085],[-89.21921,37.6963],[-89.21909,37.696684],[-89.219026,37.696913],[-89.218927,37.697211],[-89.218893,37.697538],[-89.218834,37.698261],[-89.218839,37.698719],[-89.218834,37.698834],[-89.218831,37.699401],[-89.218831,37.699533],[-89.21883,37.699804],[-89.218809,37.700051],[-89.218746,37.700388],[-89.218913,37.700394],[-89.219021,37.700398],[-89.220307,37.700443],[-89.221247,37.700477],[-89.221756,37.700495],[-89.223829,37.700557],[-89.227973,37.70068],[-89.227985,37.70068],[-89.228592,37.700695],[-89.228719,37.700698],[-89.231218,37.700744],[-89.231979,37.700757],[-89.232736,37.700771],[-89.232784,37.700772],[-89.232941,37.700767],[-89.23304,37.70077],[-89.23409,37.700806],[-89.235504,37.700824],[-89.235922,37.700834],[-89.237715,37.700876],[-89.237736,37.699802],[-89.237541,37.699722],[-89.237497,37.699708],[-89.237001,37.699545],[-89.236948,37.699528],[-89.236896,37.699511],[-89.236816,37.699484],[-89.236753,37.699665],[-89.236741,37.699698],[-89.236654,37.69981],[-89.236589,37.69988],[-89.236535,37.699938],[-89.236329,37.700104],[-89.236299,37.700128],[-89.236185,37.700206],[-89.236072,37.700284],[-89.236003,37.700328],[-89.23594,37.700363],[-89.235897,37.700386],[-89.235849,37.700415],[-89.23578,37.700444],[-89.235673,37.700491],[-89.235615,37.700517],[-89.235503,37.700541],[-89.235504,37.700824],[-89.235922,37.700834],[-89.237715,37.700876],[-89.23771,37.701077],[-89.237709,37.7011],[-89.237675,37.702241],[-89.237665,37.702598],[-89.237571,37.706426],[-89.237528,37.709414],[-89.237528,37.709427],[-89.237522,37.710036],[-89.237104,37.710027],[-89.236951,37.710031],[-89.236832,37.710044],[-89.236751,37.710068],[-89.236685,37.710086],[-89.236549,37.710141],[-89.236469,37.710182],[-89.236388,37.710231],[-89.236021,37.710468],[-89.235556,37.710792],[-89.235451,37.710849],[-89.235373,37.710882],[-89.235323,37.710904],[-89.235251,37.71093],[-89.235218,37.710939],[-89.235129,37.710964],[-89.23499,37.710974],[-89.234882,37.710977],[-89.234766,37.710974],[-89.234555,37.71097],[-89.23435,37.710957],[-89.234223,37.71095],[-89.234045,37.710938],[-89.233669,37.710903],[-89.233423,37.710883],[-89.233169,37.710865],[-89.2328,37.710833],[-89.23265,37.710828],[-89.232499,37.710816],[-89.232362,37.710794],[-89.232086,37.710726],[-89.2320603,37.7107759],[-89.2320228,37.7108444],[-89.2319976,37.7108887],[-89.2319384,37.711005],[-89.2318148,37.7112301],[-89.231603,37.711625],[-89.231568,37.71169],[-89.231528,37.711763],[-89.23152,37.711778],[-89.231494,37.711828],[-89.231467,37.711967],[-89.2314095,37.7123734],[-89.231398,37.712991],[-89.231397,37.71301],[-89.231158,37.713007],[-89.230933,37.713004],[-89.230848,37.713003],[-89.230784,37.713002],[-89.229178,37.712933],[-89.2288886,37.7129205],[-89.2286291,37.7129093],[-89.2285111,37.712906],[-89.2284032,37.712905],[-89.2283364,37.7129037],[-89.228216,37.712916],[-89.227962,37.712949],[-89.227477,37.713012],[-89.227133,37.713053],[-89.226775,37.713083],[-89.226088,37.71314],[-89.22574,37.713151],[-89.225533,37.713147],[-89.225478,37.713147],[-89.225161,37.713149],[-89.224802,37.713122],[-89.224618,37.713101],[-89.224495,37.713081],[-89.224312,37.713054],[-89.224217,37.71304],[-89.224232,37.712977],[-89.224239,37.712894],[-89.224226,37.712723],[-89.22419,37.712554],[-89.22414,37.712468],[-89.224111,37.712417],[-89.224004,37.712286],[-89.223871,37.712191],[-89.223749,37.712117],[-89.22362,37.712063],[-89.223452,37.712025],[-89.223349,37.712012],[-89.223157,37.711987],[-89.222946,37.711964],[-89.222667,37.711945],[-89.222476,37.711925],[-89.222212,37.711878],[-89.222122,37.711861],[-89.22198,37.711807],[-89.221907,37.711766],[-89.221853,37.711736],[-89.221722,37.711669],[-89.221606,37.711573],[-89.221461,37.711454],[-89.22108,37.71109],[-89.221042,37.711051],[-89.220917,37.710924],[-89.220845,37.710851],[-89.22069,37.710705],[-89.220503,37.71059],[-89.220345,37.710528],[-89.220203,37.710483],[-89.219951,37.710444],[-89.219796,37.710432],[-89.219171,37.710381],[-89.21911,37.710377],[-89.218616,37.710348],[-89.218535,37.710343],[-89.218452,37.710338],[-89.218258,37.710375],[-89.218131,37.710448],[-89.218024,37.710527],[-89.217945,37.710624],[-89.217881,37.710768],[-89.217863,37.710865],[-89.21786,37.710942],[-89.21785,37.711239],[-89.217852,37.711464],[-89.217854,37.711811],[-89.217855,37.711877],[-89.217855,37.711896],[-89.217854,37.712014],[-89.217849,37.712799],[-89.217847,37.713043],[-89.217816,37.71325],[-89.217771,37.713405],[-89.217701,37.713514],[-89.217638,37.713587],[-89.217603,37.713627],[-89.217487,37.713701],[-89.21735,37.713746],[-89.217148,37.71378],[-89.21707,37.713785],[-89.216672,37.713812],[-89.216424,37.7138],[-89.216041,37.713814],[-89.215832,37.71382],[-89.215555,37.713838],[-89.215387,37.713848],[-89.215191,37.713859],[-89.215019,37.713873],[-89.215028,37.713941],[-89.215031,37.713963],[-89.215091,37.714591],[-89.215096,37.714635],[-89.215118,37.714804],[-89.215128,37.71488],[-89.215142,37.714984],[-89.215148,37.715029],[-89.2152,37.715458],[-89.215212,37.715678],[-89.215231,37.716034],[-89.215269,37.71631],[-89.215339,37.716646],[-89.215455,37.71708],[-89.215469,37.717134],[-89.215498,37.717235],[-89.215504,37.717256],[-89.215384,37.717281],[-89.215343,37.717289],[-89.21491,37.717316],[-89.214483,37.717351],[-89.214292,37.717366],[-89.214056,37.717388],[-89.213666,37.717425],[-89.21364,37.717428],[-89.213433,37.717448],[-89.213302,37.71746],[-89.212583,37.717515],[-89.212131,37.717546],[-89.2106,37.717644],[-89.210476,37.717647],[-89.210395,37.717649],[-89.210111,37.717655],[-89.209878,37.717639],[-89.209709,37.717614],[-89.209566,37.717566],[-89.209389,37.71752],[-89.209196,37.717492],[-89.208991,37.717475],[-89.208981,37.717474],[-89.20887,37.717476],[-89.208741,37.717488],[-89.208712,37.717491],[-89.208249,37.717499],[-89.207914,37.717504],[-89.207728,37.717507],[-89.207564,37.71751],[-89.207211,37.717518],[-89.206865,37.717526],[-89.206801,37.717527],[-89.206741,37.717527],[-89.205998,37.717533],[-89.205831,37.717534],[-89.205117,37.717543],[-89.204948,37.717545],[-89.204346,37.717553],[-89.203691,37.717562],[-89.20354,37.717564],[-89.203164,37.717572],[-89.203108,37.717572],[-89.20298,37.717575],[-89.202001,37.717591],[-89.201494,37.717599],[-89.201424,37.7176],[-89.201325,37.717602],[-89.199881,37.717626],[-89.199601,37.71763],[-89.198261,37.717636],[-89.198046,37.717637],[-89.196393,37.717644],[-89.196236,37.717645],[-89.196221,37.717645],[-89.196187,37.717643],[-89.196156,37.717643],[-89.194972,37.717636],[-89.194953,37.717636],[-89.194794,37.717635],[-89.193516,37.717628],[-89.193486,37.717626],[-89.193297,37.717614],[-89.192591,37.7176],[-89.19172,37.717613],[-89.191716,37.717784],[-89.191709,37.718089],[-89.191701,37.718407],[-89.191662,37.718418],[-89.191629,37.718438],[-89.191608,37.718466],[-89.191599,37.718498],[-89.191601,37.718516],[-89.191615,37.718547],[-89.191641,37.718572],[-89.191677,37.718589],[-89.191729,37.718593],[-89.191765,37.718588],[-89.191786,37.718577],[-89.1918,37.71857],[-89.191825,37.718544],[-89.191837,37.718512],[-89.191838,37.718494],[-89.191828,37.718462],[-89.191804,37.718435],[-89.191771,37.718415],[-89.191742,37.718408],[-89.191701,37.718407],[-89.191707,37.718169],[-89.191716,37.717784],[-89.19172,37.717613],[-89.192102,37.717607],[-89.192591,37.7176],[-89.193297,37.717614],[-89.193486,37.717626],[-89.193516,37.717628],[-89.194794,37.717635],[-89.194953,37.717636],[-89.194972,37.717636],[-89.196156,37.717643],[-89.196187,37.717643],[-89.196221,37.717645],[-89.196236,37.717645],[-89.198046,37.717637],[-89.198261,37.717636],[-89.199601,37.71763],[-89.199496,37.717935],[-89.199472,37.718016],[-89.199437,37.718294],[-89.199435,37.718388],[-89.199422,37.719246],[-89.199412,37.719656],[-89.199409,37.719848],[-89.199397,37.720544],[-89.199393,37.72081],[-89.199385,37.721142],[-89.199376,37.721497],[-89.199356,37.722476],[-89.199354,37.722794],[-89.199348,37.723703],[-89.199349,37.724085],[-89.199341,37.724831],[-89.199341,37.724959],[-89.199293,37.725263],[-89.199225,37.725693],[-89.199199,37.725875],[-89.19918,37.72604],[-89.199169,37.726141],[-89.199136,37.726712],[-89.199132,37.726766],[-89.198987,37.726786],[-89.198477,37.726855],[-89.198393,37.726866],[-89.198009,37.726901],[-89.19736,37.72696],[-89.196781,37.726969],[-89.196211,37.726968],[-89.195593,37.726966],[-89.195056,37.726956],[-89.194981,37.726955],[-89.19493,37.726954],[-89.194548,37.726945],[-89.194193,37.726937],[-89.194056,37.726933],[-89.194002,37.726932],[-89.193439,37.726926],[-89.192727,37.726918],[-89.192509,37.726916],[-89.192403,37.726914],[-89.191645,37.726902],[-89.191312,37.726896],[-89.191283,37.726896],[-89.190508,37.726885],[-89.190435,37.726884],[-89.189888,37.726877],[-89.189846,37.726876],[-89.189097,37.726866],[-89.188806,37.726865],[-89.18743,37.726861],[-89.187322,37.726861],[-89.18702,37.726857],[-89.186026,37.726846],[-89.185085,37.726834],[-89.185065,37.727752],[-89.185057,37.72815],[-89.185044,37.729256],[-89.185031,37.730439],[-89.184446,37.730438],[-89.183975,37.730438],[-89.183378,37.730437],[-89.183378,37.730461],[-89.18338,37.730608],[-89.183381,37.730764],[-89.183382,37.730951],[-89.183383,37.731107],[-89.183385,37.731293],[-89.183386,37.731439],[-89.183386,37.731473],[-89.183386,37.73151],[-89.183387,37.731653],[-89.18339,37.731847],[-89.183392,37.732039],[-89.183393,37.732221],[-89.183395,37.732398],[-89.183396,37.732501],[-89.183396,37.732567],[-89.184346,37.732567],[-89.184445,37.732567],[-89.184864,37.732568],[-89.184997,37.732568],[-89.184988,37.733052],[-89.18499,37.733373],[-89.185026,37.733598],[-89.185067,37.733713],[-89.18511,37.733831],[-89.185214,37.734053],[-89.185252,37.734107],[-89.185342,37.734235],[-89.185715,37.734616],[-89.185852,37.734757],[-89.185903,37.734807],[-89.186309,37.735203],[-89.186437,37.735328],[-89.186702,37.735586],[-89.187139,37.735975],[-89.188215,37.736989],[-89.18866,37.737439],[-89.188201,37.737748],[-89.188045,37.737852],[-89.187999,37.737806],[-89.187743,37.737552],[-89.187615,37.737425],[-89.18756,37.73737],[-89.187607,37.737344],[-89.187704,37.737317],[-89.187733,37.737301],[-89.187793,37.737269],[-89.187902,37.737199],[-89.188215,37.736989],[-89.188226,37.736982],[-89.188337,37.736917],[-89.188468,37.736834],[-89.188173,37.736537],[-89.187961,37.736328],[-89.18813,37.736222],[-89.188288,37.736121],[-89.188451,37.736015],[-89.188624,37.7359],[-89.188783,37.735794],[-89.188942,37.735688],[-89.189116,37.735573],[-89.189184,37.735528],[-89.189276,37.735467],[-89.18942,37.735371],[-89.189612,37.735243],[-89.189773,37.735137],[-89.189938,37.735028],[-89.190099,37.734921],[-89.190262,37.734814],[-89.190439,37.734697],[-89.190591,37.734597],[-89.190747,37.734494],[-89.190908,37.734387],[-89.191107,37.734256],[-89.191205,37.734193],[-89.191315,37.734121],[-89.191467,37.734022],[-89.191622,37.733921],[-89.191773,37.733823],[-89.191922,37.733725],[-89.192071,37.733629],[-89.192226,37.733528],[-89.192363,37.733438],[-89.192552,37.733315],[-89.192709,37.733213],[-89.192855,37.733118],[-89.19301327,37.733016004],[-89.193159,37.73292],[-89.193332,37.732808],[-89.194162,37.732267],[-89.19421,37.732174],[-89.194216,37.73204],[-89.194227,37.731801],[-89.194219,37.73156],[-89.194222,37.731319],[-89.194208,37.731199],[-89.194158,37.731114],[-89.193975,37.730889],[-89.193889,37.730803],[-89.193862,37.73073],[-89.193857,37.730714],[-89.193843,37.73067],[-89.193843,37.730606],[-89.193863,37.73054],[-89.193913,37.73045],[-89.194312,37.730238],[-89.194678,37.730053],[-89.194752,37.730015],[-89.195182,37.729806],[-89.195521,37.729664],[-89.195822,37.729553],[-89.196401,37.729347],[-89.196944,37.729171],[-89.197369,37.729047],[-89.197777,37.728939],[-89.198853,37.728718],[-89.198932,37.728702],[-89.199087,37.728669],[-89.199247,37.72865],[-89.199527,37.728617],[-89.199894,37.728576],[-89.200089,37.728555],[-89.200449,37.728524],[-89.200919,37.728487],[-89.201575,37.728436],[-89.202061,37.728397],[-89.202272,37.728381],[-89.202524,37.72836],[-89.202892,37.728329],[-89.202967,37.728323],[-89.203104,37.728311],[-89.203371,37.728289],[-89.203583,37.728271],[-89.203675,37.728264],[-89.205303,37.728139],[-89.206208,37.728072],[-89.206485,37.728051],[-89.206503,37.728049],[-89.207033,37.728005],[-89.207275,37.727984],[-89.208605,37.727872],[-89.208627,37.727416],[-89.20864,37.727058],[-89.208644,37.726946],[-89.208645,37.726923],[-89.208646,37.72674],[-89.208647,37.726641],[-89.208648,37.726429],[-89.208635,37.725942],[-89.20868,37.72547],[-89.208689,37.724569],[-89.20869,37.724355],[-89.208703,37.723642],[-89.208709,37.723316],[-89.2087193,37.7229448]]}},{"type":"Feature","properties":{"agency":"JAX Mass Transit","shape_id":"74049"},"geometry":{"type":"LineString","coordinates":[[-89.217849,37.712799],[-89.217847,37.713043],[-89.217816,37.71325],[-89.217771,37.713405],[-89.217701,37.713514],[-89.217638,37.713587],[-89.217603,37.713627],[-89.217487,37.713701],[-89.21735,37.713746],[-89.217148,37.71378],[-89.21707,37.713785],[-89.216672,37.713812],[-89.216424,37.7138],[-89.216219,37.713807],[-89.216041,37.713814],[-89.215832,37.71382],[-89.215555,37.713838],[-89.215387,37.713848],[-89.215191,37.713859],[-89.215019,37.713873],[-89.215028,37.713941],[-89.215031,37.713963],[-89.215091,37.714591],[-89.215096,37.714635],[-89.215118,37.714804],[-89.215128,37.71488],[-89.215142,37.714984],[-89.215148,37.715029],[-89.2152,37.715458],[-89.215212,37.715678],[-89.215231,37.716034],[-89.215269,37.71631],[-89.215339,37.716646],[-89.215455,37.71708],[-89.215469,37.717134],[-89.215504,37.717256],[-89.215457,37.717266],[-89.215384,37.717281],[-89.215343,37.717289],[-89.21491,37.717316],[-89.214483,37.717351],[-89.214466,37.717224],[-89.214462,37.717198],[-89.21445,37.717112],[-89.214427,37.716941],[-89.214402,37.716762],[-89.214379,37.71659],[-89.214368,37.716509],[-89.214253,37.71567],[-89.21416,37.715219],[-89.214145,37.715152],[-89.214114,37.71501],[-89.214103,37.714963],[-89.214036,37.714757],[-89.213923,37.714519],[-89.213841,37.714358],[-89.213716,37.714098],[-89.213694,37.713879],[-89.213692,37.713856],[-89.213696,37.713686],[-89.213702,37.713411],[-89.2136,37.713139],[-89.213567,37.712798],[-89.213544,37.712354],[-89.213553,37.712311],[-89.213573,37.712208],[-89.213586,37.712133],[-89.213594,37.712083],[-89.213608,37.71191],[-89.213549,37.711782],[-89.213514,37.711697],[-89.213397,37.711584],[-89.213243,37.711511],[-89.21299,37.711425],[-89.212944,37.711527],[-89.212885,37.711657],[-89.212777,37.711818],[-89.212415,37.712179],[-89.211943,37.712627],[-89.211321,37.713297],[-89.211292,37.713331],[-89.211273,37.713352],[-89.211213,37.713422],[-89.210967,37.713824],[-89.210732,37.714284],[-89.21056,37.714605],[-89.210497,37.714707],[-89.2103,37.714951],[-89.20991,37.715357],[-89.209791,37.71552],[-89.209774,37.715618],[-89.209771,37.715693],[-89.20977,37.715721],[-89.209638,37.715767],[-89.209504,37.715835],[-89.2094,37.715912],[-89.209315,37.715961],[-89.20923,37.715991],[-89.209177,37.716006],[-89.209105,37.716008],[-89.209068,37.716009],[-89.208893,37.716016],[-89.2089,37.715751],[-89.208772,37.71575],[-89.208585,37.715748],[-89.208534,37.715748],[-89.207858,37.71575],[-89.20732,37.715727],[-89.206933,37.715727],[-89.206249,37.715724],[-89.20614,37.715724],[-89.205921,37.715724],[-89.205561,37.715725],[-89.205108,37.715723],[-89.204731,37.715722],[-89.20429,37.71572],[-89.203642,37.715717],[-89.203449,37.715717],[-89.203417,37.715718],[-89.202678,37.715716],[-89.202596,37.715716],[-89.201804,37.715715],[-89.200933,37.715713],[-89.200748,37.715702],[-89.200576,37.715673],[-89.200452,37.715614],[-89.200446,37.715638],[-89.200353,37.716034],[-89.200331,37.716238],[-89.200274,37.716453],[-89.20022,37.716608],[-89.200089,37.716854],[-89.199905,37.717172],[-89.199773,37.717381],[-89.199611,37.717615],[-89.199601,37.71763],[-89.198261,37.717636],[-89.198046,37.717637],[-89.196236,37.717645],[-89.196221,37.717645],[-89.196187,37.717643],[-89.196156,37.717643],[-89.195929,37.717642],[-89.194972,37.717636],[-89.194953,37.717636],[-89.194794,37.717635],[-89.193516,37.717628],[-89.193486,37.717626],[-89.193405,37.717621],[-89.193297,37.717614],[-89.192591,37.7176],[-89.19172,37.717613],[-89.191716,37.717784],[-89.191701,37.718407],[-89.191662,37.718418],[-89.191629,37.718438],[-89.191608,37.718466],[-89.191599,37.718498],[-89.191601,37.718516],[-89.191615,37.718547],[-89.191641,37.718572],[-89.191677,37.718589],[-89.191718,37.718595],[-89.191765,37.718588],[-89.191786,37.718577],[-89.191825,37.718544],[-89.191838,37.718494],[-89.191828,37.718462],[-89.191804,37.718435],[-89.191771,37.718415],[-89.191742,37.718408],[-89.191701,37.718407],[-89.191707,37.718166],[-89.191716,37.717784],[-89.19172,37.717613],[-89.192591,37.7176],[-89.193297,37.717614],[-89.193486,37.717626],[-89.193516,37.717628],[-89.194794,37.717635],[-89.194953,37.717636],[-89.194972,37.717636],[-89.196156,37.717643],[-89.196187,37.717643],[-89.196221,37.717645],[-89.196236,37.717645],[-89.198046,37.717637],[-89.198261,37.717636],[-89.199601,37.71763],[-89.199881,37.717626],[-89.201291,37.717603],[-89.201325,37.717602],[-89.201424,37.7176],[-89.202001,37.717591],[-89.20298,37.717575],[-89.203108,37.717572],[-89.203164,37.717572],[-89.20354,37.717564],[-89.204346,37.717553],[-89.204948,37.717545],[-89.205117,37.717543],[-89.205294,37.717541],[-89.205831,37.717534],[-89.205998,37.717533],[-89.206741,37.717527],[-89.206801,37.717527],[-89.206865,37.717526],[-89.207211,37.717518],[-89.207564,37.71751],[-89.207728,37.717507],[-89.207914,37.717504],[-89.208249,37.717499],[-89.208712,37.717491],[-89.208741,37.717488],[-89.20887,37.717476],[-89.208981,37.717474],[-89.208991,37.717475],[-89.209196,37.717492],[-89.209389,37.71752],[-89.209566,37.717566],[-89.209709,37.717614],[-89.209878,37.717639],[-89.210111,37.717655],[-89.210395,37.717649],[-89.210476,37.717647],[-89.210476,37.71772],[-89.210477,37.717898],[-89.21048,37.718445],[-89.210475,37.718643],[-89.210474,37.718692],[-89.210465,37.71912],[-89.210457,37.719452],[-89.210443,37.719704],[-89.210441,37.719747],[-89.210416,37.720379],[-89.210413,37.720834],[-89.21041,37.721273],[-89.210838,37.721265],[-89.211394,37.721252],[-89.211802,37.721243],[-89.212076,37.721236],[-89.212706,37.721234],[-89.213048,37.721226],[-89.213306,37.721172],[-89.21354,37.721093],[-89.21374,37.720998],[-89.213908,37.720896],[-89.213935,37.72088],[-89.214548,37.720507],[-89.214609,37.721195],[-89.214649,37.721519],[-89.214704,37.721954],[-89.21534,37.721929],[-89.215462,37.721918],[-89.215551,37.721911],[-89.215735,37.721896],[-89.215875,37.721885],[-89.215928,37.721881],[-89.21626,37.721854],[-89.216958,37.721799],[-89.217107,37.721787],[-89.217211,37.721779],[-89.217476,37.721758],[-89.217904,37.721724],[-89.218599,37.721665],[-89.218801,37.721646],[-89.219274,37.721603],[-89.219681,37.721563],[-89.219799,37.721552],[-89.219922,37.72154],[-89.220246,37.721517],[-89.220726,37.721475],[-89.221443,37.721427],[-89.221344,37.720607],[-89.221262,37.71993],[-89.221219,37.719575],[-89.221214,37.719533],[-89.221203,37.719447],[-89.221194,37.719337],[-89.221187,37.719291],[-89.221175,37.719225],[-89.22128,37.719213],[-89.221854,37.719167],[-89.2222,37.719129],[-89.222312,37.719117],[-89.222599,37.719067],[-89.222864,37.718991],[-89.223064,37.718916],[-89.223225,37.718843],[-89.223423,37.718717],[-89.223536,37.718626],[-89.223693,37.718484],[-89.223825,37.718331],[-89.223922,37.718211],[-89.22401,37.718064],[-89.224107,37.717846],[-89.224193,37.717625],[-89.224207,37.717594],[-89.224278,37.717413],[-89.22434,37.717232],[-89.224385,37.717027],[-89.224405,37.716943],[-89.224419,37.716822],[-89.224432,37.71665],[-89.224444,37.716289],[-89.2244,37.715964],[-89.224365,37.71578],[-89.224339,37.715654],[-89.224309,37.715542],[-89.224293,37.715482],[-89.224269,37.715396],[-89.224205,37.715151],[-89.224173,37.715045],[-89.224072,37.714645],[-89.224044,37.714494],[-89.224027,37.714327],[-89.224024,37.714224],[-89.224009,37.713836],[-89.224023,37.713634],[-89.224071,37.713474],[-89.22411,37.71329],[-89.22417,37.713157],[-89.224217,37.71304],[-89.224232,37.712977],[-89.224239,37.712894],[-89.224226,37.712723],[-89.22419,37.712554],[-89.22414,37.712468],[-89.224111,37.712417],[-89.224004,37.712286],[-89.223871,37.712191],[-89.223749,37.712117],[-89.22362,37.712063],[-89.223452,37.712025],[-89.223349,37.712012],[-89.223157,37.711987],[-89.222946,37.711964],[-89.222667,37.711945],[-89.222476,37.711925],[-89.222212,37.711878],[-89.222122,37.711861],[-89.22198,37.711807],[-89.221853,37.711736],[-89.221722,37.711669],[-89.221606,37.711573],[-89.221461,37.711454],[-89.22108,37.71109],[-89.221042,37.711051],[-89.220917,37.710924],[-89.220845,37.710851],[-89.22069,37.710705],[-89.220503,37.71059],[-89.220345,37.710528],[-89.220203,37.710483],[-89.219951,37.710444],[-89.219796,37.710432],[-89.219171,37.710381],[-89.21911,37.710377],[-89.218616,37.710348],[-89.218535,37.710343],[-89.218452,37.710338],[-89.218258,37.710375],[-89.218122,37.710453],[-89.218024,37.710527],[-89.217945,37.710624],[-89.217885,37.710749],[-89.217881,37.710768],[-89.217863,37.710865],[-89.21786,37.710942],[-89.21785,37.711239],[-89.217852,37.711464],[-89.217854,37.711811],[-89.217855,37.711877],[-89.217855,37.711896],[-89.217854,37.712014],[-89.217849,37.712799]]}},{"type":"Feature","properties":{"agency":"JAX Mass Transit","shape_id":"74400"},"geometry":{"type":"LineString","coordinates":[[-89.216358938,37.72507287],[-89.215977,37.725315],[-89.215872,37.725326],[-89.215799,37.725334],[-89.215766,37.725338],[-89.215138,37.725394],[-89.215091,37.725398],[-89.214905,37.725413],[-89.214162,37.725474],[-89.214029,37.725485],[-89.213488,37.725528],[-89.213451,37.725165],[-89.213411,37.724763],[-89.213396,37.724619],[-89.213345,37.72418],[-89.213245,37.723359],[-89.213171,37.722758],[-89.213169,37.722738],[-89.213153,37.722403],[-89.213051,37.721262],[-89.213048,37.721226],[-89.213301,37.721173],[-89.21354,37.721093],[-89.213747,37.720994],[-89.213908,37.720896],[-89.213935,37.72088],[-89.214325,37.720643],[-89.214415,37.720589],[-89.214439,37.720574],[-89.214548,37.720507],[-89.214572,37.720489],[-89.214548,37.720507],[-89.214554,37.720579],[-89.214555,37.720591],[-89.214569,37.720747],[-89.214609,37.721195],[-89.214649,37.721519],[-89.214695,37.721887],[-89.214704,37.721954],[-89.214786,37.721951],[-89.21534,37.721929],[-89.215462,37.721918],[-89.215551,37.721911],[-89.215735,37.721896],[-89.215875,37.721885],[-89.216185,37.72186],[-89.21626,37.721854],[-89.216389,37.721844],[-89.216591,37.721828],[-89.218311027,37.7216801],[-89.220246,37.721517],[-89.220726,37.721475],[-89.221443,37.721427],[-89.221344,37.720607],[-89.221219,37.719575],[-89.221214,37.719533],[-89.221203,37.719447],[-89.221194,37.719337],[-89.221187,37.719291],[-89.221175,37.719225],[-89.22128,37.719213],[-89.221854,37.719167],[-89.2222,37.719129],[-89.222312,37.719117],[-89.222599,37.719067],[-89.222864,37.718991],[-89.223064,37.718916],[-89.223225,37.718843],[-89.223423,37.718717],[-89.223536,37.718626],[-89.223693,37.718484],[-89.223825,37.718331],[-89.223922,37.718211],[-89.22401,37.718064],[-89.224107,37.717846],[-89.224193,37.717625],[-89.224207,37.717594],[-89.224283,37.717399],[-89.22434,37.717232],[-89.224385,37.717027],[-89.224405,37.716943],[-89.224419,37.716822],[-89.224432,37.71665],[-89.224444,37.716289],[-89.2244,37.715964],[-89.224365,37.71578],[-89.224339,37.715654],[-89.224331,37.715624],[-89.224309,37.715542],[-89.224269,37.715396],[-89.224205,37.715151],[-89.224173,37.715045],[-89.224072,37.714645],[-89.224044,37.714494],[-89.224027,37.714327],[-89.224024,37.714224],[-89.224009,37.713836],[-89.224023,37.713634],[-89.224071,37.713474],[-89.22411,37.71329],[-89.22417,37.713157],[-89.224217,37.71304],[-89.224232,37.712977],[-89.224239,37.712894],[-89.224226,37.712723],[-89.22419,37.712554],[-89.224111,37.712417],[-89.224004,37.712286],[-89.223933,37.712236],[-89.223871,37.712191],[-89.223749,37.712117],[-89.22362,37.712063],[-89.223452,37.712025],[-89.223349,37.712012],[-89.223157,37.711987],[-89.222946,37.711964],[-89.222667,37.711945],[-89.222476,37.711925],[-89.222212,37.711878],[-89.222122,37.711861],[-89.22198,37.711807],[-89.221853,37.711736],[-89.221722,37.711669],[-89.221606,37.711573],[-89.221461,37.711454],[-89.22108,37.71109],[-89.221042,37.711051],[-89.220917,37.710924],[-89.220845,37.710851],[-89.220852,37.710967],[-89.220917,37.710924],[-89.220845,37.710851],[-89.22069,37.710705],[-89.220508,37.710592],[-89.220345,37.710528],[-89.220203,37.710483],[-89.220083,37.710464],[-89.219951,37.710444],[-89.219796,37.710432],[-89.219171,37.710381],[-89.219181,37.710287],[-89.219247,37.709394],[-89.219258,37.709247],[-89.219267,37.709218],[-89.219313,37.70907],[-89.219382,37.708933],[-89.219403,37.708891],[-89.219498,37.708748],[-89.219626,37.708572],[-89.219728,37.708462],[-89.219756,37.708437],[-89.219881,37.708321],[-89.219911,37.708294],[-89.220087,37.708191],[-89.220168,37.708146],[-89.220215,37.70812],[-89.221098,37.707631],[-89.22179,37.707248],[-89.221844,37.707218],[-89.222423,37.706891],[-89.22287,37.706663],[-89.222907,37.706645],[-89.223147,37.706547],[-89.223284,37.706512],[-89.223391,37.706493],[-89.223566,37.706485],[-89.223734,37.706489],[-89.224027,37.706505],[-89.224336,37.706537],[-89.224469,37.706565],[-89.225004,37.706636],[-89.225375,37.70665],[-89.225642,37.706604],[-89.225735,37.706583],[-89.225834,37.706552],[-89.226393,37.706264],[-89.226825,37.706018],[-89.227067,37.70589],[-89.22721,37.705836],[-89.227403,37.705809],[-89.227537,37.705805],[-89.227559,37.70566],[-89.227595,37.705487],[-89.227632,37.705325],[-89.227681,37.705163],[-89.22773,37.705035],[-89.227842,37.704812],[-89.227987,37.704585],[-89.228091,37.704458],[-89.228161,37.704397],[-89.228216,37.70435],[-89.228329,37.704267],[-89.228452,37.70418],[-89.228603,37.7041],[-89.228798,37.704012],[-89.228882,37.703981],[-89.228991,37.703951],[-89.229132,37.703912],[-89.229271,37.703884],[-89.22955,37.703853],[-89.229855,37.703819],[-89.230025,37.7038],[-89.230497,37.70375],[-89.230733,37.703726],[-89.230961,37.703704],[-89.231158,37.703694],[-89.231357,37.7037],[-89.231709,37.70373],[-89.23214,37.70377],[-89.232365,37.70379],[-89.232488,37.703792],[-89.232559,37.703793],[-89.23262,37.703787],[-89.232685,37.703779],[-89.232735,37.703764],[-89.232818,37.70374],[-89.232908,37.703705],[-89.232997,37.703659],[-89.233074,37.703604],[-89.233132,37.703554],[-89.233362,37.703299],[-89.233462,37.703195],[-89.233567,37.703099],[-89.233681,37.703015],[-89.23373,37.702983],[-89.233774,37.702953],[-89.233857,37.702908],[-89.233931,37.702869],[-89.234045,37.702824],[-89.234094,37.702804],[-89.23415,37.702785],[-89.234199,37.702766],[-89.234238,37.702748],[-89.23428,37.702731],[-89.234321,37.702715],[-89.234354,37.702699],[-89.234403,37.702679],[-89.234435,37.702664],[-89.234468,37.702646],[-89.234501,37.702626],[-89.234541,37.702604],[-89.234579,37.70258],[-89.234609,37.70256],[-89.234636,37.702541],[-89.234661,37.702526],[-89.234706,37.702493],[-89.234738,37.702465],[-89.234763,37.702444],[-89.234797,37.702411],[-89.23482,37.702385],[-89.234843,37.702359],[-89.23487,37.702329],[-89.234915,37.702265],[-89.235115,37.701911],[-89.235198,37.701765],[-89.235259,37.701648],[-89.235388,37.7014],[-89.235411,37.701355],[-89.235425,37.701328],[-89.235448,37.701271],[-89.235458,37.701236],[-89.235475,37.701124],[-89.235488,37.701035],[-89.235504,37.700824],[-89.235504,37.700812],[-89.235504,37.700824],[-89.235922,37.700834],[-89.236643,37.700851],[-89.237715,37.700876],[-89.237715,37.700867],[-89.237736,37.699802],[-89.237736,37.6997965],[-89.237736,37.699802],[-89.237541,37.699722],[-89.237497,37.699708],[-89.237448,37.699792],[-89.237228,37.699717],[-89.236959,37.699625],[-89.237001,37.699545],[-89.236951481,37.69952589],[-89.236816,37.699484],[-89.236753,37.699666],[-89.236741,37.699698],[-89.236654,37.69981],[-89.236601,37.699867],[-89.236535,37.699938],[-89.236329,37.700104],[-89.236299,37.700128],[-89.236185,37.700206],[-89.236138,37.700239],[-89.236072,37.700284],[-89.236003,37.700328],[-89.235952,37.700356],[-89.235897,37.700386],[-89.235849,37.700415],[-89.23578,37.700444],[-89.235615,37.700517],[-89.235503,37.700541],[-89.235503,37.700558],[-89.235504,37.700685],[-89.235504,37.700824],[-89.234691,37.700814],[-89.23409,37.700806],[-89.233876,37.700799],[-89.23304,37.70077],[-89.232941,37.700767],[-89.232784,37.700772],[-89.232736,37.700771],[-89.231979,37.700757],[-89.231688,37.700752],[-89.231218,37.700744],[-89.229505,37.700712],[-89.228719,37.700698],[-89.228592,37.700695],[-89.227985,37.70068],[-89.226773,37.700644],[-89.224081,37.700564],[-89.223829,37.700557],[-89.221756,37.700495],[-89.221377,37.700482],[-89.221247,37.700477],[-89.220307,37.700443],[-89.219831,37.700426],[-89.218913,37.700394],[-89.218768,37.700389],[-89.218746,37.700388],[-89.218809,37.700051],[-89.21883,37.699804],[-89.218831,37.699533],[-89.218831,37.699401],[-89.218833,37.699071],[-89.218834,37.698834],[-89.218839,37.698719],[-89.218836,37.698454],[-89.218834,37.698261],[-89.218859,37.697952],[-89.218886,37.69762],[-89.218893,37.697537],[-89.218927,37.697212],[-89.219026,37.696913],[-89.21909,37.696684],[-89.21921,37.6963],[-89.219293,37.696085],[-89.219421,37.695782],[-89.219472,37.695677],[-89.219529,37.695559],[-89.219644,37.695355],[-89.219672,37.695305],[-89.219781,37.695136],[-89.219848,37.695033],[-89.220094,37.694695],[-89.220114,37.694668],[-89.220159321,37.694607837],[-89.22018416,37.694578418],[-89.220194904,37.694563311],[-89.220209,37.694549],[-89.220678,37.694826],[-89.221172,37.695119],[-89.221208,37.695174],[-89.221308,37.695232],[-89.221553,37.695373],[-89.221547,37.695412],[-89.221558,37.69545],[-89.221584,37.695483],[-89.221616,37.695501],[-89.221634,37.695511],[-89.221682,37.69552],[-89.221732,37.695515],[-89.221776,37.695497],[-89.22181,37.695468],[-89.221831,37.695412],[-89.221818,37.695356],[-89.221788,37.695324],[-89.221743,37.695301],[-89.221682,37.695294],[-89.221594794,37.695314951],[-89.221548,37.695286],[-89.221358,37.695176],[-89.221242,37.695108],[-89.221206,37.695114],[-89.221172,37.695119],[-89.220709,37.694845],[-89.22045,37.694691],[-89.220329,37.69462],[-89.220268,37.694584],[-89.220239392,37.694565341],[-89.220224699,37.694556242],[-89.220210815,37.69454758],[-89.220209,37.694549],[-89.220209168,37.694548469],[-89.220209084,37.694548735],[-89.220209042,37.694548867],[-89.220209021,37.694548934],[-89.220209005,37.694548983],[-89.22020833,37.694548998],[-89.220209,37.694549],[-89.220197125,37.694563875],[-89.22018525,37.69457875],[-89.220209,37.694549],[-89.220114,37.694668],[-89.220087,37.694705],[-89.220001,37.694823],[-89.219942501,37.694900105],[-89.219888,37.694978],[-89.219848,37.695033],[-89.219672,37.695305],[-89.219644,37.695355],[-89.219629,37.695382],[-89.219529,37.695559],[-89.219416,37.695793],[-89.219293,37.696085],[-89.219285,37.696106],[-89.21921,37.6963],[-89.21909,37.696684],[-89.219026,37.696913],[-89.21896,37.697112],[-89.218927,37.697211],[-89.218894,37.697528],[-89.218834,37.698261],[-89.218836,37.698454],[-89.218839,37.698719],[-89.218834,37.698834],[-89.218831,37.699401],[-89.218831,37.699533],[-89.21883,37.699703],[-89.21883,37.699804],[-89.218809,37.700051],[-89.218746,37.700388],[-89.218724,37.70056],[-89.21871,37.700675],[-89.218637,37.700922],[-89.218611,37.70101],[-89.218275,37.70205],[-89.218108,37.702333],[-89.217674,37.703069],[-89.217432,37.703444],[-89.216824,37.704385],[-89.216728,37.704534],[-89.216107,37.705574],[-89.216023,37.705681],[-89.215818,37.705941],[-89.215705,37.706128],[-89.215357,37.706704],[-89.215314,37.706775],[-89.215065,37.70729],[-89.21485,37.707864],[-89.214834,37.707906],[-89.214648,37.708628],[-89.214619,37.708858],[-89.2146,37.709063],[-89.214557,37.709535],[-89.214549,37.709788],[-89.214559,37.709961],[-89.21458,37.710317],[-89.214583,37.710371],[-89.214625,37.710714],[-89.214689,37.711386],[-89.214712,37.711556],[-89.214907554,37.712960527],[-89.21504635,37.714328292],[-89.215213,37.715695],[-89.215231,37.716034],[-89.215269,37.71631],[-89.215307,37.71649],[-89.215339,37.716646],[-89.215445,37.717044],[-89.215455,37.71708],[-89.215466,37.717124],[-89.215504,37.717256],[-89.215384,37.717281],[-89.215343,37.717289],[-89.21491,37.717316],[-89.214483,37.717351],[-89.214466,37.717224],[-89.214462,37.717198],[-89.21445,37.717112],[-89.214427,37.716941],[-89.214402,37.716762],[-89.214379,37.71659],[-89.214368,37.716509],[-89.214366,37.716493],[-89.214253,37.71567],[-89.214249,37.715652],[-89.214236,37.715588],[-89.21416,37.715219],[-89.214145,37.715152],[-89.214114,37.71501],[-89.214103,37.714963],[-89.214036,37.714757],[-89.213923,37.714519],[-89.213841,37.714358],[-89.213716,37.714098],[-89.213698,37.713572],[-89.213702,37.713411],[-89.2136,37.713139],[-89.21357,37.712825],[-89.213567,37.712798],[-89.213544,37.712354],[-89.213553,37.712311],[-89.213573,37.712208],[-89.213586,37.712133],[-89.213594,37.712083],[-89.213608,37.71191],[-89.213549,37.711782],[-89.213514,37.711697],[-89.213462,37.711647],[-89.213397,37.711584],[-89.213243,37.711511],[-89.21299,37.711425],[-89.212944,37.711527],[-89.212885,37.711657],[-89.212777,37.711818],[-89.21274,37.711855],[-89.212559,37.712035],[-89.212415,37.712179],[-89.211943,37.712627],[-89.211781,37.712801],[-89.211321,37.713297],[-89.211292,37.713331],[-89.211273,37.713352],[-89.211213,37.713422],[-89.211026,37.713727],[-89.210967,37.713824],[-89.210853,37.714048],[-89.210732,37.714284],[-89.21056,37.714605],[-89.210515,37.714678],[-89.210497,37.714707],[-89.2103,37.714951],[-89.210133,37.715125],[-89.20991,37.715357],[-89.209791,37.71552],[-89.209774,37.715618],[-89.209772,37.715656],[-89.209771,37.715693],[-89.20977,37.715721],[-89.209638,37.715767],[-89.209504,37.715835],[-89.2094,37.715912],[-89.209315,37.715961],[-89.209249,37.715984],[-89.209177,37.716006],[-89.209063,37.716009],[-89.208893,37.716016],[-89.208893,37.716],[-89.2089,37.715751],[-89.208772,37.71575],[-89.208534,37.715748],[-89.207858,37.71575],[-89.207592,37.715739],[-89.20732,37.715727],[-89.206933,37.715727],[-89.206249,37.715724],[-89.20614,37.715724],[-89.206022,37.715724],[-89.205921,37.715724],[-89.205561,37.715725],[-89.205108,37.715723],[-89.204731,37.715722],[-89.204433,37.715721],[-89.20429,37.71572],[-89.203642,37.715717],[-89.203449,37.715717],[-89.203417,37.715718],[-89.20314,37.715717],[-89.202835,37.715716],[-89.201626948,37.715712439],[-89.201018,37.715713],[-89.200933,37.715713],[-89.200786,37.715704],[-89.200748,37.715702],[-89.200726,37.715698],[-89.200576,37.715673],[-89.200452,37.715614],[-89.200353,37.716034],[-89.200337,37.716182],[-89.200331,37.716238],[-89.200274,37.716453],[-89.20022,37.716608],[-89.200146,37.716748],[-89.200089,37.716854],[-89.199905,37.717172],[-89.199852,37.717256],[-89.199773,37.717381],[-89.199601,37.71763],[-89.197986466,37.717643666],[-89.196385,37.717645],[-89.196236,37.717645],[-89.196221,37.717645],[-89.196187,37.717643],[-89.196156,37.717643],[-89.194972,37.717636],[-89.194923,37.717636],[-89.194794,37.717635],[-89.193858,37.71763],[-89.193516,37.717628],[-89.193486,37.717626],[-89.193297,37.717614],[-89.192591,37.7176],[-89.19172,37.717613],[-89.191716,37.717784],[-89.191711,37.718009],[-89.191701,37.718407],[-89.191662,37.718418],[-89.191629,37.718438],[-89.191606,37.718473],[-89.191599,37.718498],[-89.191601,37.718516],[-89.191615,37.718547],[-89.191643,37.718573],[-89.191677,37.718589],[-89.191718,37.718595],[-89.191765,37.718588],[-89.191786,37.718577],[-89.191825,37.718544],[-89.191838,37.718494],[-89.191828,37.718462],[-89.191804,37.718435],[-89.191771,37.718415],[-89.191742,37.718408],[-89.191701,37.718407],[-89.19172,37.717613],[-89.192591,37.7176],[-89.193297,37.717614],[-89.193389,37.71762],[-89.193486,37.717626],[-89.193516,37.717628],[-89.194794,37.717635],[-89.194923,37.717636],[-89.194972,37.717636],[-89.195216,37.717637],[-89.195874,37.717641],[-89.198568,37.717635],[-89.199601,37.71763],[-89.199881,37.717626],[-89.201325,37.717602],[-89.201424,37.7176],[-89.201886,37.717593],[-89.202001,37.717591],[-89.20298,37.717575],[-89.203108,37.717572],[-89.203164,37.717572],[-89.20354,37.717564],[-89.204346,37.717553],[-89.204948,37.717545],[-89.205117,37.717543],[-89.205294,37.717541],[-89.205831,37.717534],[-89.205998,37.717533],[-89.206741,37.717527],[-89.206801,37.717527],[-89.206865,37.717526],[-89.207211,37.717518],[-89.207564,37.71751],[-89.207728,37.717507],[-89.207914,37.717504],[-89.208249,37.717499],[-89.208712,37.717491],[-89.208741,37.717488],[-89.20887,37.717476],[-89.208981,37.717474],[-89.208991,37.717475],[-89.209196,37.717492],[-89.209389,37.71752],[-89.209566,37.717566],[-89.209709,37.717614],[-89.209768,37.717623],[-89.209878,37.717639],[-89.210111,37.717655],[-89.210395,37.717649],[-89.210476,37.717647],[-89.210478,37.718094],[-89.210479,37.718318],[-89.21048,37.718445],[-89.210478,37.718542],[-89.210475,37.718643],[-89.210474,37.718692],[-89.210468,37.718992],[-89.210465,37.71912],[-89.210457,37.719452],[-89.210452,37.719542],[-89.210448,37.719605],[-89.210440615,37.719696548],[-89.210436395,37.71999047],[-89.210415937,37.720443095],[-89.210394177,37.721269293],[-89.212334374,37.721239745],[-89.212706,37.721234],[-89.212848,37.721231],[-89.213048,37.721226],[-89.213298417,37.721169601],[-89.213547,37.721089],[-89.21374,37.720998],[-89.213908,37.720896],[-89.213935,37.72088],[-89.214143,37.720754],[-89.214325,37.720643],[-89.214415,37.720589],[-89.214439,37.720574],[-89.214548,37.720507],[-89.214657,37.720423],[-89.214831,37.720303],[-89.215008,37.72021],[-89.215165,37.720142],[-89.215229,37.720121],[-89.215342,37.720083],[-89.215431,37.720054],[-89.215508,37.720029],[-89.215556,37.720018],[-89.215637,37.72],[-89.215887,37.719971],[-89.215926,37.719966],[-89.216011,37.719956],[-89.216208,37.721459],[-89.216239,37.72169],[-89.216248,37.721761],[-89.21626,37.721854],[-89.216269,37.721922],[-89.216341,37.722474],[-89.216408,37.722981],[-89.216438,37.72321],[-89.216446,37.723272],[-89.216469,37.723442],[-89.21648,37.723528],[-89.21655,37.724064],[-89.216562,37.724157],[-89.216593,37.72439],[-89.216612,37.724486],[-89.216637,37.724613],[-89.216674,37.724797],[-89.216365795,37.725048936]]}}]}