{"type":"FeatureCollection","features":[{"type":"Feature","properties":{"agency":"Lorain County Transit","shape_id":"Elyria_Loop-A-OB"},"geometry":{"type":"LineString","coordinates":[[-82.10274,41.36848],[-82.10296,41.36848],[-82.10296,41.36828],[-82.10393,41.3683],[-82.10394,41.36766],[-82.10405,41.36766],[-82.10447,41.36767],[-82.10577,41.36769],[-82.10645,41.3677],[-82.10657,41.3677],[-82.10691,41.36771],[-82.10738,41.36771],[-82.10754,41.36772],[-82.10784,41.36772],[-82.10787,41.366],[-82.1079,41.3654],[-82.105224,41.365363],[-82.10399,41.36534],[-82.10394,41.36766],[-82.10407,41.36766],[-82.10447,41.36767],[-82.10526,41.36768],[-82.10645,41.3677],[-82.10645,41.36817],[-82.10641,41.36916],[-82.10641,41.37002],[-82.10552,41.37001],[-82.10544,41.36998],[-82.10546,41.36974],[-82.10561,41.36959],[-82.10574,41.3695],[-82.10587,41.36944]]}},{"type":"Feature","properties":{"agency":"Lorain County Transit","shape_id":"Elyria_Loop-B-OB"},"geometry":{"type":"LineString","coordinates":[[-82.10274,41.36848],[-82.10296,41.36848],[-82.10296,41.36828],[-82.10393,41.3683],[-82.10394,41.36766],[-82.10645,41.3677],[-82.10645,41.36771],[-82.10645,41.36782],[-82.10645,41.36785],[-82.10645,41.36808],[-82.10645,41.36813],[-82.10645,41.36817],[-82.10641,41.36916],[-82.10641,41.36927],[-82.10641,41.37002],[-82.10552,41.37001],[-82.10544,41.36998],[-82.10546,41.36974],[-82.10561,41.36959],[-82.10574,41.3695],[-82.10606,41.36936],[-82.10628,41.36929],[-82.10641,41.36927],[-82.10641,41.36916],[-82.10643,41.36853],[-82.10645,41.36817],[-82.10645,41.36813],[-82.10645,41.36808],[-82.10645,41.368068],[-82.10645,41.36782],[-82.10645,41.36771],[-82.10645,41.3677],[-82.10784,41.36772],[-82.10787,41.366],[-82.1079,41.3654],[-82.10399,41.36534],[-82.10397,41.36652],[-82.102448,41.366502],[-82.10214,41.3665],[-82.10204,41.36652],[-82.10196,41.36657],[-82.1019,41.36665],[-82.10187,41.36682],[-82.10185,41.36731],[-82.10184,41.36847],[-82.10274,41.36848]]}},{"type":"Feature","properties":{"agency":"Lorain County Transit","shape_id":"Elyria_Loop-C-OB"},"geometry":{"type":"LineString","coordinates":[[-82.10274,41.36848],[-82.10296,41.36848],[-82.10296,41.36828],[-82.10393,41.3683],[-82.10394,41.36766],[-82.10401,41.36766],[-82.10407,41.36766],[-82.10447,41.36767],[-82.10526,41.36768],[-82.10645,41.3677],[-82.10645,41.36771],[-82.10645,41.36777],[-82.10645,41.36782],[-82.10645,41.36808],[-82.10645,41.36813],[-82.10645,41.36817],[-82.10641,41.36916],[-82.10641,41.36927],[-82.10641,41.37002],[-82.10552,41.37001],[-82.10544,41.36998],[-82.10546,41.36974],[-82.10561,41.36959],[-82.10574,41.3695],[-82.10606,41.36936],[-82.10628,41.36929],[-82.10641,41.36927],[-82.10641,41.36916],[-82.10643,41.36853],[-82.10645,41.36817],[-82.10645,41.36813],[-82.10645,41.36808],[-82.10645,41.368069],[-82.10645,41.36782],[-82.10645,41.36771],[-82.10645,41.3677],[-82.10738,41.36771],[-82.10754,41.36772],[-82.10784,41.36772],[-82.10785,41.36763],[-82.10785,41.36761],[-82.10785,41.36738],[-82.10785,41.36727],[-82.10785,41.36708],[-82.10786,41.36667],[-82.10786,41.3666],[-82.10786,41.36651],[-82.10787,41.36641],[-82.10787,41.366],[-82.1079,41.3654],[-82.1069,41.36539],[-82.10685,41.36538],[-82.105,41.36536],[-82.10399,41.36534],[-82.10397,41.36645],[-82.10397,41.36652],[-82.10397,41.36661],[-82.10395,41.36711],[-82.10395,41.36754],[-82.10394,41.36766],[-82.103943,41.36766],[-82.10406,41.36766],[-82.10447,41.36767],[-82.10645,41.3677],[-82.10645,41.36771],[-82.10645,41.36781],[-82.10645,41.36808],[-82.10645,41.36813],[-82.10645,41.36817],[-82.10641,41.36916],[-82.10641,41.36927],[-82.10641,41.37002],[-82.10552,41.37001],[-82.10544,41.36998],[-82.10546,41.36974],[-82.10561,41.36959],[-82.10574,41.3695],[-82.10606,41.36936],[-82.10628,41.36929],[-82.10641,41.36927],[-82.10645,41.36817],[-82.10645,41.36813],[-82.10645,41.36808],[-82.10645,41.36782],[-82.10645,41.36771],[-82.10645,41.3677],[-82.10691,41.36771],[-82.10738,41.36771],[-82.10754,41.36772],[-82.10784,41.36772],[-82.10785,41.36761],[-82.10785,41.36753],[-82.10785,41.367397],[-82.10785,41.36738],[-82.10785,41.36727],[-82.10785,41.36708],[-82.10786,41.36667],[-82.10786,41.3666],[-82.10786,41.36651],[-82.10787,41.36641],[-82.10787,41.366],[-82.10789,41.36549],[-82.1079,41.3654],[-82.10724,41.36539],[-82.10704,41.36539],[-82.1069,41.36539],[-82.10685,41.36538],[-82.105,41.36536],[-82.10399,41.36534],[-82.10399,41.36542],[-82.10399,41.36549],[-82.10397,41.36652],[-82.107802,41.3666],[-82.10786,41.3666],[-82.10799,41.3666],[-82.10884,41.36661],[-82.11029,41.36662],[-82.11366,41.36668],[-82.11392,41.36667],[-82.11449,41.36658],[-82.11693,41.36603],[-82.1178,41.36589],[-82.11844,41.36586],[-82.11888,41.36589],[-82.119629,41.365981],[-82.12209,41.36647],[-82.12243,41.36653],[-82.12282,41.36657],[-82.12337,41.36661],[-82.12569,41.36661],[-82.12611,41.36659],[-82.12671,41.36648],[-82.12714,41.36634],[-82.12756,41.36618],[-82.12914,41.36545],[-82.12986,41.36517],[-82.13058,41.36497],[-82.130975,41.364892],[-82.13235,41.36463],[-82.13272,41.36459],[-82.13331,41.3646],[-82.1339,41.36469],[-82.13419,41.36475],[-82.13447,41.36484],[-82.13614,41.36551],[-82.13736,41.36602],[-82.13829,41.36638],[-82.1389,41.36657],[-82.13954,41.36673],[-82.14006,41.36682],[-82.14059,41.36689],[-82.142236,41.366976],[-82.14338,41.36703],[-82.14556,41.36706],[-82.1457,41.367],[-82.14552,41.36643],[-82.14508,41.36489],[-82.14449,41.36265],[-82.143967,41.360759],[-82.14353,41.35917],[-82.14341,41.35883],[-82.1433,41.35863],[-82.1429,41.358],[-82.14166,41.35614],[-82.13998,41.35369],[-82.13944,41.35294],[-82.139128,41.352596],[-82.13864,41.3521],[-82.13815,41.35157],[-82.13553,41.34847],[-82.13402,41.34615],[-82.132524,41.34711],[-82.12475,41.35209],[-82.12434,41.35157],[-82.123385,41.35157],[-82.11998,41.35155],[-82.11941,41.35274],[-82.11388,41.35291],[-82.112524,41.35289],[-82.1107,41.35286],[-82.11068,41.35287],[-82.1108,41.34872],[-82.11085,41.34794],[-82.11052,41.34818],[-82.108583,41.349999],[-82.10758,41.35095],[-82.10747,41.35109],[-82.10741,41.35121],[-82.10735,41.35332],[-82.1073,41.35436],[-82.107189,41.358697],[-82.10712,41.36123],[-82.10712,41.36182],[-82.10704,41.3642],[-82.10704,41.36479],[-82.10702,41.36526],[-82.10704,41.36539],[-82.10685,41.36538],[-82.105,41.36536],[-82.10411,41.36534],[-82.10399,41.36534],[-82.10399,41.365346],[-82.10399,41.36542],[-82.10397,41.36645],[-82.10397,41.36652],[-82.10214,41.3665],[-82.10204,41.36652],[-82.10199,41.36655],[-82.10193,41.3666],[-82.1019,41.36665],[-82.10187,41.36682],[-82.10185,41.36731],[-82.10184,41.36847],[-82.10274,41.36848]]}},{"type":"Feature","properties":{"agency":"Lorain County Transit","shape_id":"Elyria_Loop-D-OB"},"geometry":{"type":"LineString","coordinates":[[-82.10587,41.36944],[-82.10628,41.36929],[-82.10641,41.36927],[-82.10645,41.36817],[-82.10645,41.36813],[-82.10645,41.36808],[-82.10645,41.36782],[-82.10645,41.36771],[-82.10645,41.3677],[-82.10784,41.36772],[-82.10785,41.36763],[-82.10785,41.36708],[-82.10786,41.36667],[-82.10786,41.3666],[-82.10786,41.36651],[-82.10787,41.36641],[-82.10787,41.366],[-82.1079,41.3654],[-82.1069,41.36539],[-82.10685,41.36538],[-82.10399,41.36534],[-82.10398,41.366019],[-82.10397,41.36652],[-82.10407,41.36653],[-82.10528,41.36654],[-82.10776,41.3666],[-82.10786,41.3666],[-82.10799,41.3666],[-82.11029,41.36662],[-82.11366,41.36668],[-82.11411,41.36665],[-82.11449,41.36658],[-82.115234,41.366412],[-82.11693,41.36603],[-82.11737,41.36595],[-82.1178,41.36589],[-82.11844,41.36586],[-82.11936,41.36594],[-82.11975,41.366],[-82.12243,41.36653],[-82.12337,41.36661],[-82.12569,41.36661],[-82.12611,41.36659],[-82.12671,41.36648],[-82.126966,41.366397],[-82.12756,41.36618],[-82.12914,41.36545],[-82.12986,41.36517],[-82.13058,41.36497],[-82.13235,41.36463],[-82.13272,41.36459],[-82.13331,41.3646],[-82.1339,41.36469],[-82.13419,41.36475],[-82.13447,41.36484],[-82.137893,41.366226],[-82.13829,41.36638],[-82.1389,41.36657],[-82.13954,41.36673],[-82.14006,41.36682],[-82.14059,41.36689],[-82.14338,41.36703],[-82.14556,41.36706],[-82.1457,41.367],[-82.14552,41.36643],[-82.14508,41.36489],[-82.144863,41.364071],[-82.14449,41.36265],[-82.14363,41.35952],[-82.14353,41.35917],[-82.14341,41.35883],[-82.14311,41.35832],[-82.1429,41.358],[-82.141268,41.355567],[-82.13998,41.35369],[-82.13944,41.35294],[-82.13924,41.35271],[-82.13864,41.3521],[-82.13815,41.35157],[-82.1364,41.34951],[-82.13553,41.34847],[-82.135131,41.34786],[-82.13402,41.34615],[-82.126836,41.350754],[-82.12475,41.35209],[-82.12434,41.35157],[-82.11998,41.35155],[-82.11941,41.35274],[-82.117023,41.352812],[-82.11388,41.35291],[-82.1107,41.35286],[-82.11068,41.35287],[-82.110805,41.348645],[-82.11085,41.34794],[-82.11052,41.34818],[-82.1103,41.3484],[-82.10913,41.34948],[-82.10758,41.35095],[-82.10743,41.35116],[-82.10741,41.35121],[-82.10738,41.35202],[-82.107281,41.355318],[-82.10712,41.36123],[-82.10712,41.36182],[-82.10704,41.364309],[-82.10704,41.36479],[-82.10702,41.36526],[-82.10704,41.36539],[-82.10685,41.36538],[-82.105,41.36536],[-82.10399,41.36534],[-82.10394,41.36766],[-82.10645,41.3677],[-82.10645,41.36771],[-82.10645,41.36782],[-82.10645,41.36808],[-82.10645,41.36813],[-82.10645,41.36817],[-82.10643,41.36853],[-82.106411,41.369114],[-82.10641,41.36916],[-82.10641,41.36927],[-82.10641,41.37002],[-82.10552,41.37001],[-82.10544,41.36998],[-82.10546,41.36974],[-82.10561,41.36959],[-82.10574,41.3695],[-82.10587,41.36944]]}},{"type":"Feature","properties":{"agency":"Lorain County Transit","shape_id":"Elyria_Loop-E-OB"},"geometry":{"type":"LineString","coordinates":[[-82.07698,41.36662],[-82.07698,41.3659],[-82.07706,41.36583],[-82.07726,41.36594],[-82.07783,41.36594],[-82.07793,41.36597],[-82.07794,41.36443],[-82.07798,41.36372],[-82.07804,41.36195],[-82.078133,41.358485],[-82.07824,41.3552],[-82.0783,41.35226],[-82.081987,41.352269],[-82.08416,41.35226],[-82.08444,41.35229],[-82.08471,41.35235],[-82.08492,41.35245],[-82.08521,41.35266],[-82.08618,41.35348],[-82.08674,41.35387],[-82.08703,41.35398],[-82.08748,41.35412],[-82.08811,41.35421],[-82.093024,41.354234],[-82.09472,41.35424],[-82.09567,41.35439],[-82.09649,41.35444],[-82.09792,41.35444],[-82.09851,41.35448],[-82.09919,41.35441],[-82.09967,41.35438],[-82.09964,41.35422],[-82.09957,41.35408],[-82.09918,41.35353],[-82.09759,41.35139],[-82.09739,41.35114],[-82.09724,41.35099],[-82.097133,41.350907],[-82.09661,41.35052],[-82.09468,41.34926],[-82.09441,41.34907],[-82.09426,41.34893],[-82.09414,41.34878],[-82.09321,41.34698],[-82.09336,41.34693],[-82.09442,41.34709],[-82.09503,41.34715],[-82.09538,41.34715],[-82.09604,41.34696],[-82.09723,41.34648],[-82.098135,41.346151],[-82.09917,41.34578],[-82.09958,41.34567],[-82.09988,41.34564],[-82.10053,41.3455],[-82.10253,41.34515],[-82.10325,41.34507],[-82.1038,41.34506],[-82.1076,41.34506],[-82.10756,41.346774],[-82.10747,41.35109],[-82.10741,41.35121],[-82.10735,41.35332],[-82.1073,41.35436],[-82.107269,41.355757],[-82.10712,41.36123],[-82.10712,41.36182],[-82.10704,41.3642],[-82.10704,41.364747],[-82.10702,41.36526],[-82.10704,41.36539],[-82.10399,41.36534],[-82.10397,41.36652],[-82.10214,41.3665],[-82.10204,41.36652],[-82.10196,41.36657],[-82.1019,41.36665],[-82.10187,41.36682],[-82.10185,41.36731],[-82.10184,41.36847],[-82.10274,41.36848]]}},{"type":"Feature","properties":{"agency":"Lorain County Transit","shape_id":"Elyria_Loop-F-OB"},"geometry":{"type":"LineString","coordinates":[[-82.10588,41.36944],[-82.10606,41.36936],[-82.10628,41.36929],[-82.10641,41.36927],[-82.10645,41.36817],[-82.10645,41.3677],[-82.10784,41.36772],[-82.10787,41.366],[-82.1079,41.3654],[-82.10704,41.36539],[-82.10711,41.3653],[-82.10713,41.36522],[-82.107222,41.36243],[-82.10732,41.35922],[-82.10732,41.35863],[-82.10736,41.35747],[-82.10736,41.35687],[-82.107476,41.35344],[-82.10749,41.35202],[-82.10752,41.35122],[-82.10747,41.35109],[-82.1076,41.34506],[-82.106792,41.34506],[-82.10324,41.34506],[-82.10288,41.34509],[-82.09979,41.34562],[-82.09943,41.3457],[-82.09884,41.34588],[-82.09587,41.34701],[-82.09549,41.34713],[-82.095352,41.34715],[-82.09518,41.34716],[-82.09493,41.34714],[-82.09318,41.34692],[-82.09385,41.34823],[-82.09427,41.349],[-82.09729,41.35097],[-82.09793,41.35185],[-82.098656,41.352807],[-82.09963,41.3541],[-82.09968,41.35438],[-82.09828,41.35453],[-82.09827,41.35445],[-82.09591,41.35442],[-82.09515,41.3543],[-82.09472,41.35426],[-82.090186,41.35423],[-82.08808,41.35421],[-82.08762,41.35416],[-82.08739,41.35411],[-82.08717,41.35404],[-82.08676,41.35387],[-82.08644,41.35368],[-82.08514,41.3526],[-82.08497,41.35248],[-82.08468,41.35235],[-82.08446,41.3523],[-82.08423,41.35227],[-82.079152,41.352244],[-82.07829,41.35224],[-82.078071,41.360585],[-82.07801,41.36306],[-82.07796,41.3639],[-82.07793,41.36515],[-82.07794,41.36555],[-82.07793,41.36708],[-82.07788,41.36761],[-82.07785,41.36869],[-82.079027,41.3687],[-82.08874,41.36876],[-82.09101,41.368761],[-82.0961,41.36881],[-82.09626,41.36879],[-82.09636,41.36874],[-82.09731,41.36756],[-82.10185,41.36763],[-82.10185,41.367803],[-82.10184,41.36847],[-82.10274,41.36848]]}},{"type":"Feature","properties":{"agency":"Lorain County Transit","shape_id":"Rt1-A-IB"},"geometry":{"type":"LineString","coordinates":[[-82.10601,41.40131],[-82.10602,41.40158],[-82.10794,41.40154],[-82.10875,41.40264],[-82.11069,41.40519],[-82.11154,41.4064],[-82.11187,41.40695],[-82.112411,41.407993],[-82.11274,41.40865],[-82.11287,41.40922],[-82.113,41.41006],[-82.11333,41.41359],[-82.113611,41.416912],[-82.11368,41.41781],[-82.11389,41.41926],[-82.11714,41.41886],[-82.11769,41.41881],[-82.11965,41.41876],[-82.1206,41.41872],[-82.1206,41.41882],[-82.1206,41.41872],[-82.12242,41.418653],[-82.12418,41.41852],[-82.12494,41.41843],[-82.12665,41.41827],[-82.1275,41.41823],[-82.12932,41.4182],[-82.13294,41.4182],[-82.13438,41.41818],[-82.14024,41.41816],[-82.14024,41.41826],[-82.14024,41.41816],[-82.146106,41.41815],[-82.146241,41.41815],[-82.14624,41.41815],[-82.146401,41.418152],[-82.146451,41.41805],[-82.146449,41.417982],[-82.146468,41.417602],[-82.146529,41.417602],[-82.14651,41.417972],[-82.1465,41.41797],[-82.1465,41.41802],[-82.1465,41.41815],[-82.14652,41.41815],[-82.14673,41.41815],[-82.146738,41.41815],[-82.14909,41.41815],[-82.14908,41.41896],[-82.1491,41.41903],[-82.14913,41.41907],[-82.14921,41.41913],[-82.14928,41.41915],[-82.14946,41.41915],[-82.14997,41.41913],[-82.15052,41.41907],[-82.15079,41.41906],[-82.15086,41.41984],[-82.15193,41.41977],[-82.15186,41.41948],[-82.15289,41.41943],[-82.15279,41.41907],[-82.1527,41.41886],[-82.15267,41.41866],[-82.15284,41.41852],[-82.15292,41.4184],[-82.15296,41.41829],[-82.15296,41.41816],[-82.153675,41.41816],[-82.16285,41.41817],[-82.162808,41.420281],[-82.16275,41.42444],[-82.1627,41.42565],[-82.16262,41.429273],[-82.16259,41.43105],[-82.16261,41.43127],[-82.1629,41.43301],[-82.16353,41.43651],[-82.163806,41.438208],[-82.16399,41.43924],[-82.16402,41.43953],[-82.16421,41.4405],[-82.16451,41.44238],[-82.16469,41.44333],[-82.16944,41.44287],[-82.16954,41.44282],[-82.169721,41.442766],[-82.17145,41.4426],[-82.17158,41.44363],[-82.17188,41.44533],[-82.17223,41.44746],[-82.17224,41.447459],[-82.17249,41.44884],[-82.172614,41.449626],[-82.1726,41.44963],[-82.17263,41.4498],[-82.17263,41.44981],[-82.17264,41.44988],[-82.17275,41.44987],[-82.17279,41.44987],[-82.17424,41.44972],[-82.17691,41.44974],[-82.17915,41.44976],[-82.17914,41.45012],[-82.17914,41.45082],[-82.17914,41.450813],[-82.17914,41.45082],[-82.179092,41.453373],[-82.17906,41.45491],[-82.17902,41.45879],[-82.17904,41.45937],[-82.179051,41.459368],[-82.17908,41.45993],[-82.1791,41.46201],[-82.179116,41.462354],[-82.17913,41.46265],[-82.17921,41.46334],[-82.1796,41.46489],[-82.18068,41.46776],[-82.17825,41.46828],[-82.17727,41.46751],[-82.176781,41.467188],[-82.17617,41.46673],[-82.177,41.46627],[-82.17718,41.46619],[-82.17786,41.466],[-82.17839,41.46591]]}},{"type":"Feature","properties":{"agency":"Lorain County Transit","shape_id":"Rt1-A-OB"},"geometry":{"type":"LineString","coordinates":[[-82.17838,41.4659],[-82.17986,41.4656],[-82.17964,41.46499],[-82.17914,41.463],[-82.17902,41.45879],[-82.17903,41.457814],[-82.17903,41.45781],[-82.17903,41.45765],[-82.17904,41.45705],[-82.17905,41.45594],[-82.17906,41.45513],[-82.17906,41.45491],[-82.17907,41.45454],[-82.17908,41.45389],[-82.17909,41.45353],[-82.1791,41.45287],[-82.17911,41.45258],[-82.17912,41.45185],[-82.17912,41.45176],[-82.17914,41.45082],[-82.1776422,41.4508066],[-82.17764,41.45081],[-82.1769,41.4508],[-82.17415,41.45079],[-82.17293,41.45091],[-82.17288,41.45092],[-82.17282,41.45092],[-82.17281,41.45085],[-82.17273,41.4504],[-82.17266,41.44997],[-82.17264,41.44988],[-82.17263,41.44981],[-82.17248,41.44893],[-82.17246,41.44884],[-82.17245,41.44877],[-82.1723,41.44789],[-82.17229,41.44783],[-82.17228,41.44777],[-82.17225,41.4476],[-82.172254,41.447598],[-82.172131,41.4468518],[-82.17188,41.44533],[-82.17173,41.44451],[-82.16777,41.4449],[-82.1655,41.44508],[-82.16497,41.44503],[-82.164829,41.444262],[-82.16469,41.44333],[-82.16451,41.44238],[-82.16421,41.4405],[-82.16402,41.43953],[-82.16399,41.43924],[-82.1639,41.43879],[-82.16377,41.43794],[-82.16364,41.43725],[-82.16346,41.4361],[-82.163316,41.435342],[-82.162826,41.432565],[-82.16261,41.43127],[-82.16259,41.43105],[-82.162685,41.426384],[-82.16275,41.42444],[-82.16283,41.41872],[-82.16285,41.41817],[-82.161811,41.418168],[-82.15296,41.41816],[-82.15296,41.41829],[-82.15292,41.4184],[-82.15284,41.41852],[-82.15267,41.41866],[-82.15233,41.41879],[-82.15187,41.41893],[-82.15128,41.41902],[-82.15079,41.41906],[-82.150809,41.419271],[-82.15086,41.41984],[-82.15193,41.41977],[-82.15186,41.41948],[-82.15289,41.41943],[-82.1527,41.41886],[-82.15267,41.41866],[-82.15284,41.41852],[-82.15292,41.4184],[-82.15296,41.41829],[-82.15296,41.41816],[-82.1472885,41.4181518],[-82.14729,41.41815],[-82.14673,41.41815],[-82.14663,41.41815],[-82.1465,41.41815],[-82.1465,41.41802],[-82.14653,41.41763],[-82.1464681,41.4176308],[-82.1464643,41.418018],[-82.1464,41.41815],[-82.14604,41.41815],[-82.146037,41.41815],[-82.14024,41.41816],[-82.14024,41.41805],[-82.14024,41.41816],[-82.134354,41.41818],[-82.13294,41.4182],[-82.1302,41.41819],[-82.12751,41.41822],[-82.12664,41.41827],[-82.12343,41.41858],[-82.122408,41.41865],[-82.11996,41.41874],[-82.11809,41.41879],[-82.11713,41.41886],[-82.11389,41.41926],[-82.11368,41.41781],[-82.113588,41.416704],[-82.113376,41.414142],[-82.113,41.41006],[-82.11287,41.40922],[-82.11274,41.40865],[-82.112305,41.4078],[-82.11187,41.40695],[-82.11154,41.4064],[-82.110891,41.405466],[-82.10875,41.40264],[-82.1076,41.4011],[-82.10754,41.401],[-82.106,41.40104],[-82.106005,41.401186],[-82.10601,41.40131]]}},{"type":"Feature","properties":{"agency":"Lorain County Transit","shape_id":"Rt2-A-IB"},"geometry":{"type":"LineString","coordinates":[[-82.10601,41.40131],[-82.10602,41.40158],[-82.10794,41.40154],[-82.10875,41.40264],[-82.11069,41.40519],[-82.11154,41.4064],[-82.11187,41.40695],[-82.112411,41.407993],[-82.11274,41.40865],[-82.11287,41.40922],[-82.113,41.41006],[-82.11333,41.41359],[-82.113611,41.416912],[-82.11368,41.41781],[-82.11389,41.41926],[-82.11726,41.41885],[-82.11809,41.41879],[-82.11905,41.41877],[-82.119141,41.4215],[-82.1193,41.42724],[-82.114962,41.42729],[-82.11414,41.42729],[-82.11417,41.4299],[-82.11421,41.43071],[-82.11424,41.43101],[-82.1145,41.4323],[-82.11468,41.4334],[-82.11478,41.43412],[-82.11484,41.4346],[-82.114879,41.435636],[-82.11489,41.43593],[-82.11549,41.43604],[-82.11582,41.43606],[-82.11883,41.43603],[-82.12275,41.43595],[-82.126475,41.435902],[-82.13527,41.43577],[-82.13646,41.43574],[-82.1365,41.437246],[-82.13658,41.43996],[-82.13659,41.44099],[-82.13668,41.44341],[-82.140455,41.443362],[-82.15028,41.44321],[-82.151471,41.444562],[-82.15208,41.44525],[-82.162973,41.445072],[-82.16357,41.44506],[-82.16498,41.44507],[-82.166246,41.452493],[-82.16663,41.45472],[-82.1668,41.45583],[-82.16696,41.45643],[-82.16981,41.45961],[-82.1706,41.46018],[-82.170901,41.460469],[-82.17166,41.46133],[-82.17185,41.46159],[-82.17203,41.46199],[-82.17223,41.46236],[-82.17241,41.46258],[-82.17376,41.46408],[-82.17533,41.46587],[-82.17523,41.46592],[-82.17533,41.46587],[-82.1758,41.46642],[-82.17617,41.46673],[-82.177,41.46627],[-82.17718,41.46619],[-82.177748,41.466031],[-82.17839,41.46591]]}},{"type":"Feature","properties":{"agency":"Lorain County Transit","shape_id":"Rt2-A-OB"},"geometry":{"type":"LineString","coordinates":[[-82.17848,41.46589],[-82.17987,41.46562],[-82.1796,41.46489],[-82.17951,41.46451],[-82.17885,41.46463],[-82.1776,41.4648],[-82.17727,41.46489],[-82.17533,41.46587],[-82.17376,41.46408],[-82.172898,41.463123],[-82.17223,41.46236],[-82.17203,41.46199],[-82.17185,41.46159],[-82.17166,41.46133],[-82.17084,41.4604],[-82.1706,41.46018],[-82.16981,41.45961],[-82.16696,41.45643],[-82.1668,41.45583],[-82.166755,41.455532],[-82.16663,41.45472],[-82.16608,41.45157],[-82.16599,41.45096],[-82.16559,41.44873],[-82.16549,41.44804],[-82.16539,41.44752],[-82.165245,41.44661],[-82.165,41.44532],[-82.16497,41.44503],[-82.1626,41.44509],[-82.15932,41.44514],[-82.15828,41.44513],[-82.155101,41.445192],[-82.15201,41.44526],[-82.15191,41.44506],[-82.15176,41.44487],[-82.15028,41.44321],[-82.144619,41.443296],[-82.14167,41.44335],[-82.13668,41.44341],[-82.13659,41.44099],[-82.136583,41.440368],[-82.13646,41.43574],[-82.130638,41.435838],[-82.12275,41.43595],[-82.118644,41.436031],[-82.11582,41.43606],[-82.11549,41.43604],[-82.11489,41.43593],[-82.11484,41.4346],[-82.11468,41.4334],[-82.11452,41.43239],[-82.11424,41.43101],[-82.11421,41.43071],[-82.114169,41.429796],[-82.11414,41.42729],[-82.11951,41.42724],[-82.11949,41.42599],[-82.119449,41.424779],[-82.11938,41.42262],[-82.11938,41.42166],[-82.11934,41.42068],[-82.11931,41.42007],[-82.11924,41.41991],[-82.11917,41.41891],[-82.11905,41.41877],[-82.11809,41.41879],[-82.11726,41.41885],[-82.115151,41.419101],[-82.11389,41.41926],[-82.11368,41.41781],[-82.11349,41.41543],[-82.113111,41.411248],[-82.113,41.41006],[-82.11287,41.40922],[-82.11274,41.40865],[-82.11187,41.40695],[-82.11154,41.4064],[-82.11069,41.40519],[-82.10898,41.402942],[-82.1076,41.4011],[-82.10754,41.401],[-82.106,41.40104],[-82.10601,41.40131]]}},{"type":"Feature","properties":{"agency":"Lorain County Transit","shape_id":"Rt51-A-OB"},"geometry":{"type":"LineString","coordinates":[[-82.106,41.40131],[-82.10603,41.40162],[-82.10796,41.40157],[-82.10764,41.40113],[-82.10739,41.40065],[-82.10751,41.40062],[-82.11318,41.4005],[-82.11312,41.39958],[-82.1131,41.39876],[-82.113127,41.398762],[-82.11313,41.39869],[-82.113087,41.398691],[-82.10725,41.39875],[-82.1073,41.39691],[-82.1072,41.39631],[-82.1071,41.39606],[-82.10701,41.3959],[-82.10687,41.39547],[-82.1068,41.39533],[-82.106377,41.394232],[-82.10601,41.39327],[-82.10617,41.39327],[-82.10601,41.39327],[-82.1051,41.39078],[-82.10483,41.39008],[-82.10455,41.38908],[-82.10436,41.38861],[-82.10433,41.38811],[-82.10438,41.38778],[-82.104932,41.385725],[-82.10529,41.3844],[-82.10552,41.38369],[-82.10618,41.38381],[-82.10653,41.38397],[-82.10684,41.38416],[-82.1077,41.38481],[-82.10805,41.38493],[-82.10834,41.38497],[-82.11137,41.38498],[-82.1114,41.38472],[-82.1114,41.382887],[-82.1114,41.38266],[-82.10717,41.38268],[-82.10601,41.38278],[-82.10634,41.3824],[-82.10697,41.38177],[-82.109801,41.379155],[-82.10979,41.37915],[-82.109872,41.379075],[-82.11055,41.37845],[-82.11712,41.37844],[-82.11719,41.37596],[-82.11721,41.37579],[-82.11725,41.37564],[-82.11735,41.37546],[-82.11743,41.37534],[-82.117524,41.375239],[-82.11799,41.37483],[-82.11284,41.37216],[-82.11255,41.37198],[-82.11178,41.37141],[-82.11176,41.37125],[-82.1118,41.37092],[-82.11194,41.37081],[-82.11207,41.37068],[-82.11211,41.3706],[-82.11213,41.37051],[-82.112167,41.368841],[-82.11219,41.36781],[-82.11109,41.36778],[-82.11109,41.36767],[-82.11109,41.36778],[-82.10394,41.36766],[-82.10393,41.3683],[-82.10296,41.36828],[-82.10296,41.368454],[-82.10296,41.36848],[-82.10184,41.36847],[-82.10185,41.36763],[-82.09494,41.36752],[-82.092144,41.36751],[-82.09191,41.36749],[-82.08956,41.36712],[-82.08549,41.3662],[-82.080621,41.365071],[-82.07794,41.36443],[-82.07794,41.36552],[-82.077796,41.371304],[-82.07758,41.37733],[-82.07719,41.37745],[-82.07731,41.37777],[-82.07744,41.37804],[-82.07753,41.37827],[-82.07762,41.37859],[-82.07764,41.37879],[-82.07762,41.3795],[-82.077629,41.38005],[-82.07762,41.38132],[-82.07759,41.38199],[-82.07754,41.38265],[-82.07753,41.38312],[-82.07753,41.38488],[-82.07748,41.38822],[-82.077452,41.389041],[-82.07745,41.39052],[-82.07742,41.39118],[-82.077309,41.398035],[-82.077172,41.407029],[-82.07714,41.40954],[-82.0763,41.40953],[-82.07615,41.40956],[-82.07599,41.40963],[-82.07572,41.40991],[-82.07513,41.41069],[-82.07514,41.412431],[-82.07512,41.41243],[-82.07512,41.41321],[-82.07548,41.41422],[-82.07492,41.41447],[-82.074541,41.414475],[-82.07392,41.41449],[-82.07388,41.41451],[-82.07385,41.41492],[-82.07368,41.41499],[-82.07368,41.41588],[-82.07575,41.41498],[-82.07601,41.41564],[-82.07616,41.41576],[-82.07632,41.41584],[-82.07659,41.41591],[-82.07714,41.41594],[-82.077148,41.418269],[-82.07712,41.419557],[-82.07707,41.42183],[-82.07559,41.42186],[-82.07555,41.42312],[-82.07547,41.42333],[-82.07536,41.42345],[-82.07521,41.42354],[-82.07423,41.42394],[-82.07411,41.42401],[-82.07397,41.42415],[-82.07391,41.42428],[-82.07388,41.42444],[-82.07388,41.42568],[-82.0739,41.42577],[-82.07396,41.42588],[-82.07426,41.42618],[-82.07434,41.42628],[-82.07438,41.42641],[-82.07439,41.42665],[-82.07441,41.426751],[-82.07448,41.42694],[-82.07469,41.4272],[-82.07566,41.42678],[-82.07697,41.42627],[-82.07929,41.42557],[-82.08125,41.42495],[-82.0824,41.42462],[-82.085042,41.423779],[-82.08609,41.42344],[-82.08887,41.42261],[-82.09272,41.42183],[-82.094781,41.421377],[-82.09628,41.42099],[-82.096416,41.420969],[-82.09681,41.42091],[-82.10243,41.4204],[-82.10387,41.42039],[-82.10524,41.42029],[-82.108314,41.419914],[-82.11177,41.4195],[-82.11345,41.41932],[-82.11497,41.41912],[-82.11726,41.41885],[-82.11769,41.41881],[-82.11926,41.41877],[-82.119189,41.418074],[-82.11912,41.4174],[-82.11853,41.41361],[-82.11839,41.41282],[-82.118034,41.410427],[-82.11797,41.40999],[-82.117877,41.409136],[-82.1176,41.40725],[-82.11744,41.40631],[-82.11718,41.40447],[-82.11707,41.404],[-82.11678,41.40203],[-82.11666,41.40043],[-82.116975,41.400426],[-82.11977,41.40041],[-82.11977,41.39896],[-82.11981,41.39862],[-82.11659,41.3986],[-82.11543,41.39865],[-82.113006,41.39869],[-82.10944,41.39872],[-82.10725,41.39875],[-82.10721,41.39993],[-82.10728,41.40038],[-82.10735,41.40062],[-82.10754,41.401],[-82.106,41.40104],[-82.10601,41.40131]]}},{"type":"Feature","properties":{"agency":"Lorain County Transit","shape_id":"Rt52-A-IB"},"geometry":{"type":"LineString","coordinates":[[-82.106,41.40131],[-82.10603,41.40162],[-82.10796,41.40157],[-82.10764,41.40113],[-82.10739,41.40065],[-82.10751,41.40062],[-82.11318,41.4005],[-82.11312,41.39958],[-82.1131,41.39869],[-82.113123,41.398639],[-82.11315,41.39858],[-82.11313,41.39813],[-82.11299,41.39813],[-82.11283,41.39813],[-82.11274,41.39813],[-82.11264,41.39813],[-82.11255,41.39813],[-82.11245,41.39813],[-82.11233,41.39814],[-82.11225,41.39814],[-82.11214,41.39814],[-82.11206,41.39814],[-82.11196,41.39814],[-82.11193,41.39814],[-82.11185,41.39814],[-82.11173,41.39814],[-82.11166,41.39814],[-82.11152,41.39814],[-82.11145,41.39814],[-82.11132,41.39814],[-82.11111,41.39815],[-82.11091,41.39815],[-82.11071,41.39815],[-82.11059,41.39815],[-82.11035,41.39815],[-82.11023,41.39815],[-82.11005,41.39815],[-82.10992,41.39815],[-82.10985,41.39815],[-82.10971,41.39816],[-82.10968,41.39816],[-82.1095,41.39816],[-82.10944,41.39816],[-82.10932,41.39816],[-82.10925,41.39816],[-82.10903,41.39816],[-82.1089,41.39816],[-82.10885,41.39816],[-82.10882,41.39816],[-82.10872,41.39815],[-82.10853,41.39809],[-82.10853,41.39808],[-82.10837,41.39791],[-82.10834,41.39773],[-82.10832,41.39697],[-82.10832,41.39695],[-82.10832,41.3969],[-82.10833,41.39678],[-82.10844,41.39644],[-82.10864,41.39597],[-82.10881,41.39553],[-82.10885,41.3954],[-82.10902,41.39514],[-82.10911,41.39502],[-82.10947,41.39462],[-82.10949,41.39461],[-82.10977,41.39438],[-82.11004,41.39415],[-82.11031,41.39391],[-82.1104,41.39384],[-82.11044,41.3938],[-82.11057,41.39369],[-82.110637,41.393637],[-82.11085,41.39346],[-82.11093,41.3934],[-82.11107,41.3932],[-82.11117,41.39307],[-82.11125,41.39295],[-82.11133,41.39283],[-82.1114,41.39275],[-82.11167,41.3926],[-82.11194,41.39256],[-82.11194,41.39253],[-82.11199,41.39251],[-82.11199,41.39225],[-82.11194,41.39223],[-82.11194,41.39217],[-82.11194,41.39215],[-82.11194,41.39205],[-82.11194,41.39198],[-82.11191,41.3919],[-82.11186,41.39179],[-82.11169,41.39159],[-82.11158,41.39152],[-82.11143,41.39145],[-82.11126,41.39141],[-82.11083,41.39137],[-82.10891,41.39139],[-82.10852,41.39133],[-82.10838,41.39128],[-82.10825,41.3912],[-82.10811,41.39105],[-82.10806,41.39096],[-82.10803,41.39088],[-82.10789,41.39053],[-82.10757,41.38954],[-82.10748,41.3894],[-82.10732,41.38925],[-82.10689,41.38892],[-82.10671,41.38871],[-82.10661,41.38844],[-82.10656,41.38829],[-82.1065,41.3881],[-82.1064,41.38794],[-82.106319,41.387853],[-82.1062,41.38775],[-82.1061,41.38768],[-82.10603,41.38764],[-82.10585,41.38755],[-82.10568,41.38749],[-82.10552,41.38746],[-82.10551,41.38742],[-82.1047,41.38729],[-82.10464,41.38733],[-82.1045,41.38731],[-82.10497,41.38552],[-82.10499,41.38546],[-82.10522,41.3847],[-82.1053,41.38438],[-82.10542,41.38422],[-82.10561,41.38374],[-82.10582,41.38333],[-82.10613,41.38288],[-82.1062,41.38275],[-82.106,41.38277],[-82.10541,41.38285],[-82.102728,41.383311],[-82.1018,41.38346],[-82.10151,41.38349],[-82.10122,41.38351],[-82.10049,41.38352],[-82.10003,41.3835],[-82.09804,41.38329],[-82.09717,41.38321],[-82.09689,41.3832],[-82.09604,41.38319],[-82.09527,41.38322],[-82.09438,41.38332],[-82.0944,41.38153],[-82.094393,41.380638],[-82.09437,41.37786],[-82.09434,41.37689],[-82.09433,41.3752],[-82.09428,41.37272],[-82.09319,41.37294],[-82.09291,41.373025],[-82.09243,41.37317],[-82.08956,41.37392],[-82.08485,41.37519],[-82.081649,41.376101],[-82.07761,41.37732],[-82.0776,41.37686],[-82.077795,41.371596],[-82.07794,41.36552],[-82.07794,41.36443],[-82.07798,41.36372],[-82.078013,41.362604],[-82.07824,41.3552],[-82.078271,41.353612],[-82.0783,41.352172],[-82.07821,41.34796],[-82.078194,41.34462],[-82.07819,41.34374],[-82.07661,41.34361],[-82.07618,41.34354],[-82.07597,41.34349],[-82.07577,41.34342],[-82.07547,41.34329],[-82.07479,41.343],[-82.07465,41.34294],[-82.07443,41.34285],[-82.07421,41.34278],[-82.07372,41.34269],[-82.0735,41.34267],[-82.07327,41.34267],[-82.07304,41.34268],[-82.07281,41.3427],[-82.07126,41.34294],[-82.07021,41.3431],[-82.06984,41.34315],[-82.06855,41.34335],[-82.067785,41.343463],[-82.06766,41.34348],[-82.0673,41.34354],[-82.06627,41.3437],[-82.06625,41.3437],[-82.06693,41.34611],[-82.06696,41.34637],[-82.06698,41.34708],[-82.06699,41.34886],[-82.06693,41.34888],[-82.06671,41.34888],[-82.0665,41.34889],[-82.06604,41.3489],[-82.06609,41.3489],[-82.06612,41.35031],[-82.0659,41.35031],[-82.065891,41.350041],[-82.06586,41.34912],[-82.06586,41.34898],[-82.06589,41.34894],[-82.06594,41.3489],[-82.0663,41.34889],[-82.0665,41.34889],[-82.06671,41.34888],[-82.06693,41.34888],[-82.06699,41.34886],[-82.06699,41.34876],[-82.06699,41.34838],[-82.06699,41.34832],[-82.06698,41.34708],[-82.06696,41.34637],[-82.06693,41.34611],[-82.06625,41.3437],[-82.0673,41.34354],[-82.06766,41.34348],[-82.06805,41.34342],[-82.06821,41.3434],[-82.06855,41.34335],[-82.068626,41.343338],[-82.06898,41.34328],[-82.06984,41.34315],[-82.07021,41.3431],[-82.07192,41.34284],[-82.07192,41.342829],[-82.07286,41.34269],[-82.07314,41.34267],[-82.07372,41.34269],[-82.0743,41.34281],[-82.07475,41.34298],[-82.07583,41.34344],[-82.07614,41.34353],[-82.0769,41.34363],[-82.07819,41.34374],[-82.0791,41.34381],[-82.08022,41.34382],[-82.08236,41.34368],[-82.08315,41.34361],[-82.08357,41.343545],[-82.08493,41.34326],[-82.08527,41.34316],[-82.08567,41.34298],[-82.08823,41.34151],[-82.08847,41.34148],[-82.08862,41.34149],[-82.0889,41.34158],[-82.09015,41.34288],[-82.090314,41.343074],[-82.09227,41.3454],[-82.09254,41.3458],[-82.09321,41.34698],[-82.09336,41.34693],[-82.09442,41.34709],[-82.09503,41.34715],[-82.09538,41.34715],[-82.09604,41.34696],[-82.09723,41.34648],[-82.098799,41.345914],[-82.09917,41.34578],[-82.09958,41.34567],[-82.09988,41.34564],[-82.10032,41.34554],[-82.10253,41.34515],[-82.10325,41.34507],[-82.10478,41.34505],[-82.1076,41.34506],[-82.107546,41.347329],[-82.10747,41.35109],[-82.10741,41.35121],[-82.10735,41.35332],[-82.1073,41.35436],[-82.107249,41.35631],[-82.10712,41.36123],[-82.10712,41.36182],[-82.10704,41.3642],[-82.10704,41.36479],[-82.10702,41.36526],[-82.10703,41.365298],[-82.10704,41.36539],[-82.10697,41.36597],[-82.10694,41.36658],[-82.10776,41.3666],[-82.10806,41.3666],[-82.108064,41.366572],[-82.1103,41.36659],[-82.11027,41.36722],[-82.11028,41.36776],[-82.11026,41.36902],[-82.11021,41.36986],[-82.11021,41.37002],[-82.11023,41.37015],[-82.11028,41.37028],[-82.11036,41.37038],[-82.111643,41.371322],[-82.11255,41.37198],[-82.11303,41.37226],[-82.11171,41.37364],[-82.11166,41.37371],[-82.11163,41.37381],[-82.1116,41.37402],[-82.11155,41.37646],[-82.1115,41.37757],[-82.109876,41.37909],[-82.10694,41.38179],[-82.10685,41.38187],[-82.10675,41.38192],[-82.10648,41.38217],[-82.10625,41.38244],[-82.106,41.38277],[-82.10561,41.38343],[-82.10547,41.38372],[-82.10539,41.38393],[-82.10532,41.38416],[-82.1053,41.38438],[-82.10522,41.3847],[-82.10497,41.38552],[-82.104604,41.386907],[-82.1045,41.38731],[-82.10464,41.38733],[-82.10468,41.38738],[-82.10545,41.38749],[-82.10552,41.38746],[-82.10561,41.38748],[-82.10568,41.38749],[-82.10585,41.38755],[-82.1061,41.38768],[-82.1062,41.38775],[-82.10624,41.38778],[-82.10637,41.3879],[-82.1064,41.38794],[-82.10648,41.38808],[-82.1065,41.3881],[-82.10671,41.38871],[-82.10689,41.38892],[-82.10732,41.38925],[-82.10748,41.3894],[-82.10757,41.38954],[-82.10789,41.39053],[-82.10806,41.39096],[-82.10811,41.39105],[-82.10825,41.3912],[-82.10838,41.39128],[-82.10852,41.39133],[-82.10891,41.39139],[-82.11083,41.39137],[-82.11126,41.39141],[-82.11143,41.39145],[-82.11169,41.39159],[-82.11186,41.39179],[-82.11194,41.39198],[-82.11194,41.39205],[-82.11194,41.39215],[-82.11194,41.39217],[-82.11194,41.392171],[-82.11194,41.39223],[-82.11189,41.39225],[-82.11188,41.39251],[-82.11194,41.39253],[-82.11194,41.39256],[-82.11167,41.3926],[-82.1114,41.39275],[-82.11133,41.39283],[-82.11125,41.39295],[-82.11117,41.39307],[-82.11093,41.3934],[-82.11085,41.39346],[-82.11057,41.39369],[-82.1104,41.39384],[-82.11031,41.39391],[-82.11017,41.39403],[-82.10977,41.39438],[-82.10947,41.39462],[-82.10911,41.39502],[-82.10885,41.3954],[-82.10864,41.39597],[-82.10844,41.39644],[-82.10833,41.39678],[-82.10832,41.39697],[-82.10833,41.39706],[-82.10834,41.39773],[-82.10835,41.39785],[-82.10837,41.39791],[-82.10839,41.39794],[-82.10853,41.39809],[-82.10872,41.39815],[-82.10882,41.39816],[-82.10885,41.39816],[-82.1089,41.39816],[-82.10903,41.39816],[-82.10925,41.39816],[-82.10932,41.39816],[-82.10944,41.39816],[-82.1095,41.39816],[-82.10968,41.39816],[-82.10971,41.39816],[-82.10985,41.39815],[-82.111193,41.398146],[-82.11132,41.39814],[-82.11145,41.39814],[-82.11152,41.39814],[-82.11166,41.39814],[-82.11173,41.39814],[-82.11185,41.39814],[-82.11193,41.39814],[-82.11206,41.39814],[-82.11214,41.39814],[-82.11225,41.39814],[-82.11233,41.39814],[-82.11299,41.39813],[-82.113,41.39857],[-82.1131,41.39869],[-82.11126,41.39872],[-82.11071,41.39871],[-82.10724,41.39875],[-82.10722,41.39969],[-82.10723,41.39997],[-82.10727,41.40024],[-82.10739,41.40065],[-82.10758,41.40102],[-82.107104,41.401037],[-82.10602,41.40108],[-82.10599,41.40111],[-82.106,41.40131]]}}]}