{"type":"FeatureCollection","features":[{"type":"Feature","properties":{"agency":"Malheur Council on Aging & Community Services","shape_id":"111617"},"geometry":{"type":"LineString","coordinates":[[-116.93914380982764,44.0267612885246],[-116.939144,44.026703],[-116.939253,44.026702],[-116.939467,44.026701],[-116.939676,44.0267],[-116.939756,44.0267],[-116.939812,44.026694],[-116.939859,44.026676],[-116.939892,44.026657],[-116.939972,44.02661],[-116.940032,44.026585],[-116.940087,44.026575],[-116.940127,44.026574],[-116.94024,44.026573],[-116.940416,44.026572],[-116.940407,44.025815],[-116.940403,44.025466],[-116.940406,44.025365],[-116.940408,44.024963],[-116.940406,44.024816],[-116.940403,44.024711],[-116.940403,44.024541],[-116.940404,44.024273],[-116.940404,44.023754],[-116.940415,44.023427],[-116.940415,44.023421],[-116.94042,44.023269],[-116.94042,44.023206],[-116.940405,44.022523],[-116.940405,44.022428],[-116.940406,44.022237],[-116.940406,44.021619],[-116.940409,44.021163],[-116.940982,44.021169],[-116.941266,44.021173],[-116.941637,44.021194],[-116.941791,44.021202],[-116.94227,44.021203],[-116.942861,44.021204],[-116.944104,44.021207],[-116.944221,44.021207],[-116.94495,44.021209],[-116.945409,44.02121],[-116.946837,44.021216],[-116.947863,44.021215],[-116.949242,44.021217],[-116.949456,44.021215],[-116.949777,44.021217],[-116.950419,44.021218],[-116.951853,44.021216],[-116.951935,44.021216],[-116.952644,44.021218],[-116.953287,44.021219],[-116.953446,44.021218],[-116.954225,44.021214],[-116.954343,44.021214],[-116.954622,44.021212],[-116.955117,44.02121],[-116.955292,44.021203],[-116.955434,44.021193],[-116.95559,44.02117],[-116.955711,44.021143],[-116.956179,44.020983],[-116.956364,44.020929],[-116.95649,44.020927],[-116.95701,44.021008],[-116.957382,44.02107],[-116.957659,44.021116],[-116.957726,44.021128],[-116.958249,44.021215],[-116.958362,44.021234],[-116.958779,44.021304],[-116.958854,44.021316],[-116.959474,44.021417],[-116.960123,44.021528],[-116.959845,44.022398],[-116.959745,44.022709],[-116.959701,44.022846],[-116.959563,44.023276],[-116.959381,44.023843],[-116.959279,44.024163],[-116.959015,44.024965],[-116.958988,44.025045],[-116.958962,44.025126],[-116.958868,44.025421],[-116.958766,44.02574],[-116.958742,44.025817],[-116.958707,44.025927],[-116.958882,44.025956],[-116.95913,44.025997],[-116.959228,44.026013],[-116.95934,44.026031],[-116.960414,44.026208],[-116.962358,44.026531],[-116.962831,44.02661],[-116.962976,44.026634],[-116.963018,44.026513],[-116.96313,44.026193],[-116.96325,44.025846],[-116.963283,44.025751],[-116.962803,44.025671],[-116.962625,44.025642],[-116.962588,44.025636],[-116.96224,44.025578],[-116.962177,44.025568],[-116.962,44.025538],[-116.961964,44.025512],[-116.961958,44.02548],[-116.961989,44.025388],[-116.962194,44.024777],[-116.962235,44.024653],[-116.962506,44.023764],[-116.962587,44.023513],[-116.962546,44.02364],[-116.962776,44.022924],[-116.962805,44.022905],[-116.962841,44.022897],[-116.963022,44.022923],[-116.963244,44.022959],[-116.963437,44.022988],[-116.963984,44.023078],[-116.964111,44.023098],[-116.96909124345876,44.0239210126837],[-116.9693656545552,44.02303906686427],[-116.970609,44.023239],[-116.97136019262294,44.020904020784826],[-116.971363,44.020889],[-116.971601,44.020125],[-116.97169,44.019842],[-116.971732,44.019705],[-116.971513,44.019669],[-116.97109,44.019601],[-116.970481,44.019503],[-116.970205,44.02039],[-116.969928,44.021277],[-116.969731,44.021893],[-116.969629,44.022211],[-116.969367,44.023037],[-116.96934,44.023121],[-116.969259,44.023372],[-116.969175,44.023636],[-116.96912,44.023806],[-116.969083,44.023921],[-116.969052,44.024017],[-116.968981,44.02423],[-116.968974,44.024254],[-116.968913,44.024463],[-116.968848,44.024684],[-116.968835,44.02473],[-116.968812,44.0248],[-116.968921,44.024818],[-116.969107,44.024849],[-116.969318,44.024883],[-116.969451,44.024905],[-116.970009,44.024997],[-116.970129,44.025017],[-116.970324,44.02505],[-116.970325,44.02505],[-116.970525,44.025083],[-116.971311,44.025212],[-116.971907,44.025312],[-116.972532,44.025415],[-116.97258,44.025264],[-116.97265,44.025042],[-116.972677,44.024954],[-116.972784,44.024631],[-116.972817,44.024533],[-116.972956,44.024555],[-116.973862,44.024707],[-116.974008,44.024732],[-116.974257,44.024773],[-116.974531,44.024796],[-116.974778,44.024806],[-116.974952,44.024808],[-116.975155,44.024809],[-116.978767,44.024809],[-116.97874660525704,44.024812974279314],[-116.980593,44.024809],[-116.980699,44.02481],[-116.987727,44.02481],[-116.988071,44.024811],[-116.988346,44.024811],[-116.988665,44.024813],[-116.988757,44.024813],[-116.9890819887762,44.02481411912856],[-116.98908092387586,44.02481526983348],[-116.98952,44.024816],[-116.989771,44.024817],[-116.989992,44.024818],[-116.990643,44.024821],[-116.990827,44.024821],[-116.991376,44.024822],[-116.991525,44.024822],[-116.99194,44.024823],[-116.993184,44.024823],[-116.993362,44.024822],[-116.993657,44.024822],[-116.993894,44.02482],[-116.994081,44.02482],[-116.994521,44.024821],[-116.994719,44.02482],[-116.994908,44.02482],[-116.995369,44.024819],[-116.995513,44.024819],[-116.995648,44.02482],[-116.996071,44.024822],[-116.996341,44.024824],[-116.996511,44.024825],[-116.996676,44.024826],[-116.99740182940452,44.02483085958747],[-116.99738644399731,44.02482720226183],[-116.99764170551644,44.02483157233115],[-116.99868301044478,44.02483157233115],[-116.99983549953004,44.02483140468473],[-117.00038528936548,44.02483140468473],[-117.000613,44.024831],[-117.00089,44.02483],[-117.001036,44.024827],[-117.001093,44.024827],[-117.002013528,44.024826793],[-117.002010852,44.025008118],[-117.002773747,44.025011968],[-117.002765717,44.024832967],[-117.00123387983552,44.02481627700422],[-117.001226,44.024828],[-117.001093,44.024827],[-117.001036,44.024827],[-117.00089,44.02483],[-117.000613,44.024831],[-117.000496,44.024832],[-117.000413,44.024831],[-116.999961,44.02483],[-116.999825,44.024831],[-116.999563,44.02483],[-116.999242,44.024828],[-116.998829,44.024829],[-116.998656,44.02483],[-116.998146,44.024832],[-116.997946,44.024833],[-116.997421,44.024828],[-116.997103,44.024828],[-116.996676,44.024826],[-116.996511,44.024825],[-116.996341,44.024824],[-116.996071,44.024822],[-116.995648,44.02482],[-116.995513,44.024819],[-116.995369,44.024819],[-116.994908,44.02482],[-116.994719,44.02482],[-116.994521,44.024821],[-116.994081,44.02482],[-116.993894,44.02482],[-116.993657,44.024822],[-116.993362,44.024822],[-116.993184,44.024823],[-116.99194,44.024823],[-116.991525,44.024822],[-116.991376,44.024822],[-116.990827,44.024821],[-116.990643,44.024821],[-116.989992,44.024818],[-116.989771,44.024817],[-116.98952,44.024816],[-116.988871,44.024813],[-116.988665,44.024813],[-116.988346,44.024811],[-116.988071,44.024811],[-116.987727,44.02481],[-116.9839,44.02481],[-116.980699,44.02481],[-116.980593,44.024809],[-116.975699,44.024809],[-116.975695,44.024918],[-116.975694,44.024968],[-116.975669,44.025057],[-116.975624,44.02513],[-116.975539,44.025204],[-116.975431,44.025268],[-116.97524,44.025364],[-116.975142,44.025436],[-116.97493808963308,44.02607194320965],[-116.974947866,44.026056321],[-116.974746,44.026702],[-116.974456,44.027568],[-116.974189,44.028465],[-116.97364,44.030231],[-116.973098,44.032024],[-116.973075,44.032798],[-116.973075,44.033508],[-116.97306,44.033939],[-116.973083,44.034626],[-116.97310595109676,44.03567708815712],[-116.97243190626764,44.03567708815712],[-116.972438218008,44.035672553422415],[-116.971786,44.035667],[-116.971046,44.035663],[-116.970535,44.035663],[-116.969261,44.035659],[-116.968643,44.035663],[-116.968116,44.035667],[-116.967422,44.035667],[-116.9673,44.035671],[-116.966796,44.035659],[-116.965515,44.035644],[-116.96341379075778,44.03564169393661],[-116.96341932232312,44.035641429485935],[-116.962762,44.035641],[-116.962097,44.035639],[-116.961548,44.035638],[-116.961455,44.035637],[-116.961157,44.035798],[-116.96106,44.035849],[-116.960798,44.035614],[-116.960741,44.035563],[-116.960562,44.03542],[-116.96048,44.035332],[-116.960426,44.03525],[-116.960386,44.035167],[-116.960366,44.035091],[-116.960359,44.035014],[-116.960367,44.034921],[-116.960389,44.034822],[-116.960807,44.033502],[-116.960826,44.033443],[-116.960844,44.033389],[-116.961298,44.032001],[-116.961322,44.031929],[-116.961348,44.031849],[-116.961391,44.031705],[-116.961457,44.031484],[-116.961565,44.03112],[-116.96159,44.031044],[-116.961614,44.030968],[-116.961868,44.03024],[-116.961893,44.030159],[-116.96196809378958,44.02991915030441],[-116.9619651109762,44.029921957945135],[-116.962138,44.029352],[-116.962159,44.029282],[-116.962183,44.029204],[-116.962271,44.028919],[-116.962303,44.028817],[-116.962333,44.028718],[-116.96241,44.028471],[-116.962432,44.028398],[-116.962458,44.028316],[-116.96256,44.027986],[-116.962682,44.027591],[-116.962707,44.02751],[-116.962733,44.027424],[-116.962804,44.027196],[-116.962842,44.027072],[-116.962877,44.026957],[-116.962893,44.026905],[-116.962943,44.026743],[-116.962976,44.026634],[-116.962831,44.02661],[-116.962358,44.026531],[-116.960415,44.026208],[-116.95934,44.026032],[-116.959228,44.026013],[-116.95913,44.025997],[-116.958882,44.025956],[-116.958707,44.025927],[-116.958547,44.025901],[-116.958076,44.025822],[-116.957809,44.025778],[-116.957576,44.025739],[-116.957476,44.025722],[-116.95773110616506,44.02484674427035],[-116.95749876749596,44.024805950426526],[-116.95675072996424,44.024802014700526],[-116.95660452622886,44.02479909453021],[-116.956449,44.0248],[-116.955799,44.024809],[-116.955451,44.024809],[-116.955366,44.024803],[-116.955127,44.024788],[-116.954731,44.024795],[-116.954624,44.024795],[-116.954522,44.024796],[-116.954048,44.024801],[-116.953333,44.024798],[-116.953183,44.02479],[-116.953043,44.024771],[-116.952898,44.024745],[-116.952701,44.024693],[-116.95251,44.024625],[-116.952416,44.024591],[-116.951806,44.024364],[-116.951512,44.024246],[-116.951253906,44.024126897],[-116.951252069352,44.0241262198701],[-116.951138,44.024072],[-116.950896,44.023946],[-116.950623,44.023796],[-116.950545,44.023722],[-116.950492,44.023646],[-116.950454,44.023542],[-116.950427,44.023438],[-116.950421,44.023373],[-116.950423,44.02323],[-116.95042,44.022585],[-116.950418,44.021894],[-116.950416,44.021448],[-116.95042,44.021218],[-116.949777,44.021217],[-116.949456,44.021215],[-116.949242,44.021217],[-116.947863,44.021215],[-116.946837,44.021217],[-116.945409,44.02121],[-116.94495,44.021209],[-116.944221,44.021207],[-116.944104,44.021207],[-116.942861,44.021204],[-116.94227,44.021203],[-116.941791,44.021202],[-116.941638,44.021194],[-116.941267,44.021173],[-116.940982,44.02117],[-116.940409,44.021163],[-116.940406,44.021619],[-116.940406,44.022428],[-116.940405,44.022523],[-116.94042,44.023206],[-116.94042,44.023269],[-116.940404,44.023754],[-116.940404,44.024273],[-116.940403,44.024542],[-116.940403,44.024711],[-116.940406,44.024816],[-116.940408,44.024963],[-116.940406,44.025365],[-116.940403,44.025466],[-116.940399510803,44.0258137443411],[-116.940058713348,44.025823468248],[-116.939882905138,44.0257806830442],[-116.939872086146,44.0254909096745],[-116.939760121216,44.0254794087764],[-116.937896130293,44.0255038086114],[-116.937889254669,44.0267845519634],[-116.93833287313277,44.02678825420347],[-116.9384073738874,44.02673022308977],[-116.93914772513934,44.02673133907311]]}},{"type":"Feature","properties":{"agency":"Malheur Council on Aging & Community Services","shape_id":"111639"},"geometry":{"type":"LineString","coordinates":[[-116.9713484,44.0279325],[-116.971336,44.028018],[-116.971076,44.027973],[-116.970466,44.02787],[-116.969818,44.027751],[-116.9692,44.027641],[-116.968597,44.027542],[-116.967971,44.027439],[-116.96733,44.027343],[-116.966743,44.027256],[-116.966102,44.027156],[-116.965469,44.027053],[-116.964859,44.026954],[-116.964172,44.026844],[-116.963592,44.026741],[-116.962974,44.026634],[-116.959335,44.026027],[-116.958702,44.02592],[-116.958076,44.025817],[-116.957443,44.025711],[-116.956855,44.025615],[-116.956245,44.025512],[-116.956451,44.024818],[-116.955787,44.024806],[-116.953025,44.024765],[-116.95238765526,44.024572291312],[-116.95172029572,44.024321646646],[-116.95140539141,44.024200181181],[-116.95125203828812,44.02411189822652],[-116.951252943,44.024110597],[-116.951138,44.024072],[-116.950896,44.023946],[-116.950623,44.023796],[-116.950545,44.023722],[-116.950492,44.023646],[-116.950454,44.023542],[-116.950427,44.023438],[-116.950421,44.023373],[-116.950423,44.02323],[-116.95042,44.022585],[-116.950418,44.021894],[-116.950416,44.021448],[-116.95042,44.021218],[-116.951853,44.021216],[-116.951935,44.021216],[-116.952644,44.021218],[-116.953287,44.021219],[-116.953447,44.021219],[-116.954343,44.021214],[-116.955117,44.02121],[-116.955292,44.021203],[-116.955434,44.021193],[-116.95559,44.02117],[-116.955711,44.021143],[-116.95637,44.020901],[-116.95701,44.021008],[-116.957659,44.021116],[-116.958249,44.021215],[-116.958854,44.021316],[-116.959475,44.021417],[-116.960123,44.021528],[-116.960726,44.021629],[-116.961367,44.021736],[-116.962178,44.021862],[-116.962237,44.021872],[-116.962557,44.021924],[-116.962584,44.021928],[-116.962613,44.021933],[-116.962947,44.021988],[-116.963335,44.022051],[-116.963725,44.022115],[-116.964261,44.022201],[-116.96438,44.02222],[-116.964704,44.022274],[-116.96499,44.022321],[-116.965633,44.022426],[-116.966238,44.022525],[-116.966872,44.022629],[-116.967498,44.022731],[-116.968123,44.022833],[-116.968615,44.022914],[-116.968718,44.02293],[-116.968746,44.022935],[-116.969156,44.023002],[-116.969249,44.023017],[-116.969368,44.023037],[-116.969982,44.023137],[-116.970609,44.023239],[-116.970637,44.02315],[-116.97084,44.022507],[-116.970886,44.022363],[-116.97117,44.021478],[-116.97135839539902,44.020910009240026],[-116.97136212899954,44.02090352016998],[-116.971458,44.020583],[-116.971601,44.020125],[-116.97169,44.019842],[-116.971732,44.019705],[-116.97109,44.019601],[-116.970845,44.019562],[-116.970481,44.019503],[-116.970205,44.02039],[-116.970008,44.02102],[-116.969928,44.021277],[-116.969646,44.022158],[-116.969629,44.022211],[-116.969367,44.023037],[-116.96934,44.023121],[-116.969259,44.023372],[-116.969175,44.023636],[-116.96912,44.023806],[-116.969083,44.023921],[-116.969253,44.023948],[-116.96932,44.023959],[-116.969694,44.02402],[-116.969852,44.024046],[-116.970287,44.024116],[-116.970331,44.024124],[-116.970454,44.024143],[-116.970713,44.024184],[-116.970859,44.024207],[-116.971425,44.024296],[-116.971576,44.02432],[-116.971716,44.024343],[-116.971912,44.024376],[-116.97219,44.024423],[-116.972291,44.02444],[-116.972441,44.024465],[-116.972696,44.024511],[-116.972817,44.024533],[-116.972956,44.024555],[-116.973862,44.024707],[-116.974008,44.024732],[-116.974257,44.024774],[-116.974531,44.024797],[-116.974778,44.024806],[-116.974952,44.024809],[-116.980593,44.024809],[-116.980699,44.02481],[-116.987384,44.02481],[-116.987604796,44.024810077],[-116.98760234356138,44.02481206630577],[-116.988071,44.024811],[-116.988346,44.024811],[-116.988665,44.024813],[-116.988871,44.024813],[-116.98952,44.024816],[-116.989771,44.024817],[-116.989992,44.024818],[-116.990643,44.024821],[-116.990827,44.024821],[-116.991376,44.024822],[-116.991525,44.024822],[-116.99194,44.024823],[-116.993184,44.024823],[-116.993362,44.024822],[-116.993657,44.024822],[-116.993894,44.02482],[-116.994081,44.02482],[-116.994521,44.024821],[-116.994719,44.02482],[-116.994908,44.02482],[-116.995369,44.024819],[-116.995513,44.024819],[-116.995648,44.02482],[-116.996071,44.024822],[-116.996341,44.024824],[-116.996511,44.024825],[-116.996676,44.024826],[-116.997103,44.024828],[-116.997421,44.024828],[-116.997946,44.024833],[-116.998146,44.024832],[-116.998656,44.02483],[-116.998829,44.024829],[-116.999242,44.024828],[-116.999563,44.02483],[-116.999825,44.024831],[-116.999961,44.02483],[-117.000413,44.024831],[-117.000496,44.024832],[-117.000613,44.024831],[-117.00089,44.02483],[-117.001036,44.024827],[-117.001093,44.024827],[-117.001226,44.024828],[-117.002005,44.02483],[-117.002057,44.02483],[-117.002444,44.024831],[-117.002817,44.024832],[-117.002855,44.024832],[-117.003286,44.024834],[-117.003773,44.024834],[-117.003877,44.024833],[-117.004919,44.024826],[-117.005135,44.024824],[-117.005149,44.0247],[-117.005333,44.023041],[-117.005373,44.022173],[-117.005389,44.021648],[-117.005386,44.021266],[-117.005398,44.020796],[-117.005396,44.02012],[-117.005395,44.019617],[-117.005394,44.019453],[-117.005393,44.019198],[-117.00539,44.01825],[-117.00539,44.018047],[-117.005389,44.017814],[-117.005388,44.017687],[-117.005387,44.017574],[-117.005386,44.017492],[-117.005381,44.016989],[-117.00537,44.016262],[-117.005385,44.015495],[-117.005378,44.014967],[-117.005374,44.01397],[-117.005368,44.011419],[-117.005367,44.011265],[-117.005365,44.01054],[-117.005365,44.010404],[-117.005367,44.010268],[-117.005375,44.009573],[-117.005378,44.009274],[-117.005384,44.008819],[-117.005405,44.007019],[-117.005407,44.006764],[-117.005462,44.004083],[-117.005485,44.003206],[-117.005523,44.001403],[-117.005584,44.000021],[-117.005721,43.99588],[-117.005726,43.995656],[-117.005724,43.995435],[-117.005717,43.993986],[-117.005716,43.993728],[-117.005768,43.99229],[-117.005814,43.991029],[-117.005767,43.989411],[-117.005759,43.989125],[-117.005757,43.989059],[-117.005749,43.988687],[-117.005711,43.986643],[-117.005715,43.98622],[-117.005711,43.981465],[-117.005741,43.977862],[-117.005742,43.977676],[-117.005746,43.977314],[-117.00578,43.974223],[-117.005783,43.973896],[-117.005818,43.970743],[-117.005854,43.967438],[-117.005858,43.967056],[-117.005918,43.959931],[-117.005919,43.959781],[-117.005963,43.952546],[-117.005987,43.945233],[-117.00601,43.937972],[-117.006004,43.930773],[-117.006017,43.927267],[-117.006078,43.923588],[-117.006192,43.916402],[-117.006193,43.91627],[-117.006193,43.916197],[-117.006178,43.909234],[-117.006179,43.909148],[-117.006181,43.909024],[-117.0062,43.907704],[-117.006236,43.905243],[-117.006242,43.904864],[-117.006285,43.901972],[-117.006287,43.901344],[-117.006291,43.900614],[-117.006292,43.900353],[-117.006293,43.900073],[-117.006295,43.899786],[-117.006303,43.898006],[-117.006297,43.896478],[-117.006291,43.894883],[-117.006274,43.894766],[-117.006233,43.890201],[-117.006234,43.889958],[-117.006237,43.889453],[-117.006242,43.88823],[-117.006248,43.887602],[-117.006246,43.887577],[-117.006253,43.886536],[-117.006244,43.885842],[-117.006241,43.885142],[-117.006248,43.884735],[-117.006255,43.884359],[-117.006233,43.884166],[-117.006158,43.883977],[-117.006094,43.88385],[-117.006026,43.883745],[-117.005343,43.882851],[-117.004962,43.882356],[-117.004844,43.882202],[-117.004619,43.88191],[-117.004534,43.881798],[-117.004271,43.881456],[-117.004056,43.881176],[-117.004039,43.881154],[-117.003823,43.880872],[-117.003459,43.880419],[-117.003305,43.8802],[-117.003158,43.880009],[-117.002773,43.879501],[-117.002433,43.879056],[-117.002418,43.879036],[-117.002221,43.878781],[-117.002132,43.878666],[-117.002073,43.878588],[-117.001908,43.878375],[-117.00184,43.878286],[-117.001819,43.878259],[-117.001717,43.878126],[-117.00168,43.878078],[-117.001503,43.877848],[-117.001386,43.877697],[-117.001116,43.877345],[-117.001027,43.877241],[-117.000926,43.87715],[-117.000833,43.877076],[-117.000718,43.876997],[-117.000617,43.876949],[-117.000481,43.876888],[-117.000296,43.876829],[-117.000178,43.876807],[-117.000109,43.876797],[-116.99992,43.876788],[-116.999715,43.876787],[-116.999701,43.876787],[-116.999411,43.876789],[-116.999379,43.876789],[-116.998868,43.876784],[-116.997688,43.876784],[-116.997689,43.876572],[-116.99769,43.876351],[-116.997691,43.876068],[-116.997248,43.876066],[-116.99724776405436,43.87590250873757],[-116.99632838203628,43.8758901394161],[-116.996354,43.876781],[-116.995688,43.876779],[-116.99502,43.876777],[-116.994026,43.876778],[-116.99353394227803,43.87676455195884],[-116.99354196765522,43.87770170631953],[-116.99814050738712,43.87769592145952],[-117.001386,43.877697],[-117.001503,43.877848],[-117.00168,43.878078],[-117.001717,43.878126],[-117.00184,43.878286],[-117.001908,43.878375],[-117.002073,43.878588],[-117.002132,43.878666],[-117.002221,43.878781],[-117.002418,43.879036],[-117.002433,43.879056],[-117.002773,43.879501],[-117.003158,43.880009],[-117.003305,43.8802],[-117.003459,43.880419],[-117.003823,43.880872],[-117.004039,43.881154],[-117.004056,43.881176],[-117.004271,43.881456],[-117.004534,43.881798],[-117.004619,43.88191],[-117.004844,43.882202],[-117.004962,43.882356],[-117.005343,43.882851],[-117.006026,43.883745],[-117.006094,43.88385],[-117.006158,43.883977],[-117.006233,43.884166],[-117.006255,43.884359],[-117.006248,43.884735],[-117.006241,43.885142],[-117.006244,43.885842],[-117.006253,43.886536],[-117.006246,43.887577],[-117.006248,43.887602],[-117.006242,43.88823],[-117.006237,43.889453],[-117.006234,43.889958],[-117.006233,43.890201],[-117.006274,43.894766],[-117.006291,43.894883],[-117.006297,43.896478],[-117.006303,43.898006],[-117.006295,43.899786],[-117.006293,43.900073],[-117.006292,43.900353],[-117.006291,43.900614],[-117.006287,43.901344],[-117.006285,43.901972],[-117.006242,43.904864],[-117.006236,43.905243],[-117.0062,43.907704],[-117.006181,43.909024],[-117.006179,43.909148],[-117.006178,43.909234],[-117.006193,43.916197],[-117.006193,43.91627],[-117.006192,43.916402],[-117.006078,43.923588],[-117.006017,43.927267],[-117.006004,43.930773],[-117.00601,43.937972],[-117.005987,43.945233],[-117.005963,43.952546],[-117.005919,43.959781],[-117.005918,43.959931],[-117.005858,43.967056],[-117.005854,43.967438],[-117.005818,43.970743],[-117.005783,43.973896],[-117.00578,43.974223],[-117.005746,43.977314],[-117.005742,43.977676],[-117.005741,43.977862],[-117.005711,43.981465],[-117.005715,43.98622],[-117.005711,43.986643],[-117.005749,43.988687],[-117.00956,43.988663],[-117.009907,43.98866],[-117.010172,43.988659],[-117.010185,43.988659],[-117.010665,43.988655],[-117.010742,43.988655],[-117.012523,43.988643],[-117.012856,43.988641],[-117.013067,43.98864],[-117.013658,43.988636],[-117.013959,43.988638],[-117.018067,43.988667],[-117.018122,43.988667],[-117.018723,43.988668],[-117.025695,43.988675],[-117.035738,43.988736],[-117.045791,43.988744],[-117.050812,43.988744],[-117.062163,43.98876],[-117.065939,43.98876],[-117.073503,43.988744],[-117.086024,43.98876],[-117.087472,43.98876],[-117.088191,43.988721],[-117.088738,43.988659],[-117.089317,43.988543],[-117.089918,43.988381],[-117.09245,43.987501],[-117.095884,43.986313],[-117.098973,43.985247],[-117.101484,43.98439],[-117.105829,43.982885],[-117.107009,43.982468],[-117.107621,43.982267],[-117.108222,43.982105],[-117.108908,43.981966],[-117.111076,43.981681],[-117.112084,43.981549],[-117.113146,43.981472],[-117.115807,43.981418],[-117.119433,43.98138],[-117.121289,43.981395],[-117.122394,43.981426],[-117.125967,43.981503],[-117.129433,43.981557],[-117.132244,43.981588],[-117.133563,43.981588],[-117.135913,43.98158],[-117.13735,43.981588],[-117.141438,43.98158],[-117.145805,43.981565],[-117.151824,43.981611],[-117.160718,43.981611],[-117.165589,43.981642],[-117.169548,43.981642],[-117.175599,43.981673],[-117.180727,43.981681],[-117.185491,43.981719],[-117.185686,43.981718],[-117.189675,43.981696],[-117.193902,43.98175],[-117.195637,43.981759],[-117.199814,43.981781],[-117.204416,43.981804],[-117.205704,43.981804],[-117.207142,43.981835],[-117.207648,43.981861],[-117.208633,43.982043],[-117.210661,43.98263],[-117.21772,43.98473],[-117.2183,43.9849],[-117.220166,43.985463],[-117.220799,43.985633],[-117.221623,43.985708],[-117.222033,43.985695],[-117.222473,43.985625],[-117.222859,43.985517],[-117.223889,43.985131],[-117.225466,43.984537],[-117.226185,43.984282],[-117.226784,43.984119],[-117.226979,43.984066],[-117.227848,43.983873],[-117.230319,43.98342],[-117.230469,43.983392],[-117.230734,43.98334],[-117.231239,43.983256],[-117.232537,43.983008],[-117.233085,43.982915],[-117.233352,43.98287],[-117.233953,43.982785],[-117.23465,43.982707],[-117.235541,43.982677],[-117.235837,43.982676],[-117.236185,43.982669],[-117.239146,43.982669],[-117.24209384175384,43.98268187434985],[-117.24212235247418,43.9811945266116],[-117.241681,43.981196],[-117.241683,43.981151],[-117.241233,43.981147],[-117.240127,43.981143],[-117.239089,43.981147],[-117.239097,43.981674],[-117.239163,43.981673],[-117.239167,43.981912],[-117.23818,43.981897],[-117.23818,43.982669],[-117.238173,43.983433],[-117.238048,43.984158],[-117.238005,43.985456],[-117.237992,43.986077],[-117.237991,43.986118],[-117.237994,43.986153],[-117.238039,43.986704],[-117.23980086659869,43.98670616507732],[-117.239806,43.986706],[-117.240437,43.986704],[-117.240638,43.986705],[-117.240888,43.986706],[-117.241153,43.986705],[-117.241767,43.986705],[-117.242401,43.986707],[-117.243023,43.986709],[-117.24364,43.98671],[-117.244272,43.986711],[-117.244884,43.986712],[-117.245495,43.986714],[-117.245526,43.985595],[-117.245528,43.985518],[-117.245529,43.985426],[-117.245543,43.984341],[-117.245548,43.984],[-117.245551,43.983955],[-117.245555,43.983911],[-117.245558,43.983861],[-117.245561,43.983826],[-117.245578,43.98361],[-117.245588,43.983488],[-117.245586,43.983355],[-117.245589,43.98302],[-117.245591,43.982684],[-117.245596,43.982477],[-117.245599,43.98231],[-117.2456,43.982198],[-117.245602,43.982121],[-117.245604,43.981911],[-117.24505,43.981909],[-117.244625,43.981907],[-117.244105,43.981905],[-117.243976,43.981905],[-117.243843,43.981904],[-117.243627,43.981903],[-117.24342,43.981903],[-117.24325,43.981902],[-117.243122,43.981902],[-117.242992,43.981901],[-117.242649,43.9819],[-117.242254,43.981898],[-117.242128,43.981898],[-117.242004,43.981897],[-117.241268,43.981894],[-117.241147,43.981894],[-117.241018,43.981893],[-117.240648,43.981892],[-117.240267,43.981891],[-117.240121,43.981889],[-117.239952,43.981889],[-117.239576,43.981888],[-117.239504,43.981888],[-117.239212,43.981886],[-117.239096,43.981886],[-117.238596,43.981885],[-117.238092,43.981885],[-117.238002,43.981884],[-117.237939,43.981883],[-117.237888,43.981883],[-117.237839,43.981882],[-117.237731,43.981881],[-117.237462,43.981879],[-117.237105,43.981875],[-117.236598,43.981873],[-117.23612,43.981862],[-117.235804,43.981867],[-117.2351,43.981872],[-117.234835,43.981879],[-117.234605,43.981889],[-117.234457,43.981903],[-117.234277,43.981926],[-117.234148,43.981943],[-117.233771,43.982012],[-117.233346,43.982145],[-117.232848,43.982361],[-117.232347,43.982579],[-117.231715,43.982877],[-117.231157,43.983101],[-117.231,43.983145],[-117.230853,43.983197],[-117.23077,43.983289],[-117.230453,43.983355],[-117.228882,43.983644],[-117.227823,43.983844],[-117.227082,43.984005],[-117.226746,43.98409],[-117.226126,43.984267],[-117.225422,43.984508],[-117.22385,43.985101],[-117.222985,43.985425],[-117.222537,43.985561],[-117.222226,43.985629],[-117.221936,43.985665],[-117.221608,43.985684],[-117.221263,43.98567],[-117.220815,43.98561],[-117.220371,43.985504],[-117.218181,43.984861],[-117.217678,43.984709],[-117.215581,43.984084],[-117.213716,43.983527],[-117.210546,43.982574],[-117.208978,43.982118],[-117.208527,43.981998],[-117.208155,43.981913],[-117.208062,43.981902],[-117.207617,43.981837],[-117.207131,43.981801],[-117.206433,43.98178],[-117.206094,43.981772],[-117.205381,43.981769],[-117.204885,43.981753],[-117.204482,43.981756],[-117.202862,43.981765],[-117.202537,43.981764],[-117.202245,43.981762],[-117.201807,43.981763],[-117.200502,43.981759],[-117.199784,43.981758],[-117.199456,43.981755],[-117.198418,43.981747],[-117.197661,43.981741],[-117.195592,43.981725],[-117.193825,43.981712],[-117.192669,43.981699],[-117.191674,43.981688],[-117.189538,43.981665],[-117.188233,43.98167],[-117.186602,43.98168],[-117.185626,43.981685],[-117.185472,43.981687],[-117.183723,43.981672],[-117.180651,43.981646],[-117.178047,43.981648],[-117.175602,43.981635],[-117.17515,43.981634],[-117.175067,43.981634],[-117.174436,43.981633],[-117.174205,43.981632],[-117.169851,43.981624],[-117.169654,43.981623],[-117.169123,43.981621],[-117.165751,43.981608],[-117.161011,43.981598],[-117.160759,43.981598],[-117.160661,43.981597],[-117.158347,43.981594],[-117.151803,43.981583],[-117.150821,43.981578],[-117.148954,43.981568],[-117.148784,43.981567],[-117.147122,43.981567],[-117.14577,43.981551],[-117.143272,43.981553],[-117.141402,43.981556],[-117.137304,43.981565],[-117.135882,43.981564],[-117.135607,43.981568],[-117.134608,43.981562],[-117.134555,43.981562],[-117.133542,43.981567],[-117.132695,43.981567],[-117.132462,43.981561],[-117.13234,43.98156],[-117.130311,43.981538],[-117.129408,43.981528],[-117.125839,43.98146],[-117.124428,43.981442],[-117.124182,43.981439],[-117.124147,43.981438],[-117.123013,43.981424],[-117.122315,43.981415],[-117.121289,43.981395],[-117.120566,43.981397],[-117.119413,43.9814],[-117.118939,43.981406],[-117.118354,43.981414],[-117.115737,43.981449],[-117.114628,43.981469],[-117.114603,43.981468],[-117.11315,43.981496],[-117.11285,43.981509],[-117.112509,43.981534],[-117.111739,43.981616],[-117.111106,43.981687],[-117.110793,43.981728],[-117.109427,43.981907],[-117.109168,43.981945],[-117.108824,43.981997],[-117.108454,43.982061],[-117.108071,43.982148],[-117.107635,43.982274],[-117.107047,43.982465],[-117.105829,43.982885],[-117.101484,43.98439],[-117.101124,43.984509],[-117.100631,43.984674],[-117.10012,43.984852],[-117.099152,43.985185],[-117.098973,43.985247],[-117.097598,43.985721],[-117.097175,43.985867],[-117.095883,43.986312],[-117.092909,43.987326],[-117.092829,43.987354],[-117.092292,43.987547],[-117.090257,43.988249],[-117.089638,43.988442],[-117.089203,43.988556],[-117.088825,43.988633],[-117.088476,43.988685],[-117.088149,43.988722],[-117.08779,43.988747],[-117.08739,43.98876],[-117.085928,43.988762],[-117.08264,43.988756],[-117.076664,43.988746],[-117.076347,43.988745],[-117.075832,43.988744],[-117.07344,43.988739],[-117.066243,43.988722],[-117.065856,43.988721],[-117.065227,43.98872],[-117.064463,43.988719],[-117.062367,43.988716],[-117.062001,43.988711],[-117.061854,43.98871],[-117.057921,43.988708],[-117.057253,43.988708],[-117.056207,43.988707],[-117.055775,43.988707],[-117.055108,43.988706],[-117.052578,43.988705],[-117.050749,43.988704],[-117.049617,43.988703],[-117.048927,43.988702],[-117.046909,43.988697],[-117.045741,43.988695],[-117.04535,43.988696],[-117.043511,43.988704],[-117.043092,43.988706],[-117.042551,43.988705],[-117.037502,43.988696],[-117.036222,43.988693],[-117.035711,43.988693],[-117.03474,43.988691],[-117.034021,43.98869],[-117.033436,43.988688],[-117.033284,43.988688],[-117.03267,43.988687],[-117.030785,43.988684],[-117.03069,43.988684],[-117.030581,43.988683],[-117.030157,43.988683],[-117.025695,43.988675],[-117.020751,43.98867],[-117.020372,43.98867],[-117.019474,43.988672],[-117.018636,43.988673],[-117.018168,43.988673],[-117.018035,43.988672],[-117.01798,43.988672],[-117.01582,43.988651],[-117.015596,43.988652],[-117.014557,43.988653],[-117.01357,43.988653],[-117.01298,43.988654],[-117.012436,43.988654],[-117.010655,43.988656],[-117.010098,43.988656],[-117.010085,43.988657],[-117.009473,43.988657],[-117.008514,43.988663],[-117.008147,43.988666],[-117.008026,43.988666],[-117.00791,43.98868],[-117.007684,43.988703],[-117.007566,43.988718],[-117.00712,43.988776],[-117.0068,43.988837],[-117.006392,43.988966],[-117.006293,43.988997],[-117.006253,43.988967],[-117.006207,43.988941],[-117.006156,43.988921],[-117.006101,43.988907],[-117.006045,43.988899],[-117.005987,43.988897],[-117.00593,43.988902],[-117.005875,43.988912],[-117.005854,43.988919],[-117.005822,43.988929],[-117.005774,43.988951],[-117.005731,43.988978],[-117.005694,43.98901],[-117.005664,43.989045],[-117.005642,43.989083],[-117.005628,43.989122],[-117.005623,43.989164],[-117.005626,43.989205],[-117.005638,43.989246],[-117.005658,43.989284],[-117.005683,43.989317],[-117.005714,43.989346],[-117.005751,43.989373],[-117.005801,43.989527],[-117.005821,43.989681],[-117.005843,43.989883],[-117.005841,43.990078],[-117.00584,43.990346],[-117.005848,43.990474],[-117.005872,43.990639],[-117.005828,43.991014],[-117.00577,43.991886],[-117.005768,43.992292],[-117.005716,43.99373],[-117.005717,43.993989],[-117.005724,43.995435],[-117.005725,43.995656],[-117.005721,43.99588],[-117.005584,44.000021],[-117.005523,44.001403],[-117.005484,44.003206],[-117.005462,44.004082],[-117.005407,44.006764],[-117.005405,44.007019],[-117.005384,44.008819],[-117.005378,44.009274],[-117.005375,44.009572],[-117.005366,44.010268],[-117.005364,44.010404],[-117.005365,44.01054],[-117.005367,44.011265],[-117.005367,44.011419],[-117.005374,44.01397],[-117.005378,44.014967],[-117.005385,44.015495],[-117.00537,44.016262],[-117.005381,44.016989],[-117.005386,44.017492],[-117.005387,44.017574],[-117.005388,44.017687],[-117.005389,44.017814],[-117.00539,44.018047],[-117.00539,44.01825],[-117.005393,44.019198],[-117.005394,44.019453],[-117.005395,44.019617],[-117.005396,44.02012],[-117.005398,44.020796],[-117.005386,44.021266],[-117.005389,44.021648],[-117.005373,44.022173],[-117.005333,44.023041],[-117.005149,44.0247],[-117.005134,44.024824],[-117.004919,44.024826],[-117.003877,44.024833],[-117.003773,44.024834],[-117.003286,44.024834],[-117.002855,44.024832],[-117.002817,44.024832],[-117.002443,44.024831],[-117.002057,44.02483],[-117.002005,44.02483],[-117.001226,44.024828],[-117.001093,44.024827],[-117.001035,44.024827],[-117.00089,44.02483],[-117.000613,44.024831],[-117.000496,44.024832],[-117.000413,44.024831],[-116.999961,44.02483],[-116.999825,44.024831],[-116.999563,44.02483],[-116.999241,44.024828],[-116.998828,44.024829],[-116.998656,44.02483],[-116.998146,44.024832],[-116.997973,44.024832],[-116.997946,44.024833],[-116.997421,44.024828],[-116.997103,44.024828],[-116.996676,44.024826],[-116.996511,44.024825],[-116.996341,44.024824],[-116.996071,44.024822],[-116.995648,44.02482],[-116.995513,44.024819],[-116.995369,44.024819],[-116.994908,44.02482],[-116.993894,44.02482],[-116.993657,44.024822],[-116.993362,44.024822],[-116.993184,44.024823],[-116.993095,44.024823],[-116.992947,44.024822],[-116.992649,44.024823],[-116.99194,44.024823],[-116.991525,44.024822],[-116.991376,44.024822],[-116.990827,44.024821],[-116.990643,44.024821],[-116.989992,44.024818],[-116.989771,44.024817],[-116.98952,44.024816],[-116.988871,44.024813],[-116.988665,44.024813],[-116.988345,44.024811],[-116.988171,44.02481],[-116.987609,44.02481],[-116.987623438,44.024811111],[-116.987391918,44.024811111],[-116.987335,44.02481],[-116.980699,44.02481],[-116.980593,44.024809],[-116.974952,44.024809],[-116.974778,44.024806],[-116.974531,44.024797],[-116.974257,44.024774],[-116.974008,44.024732],[-116.973862,44.024707],[-116.972956,44.024555],[-116.972817,44.024533],[-116.972696,44.024511],[-116.972441,44.024465],[-116.972291,44.02444],[-116.97219,44.024423],[-116.971912,44.024376],[-116.971716,44.024343],[-116.971576,44.02432],[-116.971425,44.024296],[-116.970859,44.024207],[-116.970713,44.024184],[-116.970454,44.024143],[-116.970331,44.024124],[-116.970362,44.024024],[-116.970393,44.023926],[-116.970403,44.023895],[-116.970609,44.023239],[-116.970637,44.02315],[-116.97084,44.022507],[-116.970886,44.022363],[-116.97117,44.021478],[-116.97135323658183,44.02090966374448],[-116.9713533094077,44.02092312441769],[-116.971735791,44.019695693],[-116.970478978,44.019499843],[-116.969366457,44.023041315],[-116.968746,44.022935],[-116.968718,44.02293],[-116.968615,44.022914],[-116.968123,44.022833],[-116.967498,44.022731],[-116.966872,44.022629],[-116.966238,44.022525],[-116.965633,44.022426],[-116.96499,44.022321],[-116.964704,44.022274],[-116.96438,44.02222],[-116.964261,44.022201],[-116.963725,44.022115],[-116.963335,44.022051],[-116.962947,44.021988],[-116.962613,44.021933],[-116.962584,44.021928],[-116.962557,44.021924],[-116.962237,44.021872],[-116.962178,44.021862],[-116.961367,44.021736],[-116.960726,44.021629],[-116.960123,44.021528],[-116.959475,44.021417],[-116.958854,44.021316],[-116.958249,44.021215],[-116.957659,44.021116],[-116.95701,44.021008],[-116.95637,44.020901],[-116.955711,44.021143],[-116.95559,44.02117],[-116.955434,44.021193],[-116.955292,44.021203],[-116.955117,44.02121],[-116.954343,44.021214],[-116.953447,44.021219],[-116.953287,44.021219],[-116.952644,44.021218],[-116.951935,44.021216],[-116.951853,44.021216],[-116.95042,44.021218],[-116.949777,44.021217],[-116.949456,44.021215],[-116.949242,44.021217],[-116.947863,44.021215],[-116.946837,44.021217],[-116.945409,44.02121],[-116.94495,44.021209],[-116.944221,44.021207],[-116.944104,44.021207],[-116.942861,44.021204],[-116.94227,44.021203],[-116.941791,44.021202],[-116.941638,44.021194],[-116.941267,44.021173],[-116.940982,44.02117],[-116.940409,44.021163],[-116.940406,44.021619],[-116.940406,44.022428],[-116.940405,44.022523],[-116.938971537,44.022519681],[-116.938982,44.023081]]}},{"type":"Feature","properties":{"agency":"Malheur Council on Aging & Community Services","shape_id":"5124"},"geometry":{"type":"LineString","coordinates":[[-116.93891,44.023082],[-116.938982,44.023081],[-116.938985,44.023277],[-116.939414,44.023274],[-116.939846,44.02327],[-116.940114,44.02327],[-116.94042,44.023269],[-116.94042,44.023206],[-116.940405,44.022523],[-116.940406,44.022428],[-116.940406,44.021619],[-116.940409,44.021163],[-116.940982,44.02117],[-116.941267,44.021173],[-116.941638,44.021194],[-116.941791,44.021202],[-116.94227,44.021203],[-116.942861,44.021204],[-116.944104,44.021207],[-116.944221,44.021207],[-116.94495,44.021209],[-116.945409,44.02121],[-116.946837,44.021217],[-116.947863,44.021215],[-116.949242,44.021217],[-116.949456,44.021215],[-116.949777,44.021217],[-116.95042,44.021218],[-116.951853,44.021216],[-116.951935,44.021216],[-116.952644,44.021218],[-116.953287,44.021219],[-116.953447,44.021219],[-116.954343,44.021214],[-116.955117,44.02121],[-116.955292,44.021203],[-116.955434,44.021193],[-116.95559,44.02117],[-116.955711,44.021143],[-116.95637,44.020901],[-116.95701,44.021008],[-116.957659,44.021116],[-116.958249,44.021215],[-116.958854,44.021316],[-116.959475,44.021417],[-116.960123,44.021528],[-116.960726,44.021629],[-116.961367,44.021736],[-116.962178,44.021862],[-116.962237,44.021872],[-116.962557,44.021924],[-116.962584,44.021928],[-116.962613,44.021933],[-116.962947,44.021988],[-116.963335,44.022051],[-116.963725,44.022115],[-116.964261,44.022201],[-116.96438,44.02222],[-116.964704,44.022274],[-116.96499,44.022321],[-116.965633,44.022426],[-116.966238,44.022525],[-116.966872,44.022629],[-116.967498,44.022731],[-116.968123,44.022833],[-116.968615,44.022914],[-116.968718,44.02293],[-116.968746,44.022935],[-116.969156,44.023002],[-116.969249,44.023017],[-116.969368,44.023037],[-116.969982,44.023137],[-116.970609,44.023239],[-116.970637,44.02315],[-116.97084,44.022507],[-116.970886,44.022363],[-116.97117,44.021478],[-116.97134921205704,44.02089505026194],[-116.97136212899954,44.02090352016998],[-116.971458,44.020583],[-116.971601,44.020125],[-116.97169,44.019842],[-116.971732,44.019705],[-116.97109,44.019601],[-116.970845,44.019562],[-116.970481,44.019503],[-116.970205,44.02039],[-116.970008,44.02102],[-116.969928,44.021277],[-116.969646,44.022158],[-116.969629,44.022211],[-116.969367,44.023037],[-116.96934,44.023121],[-116.969259,44.023372],[-116.969175,44.023636],[-116.96912,44.023806],[-116.969083,44.023921],[-116.969253,44.023948],[-116.96932,44.023959],[-116.969694,44.02402],[-116.969852,44.024046],[-116.970287,44.024116],[-116.970331,44.024124],[-116.970454,44.024143],[-116.970713,44.024184],[-116.970859,44.024207],[-116.971425,44.024296],[-116.971576,44.02432],[-116.971716,44.024343],[-116.971912,44.024376],[-116.97219,44.024423],[-116.972291,44.02444],[-116.972441,44.024465],[-116.972696,44.024511],[-116.972817,44.024533],[-116.972956,44.024555],[-116.973862,44.024707],[-116.974008,44.024732],[-116.974257,44.024774],[-116.974531,44.024797],[-116.974778,44.024806],[-116.974952,44.024809],[-116.980593,44.024809],[-116.980699,44.02481],[-116.987384,44.02481],[-116.987604796,44.024810077],[-116.987588921,44.024812208],[-116.988172,44.024811],[-116.988346,44.024811],[-116.988665,44.024813],[-116.988871,44.024813],[-116.98952,44.024816],[-116.989771,44.024817],[-116.989992,44.024818],[-116.990643,44.024821],[-116.990827,44.024821],[-116.991376,44.024822],[-116.991525,44.024822],[-116.99194,44.024823],[-116.993184,44.024823],[-116.993362,44.024822],[-116.993657,44.024822],[-116.993894,44.02482],[-116.994081,44.02482],[-116.994521,44.024821],[-116.994719,44.02482],[-116.994908,44.02482],[-116.995369,44.024819],[-116.995513,44.024819],[-116.995648,44.02482],[-116.996071,44.024822],[-116.996341,44.024824],[-116.996511,44.024825],[-116.996676,44.024826],[-116.997103,44.024828],[-116.997421,44.024828],[-116.997946,44.024833],[-116.998146,44.024832],[-116.998656,44.02483],[-116.998829,44.024829],[-116.999242,44.024828],[-116.999563,44.02483],[-116.999825,44.024831],[-116.999961,44.02483],[-117.000413,44.024831],[-117.000496,44.024832],[-117.000613,44.024831],[-117.00089,44.02483],[-117.001036,44.024827],[-117.001093,44.024827],[-117.001226,44.024828],[-117.002005,44.02483],[-117.002057,44.02483],[-117.002444,44.024831],[-117.002817,44.024832],[-117.002855,44.024832],[-117.003286,44.024834],[-117.003773,44.024834],[-117.003877,44.024833],[-117.004919,44.024826],[-117.005135,44.024824],[-117.005149,44.0247],[-117.005333,44.023041],[-117.005373,44.022173],[-117.005389,44.021648],[-117.005386,44.021266],[-117.005398,44.020796],[-117.005396,44.02012],[-117.005395,44.019617],[-117.005394,44.019453],[-117.005393,44.019198],[-117.00539,44.01825],[-117.00539,44.018047],[-117.005389,44.017814],[-117.005388,44.017687],[-117.005387,44.017574],[-117.005386,44.017492],[-117.005381,44.016989],[-117.00537,44.016262],[-117.005385,44.015495],[-117.005378,44.014967],[-117.005374,44.01397],[-117.005368,44.011419],[-117.005367,44.011265],[-117.005365,44.01054],[-117.005365,44.010404],[-117.005367,44.010268],[-117.005375,44.009573],[-117.005378,44.009274],[-117.005384,44.008819],[-117.005405,44.007019],[-117.005407,44.006764],[-117.005462,44.004083],[-117.005485,44.003206],[-117.005523,44.001403],[-117.005584,44.000021],[-117.005721,43.99588],[-117.005726,43.995656],[-117.005724,43.995435],[-117.005717,43.993986],[-117.005716,43.993728],[-117.005768,43.99229],[-117.005814,43.991029],[-117.005972,43.990373],[-117.006055,43.989596],[-117.006106,43.989397],[-117.006173,43.989245],[-117.006291,43.989094],[-117.006441,43.988976],[-117.006632,43.98887],[-117.006825,43.988803],[-117.007028,43.988758],[-117.007849,43.988754],[-117.008203,43.988751],[-117.008764,43.988747],[-117.00956,43.988663],[-117.009907,43.98866],[-117.010172,43.988659],[-117.010185,43.988659],[-117.010665,43.988655],[-117.010742,43.988655],[-117.012523,43.988643],[-117.012856,43.988641],[-117.013067,43.98864],[-117.013658,43.988636],[-117.013959,43.988638],[-117.018067,43.988667],[-117.018122,43.988667],[-117.018723,43.988668],[-117.025695,43.988675],[-117.035738,43.988736],[-117.045791,43.988744],[-117.050812,43.988744],[-117.062163,43.98876],[-117.065939,43.98876],[-117.073503,43.988744],[-117.086024,43.98876],[-117.087472,43.98876],[-117.088191,43.988721],[-117.088738,43.988659],[-117.089317,43.988543],[-117.089918,43.988381],[-117.09245,43.987501],[-117.095884,43.986313],[-117.098973,43.985247],[-117.101484,43.98439],[-117.105829,43.982885],[-117.107009,43.982468],[-117.107621,43.982267],[-117.108222,43.982105],[-117.108908,43.981966],[-117.111076,43.981681],[-117.112084,43.981549],[-117.113146,43.981472],[-117.115807,43.981418],[-117.119433,43.98138],[-117.121289,43.981395],[-117.122394,43.981426],[-117.125967,43.981503],[-117.129433,43.981557],[-117.132244,43.981588],[-117.133563,43.981588],[-117.135913,43.98158],[-117.13735,43.981588],[-117.141438,43.98158],[-117.145805,43.981565],[-117.151824,43.981611],[-117.160718,43.981611],[-117.165589,43.981642],[-117.169548,43.981642],[-117.175599,43.981673],[-117.180727,43.981681],[-117.185491,43.981719],[-117.185686,43.981718],[-117.189675,43.981696],[-117.193902,43.98175],[-117.195637,43.981759],[-117.199814,43.981781],[-117.204416,43.981804],[-117.205704,43.981804],[-117.207142,43.981835],[-117.207648,43.981861],[-117.208633,43.982043],[-117.210661,43.98263],[-117.21772,43.98473],[-117.2183,43.9849],[-117.220166,43.985463],[-117.220799,43.985633],[-117.221623,43.985708],[-117.222033,43.985695],[-117.222473,43.985625],[-117.222859,43.985517],[-117.223889,43.985131],[-117.225466,43.984537],[-117.226185,43.984282],[-117.226784,43.984119],[-117.226979,43.984066],[-117.227848,43.983873],[-117.230319,43.98342],[-117.230469,43.983392],[-117.230734,43.98334],[-117.231239,43.983256],[-117.232537,43.983008],[-117.233085,43.982915],[-117.233352,43.98287],[-117.233953,43.982785],[-117.23465,43.982707],[-117.235541,43.982677],[-117.235837,43.982676],[-117.236185,43.982669],[-117.23818,43.982669],[-117.238173,43.983433],[-117.238048,43.984158],[-117.238005,43.985456],[-117.237992,43.986077],[-117.237991,43.986118],[-117.237994,43.986153],[-117.238039,43.986704],[-117.23980332801982,43.986706794245066],[-117.23981288524776,43.98670450209997],[-117.240437,43.986704],[-117.240638,43.986705],[-117.240888,43.986706],[-117.241153,43.986705],[-117.241767,43.986705],[-117.242401,43.986707],[-117.243023,43.986709],[-117.24364,43.98671],[-117.244272,43.986711],[-117.244884,43.986712],[-117.245495,43.986714],[-117.245517,43.985915],[-117.245526,43.985595],[-117.245528,43.985518],[-117.245543,43.984341],[-117.245548,43.984],[-117.245551,43.983955],[-117.245555,43.983911],[-117.245558,43.983861],[-117.245561,43.983826],[-117.245578,43.98361],[-117.245588,43.983488],[-117.245586,43.983355],[-117.245589,43.98302],[-117.245591,43.982684],[-117.245596,43.982477],[-117.245599,43.98231],[-117.2456,43.982198],[-117.245602,43.982121],[-117.245604,43.981911],[-117.245609,43.981724],[-117.245622,43.981176],[-117.245073,43.981174],[-117.244621,43.981172],[-117.2442,43.981171],[-117.244103,43.98117],[-117.243999,43.98117],[-117.243631,43.981168],[-117.243224,43.981167],[-117.243115,43.981166],[-117.243011,43.981166],[-117.242643,43.981164],[-117.242589,43.981164],[-117.24223,43.981163],[-117.242129,43.981162],[-117.242031,43.981162],[-117.241681,43.98116],[-117.241683,43.981151],[-117.241233,43.981147],[-117.240127,43.981143],[-117.239089,43.981147],[-117.239097,43.981674],[-117.23910013605168,43.98168013334367],[-117.23909755348524,43.98188640608456],[-117.23818,43.981897],[-117.23715,43.981889],[-117.236227,43.981889],[-117.235809,43.981897],[-117.235155,43.981897],[-117.23464,43.98192],[-117.234189,43.981982],[-117.233749,43.982082],[-117.233352,43.982198],[-117.232333,43.982622],[-117.231711,43.982916],[-117.231196,43.983147],[-117.230734,43.98334],[-117.230469,43.983392],[-117.230319,43.98342],[-117.227848,43.983873],[-117.226979,43.984066],[-117.226784,43.984119],[-117.226185,43.984282],[-117.225466,43.984537],[-117.223889,43.985131],[-117.222859,43.985517],[-117.222473,43.985625],[-117.222033,43.985695],[-117.221623,43.985708],[-117.220799,43.985633],[-117.220166,43.985463],[-117.2183,43.9849],[-117.21772,43.98473],[-117.210661,43.98263],[-117.208633,43.982043],[-117.207648,43.981861],[-117.207142,43.981835],[-117.205704,43.981804],[-117.204416,43.981804],[-117.199814,43.981781],[-117.195637,43.981759],[-117.193902,43.98175],[-117.189675,43.981696],[-117.185686,43.981718],[-117.185491,43.981719],[-117.180727,43.981681],[-117.175599,43.981673],[-117.169548,43.981642],[-117.165589,43.981642],[-117.160718,43.981611],[-117.151824,43.981611],[-117.145805,43.981565],[-117.141438,43.98158],[-117.13735,43.981588],[-117.135913,43.98158],[-117.133563,43.981588],[-117.132244,43.981588],[-117.129433,43.981557],[-117.125967,43.981503],[-117.122394,43.981426],[-117.121289,43.981395],[-117.119433,43.98138],[-117.115807,43.981418],[-117.113146,43.981472],[-117.112084,43.981549],[-117.111076,43.981681],[-117.108908,43.981966],[-117.108222,43.982105],[-117.107621,43.982267],[-117.107009,43.982468],[-117.105829,43.982885],[-117.101484,43.98439],[-117.098973,43.985247],[-117.095884,43.986313],[-117.09245,43.987501],[-117.089918,43.988381],[-117.089317,43.988543],[-117.088738,43.988659],[-117.088191,43.988721],[-117.087472,43.98876],[-117.086024,43.98876],[-117.073503,43.988744],[-117.065939,43.98876],[-117.062163,43.98876],[-117.050812,43.988744],[-117.045791,43.988744],[-117.035738,43.988736],[-117.025695,43.988675],[-117.018723,43.988668],[-117.018122,43.988667],[-117.018067,43.988667],[-117.013959,43.988638],[-117.013658,43.988636],[-117.013067,43.98864],[-117.012856,43.988641],[-117.012523,43.988643],[-117.010742,43.988655],[-117.010665,43.988655],[-117.010185,43.988659],[-117.010172,43.988659],[-117.009907,43.98866],[-117.00956,43.988663],[-117.005749,43.988687],[-117.005711,43.986643],[-117.005715,43.98622],[-117.005711,43.981465],[-117.005741,43.977862],[-117.005742,43.977676],[-117.005746,43.977314],[-117.00578,43.974223],[-117.005783,43.973896],[-117.005818,43.970743],[-117.005854,43.967438],[-117.005858,43.967056],[-117.005918,43.959931],[-117.005919,43.959781],[-117.005963,43.952546],[-117.005987,43.945233],[-117.00601,43.937972],[-117.006004,43.930773],[-117.006017,43.927267],[-117.006078,43.923588],[-117.006192,43.916402],[-117.006193,43.91627],[-117.006193,43.916197],[-117.006178,43.909234],[-117.006179,43.909148],[-117.006181,43.909024],[-117.0062,43.907704],[-117.006236,43.905243],[-117.006242,43.904864],[-117.006285,43.901972],[-117.006287,43.901344],[-117.006291,43.900614],[-117.006292,43.900353],[-117.006293,43.900073],[-117.006295,43.899786],[-117.006303,43.898006],[-117.006297,43.896478],[-117.006291,43.894883],[-117.006274,43.894766],[-117.006233,43.890201],[-117.006234,43.889958],[-117.006237,43.889453],[-117.006242,43.88823],[-117.006248,43.887602],[-117.006246,43.887577],[-117.006253,43.886536],[-117.006244,43.885842],[-117.006241,43.885142],[-117.006248,43.884735],[-117.006255,43.884359],[-117.006233,43.884166],[-117.006158,43.883977],[-117.006094,43.88385],[-117.006026,43.883745],[-117.005343,43.882851],[-117.004962,43.882356],[-117.004844,43.882202],[-117.004619,43.88191],[-117.004534,43.881798],[-117.004271,43.881456],[-117.004056,43.881176],[-117.004039,43.881154],[-117.003823,43.880872],[-117.003459,43.880419],[-117.003305,43.8802],[-117.003158,43.880009],[-117.002773,43.879501],[-117.002433,43.879056],[-117.002418,43.879036],[-117.002221,43.878781],[-117.002132,43.878666],[-117.002073,43.878588],[-117.001908,43.878375],[-117.00184,43.878286],[-117.001819,43.878259],[-117.001717,43.878126],[-117.00168,43.878078],[-117.001503,43.877848],[-117.001386,43.877697],[-117.001116,43.877345],[-117.001027,43.877241],[-117.000926,43.87715],[-117.000833,43.877076],[-117.000718,43.876997],[-117.000617,43.876949],[-117.000481,43.876888],[-117.000296,43.876829],[-117.000178,43.876807],[-117.000109,43.876797],[-116.99992,43.876788],[-116.999715,43.876787],[-116.999701,43.876787],[-116.999411,43.876789],[-116.999379,43.876789],[-116.998868,43.876784],[-116.997688,43.876784],[-116.997689,43.876572],[-116.99769,43.876351],[-116.997691,43.876068],[-116.997248,43.876066],[-116.99724776405436,43.87590250873757],[-116.99632838203628,43.8758901394161],[-116.996354,43.876781],[-116.995688,43.876779],[-116.99502,43.876777],[-116.994026,43.876778],[-116.99351717442508,43.87676460863256],[-116.99353978538416,43.877693627829615],[-116.9963616332454,43.87770666659054],[-116.99839209745728,43.87770992623945],[-117.001386,43.877697],[-117.001503,43.877848],[-117.00168,43.878078],[-117.001717,43.878126],[-117.00184,43.878286],[-117.001908,43.878375],[-117.002073,43.878588],[-117.002132,43.878666],[-117.002221,43.878781],[-117.002418,43.879036],[-117.002433,43.879056],[-117.002773,43.879501],[-117.003158,43.880009],[-117.003305,43.8802],[-117.003459,43.880419],[-117.003823,43.880872],[-117.004039,43.881154],[-117.004056,43.881176],[-117.004271,43.881456],[-117.004534,43.881798],[-117.004619,43.88191],[-117.004844,43.882202],[-117.004962,43.882356],[-117.005343,43.882851],[-117.006026,43.883745],[-117.006094,43.88385],[-117.006158,43.883977],[-117.006233,43.884166],[-117.006255,43.884359],[-117.006248,43.884735],[-117.006241,43.885142],[-117.006244,43.885842],[-117.006253,43.886536],[-117.006246,43.887577],[-117.006248,43.887602],[-117.006242,43.88823],[-117.006237,43.889453],[-117.006234,43.889958],[-117.006233,43.890201],[-117.006274,43.894766],[-117.006291,43.894883],[-117.006297,43.896478],[-117.006303,43.898006],[-117.006295,43.899786],[-117.006293,43.900073],[-117.006292,43.900353],[-117.006291,43.900614],[-117.006287,43.901344],[-117.006285,43.901972],[-117.006242,43.904864],[-117.006236,43.905243],[-117.0062,43.907704],[-117.006181,43.909024],[-117.006179,43.909148],[-117.006178,43.909234],[-117.006193,43.916197],[-117.006193,43.91627],[-117.006192,43.916402],[-117.006078,43.923588],[-117.006017,43.927267],[-117.006004,43.930773],[-117.00601,43.937972],[-117.005987,43.945233],[-117.005963,43.952546],[-117.005919,43.959781],[-117.005918,43.959931],[-117.005858,43.967056],[-117.005854,43.967438],[-117.005818,43.970743],[-117.005783,43.973896],[-117.00578,43.974223],[-117.005746,43.977314],[-117.005742,43.977676],[-117.005741,43.977862],[-117.005711,43.981465],[-117.005715,43.98622],[-117.005711,43.986643],[-117.005749,43.988687],[-117.005757,43.989059],[-117.005759,43.989125],[-117.005767,43.989411],[-117.005814,43.991029],[-117.005768,43.99229],[-117.005716,43.993728],[-117.005717,43.993986],[-117.005724,43.995435],[-117.005726,43.995656],[-117.005721,43.99588],[-117.005584,44.000021],[-117.005523,44.001403],[-117.005485,44.003206],[-117.005462,44.004083],[-117.005407,44.006764],[-117.005405,44.007019],[-117.005384,44.008819],[-117.005378,44.009274],[-117.005375,44.009573],[-117.005367,44.010268],[-117.005365,44.010404],[-117.005365,44.01054],[-117.005367,44.011265],[-117.005368,44.011419],[-117.005374,44.01397],[-117.005378,44.014967],[-117.005385,44.015495],[-117.00537,44.016262],[-117.005381,44.016989],[-117.005386,44.017492],[-117.005387,44.017574],[-117.005388,44.017687],[-117.005389,44.017814],[-117.00539,44.018047],[-117.00539,44.01825],[-117.005393,44.019198],[-117.005394,44.019453],[-117.005395,44.019617],[-117.005396,44.02012],[-117.005398,44.020796],[-117.005386,44.021266],[-117.005389,44.021648],[-117.005373,44.022173],[-117.005333,44.023041],[-117.005149,44.0247],[-117.005135,44.024824],[-117.004919,44.024826],[-117.003877,44.024833],[-117.003773,44.024834],[-117.003286,44.024834],[-117.002855,44.024832],[-117.002817,44.024832],[-117.002444,44.024831],[-117.002057,44.02483],[-117.002005,44.02483],[-117.001226,44.024828],[-117.001093,44.024827],[-117.001036,44.024827],[-117.00089,44.02483],[-117.000613,44.024831],[-117.000496,44.024832],[-117.000413,44.024831],[-116.999961,44.02483],[-116.999825,44.024831],[-116.999563,44.02483],[-116.999242,44.024828],[-116.998829,44.024829],[-116.998656,44.02483],[-116.998146,44.024832],[-116.997946,44.024833],[-116.997421,44.024828],[-116.997103,44.024828],[-116.996676,44.024826],[-116.996511,44.024825],[-116.996341,44.024824],[-116.996071,44.024822],[-116.995648,44.02482],[-116.995513,44.024819],[-116.995369,44.024819],[-116.994908,44.02482],[-116.994719,44.02482],[-116.994521,44.024821],[-116.994081,44.02482],[-116.993894,44.02482],[-116.993657,44.024822],[-116.993362,44.024822],[-116.993184,44.024823],[-116.99194,44.024823],[-116.991525,44.024822],[-116.991376,44.024822],[-116.990827,44.024821],[-116.990643,44.024821],[-116.989992,44.024818],[-116.989771,44.024817],[-116.98952,44.024816],[-116.988871,44.024813],[-116.988665,44.024813],[-116.988346,44.024811],[-116.988071,44.024811],[-116.987612177457,44.02481061121645],[-116.987609,44.024814],[-116.986824,44.02481],[-116.985595,44.024814],[-116.983078,44.024814],[-116.980682,44.024806],[-116.978256,44.024806],[-116.975685,44.024799],[-116.975624,44.025077],[-116.975486,44.025211],[-116.975143,44.025436],[-116.975028,44.025817],[-116.974899,44.026203],[-116.974746,44.026702],[-116.974456,44.027568],[-116.974189,44.028465],[-116.973556,44.028369],[-116.972976,44.028282],[-116.97232,44.028175],[-116.971687,44.028076],[-116.971336,44.028018],[-116.971326,44.028002],[-116.971081,44.027962],[-116.971021,44.027952],[-116.970545,44.027874],[-116.970458,44.027859],[-116.970385,44.027847],[-116.969819,44.027757],[-116.969455,44.027694],[-116.969293,44.027665],[-116.969208,44.02765],[-116.969137,44.027638],[-116.968587,44.027541],[-116.968068,44.027455],[-116.967975,44.02744],[-116.967995,44.027376],[-116.968044,44.027217],[-116.96816,44.026844],[-116.968229,44.026624],[-116.968248,44.026562],[-116.968305,44.026373],[-116.968353,44.026217],[-116.96849,44.025763],[-116.968514,44.025686],[-116.968539,44.025609],[-116.96859,44.025458],[-116.968697,44.025141],[-116.968785,44.02488],[-116.968812,44.0248],[-116.968835,44.02473],[-116.968848,44.024684],[-116.968913,44.024463],[-116.968974,44.024254],[-116.968982,44.02423],[-116.969052,44.024017],[-116.969083,44.023921],[-116.96912,44.023806],[-116.969175,44.023636],[-116.96926,44.023372],[-116.96934,44.023121],[-116.969368,44.023037],[-116.969982,44.023137],[-116.970609,44.023239],[-116.970637,44.02315],[-116.97084,44.022507],[-116.970886,44.022363],[-116.97117,44.021478],[-116.9713562764904,44.020903057328496],[-116.97136030897346,44.02090565870179],[-116.971601,44.020125],[-116.97169,44.019842],[-116.971732,44.019705],[-116.971425,44.019655],[-116.97109,44.019601],[-116.970481,44.019503],[-116.9704,44.019763],[-116.970205,44.02039],[-116.969928,44.021277],[-116.969646,44.022158],[-116.969629,44.022211],[-116.969367,44.023037],[-116.969249,44.023017],[-116.969156,44.023002],[-116.968746,44.022935],[-116.968718,44.02293],[-116.968615,44.022914],[-116.968123,44.022833],[-116.967498,44.022731],[-116.966872,44.022629],[-116.966238,44.022525],[-116.965633,44.022426],[-116.96499,44.022321],[-116.964704,44.022274],[-116.96438,44.02222],[-116.964261,44.022201],[-116.963725,44.022115],[-116.963335,44.022051],[-116.962947,44.021988],[-116.962613,44.021933],[-116.962584,44.021928],[-116.962557,44.021924],[-116.962237,44.021872],[-116.962178,44.021862],[-116.961367,44.021736],[-116.960726,44.021629],[-116.960123,44.021528],[-116.959475,44.021417],[-116.958854,44.021316],[-116.958249,44.021215],[-116.957659,44.021116],[-116.95701,44.021008],[-116.95637,44.020901],[-116.955711,44.021143],[-116.95559,44.02117],[-116.955434,44.021193],[-116.955292,44.021203],[-116.955117,44.02121],[-116.954343,44.021214],[-116.953447,44.021219],[-116.953287,44.021219],[-116.952644,44.021218],[-116.951935,44.021216],[-116.951853,44.021216],[-116.95042,44.021218],[-116.949777,44.021217],[-116.949456,44.021215],[-116.949242,44.021217],[-116.947863,44.021215],[-116.946837,44.021217],[-116.945409,44.02121],[-116.94495,44.021209],[-116.944221,44.021207],[-116.944104,44.021207],[-116.942861,44.021204],[-116.94227,44.021203],[-116.941791,44.021202],[-116.941638,44.021194],[-116.941267,44.021173],[-116.940982,44.02117],[-116.940687,44.021166],[-116.940409,44.021163],[-116.940406,44.021619],[-116.940406,44.022428],[-116.940405,44.022523],[-116.93895304660538,44.022523620627766],[-116.938982,44.023081]]}}]}