{"type":"FeatureCollection","features":[{"type":"Feature","properties":{"agency":"Metro-North Railroad","shape_id":"206f"},"geometry":{"type":"LineString","coordinates":[[-73.91792,40.88185],[-73.91796,40.88187],[-73.91783,40.88198],[-73.91729,40.88297],[-73.91683,40.88382],[-73.91676,40.88408],[-73.91671,40.88417],[-73.91648,40.88446],[-73.91645,40.88454],[-73.91644,40.88468],[-73.91631,40.8849],[-73.9159,40.88486],[-73.91455,40.88452],[-73.91441,40.88464],[-73.91338,40.88534],[-73.91313,40.88554],[-73.91254,40.88612],[-73.91241,40.8861],[-73.91254,40.88612],[-73.91185,40.88699],[-73.91144,40.88757],[-73.9112,40.88777],[-73.91093,40.88796],[-73.91028,40.88835],[-73.90988,40.88854],[-73.90963,40.88862],[-73.90932,40.88869],[-73.90912,40.88878],[-73.90885,40.88899],[-73.90877,40.88903],[-73.90839,40.88912],[-73.9082,40.88903],[-73.90796,40.88883],[-73.90736,40.88775],[-73.90718,40.88738],[-73.90714,40.88723],[-73.90704,40.88659],[-73.90698,40.88614],[-73.90701,40.8859],[-73.90723,40.88515],[-73.90748,40.88446],[-73.90782,40.88336],[-73.90791,40.88319],[-73.90804,40.88301],[-73.9084,40.88264],[-73.90933,40.88135],[-73.90966,40.88121],[-73.91003,40.88093],[-73.91037,40.88068],[-73.9105,40.88054],[-73.91054,40.88045],[-73.91055,40.88046],[-73.91066,40.8805],[-73.91075,40.88051],[-73.91097,40.88042],[-73.91141,40.88012],[-73.91237,40.87935],[-73.91261,40.87919],[-73.91406,40.87831],[-73.91456,40.8781],[-73.91506,40.87799],[-73.91551,40.87796],[-73.91618,40.87796],[-73.91641,40.87792],[-73.9166,40.87787],[-73.91777,40.87724],[-73.91805,40.87705],[-73.91815,40.87694],[-73.91829,40.87673],[-73.91837,40.87666],[-73.91846,40.87662],[-73.91863,40.8766],[-73.91871,40.87661],[-73.91886,40.87669],[-73.91893,40.87681],[-73.91889,40.87705],[-73.91889,40.87717],[-73.91896,40.87741],[-73.91935,40.8781],[-73.91978,40.8788],[-73.92001,40.87872],[-73.92,40.87867],[-73.92001,40.87839],[-73.92,40.87826],[-73.91993,40.87797],[-73.91983,40.87768],[-73.91983,40.87761],[-73.91988,40.87755],[-73.91995,40.87751],[-73.92007,40.8775],[-73.92016,40.87752],[-73.92027,40.87757],[-73.92105,40.87806],[-73.9212,40.87817],[-73.92147,40.87841]]}},{"type":"Feature","properties":{"agency":"Metro-North Railroad","shape_id":"4pen"},"geometry":{"type":"LineString","coordinates":[[-73.90948,40.88141],[-73.90966,40.88121],[-73.91003,40.88093],[-73.91037,40.88068],[-73.91097,40.88042],[-73.91141,40.88012],[-73.91237,40.87935],[-73.91248,40.87951],[-73.91245,40.87964],[-73.91171,40.8807],[-73.9115,40.88117],[-73.91102,40.88211],[-73.91041,40.8835],[-73.91038,40.8836],[-73.91038,40.88369],[-73.91044,40.88401],[-73.91043,40.88425],[-73.91036,40.88457],[-73.90999,40.88565],[-73.9115,40.88593],[-73.91254,40.88612],[-73.91184,40.887],[-73.91144,40.88757],[-73.9112,40.88777],[-73.91093,40.88796],[-73.91028,40.88835],[-73.90988,40.88854],[-73.90934,40.88888],[-73.90913,40.88904],[-73.90877,40.88937],[-73.90866,40.88949],[-73.90842,40.88982],[-73.90834,40.88996],[-73.90824,40.89025],[-73.90817,40.89068],[-73.90815,40.89088],[-73.90815,40.89162],[-73.90798,40.89272],[-73.908,40.89361],[-73.90797,40.89361],[-73.90837,40.89359],[-73.9085,40.89356],[-73.90848,40.89096],[-73.9085,40.89078],[-73.90883,40.89013],[-73.90897,40.88957],[-73.90903,40.88949],[-73.90884,40.88938],[-73.90874,40.8893],[-73.90855,40.88918],[-73.90839,40.88912],[-73.90838,40.88913],[-73.90829,40.88915],[-73.90822,40.88918],[-73.90819,40.88924],[-73.90818,40.88933],[-73.90825,40.88937],[-73.90834,40.88938],[-73.90853,40.88937],[-73.90868,40.88935],[-73.90884,40.88938],[-73.90903,40.88949],[-73.90914,40.88945],[-73.90951,40.88947],[-73.91291,40.88974],[-73.9129,40.88978],[-73.91299,40.88919],[-73.91331,40.8871],[-73.91341,40.88692],[-73.91352,40.88678],[-73.91398,40.88637],[-73.91304,40.88617],[-73.91317,40.88603],[-73.91356,40.88568],[-73.91492,40.88462],[-73.91455,40.88452],[-73.91441,40.88464],[-73.91338,40.88534],[-73.91313,40.88554],[-73.91254,40.88612],[-73.91184,40.887],[-73.91144,40.88757],[-73.9112,40.88777],[-73.91093,40.88796],[-73.91028,40.88835],[-73.90988,40.88854],[-73.90963,40.88862],[-73.90932,40.88869],[-73.90912,40.88878],[-73.90885,40.88899],[-73.90877,40.88903],[-73.90829,40.88915],[-73.90822,40.88918],[-73.90819,40.88924],[-73.90818,40.88933],[-73.90825,40.88937],[-73.90834,40.88938],[-73.90853,40.88937],[-73.90868,40.88935],[-73.90884,40.88938],[-73.90903,40.88949],[-73.90914,40.88945],[-73.90951,40.88947],[-73.90973,40.88928],[-73.90978,40.88921],[-73.90983,40.88901],[-73.90988,40.88896],[-73.91078,40.88846],[-73.9111,40.8883],[-73.91136,40.88816],[-73.91148,40.88806],[-73.91199,40.88726],[-73.91232,40.88678],[-73.91266,40.88636],[-73.91306,40.88593],[-73.9134,40.88561],[-73.91458,40.88475],[-73.91469,40.88466],[-73.91487,40.88449],[-73.9151,40.88422],[-73.91521,40.88406],[-73.91531,40.88387],[-73.91552,40.88333],[-73.91564,40.88312],[-73.91581,40.88285],[-73.9161,40.88248],[-73.91623,40.88233],[-73.91672,40.88189],[-73.91733,40.88143],[-73.91767,40.88124],[-73.91832,40.88069],[-73.91844,40.88064],[-73.91858,40.88063],[-73.91878,40.88067],[-73.91899,40.88076],[-73.91912,40.88084],[-73.91901,40.88094],[-73.91932,40.88068],[-73.91908,40.88061],[-73.91847,40.88051],[-73.91813,40.88043],[-73.91784,40.88033],[-73.91764,40.88025],[-73.9173,40.88005],[-73.91718,40.87996],[-73.91705,40.87984],[-73.91676,40.87951],[-73.91674,40.87943],[-73.91674,40.87935],[-73.9169,40.87928],[-73.91713,40.87898],[-73.91692,40.87914],[-73.91685,40.87914],[-73.91673,40.87914],[-73.91674,40.87943],[-73.91676,40.87951],[-73.91718,40.87996],[-73.9173,40.88005],[-73.91764,40.88025],[-73.91784,40.88033],[-73.91813,40.88043],[-73.91847,40.88051],[-73.91908,40.88061],[-73.91932,40.88068],[-73.91941,40.88057],[-73.9196,40.88043],[-73.91975,40.88038],[-73.92014,40.88031],[-73.92025,40.88027],[-73.92036,40.8802],[-73.92098,40.87951],[-73.92088,40.87941],[-73.9208,40.87939],[-73.92052,40.87936],[-73.92041,40.87933],[-73.92022,40.87923],[-73.91998,40.87904],[-73.91984,40.87888],[-73.91978,40.8788],[-73.92001,40.87872],[-73.92,40.87867],[-73.92001,40.87839],[-73.92,40.87826],[-73.91993,40.87797],[-73.91983,40.87768],[-73.91983,40.87761],[-73.91988,40.87755],[-73.91995,40.87751],[-73.92007,40.8775],[-73.92016,40.87752],[-73.92027,40.87757],[-73.92105,40.87806],[-73.9212,40.87817],[-73.92147,40.87841]]}},{"type":"Feature","properties":{"agency":"Metro-North Railroad","shape_id":"51kt"},"geometry":{"type":"LineString","coordinates":[[-73.90797,40.89361],[-73.90837,40.89359],[-73.9085,40.89356],[-73.90848,40.89096],[-73.9085,40.89078],[-73.90883,40.89013],[-73.90897,40.88957],[-73.90903,40.88949],[-73.90884,40.88938],[-73.90874,40.8893],[-73.90855,40.88918],[-73.90839,40.88912],[-73.90838,40.88913],[-73.90829,40.88915],[-73.90822,40.88918],[-73.90819,40.88924],[-73.90818,40.88933],[-73.90825,40.88937],[-73.90834,40.88938],[-73.90853,40.88937],[-73.90858,40.88933],[-73.90859,40.88929],[-73.90853,40.88921],[-73.9082,40.88903],[-73.90796,40.88883],[-73.90736,40.88775],[-73.90718,40.88738],[-73.90714,40.88723],[-73.90704,40.88659],[-73.90698,40.88614],[-73.90701,40.8859],[-73.90698,40.88614],[-73.90704,40.88659],[-73.90714,40.88723],[-73.90718,40.88738],[-73.90736,40.88775],[-73.90796,40.88883],[-73.9081,40.8892],[-73.90818,40.88933],[-73.90825,40.88937],[-73.90834,40.88938],[-73.90853,40.88937],[-73.90868,40.88935],[-73.90884,40.88938],[-73.90903,40.88949],[-73.90914,40.88945],[-73.90951,40.88947],[-73.90973,40.88928],[-73.90978,40.88921],[-73.90983,40.88901],[-73.90988,40.88896],[-73.91078,40.88846],[-73.9111,40.8883],[-73.91136,40.88816],[-73.91148,40.88806],[-73.91199,40.88726],[-73.91232,40.88678],[-73.91266,40.88636],[-73.91306,40.88593],[-73.9134,40.88561],[-73.91458,40.88475],[-73.91469,40.88466],[-73.91487,40.88449],[-73.9151,40.88422],[-73.91521,40.88406],[-73.91531,40.88387],[-73.91552,40.88333],[-73.91564,40.88312],[-73.91581,40.88285],[-73.9161,40.88248],[-73.91623,40.88233],[-73.91672,40.88189],[-73.91733,40.88143],[-73.91767,40.88124],[-73.91832,40.88069],[-73.91844,40.88064],[-73.91858,40.88063],[-73.91878,40.88067],[-73.91899,40.88076],[-73.91912,40.88084],[-73.91901,40.88094],[-73.91932,40.88068],[-73.91941,40.88057],[-73.9196,40.88043],[-73.91975,40.88038],[-73.92014,40.88031],[-73.92025,40.88027],[-73.92036,40.8802],[-73.92098,40.87951],[-73.92088,40.87941],[-73.9208,40.87939],[-73.92052,40.87936],[-73.92041,40.87933],[-73.92022,40.87923],[-73.91998,40.87904],[-73.91984,40.87888],[-73.91978,40.8788],[-73.92001,40.87872],[-73.92,40.87867],[-73.92001,40.87839],[-73.92,40.87826],[-73.91993,40.87797],[-73.91983,40.87768],[-73.91983,40.87761],[-73.91988,40.87755],[-73.91995,40.87751],[-73.92007,40.8775],[-73.92016,40.87752],[-73.92027,40.87757],[-73.92105,40.87806],[-73.9212,40.87817],[-73.92147,40.87841]]}},{"type":"Feature","properties":{"agency":"Metro-North Railroad","shape_id":"56yo"},"geometry":{"type":"LineString","coordinates":[[-73.90322,40.91014],[-73.90323,40.91011],[-73.90306,40.91007],[-73.89996,40.90959],[-73.89663,40.90963],[-73.89658,40.90752],[-73.89646,40.90511],[-73.89647,40.90513],[-73.89707,40.90504],[-73.89746,40.90533],[-73.89779,40.90546],[-73.89878,40.90569],[-73.89898,40.9057],[-73.90073,40.90547],[-73.90073,40.90548],[-73.90039,40.90674],[-73.9011,40.90685],[-73.90128,40.90685],[-73.90135,40.90684],[-73.90209,40.90658],[-73.90218,40.90657],[-73.9041,40.90686],[-73.90509,40.90701],[-73.90521,40.90699],[-73.9053,40.90691],[-73.90565,40.9064],[-73.90575,40.90631],[-73.90589,40.90624],[-73.90605,40.9062],[-73.90621,40.90621],[-73.90639,40.90627],[-73.90662,40.90641],[-73.90674,40.90642],[-73.90675,40.90644],[-73.90674,40.90642],[-73.90662,40.90641],[-73.90639,40.90627],[-73.90621,40.90621],[-73.90605,40.9062],[-73.90589,40.90624],[-73.90575,40.90631],[-73.90565,40.9064],[-73.9053,40.90691],[-73.90521,40.90699],[-73.90509,40.90701],[-73.9041,40.90686],[-73.9041,40.90687],[-73.90446,40.90559],[-73.90501,40.90415],[-73.90548,40.90295],[-73.90604,40.9017],[-73.90614,40.9017],[-73.90622,40.9017],[-73.90932,40.90276],[-73.91102,40.90335],[-73.91116,40.90338],[-73.91136,40.90333],[-73.91416,40.90388]]}},{"type":"Feature","properties":{"agency":"Metro-North Railroad","shape_id":"iobk"},"geometry":{"type":"LineString","coordinates":[[-73.90657,40.91131],[-73.90434,40.91051],[-73.90323,40.91011],[-73.90322,40.91014],[-73.90323,40.91011],[-73.90306,40.91007],[-73.89996,40.90959],[-73.89663,40.90963],[-73.89658,40.90752],[-73.89646,40.90511],[-73.89647,40.90513],[-73.89707,40.90504],[-73.89746,40.90533],[-73.89779,40.90546],[-73.89878,40.90569],[-73.89898,40.9057],[-73.90073,40.90547],[-73.90073,40.90548],[-73.90039,40.90674],[-73.9011,40.90685],[-73.90128,40.90685],[-73.90135,40.90684],[-73.90209,40.90658],[-73.90218,40.90657],[-73.9041,40.90686],[-73.90509,40.90701],[-73.90521,40.90699],[-73.9053,40.90691],[-73.90565,40.9064],[-73.90575,40.90631],[-73.90589,40.90624],[-73.90605,40.9062],[-73.90621,40.90621],[-73.90639,40.90627],[-73.90662,40.90641],[-73.90674,40.90642],[-73.90675,40.90644],[-73.90674,40.90642],[-73.90662,40.90641],[-73.90639,40.90627],[-73.90621,40.90621],[-73.90605,40.9062],[-73.90589,40.90624],[-73.90575,40.90631],[-73.90565,40.9064],[-73.9053,40.90691],[-73.90521,40.90699],[-73.90509,40.90701],[-73.9041,40.90686],[-73.9041,40.90687],[-73.90446,40.90559],[-73.90501,40.90415],[-73.90548,40.90295],[-73.90604,40.9017],[-73.90614,40.9017],[-73.90622,40.9017],[-73.90932,40.90276],[-73.91102,40.90335],[-73.91116,40.90338],[-73.91136,40.90333],[-73.91416,40.90388]]}},{"type":"Feature","properties":{"agency":"Metro-North Railroad","shape_id":"m7xd"},"geometry":{"type":"LineString","coordinates":[[-73.9129,40.88978],[-73.91291,40.88974],[-73.90974,40.88949],[-73.90979,40.88914],[-73.90983,40.88901],[-73.90988,40.88896],[-73.91078,40.88846],[-73.9111,40.8883],[-73.91136,40.88816],[-73.91148,40.88806],[-73.91199,40.88726],[-73.91232,40.88678],[-73.91266,40.88636],[-73.91306,40.88593],[-73.9134,40.88561],[-73.91469,40.88466],[-73.91487,40.88449],[-73.9151,40.88422],[-73.91521,40.88406],[-73.91531,40.88387],[-73.91552,40.88333],[-73.91564,40.88312],[-73.91581,40.88285],[-73.9161,40.88248],[-73.91623,40.88233],[-73.91672,40.88189],[-73.91733,40.88143],[-73.91767,40.88124],[-73.91832,40.88069],[-73.91844,40.88064],[-73.91858,40.88063],[-73.91878,40.88067],[-73.91899,40.88076],[-73.91912,40.88084],[-73.91932,40.88068],[-73.91908,40.88061],[-73.91847,40.88051],[-73.91813,40.88043],[-73.91784,40.88033],[-73.91764,40.88025],[-73.9173,40.88005],[-73.91718,40.87996],[-73.91705,40.87984],[-73.91676,40.87951],[-73.91674,40.87943],[-73.91674,40.87935],[-73.9169,40.87928],[-73.91713,40.87898],[-73.91692,40.87914],[-73.91685,40.87914],[-73.91673,40.87914],[-73.91674,40.87943],[-73.91676,40.87951],[-73.91718,40.87996],[-73.9173,40.88005],[-73.91764,40.88025],[-73.91784,40.88033],[-73.91813,40.88043],[-73.91847,40.88051],[-73.91908,40.88061],[-73.91932,40.88068],[-73.91941,40.88057],[-73.9196,40.88043],[-73.91975,40.88038],[-73.92014,40.88031],[-73.92025,40.88027],[-73.92036,40.8802],[-73.92098,40.87951],[-73.92088,40.87941],[-73.9208,40.87939],[-73.92052,40.87936],[-73.92041,40.87933],[-73.92022,40.87923],[-73.91998,40.87904],[-73.91984,40.87888],[-73.91978,40.8788],[-73.92001,40.87872],[-73.92,40.87867],[-73.92001,40.87839],[-73.92,40.87826],[-73.91993,40.87797],[-73.91983,40.87768],[-73.91983,40.87761],[-73.91988,40.87755],[-73.91995,40.87751],[-73.92007,40.8775],[-73.92016,40.87752],[-73.92027,40.87757],[-73.92105,40.87806],[-73.9212,40.87817],[-73.92147,40.87841]]}},{"type":"Feature","properties":{"agency":"Metro-North Railroad","shape_id":"opjr"},"geometry":{"type":"LineString","coordinates":[[-73.90675,40.90644],[-73.90674,40.90642],[-73.90662,40.90641],[-73.90639,40.90627],[-73.90621,40.90621],[-73.90605,40.9062],[-73.90589,40.90624],[-73.90575,40.90631],[-73.90565,40.9064],[-73.9053,40.90691],[-73.90521,40.90699],[-73.90509,40.90701],[-73.9041,40.90686],[-73.9041,40.90687],[-73.90446,40.90559],[-73.90548,40.90295],[-73.90604,40.9017],[-73.90614,40.9017],[-73.90622,40.9017],[-73.90932,40.90276],[-73.91102,40.90335],[-73.91116,40.90338],[-73.91136,40.90333],[-73.91416,40.90388]]}},{"type":"Feature","properties":{"agency":"Metro-North Railroad","shape_id":"rkor"},"geometry":{"type":"LineString","coordinates":[[-73.90259,40.91248],[-73.90322,40.91014],[-73.90391,40.90756],[-73.90434,40.90597],[-73.90446,40.90559],[-73.90501,40.90415],[-73.90548,40.90295],[-73.90604,40.9017],[-73.90622,40.9017],[-73.90932,40.90276],[-73.91102,40.90335],[-73.91116,40.90338],[-73.91136,40.90333],[-73.91416,40.90388]]}},{"type":"Feature","properties":{"agency":"Metro-North Railroad","shape_id":"u70n"},"geometry":{"type":"LineString","coordinates":[[-73.89664,40.91022],[-73.89658,40.90752],[-73.89646,40.90511],[-73.89647,40.90513],[-73.89707,40.90504],[-73.89746,40.90533],[-73.89779,40.90546],[-73.89878,40.90569],[-73.89898,40.9057],[-73.90073,40.90547],[-73.90073,40.90548],[-73.90073,40.90547],[-73.90097,40.90543],[-73.90125,40.90534],[-73.9015,40.9052],[-73.90246,40.90458],[-73.90274,40.90436],[-73.90311,40.90386],[-73.90397,40.90399],[-73.90501,40.90414],[-73.90548,40.90295],[-73.90604,40.9017],[-73.90622,40.9017],[-73.90932,40.90276],[-73.91102,40.90335],[-73.91116,40.90338],[-73.91136,40.90333],[-73.91416,40.90388]]}}]}