{"type":"FeatureCollection","features":[{"type":"Feature","properties":{"agency":"Middlesex 3 TMA","shape_id":"1"},"geometry":{"type":"LineString","coordinates":[[-71.05833180737494,42.36301568941759],[-71.058282852173,42.363046859399],[-71.05813,42.36292],[-71.05803,42.3629],[-71.05789,42.36289],[-71.05778,42.36288],[-71.05764,42.36288],[-71.05751,42.36277],[-71.05735,42.36283],[-71.05718,42.36291],[-71.0571,42.36297],[-71.05703,42.36305],[-71.05695,42.36321],[-71.05705,42.36322],[-71.05712,42.36324],[-71.05717,42.36325],[-71.05722,42.36329],[-71.05729,42.36333],[-71.05739,42.36341],[-71.05773,42.36373],[-71.05783,42.36382],[-71.05789,42.36389],[-71.05804,42.36408],[-71.05816,42.36425],[-71.05834,42.36448],[-71.05861,42.36481],[-71.05886,42.36507],[-71.05907,42.36529],[-71.06025,42.36644],[-71.06122,42.36735],[-71.06148,42.3676],[-71.06431,42.37008],[-71.06465,42.37038],[-71.06501,42.37068],[-71.06541,42.37098],[-71.06593,42.37135],[-71.06654,42.37175],[-71.06713,42.37212],[-71.06761,42.37242],[-71.06799,42.37263],[-71.06844,42.37289],[-71.06869,42.37302],[-71.06895,42.37316],[-71.06924,42.3733],[-71.07053,42.37395],[-71.07076,42.37407],[-71.07238,42.37489],[-71.07258,42.37503],[-71.0728,42.37518],[-71.07301,42.37534],[-71.07321,42.37549],[-71.0734,42.37564],[-71.0736,42.37581],[-71.07378,42.37597],[-71.07397,42.37614],[-71.07415,42.37631],[-71.07439,42.37655],[-71.07454,42.37672],[-71.0747,42.37692],[-71.07523,42.37759],[-71.07552,42.37796],[-71.0758,42.37836],[-71.07594,42.37857],[-71.07607,42.37877],[-71.07617,42.37896],[-71.07629,42.37916],[-71.07639,42.37936],[-71.07647,42.37956],[-71.07655,42.37977],[-71.07661,42.37998],[-71.07666,42.38019],[-71.0767,42.38041],[-71.07672,42.38063],[-71.07673,42.38083],[-71.07673,42.38108],[-71.07672,42.38126],[-71.0767,42.38149],[-71.07667,42.38171],[-71.07653,42.38247],[-71.07649,42.38268],[-71.07646,42.38291],[-71.07643,42.38313],[-71.07643,42.38355],[-71.07644,42.38377],[-71.07647,42.38398],[-71.07651,42.3842],[-71.07657,42.38442],[-71.07663,42.38463],[-71.0767,42.38485],[-71.07678,42.38507],[-71.07687,42.38527],[-71.07697,42.38549],[-71.07708,42.3857],[-71.0772,42.3859],[-71.07733,42.38609],[-71.07748,42.38628],[-71.07764,42.38648],[-71.07781,42.38667],[-71.07797,42.38685],[-71.07815,42.38703],[-71.07851,42.38737],[-71.07871,42.38755],[-71.07891,42.38772],[-71.07911,42.38788],[-71.07931,42.38803],[-71.08201,42.39007],[-71.08222,42.39023],[-71.08241,42.39039],[-71.08261,42.39057],[-71.08297,42.39089],[-71.08314,42.39106],[-71.08346,42.3914],[-71.08362,42.39159],[-71.08433,42.39242],[-71.0845,42.3926],[-71.08487,42.39297],[-71.08505,42.39314],[-71.08524,42.39331],[-71.08545,42.39348],[-71.08565,42.39363],[-71.08708,42.39472],[-71.0877,42.3952],[-71.08875,42.39598],[-71.08949,42.39652],[-71.09078,42.39749],[-71.091,42.39767],[-71.09197,42.39839],[-71.09238,42.39871],[-71.09286,42.3991],[-71.09301,42.39923],[-71.09335,42.39953],[-71.09381,42.39996],[-71.09425,42.40041],[-71.09455,42.40074],[-71.09482,42.40106],[-71.0951,42.40137],[-71.09517,42.40145],[-71.0955,42.40181],[-71.09583,42.40219],[-71.09666,42.4031],[-71.09727,42.4038],[-71.09757,42.40413],[-71.09781,42.40439],[-71.09831,42.40494],[-71.09867,42.40533],[-71.09905,42.40576],[-71.0991,42.40581],[-71.09939,42.40615],[-71.09966,42.40644],[-71.09998,42.4068],[-71.10032,42.40718],[-71.10114,42.40826],[-71.10124,42.40842],[-71.10144,42.40882],[-71.10152,42.40903],[-71.10158,42.40922],[-71.10163,42.40944],[-71.10165,42.40963],[-71.10164,42.40985],[-71.10146,42.41125],[-71.10142,42.41156],[-71.10141,42.41175],[-71.10143,42.41198],[-71.10148,42.41218],[-71.10157,42.41239],[-71.1017,42.41259],[-71.10185,42.41278],[-71.10204,42.41295],[-71.10226,42.4131],[-71.1025,42.41324],[-71.10275,42.41334],[-71.10302,42.41343],[-71.10355,42.41359],[-71.10412,42.41376],[-71.10485,42.41397],[-71.10517,42.41408],[-71.10549,42.41422],[-71.10579,42.41439],[-71.10618,42.41465],[-71.10728,42.4154],[-71.10782,42.41578],[-71.10826,42.41608],[-71.10858,42.4163],[-71.10872,42.41639],[-71.10889,42.41649],[-71.10915,42.4166],[-71.10944,42.41672],[-71.10977,42.41682],[-71.11017,42.41695],[-71.11072,42.41712],[-71.11098,42.41721],[-71.11119,42.41731],[-71.11141,42.41743],[-71.11181,42.41772],[-71.11192,42.4178],[-71.11204,42.41786],[-71.11226,42.41795],[-71.11235,42.41798],[-71.11283,42.41813],[-71.11296,42.41817],[-71.11323,42.41823],[-71.11338,42.4183],[-71.11357,42.4184],[-71.11374,42.41849],[-71.11409,42.4187],[-71.11418789518949,42.41875051342737],[-71.11429,42.41879],[-71.11431,42.4188],[-71.11437,42.41882],[-71.11444,42.41885],[-71.11454,42.41888],[-71.11464,42.4189],[-71.11471,42.41892],[-71.11483,42.41895],[-71.11503,42.41897],[-71.11521,42.41899],[-71.11534421534728,42.418988250495175],[-71.11546,42.419],[-71.11556658782412,42.41900107568389],[-71.11567082492364,42.419003640726885],[-71.11584,42.41901],[-71.11599,42.41901],[-71.1163,42.41903],[-71.11669,42.41905],[-71.11794,42.4191],[-71.1197,42.41917],[-71.12138,42.41924],[-71.1218,42.41925],[-71.12225,42.41924],[-71.12266,42.41921],[-71.12306,42.41918],[-71.12338,42.41918],[-71.12376,42.4192],[-71.12411,42.4192],[-71.12458,42.41917],[-71.12496,42.41912],[-71.12511,42.41909],[-71.1254,42.41902],[-71.12582,42.41889],[-71.12612,42.41874],[-71.12635,42.41859],[-71.12651,42.41848],[-71.12662,42.4184],[-71.12669,42.41833],[-71.12671,42.41829],[-71.1268,42.41803],[-71.12683,42.41799],[-71.12685,42.41797],[-71.12688,42.41795],[-71.12692,42.41792],[-71.12697,42.41789],[-71.12702,42.41787],[-71.12723,42.41781],[-71.12733,42.41778],[-71.12742,42.41775],[-71.12752,42.41772],[-71.12763,42.41768],[-71.12775,42.41764],[-71.12787,42.41759],[-71.12801,42.41752],[-71.12814,42.41746],[-71.12825,42.41739],[-71.12841,42.4173],[-71.12854,42.41722],[-71.12864,42.41716],[-71.12875,42.41709],[-71.12897,42.41693],[-71.12908,42.41684],[-71.12919,42.41676],[-71.12935,42.41664],[-71.12942,42.41659],[-71.12949,42.41653],[-71.12957,42.41646],[-71.12968,42.41637],[-71.12978,42.41627],[-71.1299,42.41616],[-71.13026,42.41577],[-71.13034,42.41567],[-71.13043,42.41558],[-71.13103,42.41499],[-71.13112,42.41493],[-71.13137,42.41476],[-71.1314198734113,42.41474354996393],[-71.1314621789765,42.41471898899522],[-71.13147748922347,42.41467942750165],[-71.13147858281086,42.41464874714103],[-71.13147748922347,42.4146204889031],[-71.13146874050867,42.41459223065237],[-71.13145,42.41457],[-71.13141,42.41454],[-71.13136,42.41448],[-71.13127,42.41433],[-71.13125,42.41427],[-71.13123,42.4142],[-71.13124,42.41398],[-71.13126,42.41361],[-71.13126,42.41349],[-71.13125,42.41336],[-71.13123,42.41324],[-71.1312,42.41313],[-71.13117,42.41301],[-71.13112,42.4129],[-71.13108,42.41278],[-71.13105,42.41272],[-71.13103,42.41266],[-71.13099,42.41251],[-71.13095069233681,42.412358595519805],[-71.13093,42.4122],[-71.13092,42.41206],[-71.13091,42.4119],[-71.13093,42.4117],[-71.13096,42.41143],[-71.13097,42.41131],[-71.13097,42.41115],[-71.13096,42.41103],[-71.13095,42.41092],[-71.13092,42.41076],[-71.13091,42.4107],[-71.13089,42.41061],[-71.13085,42.41049],[-71.13073,42.41014],[-71.13058,42.40963],[-71.13059,42.40936],[-71.13064,42.40911],[-71.13067,42.40906],[-71.13077,42.4089],[-71.13094,42.40871],[-71.13102,42.40862],[-71.13123,42.40846],[-71.13134893540413,42.40837060994929],[-71.13144,42.4083],[-71.13164,42.40822],[-71.13194,42.40807],[-71.13214,42.40798],[-71.13233,42.40788],[-71.13262,42.40769],[-71.13275,42.40761],[-71.1329,42.40751],[-71.13303,42.40741],[-71.13315,42.40731],[-71.13326,42.40722],[-71.13336,42.40712],[-71.13345,42.40702],[-71.13355,42.40692],[-71.13369,42.40676],[-71.1338,42.40663],[-71.13389,42.40652],[-71.13396,42.40641],[-71.13409,42.40621],[-71.13414,42.40612],[-71.13419,42.40602],[-71.13424,42.40589],[-71.13428,42.40574],[-71.13431,42.40563],[-71.13432,42.40553],[-71.13434,42.40541],[-71.13434,42.40528],[-71.13433,42.40505],[-71.13432,42.40468],[-71.13431,42.40438],[-71.13431,42.4043],[-71.1343,42.40401],[-71.13429,42.40376],[-71.13429,42.40309],[-71.13431,42.40295],[-71.13435,42.40281],[-71.13442,42.40266],[-71.13444,42.40262],[-71.13456,42.40246],[-71.13478,42.40225],[-71.13506,42.40198],[-71.13523,42.40183],[-71.13538,42.40166],[-71.13567,42.40132],[-71.13591,42.40104],[-71.136,42.40094],[-71.13625,42.40071],[-71.13638,42.40059],[-71.13648,42.40049],[-71.1366,42.40039],[-71.13674,42.40029],[-71.13699,42.40014],[-71.13729,42.40002],[-71.13746,42.39997],[-71.13762,42.39993],[-71.138,42.39987],[-71.1382,42.39985],[-71.1384,42.39984],[-71.13891,42.39979],[-71.13915,42.39977],[-71.13939,42.39974],[-71.13957,42.3997],[-71.13974,42.39966],[-71.13991,42.3996],[-71.14006,42.39954],[-71.14032,42.39942],[-71.14052,42.39931],[-71.14065,42.39922],[-71.14077,42.39911],[-71.14087,42.39902],[-71.14096,42.39891],[-71.14107,42.39881],[-71.14115,42.39872],[-71.14121,42.39864],[-71.14129,42.39854],[-71.14137,42.39845],[-71.14145,42.39837],[-71.14152,42.39831],[-71.14174,42.39813],[-71.14181,42.39807],[-71.14185,42.39803],[-71.14188,42.39798],[-71.1419,42.39794],[-71.14191,42.3979],[-71.14192,42.39785],[-71.14192,42.39778],[-71.14188,42.39768],[-71.14185,42.39763],[-71.14182,42.39759],[-71.14176,42.39754],[-71.1417,42.3975],[-71.14163,42.39747],[-71.14157,42.39744],[-71.1415,42.3974],[-71.14144,42.39737],[-71.14139,42.39733],[-71.14134,42.39728],[-71.1413,42.39723],[-71.14126,42.39717],[-71.14122,42.39712],[-71.14117,42.39706],[-71.14111,42.39696],[-71.14093,42.39658],[-71.14086,42.39645],[-71.14079,42.39628],[-71.1407,42.396],[-71.14067,42.39586],[-71.14062,42.39566],[-71.1406,42.39552],[-71.14057,42.39519],[-71.1406,42.39512],[-71.14062,42.39508],[-71.14064,42.395],[-71.14067,42.39492],[-71.14073,42.39485],[-71.14082,42.3948],[-71.14096,42.39474],[-71.14103600114326,42.3947232282637],[-71.14126,42.39471],[-71.14138,42.3947],[-71.14211,42.39467],[-71.14224,42.39466],[-71.14227,42.39473],[-71.14253,42.39523],[-71.14262499654166,42.39542963198512],[-71.14265515072906,42.39549299997921],[-71.14265210215964,42.395490748585104],[-71.14301,42.3962],[-71.14305,42.3963],[-71.14307,42.39637],[-71.14307,42.39642],[-71.14302,42.39647],[-71.14295,42.3965],[-71.14137,42.39684],[-71.1412,42.39688],[-71.14092,42.39694],[-71.14046,42.39704],[-71.14039855913727,42.397052792035765],[-71.14034,42.39708],[-71.14029185904246,42.39713158893375],[-71.14027,42.39717],[-71.14026,42.39723],[-71.14027,42.39729],[-71.14035,42.39752],[-71.14038,42.39759],[-71.14042,42.39765],[-71.14047,42.3977],[-71.14053,42.39774],[-71.1406,42.39777],[-71.14068,42.3978],[-71.14082,42.39782],[-71.1409,42.39782],[-71.14127,42.39783],[-71.14181,42.39785],[-71.14192,42.39785],[-71.14219,42.39787],[-71.14231,42.39789],[-71.14244,42.39791],[-71.14258,42.39795],[-71.14274,42.39799],[-71.14369,42.39827],[-71.14412,42.3984],[-71.14757,42.39947],[-71.15084,42.40047],[-71.15135,42.40063],[-71.15255,42.40099],[-71.1529,42.40111],[-71.15325,42.40124],[-71.15404,42.40158],[-71.15445,42.40177],[-71.15591,42.40249],[-71.15643,42.40276],[-71.15682,42.40298],[-71.15718,42.40318],[-71.15919,42.40438],[-71.15945,42.40451],[-71.15971,42.40463],[-71.15997,42.40474],[-71.16061,42.40496],[-71.16276,42.40556],[-71.16337,42.40573],[-71.16483,42.40615],[-71.16545,42.40633],[-71.16577,42.40642],[-71.16608,42.40652],[-71.16676,42.40676],[-71.16741,42.407],[-71.16871,42.40749],[-71.17027,42.40808],[-71.17164,42.40858],[-71.17237,42.40884],[-71.1731,42.40907],[-71.17388,42.40931],[-71.17449,42.40949],[-71.17557,42.40979],[-71.17655,42.41004],[-71.17695,42.41014],[-71.17743,42.41025],[-71.17813,42.41038],[-71.17885,42.4105],[-71.18066,42.4108],[-71.18103,42.41086],[-71.18139,42.41092],[-71.18175,42.41099],[-71.1821,42.41106],[-71.18241,42.41113],[-71.18293,42.41126],[-71.18343,42.4114],[-71.18373,42.41148],[-71.18431,42.41166],[-71.18459,42.41176],[-71.18557,42.41209],[-71.18615,42.4123],[-71.18637,42.41237],[-71.18739,42.41272],[-71.18842,42.4131],[-71.18951,42.41353],[-71.19132,42.4143],[-71.19207,42.41461],[-71.19262,42.41483],[-71.19316,42.41503],[-71.1941,42.41535],[-71.1944,42.41545],[-71.19472,42.41555],[-71.19581,42.41585],[-71.19624,42.41596],[-71.19746,42.41629],[-71.19827,42.41651],[-71.19892,42.41668],[-71.19964,42.41685],[-71.19997,42.41692],[-71.20031,42.41699],[-71.20053,42.41704],[-71.20129,42.41717],[-71.20177,42.41725],[-71.20242,42.41734],[-71.20323,42.41743],[-71.20378,42.41748],[-71.20427,42.41752],[-71.20485,42.41756],[-71.20543,42.41758],[-71.20622,42.41762],[-71.2075,42.41766],[-71.20948,42.41774],[-71.21066,42.41782],[-71.21176,42.41792],[-71.21269,42.41804],[-71.2138,42.4182],[-71.21456,42.41834],[-71.21513,42.41845],[-71.2162,42.41872],[-71.21704,42.41893],[-71.21762,42.4191],[-71.21822,42.41929],[-71.21883,42.4195],[-71.21932,42.41969],[-71.21961,42.41981],[-71.22012,42.42001],[-71.22097,42.42037],[-71.22167,42.42064],[-71.2222,42.42085],[-71.22279,42.42103],[-71.22353,42.42122],[-71.224,42.42132],[-71.22441,42.42139],[-71.22479,42.42145],[-71.22504,42.42149],[-71.22551,42.42154],[-71.22619,42.4216],[-71.22805,42.42166],[-71.22911,42.42169],[-71.23148,42.42178],[-71.23196,42.4218],[-71.23203,42.4218],[-71.23233,42.42181],[-71.23346,42.42184],[-71.23418,42.42187],[-71.23576,42.42192],[-71.23636,42.42195],[-71.23725,42.42197],[-71.23907,42.42203],[-71.23987,42.42206],[-71.24048,42.42207],[-71.24105,42.42209],[-71.24212,42.42213],[-71.24292,42.42216],[-71.24364,42.42222],[-71.24404,42.42226],[-71.24431,42.42229],[-71.24462,42.42233],[-71.24481,42.42236],[-71.2453,42.42243],[-71.246,42.42255],[-71.24664,42.42268],[-71.24728,42.42283],[-71.24775,42.42295],[-71.24829,42.42311],[-71.24875,42.42325],[-71.24911,42.42337],[-71.2495,42.42351],[-71.25031,42.42382],[-71.25096,42.42412],[-71.25136,42.4243],[-71.25204,42.42463],[-71.25233,42.42479],[-71.25313,42.42524],[-71.25393,42.4257],[-71.25484887332726,42.42628488911106],[-71.25512,42.42647],[-71.25522,42.42655],[-71.25529,42.42661],[-71.25534,42.42667],[-71.25538,42.42674],[-71.25544,42.42684],[-71.25548,42.42694],[-71.25556,42.42726],[-71.25561,42.42749],[-71.25569,42.42781],[-71.25573,42.42794],[-71.25577,42.42808],[-71.25584,42.42821],[-71.25594,42.42836],[-71.25604,42.4285],[-71.25613,42.42862],[-71.25623,42.42872],[-71.25636,42.42886],[-71.25657,42.42905],[-71.25682,42.42923],[-71.25704,42.42937],[-71.25732,42.42955],[-71.25767,42.42975],[-71.25815,42.43004],[-71.25841,42.43019],[-71.25858,42.43029],[-71.25866,42.43037],[-71.25873,42.43045],[-71.2588,42.43054],[-71.25885,42.43066],[-71.25891,42.43082],[-71.25905,42.43122],[-71.25933,42.43199],[-71.25943,42.43243],[-71.25953,42.43302],[-71.25959,42.43357],[-71.25963,42.43421],[-71.25963,42.43463],[-71.25962,42.43494],[-71.25961,42.43517],[-71.25959,42.43539],[-71.25953,42.43587],[-71.25946,42.43635],[-71.25931,42.4372],[-71.25906,42.43825],[-71.25892,42.43871],[-71.25876,42.43917],[-71.25858,42.43965],[-71.25831,42.44027],[-71.2578,42.44153],[-71.25726,42.4429],[-71.25698,42.44362],[-71.25668,42.44437],[-71.25607,42.44592],[-71.2557,42.44684],[-71.2555,42.44739],[-71.25535,42.44799],[-71.25532,42.44825],[-71.25526,42.44879],[-71.25529,42.44934],[-71.25535,42.4499],[-71.25547,42.45033],[-71.25567,42.45097],[-71.25593,42.45159],[-71.25613,42.452],[-71.2565,42.45264],[-71.2568,42.45322],[-71.25729,42.45413],[-71.25761,42.45474],[-71.25779,42.45507],[-71.2581,42.45565],[-71.25834,42.45613],[-71.25851,42.45654],[-71.25858,42.45675],[-71.25869,42.45716],[-71.25875,42.45749],[-71.25879,42.45781],[-71.25881,42.45825],[-71.25881,42.45857],[-71.25877,42.45889],[-71.25871,42.45931],[-71.25866,42.45952],[-71.25853,42.45994],[-71.2584,42.46028],[-71.25832,42.46048],[-71.25805,42.46099],[-71.25788,42.46124],[-71.25767,42.46154],[-71.25746,42.46182],[-71.25722,42.46209],[-71.25698,42.46233],[-71.25659,42.46269],[-71.25631,42.46293],[-71.25589,42.46323],[-71.25425,42.46429],[-71.25291,42.46514],[-71.24917,42.46756],[-71.24796,42.46833],[-71.24553,42.46986],[-71.24486,42.4703],[-71.24464,42.47044],[-71.2439,42.4709],[-71.24328,42.47126],[-71.2427,42.47155],[-71.24183,42.47193],[-71.24118,42.47217],[-71.24011,42.4725],[-71.23919,42.47272],[-71.23853,42.47285],[-71.2371,42.47307],[-71.2306,42.47408],[-71.22772,42.47452],[-71.2267,42.47461],[-71.22619,42.47467],[-71.22576,42.47472],[-71.22536,42.47478],[-71.225,42.47485],[-71.22465,42.47491],[-71.22415,42.47503],[-71.2237,42.47514],[-71.22338,42.47518],[-71.22317,42.4752],[-71.22301,42.47521],[-71.22287,42.4752],[-71.22272,42.47518],[-71.22256,42.47516],[-71.2224,42.47512],[-71.22225,42.47508],[-71.2221,42.47502],[-71.22061,42.47443],[-71.22047,42.47438],[-71.22035,42.47435],[-71.2202,42.47433],[-71.22005,42.47433],[-71.21992,42.47434],[-71.21979,42.47436],[-71.21965,42.4744],[-71.21953,42.47444],[-71.21941,42.47449],[-71.2193,42.47457],[-71.2192,42.47465],[-71.21912,42.47473],[-71.21906,42.47481],[-71.21902,42.47492],[-71.21899,42.47502],[-71.21897,42.47513],[-71.21898,42.47523],[-71.219,42.47532],[-71.21903,42.47542],[-71.2191,42.47553],[-71.21923,42.47574],[-71.21949,42.47614],[-71.21998,42.4769],[-71.22134,42.47899],[-71.22149,42.47922],[-71.22174,42.47957],[-71.2227,42.48104],[-71.2229,42.48133],[-71.22311,42.48162],[-71.22365,42.48234],[-71.22397,42.48275],[-71.22435,42.48322],[-71.22482,42.48379],[-71.22519,42.4842],[-71.22552,42.48458],[-71.2265,42.4856],[-71.22714,42.48624],[-71.22862,42.48771],[-71.23214,42.49122],[-71.23548,42.49455],[-71.23794,42.49701],[-71.23886,42.49792],[-71.23977,42.49904],[-71.23993,42.49925],[-71.24005,42.49941],[-71.24016,42.49961],[-71.24022,42.49973],[-71.24028,42.49986],[-71.24035,42.50008],[-71.2404,42.50035],[-71.24037,42.50057],[-71.24033,42.50077],[-71.2403,42.50099],[-71.24028,42.50118],[-71.2403,42.50132],[-71.24032,42.50147],[-71.2404,42.50166],[-71.24046,42.50185],[-71.24054,42.5021],[-71.2405,42.50233],[-71.24045,42.50241],[-71.24034,42.50248],[-71.24007,42.50264],[-71.23971,42.50267],[-71.23933,42.50266],[-71.23905,42.50263],[-71.23855,42.50255],[-71.2385,42.50268],[-71.23847,42.50277],[-71.23839,42.50291],[-71.23832,42.50305],[-71.23779,42.50358],[-71.23762,42.50366],[-71.23757,42.50369],[-71.23735,42.50382],[-71.23722,42.50389],[-71.23704,42.50398],[-71.23683,42.50407],[-71.23672,42.50411],[-71.23657,42.50414],[-71.23643,42.50417],[-71.23627,42.50418],[-71.2358,42.50418],[-71.23579,42.5045],[-71.2359,42.50458],[-71.23599,42.50467],[-71.23597,42.50473],[-71.23597882793953,42.504771190405336],[-71.23600142833888,42.50478657023388],[-71.23605184460564,42.50480707667848],[-71.2360953069024,42.50480323171831],[-71.23613529222045,42.50479682345704],[-71.23617,42.50478],[-71.2361871004456,42.50475434933158],[-71.23619,42.50475],[-71.236187,42.504751],[-71.236194,42.504742],[-71.236191,42.504691],[-71.23618059182981,42.50466845309751],[-71.23615625650447,42.50465207260169],[-71.2361196457911,42.5046404616727],[-71.23608430859217,42.50463647211876],[-71.236046,42.504639],[-71.235988,42.504672],[-71.235899,42.504582],[-71.235787,42.504505],[-71.235801,42.504178],[-71.23603,42.504183],[-71.236274,42.504176],[-71.236425,42.504168],[-71.236565,42.504143],[-71.236722,42.504105],[-71.236832,42.504068],[-71.237037,42.50398],[-71.23722,42.503886],[-71.237346,42.503816],[-71.237571,42.503687],[-71.23762,42.503663],[-71.237788,42.503582],[-71.238185,42.503525],[-71.238291,42.503507],[-71.2382652844529,42.50339740671626],[-71.238262,42.50333],[-71.238289,42.503157],[-71.238325,42.503053],[-71.23839,42.50291],[-71.238468,42.502766],[-71.238503,42.502677],[-71.238548,42.502553],[-71.239046,42.502632],[-71.239331,42.502661],[-71.23952268164142,42.50269551658519],[-71.23970152476073,42.50273100739082],[-71.23983829993661,42.50273691316107],[-71.24010493043616,42.502729112683966],[-71.2404787595995,42.50268620998273],[-71.24071576449393,42.502658128233264],[-71.24074714736977,42.50273817503063],[-71.240821,42.502896],[-71.240892,42.503032],[-71.241008,42.503199],[-71.24114,42.50337],[-71.24137,42.503624],[-71.241526,42.503842],[-71.241607,42.503899],[-71.241675,42.504068],[-71.24178,42.504316],[-71.24206,42.505064],[-71.242942,42.50729],[-71.243181,42.507906],[-71.243369,42.508372],[-71.243985,42.509966],[-71.244467,42.511183],[-71.244601,42.511168],[-71.24464662280756,42.51115027559118],[-71.24473909686452,42.51115027559118],[-71.24481269867238,42.51115305790808],[-71.24489007492595,42.51116279603656],[-71.24497311285492,42.51119061923498],[-71.24502595517711,42.51122957169602],[-71.2450853205641,42.51130589638694],[-71.24515137346684,42.51138519228425],[-71.24521742636273,42.51142831809125],[-71.2452702686849,42.511440838480894],[-71.24535708106647,42.51144779425073],[-71.24544011899545,42.511442229632905],[-71.24551749524899,42.5114171888516],[-71.2455778864763,42.51137128072992],[-71.245608,42.511321],[-71.245646,42.511256],[-71.245718,42.511062],[-71.245857,42.510685],[-71.2459,42.510584],[-71.245953,42.510536],[-71.246039,42.510504],[-71.24627563090958,42.51045928616392],[-71.24637210731561,42.5104513841676],[-71.24645357628036,42.5104498037648],[-71.24654790876171,42.51045928616392],[-71.24664867300922,42.51048773334131],[-71.24674086156601,42.51053988647288],[-71.24683714943917,42.51060040413808],[-71.2471812632217,42.511018099195866],[-71.24737635995062,42.51124093310384],[-71.24747938637634,42.51134630090078],[-71.2475565674996,42.51140319444099],[-71.24766161958081,42.51144112343894],[-71.24776238382832,42.51146482905534],[-71.24792424828387,42.511467737456144],[-71.2480950502836,42.51146128077548],[-71.248261,42.511448],[-71.248361,42.511422],[-71.248481,42.511367],[-71.248552,42.511308],[-71.248586,42.511244],[-71.248585,42.511159],[-71.248538,42.510735],[-71.248494,42.510455],[-71.248538,42.510735],[-71.248572,42.511044],[-71.248374,42.511059],[-71.247725,42.511109],[-71.247572,42.511121],[-71.247396,42.511241],[-71.24718,42.510975],[-71.246847,42.510594],[-71.246747,42.510509],[-71.246711,42.510496],[-71.246565,42.510444],[-71.246497,42.510436],[-71.246459,42.510436],[-71.246422,42.510437],[-71.246283,42.510451],[-71.2462,42.510469],[-71.246111,42.510488],[-71.246039,42.510504],[-71.245953,42.510536],[-71.2459,42.510584],[-71.245857,42.510685],[-71.245718,42.511062],[-71.245646,42.511256],[-71.245615,42.511319],[-71.245574,42.51137],[-71.245515,42.511418],[-71.245427,42.511444],[-71.245329,42.511451],[-71.245227,42.51143],[-71.245153,42.511385],[-71.245051,42.51126],[-71.245011,42.511219],[-71.24496,42.511187],[-71.244917,42.51117],[-71.244852,42.511157],[-71.244816,42.511152],[-71.244642,42.511153],[-71.244601,42.511168],[-71.244528,42.511175],[-71.244404,42.511213],[-71.244505,42.511491],[-71.244551,42.511688],[-71.244558,42.511841],[-71.244547,42.511995],[-71.244519,42.512135],[-71.244479,42.512278],[-71.244417,42.512415],[-71.24435,42.512532],[-71.244277,42.512635],[-71.244055,42.512881],[-71.243401,42.513557],[-71.243329,42.513631],[-71.243127,42.513839],[-71.242599,42.514411],[-71.242383,42.51462],[-71.242237,42.514751],[-71.241867,42.514974],[-71.241839,42.514992],[-71.241729,42.515046],[-71.241607,42.515113],[-71.241688,42.515179],[-71.241802,42.515273],[-71.243137,42.516366],[-71.243261,42.516394],[-71.243563,42.516598],[-71.244012,42.516963],[-71.244031,42.516978],[-71.244211,42.517124],[-71.244328,42.517208],[-71.244446,42.517294],[-71.245333,42.518022],[-71.246017,42.51857],[-71.246077,42.518618],[-71.246692,42.519111],[-71.246855,42.519241],[-71.248035,42.520188],[-71.2491,42.521037],[-71.249221,42.521137],[-71.25026,42.521996],[-71.250486,42.522137],[-71.250732,42.522335],[-71.251447,42.522911],[-71.251557,42.523002],[-71.251796,42.523253],[-71.251866,42.523336],[-71.252483,42.52407],[-71.252523,42.524118],[-71.252703,42.52432],[-71.252839,42.52445],[-71.253018,42.524607],[-71.25305,42.524634],[-71.253534,42.525036],[-71.254055,42.525472],[-71.254463,42.525806],[-71.254648,42.525958],[-71.255338,42.526539],[-71.25592,42.527027],[-71.256003,42.527116],[-71.256588,42.52762],[-71.256695,42.527713],[-71.257112,42.528076],[-71.257539,42.528448],[-71.257801,42.528673],[-71.257936,42.528789],[-71.258137,42.528962],[-71.25831,42.529118],[-71.2586,42.529379],[-71.258707,42.529475],[-71.258877,42.52962],[-71.259102,42.529811],[-71.259403,42.530066],[-71.260428,42.530954],[-71.262404,42.532619],[-71.262907,42.533021],[-71.263044,42.53313],[-71.263142,42.533209],[-71.2634,42.533424],[-71.2642,42.534094],[-71.265422,42.535058],[-71.266092,42.53461],[-71.266723,42.534184],[-71.267019,42.533985],[-71.2671,42.533926],[-71.267168,42.533867],[-71.26723,42.533807],[-71.267282,42.533747],[-71.267335,42.533667],[-71.267391,42.533586],[-71.267574,42.533282],[-71.267616,42.533223],[-71.267666,42.533179],[-71.267728,42.533142],[-71.267814,42.533111],[-71.268156,42.53301],[-71.268232,42.53299],[-71.268306,42.532977],[-71.268614,42.532932],[-71.268982,42.532878],[-71.269118,42.532858],[-71.269237,42.532844],[-71.269398,42.532828],[-71.269543,42.532816],[-71.269656,42.53281],[-71.269735,42.53239],[-71.26976,42.532296],[-71.269789,42.532198],[-71.269818,42.532133],[-71.269856,42.532065],[-71.269905,42.532005],[-71.270088,42.531807],[-71.270137,42.531762],[-71.270194,42.531714],[-71.270619,42.531389],[-71.270693,42.531334],[-71.270817,42.531238],[-71.270901,42.53117],[-71.271033,42.531062],[-71.27108,42.531028],[-71.271128,42.530998],[-71.271194,42.53096],[-71.271273,42.530925],[-71.271365,42.530884],[-71.271518,42.530824],[-71.271597,42.53079],[-71.271675,42.530752],[-71.271764,42.5307],[-71.271835,42.530657],[-71.271899,42.53061],[-71.271961,42.530558],[-71.27202,42.5305],[-71.272112,42.530412],[-71.272176,42.530344],[-71.272262,42.530253],[-71.27235,42.530168],[-71.272645,42.529907],[-71.272724,42.529839],[-71.272828,42.529752],[-71.272929,42.529675],[-71.273044,42.529595],[-71.273852,42.529067],[-71.274162,42.528862],[-71.274435,42.528709],[-71.274522,42.528654],[-71.274595,42.528693],[-71.275214,42.529023],[-71.275951,42.529422],[-71.276085,42.52949],[-71.27623,42.52953],[-71.276344,42.529561],[-71.276456,42.529571],[-71.276578,42.529573],[-71.276749,42.529562],[-71.276946,42.529545],[-71.276991,42.529776],[-71.277025,42.529946],[-71.277055,42.530102],[-71.277083,42.530241],[-71.277031,42.530538],[-71.277069,42.530775],[-71.277323,42.530743],[-71.277432,42.530729],[-71.277555,42.530714],[-71.277795,42.530684],[-71.277973,42.530661]]}},{"type":"Feature","properties":{"agency":"Middlesex 3 TMA","shape_id":"2"},"geometry":{"type":"LineString","coordinates":[[-71.142535842606,42.395452770605],[-71.14265210215964,42.395490748585104],[-71.14301,42.3962],[-71.14305,42.3963],[-71.14307,42.39637],[-71.14307,42.39642],[-71.14302,42.39647],[-71.14295,42.3965],[-71.14137,42.39684],[-71.1412,42.39688],[-71.14092,42.39694],[-71.14046,42.39704],[-71.14039855913727,42.397052792035765],[-71.14034,42.39708],[-71.14029185904246,42.39713158893375],[-71.14027,42.39717],[-71.14026,42.39723],[-71.14027,42.39729],[-71.14035,42.39752],[-71.14038,42.39759],[-71.14042,42.39765],[-71.14047,42.3977],[-71.14053,42.39774],[-71.1406,42.39777],[-71.14068,42.3978],[-71.14082,42.39782],[-71.1409,42.39782],[-71.14127,42.39783],[-71.14181,42.39785],[-71.14192,42.39785],[-71.14219,42.39787],[-71.14231,42.39789],[-71.14244,42.39791],[-71.14258,42.39795],[-71.14274,42.39799],[-71.14369,42.39827],[-71.14412,42.3984],[-71.14757,42.39947],[-71.15084,42.40047],[-71.15135,42.40063],[-71.15255,42.40099],[-71.1529,42.40111],[-71.15325,42.40124],[-71.15404,42.40158],[-71.15445,42.40177],[-71.15591,42.40249],[-71.15643,42.40276],[-71.15682,42.40298],[-71.15718,42.40318],[-71.15919,42.40438],[-71.15945,42.40451],[-71.15971,42.40463],[-71.15997,42.40474],[-71.16061,42.40496],[-71.16276,42.40556],[-71.16337,42.40573],[-71.16483,42.40615],[-71.16545,42.40633],[-71.16577,42.40642],[-71.16608,42.40652],[-71.16676,42.40676],[-71.16741,42.407],[-71.16871,42.40749],[-71.17027,42.40808],[-71.17164,42.40858],[-71.17237,42.40884],[-71.1731,42.40907],[-71.17388,42.40931],[-71.17449,42.40949],[-71.17557,42.40979],[-71.17655,42.41004],[-71.17695,42.41014],[-71.17743,42.41025],[-71.17813,42.41038],[-71.17885,42.4105],[-71.18066,42.4108],[-71.18103,42.41086],[-71.18139,42.41092],[-71.18175,42.41099],[-71.1821,42.41106],[-71.18241,42.41113],[-71.18293,42.41126],[-71.18343,42.4114],[-71.18373,42.41148],[-71.18431,42.41166],[-71.18459,42.41176],[-71.18557,42.41209],[-71.18615,42.4123],[-71.18637,42.41237],[-71.18739,42.41272],[-71.18842,42.4131],[-71.18951,42.41353],[-71.19132,42.4143],[-71.19207,42.41461],[-71.19262,42.41483],[-71.19316,42.41503],[-71.1941,42.41535],[-71.1944,42.41545],[-71.19472,42.41555],[-71.19581,42.41585],[-71.19624,42.41596],[-71.19746,42.41629],[-71.19827,42.41651],[-71.19892,42.41668],[-71.19964,42.41685],[-71.19997,42.41692],[-71.20031,42.41699],[-71.20053,42.41704],[-71.20129,42.41717],[-71.20177,42.41725],[-71.20242,42.41734],[-71.20323,42.41743],[-71.20378,42.41748],[-71.20427,42.41752],[-71.20485,42.41756],[-71.20543,42.41758],[-71.20622,42.41762],[-71.2075,42.41766],[-71.20948,42.41774],[-71.21066,42.41782],[-71.21176,42.41792],[-71.21269,42.41804],[-71.2138,42.4182],[-71.21456,42.41834],[-71.21513,42.41845],[-71.2162,42.41872],[-71.21704,42.41893],[-71.21762,42.4191],[-71.21822,42.41929],[-71.21883,42.4195],[-71.21932,42.41969],[-71.21961,42.41981],[-71.22012,42.42001],[-71.22097,42.42037],[-71.22167,42.42064],[-71.2222,42.42085],[-71.22279,42.42103],[-71.22353,42.42122],[-71.224,42.42132],[-71.22441,42.42139],[-71.22479,42.42145],[-71.22504,42.42149],[-71.22551,42.42154],[-71.22619,42.4216],[-71.22805,42.42166],[-71.22911,42.42169],[-71.23148,42.42178],[-71.23196,42.4218],[-71.23203,42.4218],[-71.23233,42.42181],[-71.23346,42.42184],[-71.23418,42.42187],[-71.23576,42.42192],[-71.23636,42.42195],[-71.23725,42.42197],[-71.23907,42.42203],[-71.23987,42.42206],[-71.24048,42.42207],[-71.24105,42.42209],[-71.24212,42.42213],[-71.24292,42.42216],[-71.24364,42.42222],[-71.24404,42.42226],[-71.24431,42.42229],[-71.24462,42.42233],[-71.24481,42.42236],[-71.2453,42.42243],[-71.246,42.42255],[-71.24664,42.42268],[-71.24728,42.42283],[-71.24775,42.42295],[-71.24829,42.42311],[-71.24875,42.42325],[-71.24911,42.42337],[-71.2495,42.42351],[-71.25031,42.42382],[-71.25096,42.42412],[-71.25136,42.4243],[-71.25204,42.42463],[-71.25233,42.42479],[-71.25313,42.42524],[-71.25393,42.4257],[-71.25484887332726,42.42628488911106],[-71.25512,42.42647],[-71.25522,42.42655],[-71.25529,42.42661],[-71.25534,42.42667],[-71.25538,42.42674],[-71.25544,42.42684],[-71.25548,42.42694],[-71.25556,42.42726],[-71.25561,42.42749],[-71.25569,42.42781],[-71.25573,42.42794],[-71.25577,42.42808],[-71.25584,42.42821],[-71.25594,42.42836],[-71.25604,42.4285],[-71.25613,42.42862],[-71.25623,42.42872],[-71.25636,42.42886],[-71.25657,42.42905],[-71.25682,42.42923],[-71.25704,42.42937],[-71.25732,42.42955],[-71.25767,42.42975],[-71.25815,42.43004],[-71.25841,42.43019],[-71.25858,42.43029],[-71.25866,42.43037],[-71.25873,42.43045],[-71.2588,42.43054],[-71.25885,42.43066],[-71.25891,42.43082],[-71.25905,42.43122],[-71.25933,42.43199],[-71.25943,42.43243],[-71.25953,42.43302],[-71.25959,42.43357],[-71.25963,42.43421],[-71.25963,42.43463],[-71.25962,42.43494],[-71.25961,42.43517],[-71.25959,42.43539],[-71.25953,42.43587],[-71.25946,42.43635],[-71.25931,42.4372],[-71.25906,42.43825],[-71.25892,42.43871],[-71.25876,42.43917],[-71.25858,42.43965],[-71.25831,42.44027],[-71.2578,42.44153],[-71.25726,42.4429],[-71.25698,42.44362],[-71.25668,42.44437],[-71.25607,42.44592],[-71.2557,42.44684],[-71.2555,42.44739],[-71.25535,42.44799],[-71.25532,42.44825],[-71.25526,42.44879],[-71.25529,42.44934],[-71.25535,42.4499],[-71.25547,42.45033],[-71.25567,42.45097],[-71.25593,42.45159],[-71.25613,42.452],[-71.2565,42.45264],[-71.2568,42.45322],[-71.25729,42.45413],[-71.25761,42.45474],[-71.25779,42.45507],[-71.2581,42.45565],[-71.25834,42.45613],[-71.25851,42.45654],[-71.25858,42.45675],[-71.25869,42.45716],[-71.25875,42.45749],[-71.25879,42.45781],[-71.25881,42.45825],[-71.25881,42.45857],[-71.25877,42.45889],[-71.25871,42.45931],[-71.25866,42.45952],[-71.25853,42.45994],[-71.2584,42.46028],[-71.25832,42.46048],[-71.25805,42.46099],[-71.25788,42.46124],[-71.25767,42.46154],[-71.25746,42.46182],[-71.25722,42.46209],[-71.25698,42.46233],[-71.25659,42.46269],[-71.25631,42.46293],[-71.25589,42.46323],[-71.25425,42.46429],[-71.25291,42.46514],[-71.24917,42.46756],[-71.24796,42.46833],[-71.24553,42.46986],[-71.24486,42.4703],[-71.24464,42.47044],[-71.2439,42.4709],[-71.24328,42.47126],[-71.2427,42.47155],[-71.24183,42.47193],[-71.24118,42.47217],[-71.24011,42.4725],[-71.23919,42.47272],[-71.23853,42.47285],[-71.2371,42.47307],[-71.2306,42.47408],[-71.22772,42.47452],[-71.2267,42.47461],[-71.22619,42.47467],[-71.22576,42.47472],[-71.22536,42.47478],[-71.225,42.47485],[-71.22465,42.47491],[-71.22415,42.47503],[-71.2237,42.47514],[-71.22338,42.47518],[-71.22317,42.4752],[-71.22301,42.47521],[-71.22287,42.4752],[-71.22272,42.47518],[-71.22256,42.47516],[-71.2224,42.47512],[-71.22225,42.47508],[-71.2221,42.47502],[-71.22061,42.47443],[-71.22047,42.47438],[-71.22035,42.47435],[-71.2202,42.47433],[-71.22005,42.47433],[-71.21992,42.47434],[-71.21979,42.47436],[-71.21965,42.4744],[-71.21953,42.47444],[-71.21941,42.47449],[-71.2193,42.47457],[-71.2192,42.47465],[-71.21912,42.47473],[-71.21906,42.47481],[-71.21902,42.47492],[-71.21899,42.47502],[-71.21897,42.47513],[-71.21898,42.47523],[-71.219,42.47532],[-71.21903,42.47542],[-71.2191,42.47553],[-71.21923,42.47574],[-71.21949,42.47614],[-71.21998,42.4769],[-71.22134,42.47899],[-71.22149,42.47922],[-71.22174,42.47957],[-71.2227,42.48104],[-71.2229,42.48133],[-71.22311,42.48162],[-71.22365,42.48234],[-71.22397,42.48275],[-71.22435,42.48322],[-71.22482,42.48379],[-71.22519,42.4842],[-71.22552,42.48458],[-71.2265,42.4856],[-71.22714,42.48624],[-71.22862,42.48771],[-71.23214,42.49122],[-71.23548,42.49455],[-71.23794,42.49701],[-71.23886,42.49792],[-71.23977,42.49904],[-71.23993,42.49925],[-71.24005,42.49941],[-71.24016,42.49961],[-71.24022,42.49973],[-71.24028,42.49986],[-71.24035,42.50008],[-71.2404,42.50035],[-71.24037,42.50057],[-71.24033,42.50077],[-71.2403,42.50099],[-71.24028,42.50118],[-71.2403,42.50132],[-71.24032,42.50147],[-71.2404,42.50166],[-71.24046,42.50185],[-71.24054,42.5021],[-71.2405,42.50233],[-71.24045,42.50241],[-71.24034,42.50248],[-71.24007,42.50264],[-71.23971,42.50267],[-71.23933,42.50266],[-71.23905,42.50263],[-71.23855,42.50255],[-71.2385,42.50268],[-71.23847,42.50277],[-71.23839,42.50291],[-71.23832,42.50305],[-71.23779,42.50358],[-71.23762,42.50366],[-71.23757,42.50369],[-71.23735,42.50382],[-71.23722,42.50389],[-71.23704,42.50398],[-71.23683,42.50407],[-71.23672,42.50411],[-71.23657,42.50414],[-71.23643,42.50417],[-71.23627,42.50418],[-71.2358,42.50418],[-71.23579,42.5045],[-71.2359,42.50458],[-71.23599,42.50467],[-71.23597,42.50473],[-71.23597882793953,42.504771190405336],[-71.23600142833888,42.50478657023388],[-71.23605184460564,42.50480707667848],[-71.2360953069024,42.50480323171831],[-71.23613529222045,42.50479682345704],[-71.23617,42.50478],[-71.2361871004456,42.50475434933158],[-71.23619,42.50475],[-71.236187,42.504751],[-71.236194,42.504742],[-71.236191,42.504691],[-71.23618059182981,42.50466845309751],[-71.23615625650447,42.50465207260169],[-71.2361196457911,42.5046404616727],[-71.23608430859217,42.50463647211876],[-71.236046,42.504639],[-71.235988,42.504672],[-71.235899,42.504582],[-71.235787,42.504505],[-71.235801,42.504178],[-71.23603,42.504183],[-71.236274,42.504176],[-71.236425,42.504168],[-71.236565,42.504143],[-71.236722,42.504105],[-71.236832,42.504068],[-71.237037,42.50398],[-71.23722,42.503886],[-71.237346,42.503816],[-71.237571,42.503687],[-71.23762,42.503663],[-71.237788,42.503582],[-71.238185,42.503525],[-71.238291,42.503507],[-71.2382652844529,42.50339740671626],[-71.238262,42.50333],[-71.238289,42.503157],[-71.238325,42.503053],[-71.23839,42.50291],[-71.238468,42.502766],[-71.238503,42.502677],[-71.238548,42.502553],[-71.239046,42.502632],[-71.239331,42.502661],[-71.23952268164142,42.50269551658519],[-71.23970152476073,42.50273100739082],[-71.23983829993661,42.50273691316107],[-71.24010493043616,42.502729112683966],[-71.2404787595995,42.50268620998273],[-71.24071576449393,42.502658128233264],[-71.24074714736977,42.50273817503063],[-71.240821,42.502896],[-71.240892,42.503032],[-71.241008,42.503199],[-71.24114,42.50337],[-71.24137,42.503624],[-71.241526,42.503842],[-71.241607,42.503899],[-71.241675,42.504068],[-71.24178,42.504316],[-71.24206,42.505064],[-71.242942,42.50729],[-71.243181,42.507906],[-71.243369,42.508372],[-71.243985,42.509966],[-71.244467,42.511183],[-71.244601,42.511168],[-71.24464662280756,42.51115027559118],[-71.24473909686452,42.51115027559118],[-71.24481269867238,42.51115305790808],[-71.24489007492595,42.51116279603656],[-71.24497311285492,42.51119061923498],[-71.24502595517711,42.51122957169602],[-71.2450853205641,42.51130589638694],[-71.24515137346684,42.51138519228425],[-71.24521742636273,42.51142831809125],[-71.2452702686849,42.511440838480894],[-71.24535708106647,42.51144779425073],[-71.24544011899545,42.511442229632905],[-71.24551749524899,42.5114171888516],[-71.2455778864763,42.51137128072992],[-71.245608,42.511321],[-71.245646,42.511256],[-71.245718,42.511062],[-71.245857,42.510685],[-71.2459,42.510584],[-71.245953,42.510536],[-71.246039,42.510504],[-71.24627563090958,42.51045928616392],[-71.24637210731561,42.5104513841676],[-71.24645357628036,42.5104498037648],[-71.24654790876171,42.51045928616392],[-71.24664867300922,42.51048773334131],[-71.24674086156601,42.51053988647288],[-71.24683714943917,42.51060040413808],[-71.2471812632217,42.511018099195866],[-71.24737635995062,42.51124093310384],[-71.24747938637634,42.51134630090078],[-71.2475565674996,42.51140319444099],[-71.24766161958081,42.51144112343894],[-71.24776238382832,42.51146482905534],[-71.24792424828387,42.511467737456144],[-71.2480950502836,42.51146128077548],[-71.248261,42.511448],[-71.248361,42.511422],[-71.248481,42.511367],[-71.248552,42.511308],[-71.248586,42.511244],[-71.248585,42.511159],[-71.248538,42.510735],[-71.248494,42.510455],[-71.248538,42.510735],[-71.248572,42.511044],[-71.248374,42.511059],[-71.247725,42.511109],[-71.247572,42.511121],[-71.247396,42.511241],[-71.24718,42.510975],[-71.246847,42.510594],[-71.246747,42.510509],[-71.246711,42.510496],[-71.246565,42.510444],[-71.246497,42.510436],[-71.246459,42.510436],[-71.246422,42.510437],[-71.246283,42.510451],[-71.2462,42.510469],[-71.246111,42.510488],[-71.246039,42.510504],[-71.245953,42.510536],[-71.2459,42.510584],[-71.245857,42.510685],[-71.245718,42.511062],[-71.245646,42.511256],[-71.245615,42.511319],[-71.245574,42.51137],[-71.245515,42.511418],[-71.245427,42.511444],[-71.245329,42.511451],[-71.245227,42.51143],[-71.245153,42.511385],[-71.245051,42.51126],[-71.245011,42.511219],[-71.24496,42.511187],[-71.244917,42.51117],[-71.244852,42.511157],[-71.244816,42.511152],[-71.244642,42.511153],[-71.244601,42.511168],[-71.244528,42.511175],[-71.244404,42.511213],[-71.244505,42.511491],[-71.244551,42.511688],[-71.244558,42.511841],[-71.244547,42.511995],[-71.244519,42.512135],[-71.244479,42.512278],[-71.244417,42.512415],[-71.24435,42.512532],[-71.244277,42.512635],[-71.244055,42.512881],[-71.243401,42.513557],[-71.243329,42.513631],[-71.243127,42.513839],[-71.242599,42.514411],[-71.242383,42.51462],[-71.242237,42.514751],[-71.241867,42.514974],[-71.241839,42.514992],[-71.241729,42.515046],[-71.241607,42.515113],[-71.241688,42.515179],[-71.241802,42.515273],[-71.243137,42.516366],[-71.243261,42.516394],[-71.243563,42.516598],[-71.244012,42.516963],[-71.244031,42.516978],[-71.244211,42.517124],[-71.244328,42.517208],[-71.244446,42.517294],[-71.245333,42.518022],[-71.246017,42.51857],[-71.246077,42.518618],[-71.246692,42.519111],[-71.246855,42.519241],[-71.248035,42.520188],[-71.2491,42.521037],[-71.249221,42.521137],[-71.25026,42.521996],[-71.250486,42.522137],[-71.250732,42.522335],[-71.251447,42.522911],[-71.251557,42.523002],[-71.251796,42.523253],[-71.251866,42.523336],[-71.252483,42.52407],[-71.252523,42.524118],[-71.252703,42.52432],[-71.252839,42.52445],[-71.253018,42.524607],[-71.25305,42.524634],[-71.253534,42.525036],[-71.254055,42.525472],[-71.254463,42.525806],[-71.254648,42.525958],[-71.255338,42.526539],[-71.25592,42.527027],[-71.256003,42.527116],[-71.256588,42.52762],[-71.256695,42.527713],[-71.257112,42.528076],[-71.257539,42.528448],[-71.257801,42.528673],[-71.257936,42.528789],[-71.258137,42.528962],[-71.25831,42.529118],[-71.2586,42.529379],[-71.258707,42.529475],[-71.258877,42.52962],[-71.259102,42.529811],[-71.259403,42.530066],[-71.260428,42.530954],[-71.262404,42.532619],[-71.262907,42.533021],[-71.263044,42.53313],[-71.263142,42.533209],[-71.2634,42.533424],[-71.2642,42.534094],[-71.265422,42.535058],[-71.266092,42.53461],[-71.266723,42.534184],[-71.267019,42.533985],[-71.2671,42.533926],[-71.267168,42.533867],[-71.26723,42.533807],[-71.267282,42.533747],[-71.267335,42.533667],[-71.267391,42.533586],[-71.267574,42.533282],[-71.267616,42.533223],[-71.267666,42.533179],[-71.267728,42.533142],[-71.267814,42.533111],[-71.268156,42.53301],[-71.268232,42.53299],[-71.268306,42.532977],[-71.268614,42.532932],[-71.268982,42.532878],[-71.269118,42.532858],[-71.269237,42.532844],[-71.269398,42.532828],[-71.269543,42.532816],[-71.269656,42.53281],[-71.269735,42.53239],[-71.26976,42.532296],[-71.269789,42.532198],[-71.269818,42.532133],[-71.269856,42.532065],[-71.269905,42.532005],[-71.270088,42.531807],[-71.270137,42.531762],[-71.270194,42.531714],[-71.270619,42.531389],[-71.270693,42.531334],[-71.270817,42.531238],[-71.270901,42.53117],[-71.271033,42.531062],[-71.27108,42.531028],[-71.271128,42.530998],[-71.271194,42.53096],[-71.271273,42.530925],[-71.271365,42.530884],[-71.271518,42.530824],[-71.271597,42.53079],[-71.271675,42.530752],[-71.271764,42.5307],[-71.271835,42.530657],[-71.271899,42.53061],[-71.271961,42.530558],[-71.27202,42.5305],[-71.272112,42.530412],[-71.272176,42.530344],[-71.272262,42.530253],[-71.27235,42.530168],[-71.272645,42.529907],[-71.272724,42.529839],[-71.272828,42.529752],[-71.272929,42.529675],[-71.273044,42.529595],[-71.273852,42.529067],[-71.274162,42.528862],[-71.274435,42.528709],[-71.274522,42.528654],[-71.274595,42.528693],[-71.275214,42.529023],[-71.275951,42.529422],[-71.276085,42.52949],[-71.27623,42.52953],[-71.276344,42.529561],[-71.276456,42.529571],[-71.276578,42.529573],[-71.276749,42.529562],[-71.276946,42.529545],[-71.276991,42.529776],[-71.277025,42.529946],[-71.277055,42.530102],[-71.277083,42.530241],[-71.277031,42.530538],[-71.277069,42.530775],[-71.277323,42.530743],[-71.277432,42.530729],[-71.277555,42.530714],[-71.277795,42.530684],[-71.277973,42.530661]]}},{"type":"Feature","properties":{"agency":"Middlesex 3 TMA","shape_id":"3"},"geometry":{"type":"LineString","coordinates":[[-71.277932,42.530488],[-71.277961,42.530635],[-71.277314,42.530687],[-71.277059,42.530708],[-71.277066,42.530753],[-71.277138,42.53119],[-71.27723874605933,42.53164869982351],[-71.27727795688787,42.53171190676679],[-71.27733432244449,42.53174802498765],[-71.277443,42.531778],[-71.27825,42.531917],[-71.2784408353773,42.53200477279637],[-71.27859277732794,42.532132991788615],[-71.278636,42.53229],[-71.278667,42.532388],[-71.278701,42.532492],[-71.278824,42.532793],[-71.278926,42.532955],[-71.279002,42.533058],[-71.279092,42.533146],[-71.279511,42.533531],[-71.279631,42.533653],[-71.279656,42.533741],[-71.279654,42.533859],[-71.27965,42.534046],[-71.279639,42.534581],[-71.279688,42.534953],[-71.279717,42.535148],[-71.279757,42.535246],[-71.279823,42.53538],[-71.280699,42.536644],[-71.280751,42.536715],[-71.280799,42.536774],[-71.280868,42.53686],[-71.280993,42.536999],[-71.28106,42.537087],[-71.281705,42.53802],[-71.281949,42.538377],[-71.282009,42.538463],[-71.282072,42.538537],[-71.282139,42.538597],[-71.282223,42.538667],[-71.282317,42.538731],[-71.282418,42.538795],[-71.282534,42.538856],[-71.28265,42.538909],[-71.282779,42.538958],[-71.28281,42.538969],[-71.282886,42.538995],[-71.283008,42.53903],[-71.28314,42.539056],[-71.28328,42.539075],[-71.283396,42.539087],[-71.28351,42.539093],[-71.283619,42.539095],[-71.283748,42.539088],[-71.283913,42.539078],[-71.284061,42.539067],[-71.284159,42.539064],[-71.284272,42.539065],[-71.284381,42.53907],[-71.284498,42.539078],[-71.284835,42.539113],[-71.284998,42.539155],[-71.285104,42.539188],[-71.285179,42.539218],[-71.285231,42.539253],[-71.285274,42.539299],[-71.285308,42.539354],[-71.285336,42.539409],[-71.285308,42.539512],[-71.285275,42.539605],[-71.285152,42.539906],[-71.285108,42.540003],[-71.285058,42.540106],[-71.285006,42.540212],[-71.284916,42.540309],[-71.284836,42.540379],[-71.284763,42.540435],[-71.284682,42.540478],[-71.28459,42.540509],[-71.284503,42.540532],[-71.284389,42.540549],[-71.284294,42.540557],[-71.284162,42.540555],[-71.283441,42.54044],[-71.283182,42.540399],[-71.282995,42.540364],[-71.282759,42.540299],[-71.282564,42.540229],[-71.282423,42.540154],[-71.282302,42.540074],[-71.282174,42.539969],[-71.281999,42.539784],[-71.281724,42.53946],[-71.280952,42.538571],[-71.280611,42.538058],[-71.277219,42.533004],[-71.276991,42.532689],[-71.276763,42.53239],[-71.276441,42.531991],[-71.276032,42.531517],[-71.275589,42.531038],[-71.275254,42.530698],[-71.274911,42.530378],[-71.274522,42.530019],[-71.274199,42.529739],[-71.273817,42.52942],[-71.272916,42.52874],[-71.271848,42.528021],[-71.270873,42.527391],[-71.268938,42.526132],[-71.26789,42.525447],[-71.26754,42.525212],[-71.267238,42.524997],[-71.266922,42.524777],[-71.266566,42.524519],[-71.265679,42.523833],[-71.264967,42.523254],[-71.264155,42.522539],[-71.263611,42.52204],[-71.263162,42.521601],[-71.261196,42.519648],[-71.257532,42.516003],[-71.253869,42.512363],[-71.249596,42.508109],[-71.248363,42.506873],[-71.247707,42.506184],[-71.246702,42.50475],[-71.24659,42.504463],[-71.246515,42.504139],[-71.24651,42.503842],[-71.24657490827944,42.50356935272228],[-71.246641,42.503327],[-71.24667896236862,42.50312984938171],[-71.24662792558361,42.50287273524896],[-71.24653,42.502606],[-71.246283,42.501889],[-71.24623,42.501697],[-71.246193,42.501635],[-71.246153,42.501596],[-71.246071,42.501555],[-71.2459,42.501536],[-71.245683,42.501571],[-71.245451,42.501618],[-71.245213,42.501665],[-71.244976,42.501712],[-71.244725,42.501761],[-71.244469,42.50181],[-71.244216,42.501855],[-71.243966,42.501898],[-71.243714,42.501941],[-71.243466,42.501984],[-71.243223,42.502023],[-71.242961,42.502069],[-71.242719,42.50212],[-71.242071,42.502241],[-71.241753,42.502298],[-71.241495,42.502345],[-71.241292,42.502386],[-71.240764,42.502488],[-71.240668,42.502506],[-71.240194,42.502571],[-71.239644,42.502625],[-71.23947163410998,42.50264179165623],[-71.239331,42.502661],[-71.239046,42.502632],[-71.238548,42.502553],[-71.238503,42.502677],[-71.238468,42.502766],[-71.23839,42.50291],[-71.238325,42.503053],[-71.238289,42.503157],[-71.23826514332366,42.5032510746193],[-71.238262,42.50333],[-71.238291,42.503507],[-71.238185,42.503525],[-71.237788,42.503582],[-71.23762,42.503663],[-71.237571,42.503687],[-71.237346,42.503816],[-71.23722,42.503886],[-71.237037,42.50398],[-71.236832,42.504068],[-71.236722,42.504105],[-71.236565,42.504143],[-71.236425,42.504168],[-71.236274,42.504176],[-71.23603,42.504183],[-71.235997,42.504182],[-71.235801,42.504178],[-71.235787,42.504505],[-71.235899,42.504582],[-71.235988,42.504672],[-71.235969,42.504727],[-71.23598802535452,42.50477453621647],[-71.236035,42.504796],[-71.23607690218513,42.50480495707751],[-71.236119,42.5048],[-71.236169,42.504775],[-71.23618753290204,42.50475090722736],[-71.236189,42.504749],[-71.236187,42.504751],[-71.236194,42.504742],[-71.236191,42.504691],[-71.23618059182981,42.50466845309751],[-71.23615625650447,42.50465207260169],[-71.2361196457911,42.5046404616727],[-71.23608430859217,42.50463647211876],[-71.236046,42.504639],[-71.235988,42.504672],[-71.235899,42.504582],[-71.235787,42.504505],[-71.235801,42.504178],[-71.23603,42.504183],[-71.236274,42.504176],[-71.236425,42.504168],[-71.236565,42.504143],[-71.236722,42.504105],[-71.236832,42.504068],[-71.237037,42.50398],[-71.23722,42.503886],[-71.237346,42.503816],[-71.237571,42.503687],[-71.23762,42.503663],[-71.237788,42.503582],[-71.238185,42.503525],[-71.238291,42.503507],[-71.2382652844529,42.50339740671626],[-71.238262,42.50333],[-71.238289,42.503157],[-71.238325,42.503053],[-71.23839,42.50291],[-71.238468,42.502766],[-71.238503,42.502677],[-71.238548,42.502553],[-71.239046,42.502632],[-71.239331,42.502661],[-71.23952268164142,42.50269551658519],[-71.23970152476073,42.50273100739082],[-71.23983829993661,42.50273691316107],[-71.24010493043616,42.502729112683966],[-71.2404787595995,42.50268620998273],[-71.24071576449393,42.502658128233264],[-71.24074714736977,42.50273817503063],[-71.240821,42.502896],[-71.240892,42.503032],[-71.241008,42.503199],[-71.24114,42.50337],[-71.24137,42.503624],[-71.241526,42.503842],[-71.241607,42.503899],[-71.241675,42.504068],[-71.24178,42.504316],[-71.24206,42.505064],[-71.242942,42.50729],[-71.243181,42.507906],[-71.243369,42.508372],[-71.243985,42.509966],[-71.244467,42.511183],[-71.244601,42.511168],[-71.24464662280756,42.51115027559118],[-71.24473909686452,42.51115027559118],[-71.24481269867238,42.51115305790808],[-71.24489007492595,42.51116279603656],[-71.24497311285492,42.51119061923498],[-71.24502595517711,42.51122957169602],[-71.2450853205641,42.51130589638694],[-71.24515137346684,42.51138519228425],[-71.24521742636273,42.51142831809125],[-71.2452702686849,42.511440838480894],[-71.24535708106647,42.51144779425073],[-71.24544011899545,42.511442229632905],[-71.24551749524899,42.5114171888516],[-71.2455778864763,42.51137128072992],[-71.245608,42.511321],[-71.245646,42.511256],[-71.245718,42.511062],[-71.245857,42.510685],[-71.2459,42.510584],[-71.245953,42.510536],[-71.246039,42.510504],[-71.24627563090958,42.51045928616392],[-71.24637210731561,42.5104513841676],[-71.24645357628036,42.5104498037648],[-71.24654790876171,42.51045928616392],[-71.24664867300922,42.51048773334131],[-71.24674086156601,42.51053988647288],[-71.24683714943917,42.51060040413808],[-71.2471812632217,42.511018099195866],[-71.24737635995062,42.51124093310384],[-71.24747938637634,42.51134630090078],[-71.2475565674996,42.51140319444099],[-71.24766161958081,42.51144112343894],[-71.24776238382832,42.51146482905534],[-71.24792424828387,42.511467737456144],[-71.2480950502836,42.51146128077548],[-71.248261,42.511448],[-71.248361,42.511422],[-71.248481,42.511367],[-71.248552,42.511308],[-71.248586,42.511244],[-71.248585,42.511159],[-71.248538,42.510735],[-71.248494,42.510455],[-71.248538,42.510735],[-71.248572,42.511044],[-71.248585,42.511159],[-71.248586,42.511244],[-71.248552,42.511308],[-71.248481,42.511367],[-71.248361,42.511422],[-71.248261,42.511448],[-71.24801,42.511463],[-71.247846,42.511462],[-71.247803,42.511455],[-71.247735,42.511443],[-71.247604,42.511395],[-71.247494,42.511328],[-71.247396,42.511241],[-71.24718,42.510975],[-71.246847,42.510594],[-71.246747,42.510509],[-71.246711,42.510496],[-71.246565,42.510444],[-71.246497,42.510436],[-71.246459,42.510436],[-71.246422,42.510437],[-71.246283,42.510451],[-71.2462,42.510469],[-71.246111,42.510488],[-71.246039,42.510504],[-71.245953,42.510536],[-71.2459,42.510584],[-71.245857,42.510685],[-71.245718,42.511062],[-71.245646,42.511256],[-71.245615,42.511319],[-71.245574,42.51137],[-71.245515,42.511418],[-71.245427,42.511444],[-71.245329,42.511451],[-71.245227,42.51143],[-71.245153,42.511385],[-71.245051,42.51126],[-71.245011,42.511219],[-71.24496,42.511187],[-71.244917,42.51117],[-71.244852,42.511157],[-71.244816,42.511152],[-71.244642,42.511153],[-71.244601,42.511168],[-71.244528,42.511175],[-71.24405,42.509953],[-71.243989,42.509795],[-71.243961,42.50974],[-71.243814,42.509347],[-71.243648,42.508928],[-71.243423,42.508363],[-71.243238,42.507888],[-71.243163,42.507691],[-71.243005,42.507286],[-71.242946,42.507141],[-71.242889,42.506985],[-71.242685,42.506472],[-71.242616,42.506295],[-71.242247,42.505346],[-71.242133,42.505051],[-71.24164,42.503894],[-71.241544,42.503722],[-71.241302,42.503403],[-71.241143,42.503212],[-71.241039,42.503079],[-71.24096,42.502931],[-71.240958,42.502809],[-71.240989,42.502719],[-71.241013,42.502686],[-71.241155,42.502566],[-71.241431,42.502497],[-71.241658,42.502449],[-71.24188,42.502405],[-71.242859,42.502224],[-71.24551,42.501737],[-71.245779,42.501705],[-71.245922,42.50177],[-71.246035,42.501828],[-71.246165,42.501951],[-71.246512,42.502955],[-71.246532,42.50305],[-71.246525,42.503155],[-71.24647,42.503294],[-71.246382,42.503394],[-71.24624,42.503498],[-71.246085,42.503562],[-71.24591,42.503597],[-71.245728,42.503601],[-71.245553,42.503566],[-71.245405,42.503516],[-71.245197,42.503401],[-71.244707,42.503036],[-71.243767,42.502312],[-71.243632,42.502179],[-71.243345,42.501898],[-71.24311,42.501667],[-71.240415,42.498954],[-71.237538,42.496093],[-71.234466,42.493022],[-71.229722,42.488297],[-71.228557,42.487142],[-71.22798,42.486575],[-71.226477,42.485065],[-71.225931,42.484481],[-71.225434,42.483925],[-71.225093,42.483537],[-71.224452,42.482761],[-71.223941,42.4821],[-71.223701,42.481778],[-71.223328,42.481263],[-71.22317,42.481017],[-71.22242,42.47963],[-71.222306,42.479232],[-71.222238,42.478882],[-71.222211,42.478587],[-71.222224,42.478156],[-71.222284,42.477801],[-71.222377,42.47749],[-71.222494,42.477238],[-71.222633,42.476991],[-71.222778,42.47679],[-71.223034,42.476509],[-71.223294,42.476279],[-71.223479,42.47613],[-71.223831,42.475911],[-71.224093,42.475774],[-71.224332,42.475661],[-71.224605,42.47556],[-71.224877,42.475473],[-71.225158,42.475393],[-71.225507,42.475297],[-71.225847,42.47521],[-71.226256,42.475112],[-71.226677,42.475019],[-71.227129,42.47493],[-71.227419,42.474877],[-71.227644,42.474836],[-71.228208,42.474729],[-71.228567,42.474654],[-71.229392,42.474462],[-71.232308,42.47401],[-71.234321,42.473703],[-71.234934,42.473604],[-71.236654,42.473332],[-71.237746,42.473163],[-71.238703,42.473011],[-71.239793,42.472791],[-71.240583,42.472578],[-71.241298,42.472338],[-71.241784,42.472161],[-71.242039,42.472062],[-71.242374,42.471933],[-71.243088,42.471597],[-71.243966,42.471118],[-71.24496,42.470502],[-71.245208,42.470347],[-71.24549,42.470174],[-71.246042,42.46982],[-71.246577,42.469471],[-71.247506,42.468875],[-71.24865,42.46819],[-71.248692,42.468162],[-71.249496,42.467625],[-71.250264,42.467099],[-71.252937,42.465393],[-71.256026,42.463404],[-71.25647,42.463084],[-71.256872,42.462755],[-71.257223,42.462425],[-71.257368,42.462276],[-71.257563,42.462055],[-71.25779,42.46179],[-71.258,42.46151],[-71.25819,42.461232],[-71.258265,42.461107],[-71.258449,42.460774],[-71.258625,42.460421],[-71.258729,42.460168],[-71.258839,42.459843],[-71.258932,42.459524],[-71.258999,42.459195],[-71.259055,42.458775],[-71.259079,42.45834],[-71.259061,42.457804],[-71.259045,42.457678],[-71.258975,42.457241],[-71.258851,42.456747],[-71.258777,42.456518],[-71.258655,42.456205],[-71.258349,42.455577],[-71.257814,42.454574],[-71.257111,42.453278],[-71.256885,42.452844],[-71.256542,42.452196],[-71.256236,42.451608],[-71.256043,42.45121],[-71.255839,42.450696],[-71.255632,42.449932],[-71.255542,42.449418],[-71.255528,42.448771],[-71.255595,42.448124],[-71.255655,42.447812],[-71.255778,42.447396],[-71.255897,42.447067],[-71.256032,42.446696],[-71.256127,42.44646],[-71.256354,42.44588],[-71.256479,42.445561],[-71.256788,42.444792],[-71.257216,42.443718],[-71.257378,42.443304],[-71.257514,42.442955],[-71.257693,42.442507],[-71.258404,42.440727],[-71.25859,42.440271],[-71.258767,42.439776],[-71.258884,42.439461],[-71.259055,42.439018],[-71.259255,42.438381],[-71.259461,42.43767],[-71.259573,42.437179],[-71.259704,42.436481],[-71.259804,42.435848],[-71.259857,42.43538],[-71.259882,42.435003],[-71.259886,42.434467],[-71.259883,42.434113],[-71.259855,42.433575],[-71.259787,42.432985],[-71.259662,42.432334],[-71.25879,42.428301],[-71.258691,42.427807],[-71.25868,42.427361],[-71.258702,42.427136],[-71.258734,42.426965],[-71.258808,42.426825],[-71.258923,42.426702],[-71.259101,42.426609],[-71.25928,42.426539],[-71.259437,42.426532],[-71.259583,42.426533],[-71.259688,42.426548],[-71.259866,42.426603],[-71.260043,42.426688],[-71.260304,42.426852],[-71.26068,42.427132],[-71.261003,42.427458],[-71.261123,42.427599],[-71.261171,42.42766],[-71.261217,42.427721],[-71.261253,42.427773],[-71.261281,42.427817],[-71.261309,42.427867],[-71.261327,42.427911],[-71.261341,42.427958],[-71.26135,42.428005],[-71.261353,42.42805],[-71.261353,42.428095],[-71.261348,42.428139],[-71.261337,42.428184],[-71.26132,42.428233],[-71.261297,42.428279],[-71.261268,42.428326],[-71.261238,42.428367],[-71.261203,42.428405],[-71.261162,42.428442],[-71.26111,42.42848],[-71.261058,42.428515],[-71.261,42.428547],[-71.26094,42.428574],[-71.260877,42.428595],[-71.260817,42.428613],[-71.26075,42.428627],[-71.260685,42.428637],[-71.260623,42.428642],[-71.260559,42.428645],[-71.260497,42.428644],[-71.260427,42.428637],[-71.260369,42.428628],[-71.260312,42.428616],[-71.26025,42.428599],[-71.260186,42.428577],[-71.259042,42.428136],[-71.258029,42.42758],[-71.256225,42.426578],[-71.255989,42.426449],[-71.252896,42.424762],[-71.252658,42.424632],[-71.252421,42.424502],[-71.25218,42.424376],[-71.251933,42.424251],[-71.251684,42.424134],[-71.25143,42.424016],[-71.251175,42.423901],[-71.250908,42.423784],[-71.250658,42.423674],[-71.250408,42.423566],[-71.250152,42.423459],[-71.249898,42.423356],[-71.249631,42.423254],[-71.249368,42.423162],[-71.249101,42.423071],[-71.248829,42.422982],[-71.248593,42.422908],[-71.248354,42.422834],[-71.248069,42.422752],[-71.24778,42.422673],[-71.24749,42.422597],[-71.247221,42.422529],[-71.246929,42.42246],[-71.246639,42.422397],[-71.246351,42.422336],[-71.246057,42.422279],[-71.245761,42.422225],[-71.245466,42.422175],[-71.245172,42.422127],[-71.244879,42.422083],[-71.244585,42.422044],[-71.244287,42.422009],[-71.243982,42.421975],[-71.243688,42.421947],[-71.243392,42.421922],[-71.243089,42.4219],[-71.242788,42.421881],[-71.242477,42.421866],[-71.242191,42.421853],[-71.232083,42.421518],[-71.231427,42.421496],[-71.230787,42.421467],[-71.227215,42.421348],[-71.226989,42.42134],[-71.226497,42.421319],[-71.22583,42.421279],[-71.225385,42.421241],[-71.224961,42.421184],[-71.224566,42.421122],[-71.224127,42.421043],[-71.223704,42.420957],[-71.223137,42.420817],[-71.222732,42.420703],[-71.222372,42.420587],[-71.221963,42.42044],[-71.221306,42.420191],[-71.220845,42.419988],[-71.22026,42.419735],[-71.220037,42.419646],[-71.219096,42.419283],[-71.217927,42.418888],[-71.217323,42.418706],[-71.216138,42.418381],[-71.215577,42.418249],[-71.215016,42.41813],[-71.214673,42.418063],[-71.21359,42.417873],[-71.212876,42.417768],[-71.212066,42.417671],[-71.211337,42.417616],[-71.210368,42.417561],[-71.209354,42.417527],[-71.208885,42.417511],[-71.206607,42.417447],[-71.205595,42.41741],[-71.204972,42.417381],[-71.204544,42.417361],[-71.204009,42.417315],[-71.203472,42.417269],[-71.203014,42.417222],[-71.202576,42.417171],[-71.202216,42.417123],[-71.20187,42.417074],[-71.201163,42.41696],[-71.200672,42.416873],[-71.20023,42.416789],[-71.199672,42.416672],[-71.199259,42.41658],[-71.198973,42.41651],[-71.198401,42.416365],[-71.197658,42.41616],[-71.196903,42.41596],[-71.196248,42.41578],[-71.195654,42.415621],[-71.195356,42.415542],[-71.194946,42.415428],[-71.194491,42.41529],[-71.194195,42.415193],[-71.193728,42.415039],[-71.193341,42.414903],[-71.192966,42.414765],[-71.192542,42.414602],[-71.192124,42.414433],[-71.190973,42.41395],[-71.189945,42.413518],[-71.18902,42.413139],[-71.18877,42.413042],[-71.188132,42.412799],[-71.187559,42.412594],[-71.186984,42.412392],[-71.185,42.411707],[-71.184537,42.411547],[-71.184048,42.41139],[-71.183557,42.411245],[-71.183059,42.411107],[-71.182611,42.410999],[-71.182149,42.410893],[-71.181655,42.410796],[-71.181159,42.410706],[-71.180243,42.410553],[-71.178905,42.410339],[-71.178109,42.410202],[-71.177734,42.410133],[-71.177353,42.410059],[-71.176655,42.409891],[-71.175949,42.409715],[-71.174475,42.409305],[-71.174084,42.409191],[-71.173243,42.408936],[-71.172128,42.408567],[-71.17081,42.408093],[-71.168968,42.407397],[-71.16699,42.406656],[-71.166503,42.406477],[-71.166039,42.406321],[-71.165618,42.406192],[-71.165212,42.406073],[-71.164314,42.405824],[-71.163964,42.405718],[-71.163876,42.405696],[-71.163582,42.405611],[-71.162789,42.40539],[-71.160639,42.404779],[-71.160376,42.404697],[-71.160228,42.404647],[-71.159989,42.404554],[-71.159608,42.404385],[-71.159423,42.404294],[-71.159236,42.404192],[-71.159013,42.404058],[-71.158689,42.403859],[-71.157968,42.403435],[-71.157122,42.402929],[-71.156774,42.40273],[-71.156234,42.402446],[-71.155797,42.402231],[-71.154426,42.401578],[-71.153999,42.401391],[-71.153695,42.401265],[-71.153426,42.401156],[-71.153133,42.401044],[-71.152819,42.40094],[-71.152467,42.400836],[-71.151586,42.400558],[-71.150895,42.400357],[-71.150082,42.400104],[-71.149938,42.400059],[-71.149771,42.400007],[-71.149318,42.39987],[-71.148632,42.399664],[-71.147954,42.399464],[-71.147597,42.399348],[-71.147206,42.399165],[-71.146942,42.399058],[-71.146681,42.398959],[-71.146438,42.398876],[-71.146331,42.398846],[-71.144503,42.398285],[-71.144095,42.39816],[-71.143994,42.398121],[-71.143908,42.398068],[-71.143828,42.398002],[-71.143757,42.397911],[-71.143694,42.397795],[-71.143633,42.397676],[-71.14357,42.397545],[-71.143513,42.397423],[-71.143468,42.397323],[-71.143406,42.397189],[-71.143347,42.397044],[-71.143287,42.39686],[-71.143227,42.39654],[-71.143208,42.396449],[-71.143193,42.39637],[-71.143167,42.396275],[-71.143135,42.396174],[-71.143069,42.396019],[-71.143015,42.39591],[-71.142878,42.395636],[-71.142863,42.395617],[-71.142844,42.395595],[-71.142811,42.395528],[-71.14274,42.395379],[-71.142634,42.395147],[-71.142503,42.395178],[-71.142529,42.395233],[-71.142627,42.395428]]}}]}