{"type":"FeatureCollection","features":[{"type":"Feature","properties":{"agency":"NY Waterway","shape_id":"1"},"geometry":{"type":"LineString","coordinates":[[-74.0100432,40.776397],[-74.0026231,40.773174],[-74.0099262,40.763171],[-74.0140272,40.757552],[-74.0155102,40.75146],[-74.0218762,40.752562],[-74.0155102,40.75146],[-74.0236372,40.718069],[-74.0240392,40.71544],[-74.0177752,40.715029],[-74.0240392,40.71544],[-74.0263902,40.700103],[-74.0190292,40.698021],[-74.0113922,40.697639],[-74.0043781,40.701592],[-74.0066932,40.703647]]}},{"type":"Feature","properties":{"agency":"NY Waterway","shape_id":"10"},"geometry":{"type":"LineString","coordinates":[[-74.010043,40.776397],[-74.002623,40.773174],[-74.009926,40.763171],[-74.003862,40.760595]]}},{"type":"Feature","properties":{"agency":"NY Waterway","shape_id":"100"},"geometry":{"type":"LineString","coordinates":[[-74.0787388,40.433338],[-74.0789978,40.433528],[-74.0813278,40.434456],[-74.0816988,40.434896],[-74.0377378,40.577249],[-74.0557668,40.651475],[-74.0495948,40.661622],[-74.0378398,40.681095],[-74.0344958,40.686694],[-74.0263904,40.700103],[-74.0244188,40.712972],[-74.0323904,40.713836],[-74.0244184,40.712972],[-74.0240394,40.71544],[-74.0177754,40.715029],[-74.0240394,40.71544],[-74.0244184,40.712972],[-74.0263904,40.700103],[-74.0190294,40.698021],[-74.0113934,40.697639],[-74.0043782,40.701592],[-74.0066932,40.703647]]}},{"type":"Feature","properties":{"agency":"NY Waterway","shape_id":"101"},"geometry":{"type":"LineString","coordinates":[[-74.0787386,40.433338],[-74.0789976,40.433528],[-74.0813276,40.434456],[-74.0816986,40.434896],[-74.0377376,40.577249],[-74.0557666,40.651475],[-74.0495946,40.661622],[-74.0378396,40.681095],[-74.0344956,40.686694],[-74.0263902,40.700103],[-74.0190296,40.698021],[-74.0113942,40.697639],[-74.0043783,40.701592],[-74.0061446,40.703161],[-74.0043783,40.701592],[-74.0113952,40.697639],[-74.0190296,40.698021],[-74.0263902,40.700103],[-74.0244186,40.712972],[-74.0240396,40.71544],[-74.0177756,40.715029],[-74.0240396,40.71544],[-74.0244186,40.712972],[-74.0240396,40.71544],[-74.0236376,40.718069],[-74.0197802,40.733917],[-74.0155102,40.75146],[-74.0140276,40.757552],[-74.0099192,40.763169],[-74.0038632,40.760595]]}},{"type":"Feature","properties":{"agency":"NY Waterway","shape_id":"102"},"geometry":{"type":"LineString","coordinates":[[-74.0787386,40.433338],[-74.0789976,40.433528],[-74.0813276,40.434456],[-74.0816986,40.434896],[-74.0377376,40.577249],[-74.0557666,40.651475],[-74.0495946,40.661622],[-74.0378396,40.681095],[-74.0344956,40.686694],[-74.0263902,40.700103],[-74.0190296,40.698021],[-74.0113942,40.697639],[-74.0043783,40.701592],[-74.0061446,40.703161],[-74.0043783,40.701592],[-74.0113942,40.697639],[-74.0190296,40.698021],[-74.0263902,40.700103],[-74.0244186,40.712972],[-74.0240396,40.71544],[-74.0177756,40.715029],[-74.0240396,40.71544],[-74.0244186,40.712972],[-74.0240396,40.71544],[-74.0236376,40.718069],[-74.0197802,40.733917],[-74.0155102,40.75146],[-74.0140276,40.757552],[-74.0099192,40.763169],[-74.0038632,40.760595]]}},{"type":"Feature","properties":{"agency":"NY Waterway","shape_id":"103"},"geometry":{"type":"LineString","coordinates":[[-74.0066922,40.703645],[-74.0043782,40.701592],[-74.0113934,40.697639],[-74.0190294,40.698021],[-74.0263904,40.700103],[-74.0344958,40.686694],[-74.0378398,40.681095],[-74.0495948,40.661622],[-74.0557668,40.651475],[-74.0377378,40.577249],[-74.0816988,40.434896],[-74.0813278,40.434456],[-74.0789978,40.433528],[-74.0787388,40.433338]]}},{"type":"Feature","properties":{"agency":"NY Waterway","shape_id":"104"},"geometry":{"type":"LineString","coordinates":[[-74.0038614,40.760594],[-74.0099194,40.763169],[-74.0140278,40.757552],[-74.0155104,40.75146],[-74.0197804,40.733917],[-74.0236378,40.718069],[-74.0240398,40.71544],[-74.0177758,40.715029],[-74.0240398,40.71544],[-74.0244196,40.71297],[-74.0263902,40.700103],[-74.0190272,40.69802],[-74.0113952,40.697639],[-74.0043784,40.701592],[-74.0061448,40.703161],[-74.0043784,40.701592],[-74.0113942,40.697639],[-74.0190272,40.69802],[-74.0263902,40.700103],[-74.0344958,40.686694],[-74.0378398,40.681095],[-74.0495948,40.661622],[-74.0557668,40.651475],[-74.0377378,40.577249],[-74.0816988,40.434896],[-74.0813278,40.434456],[-74.0789978,40.433528],[-74.0787388,40.433338]]}},{"type":"Feature","properties":{"agency":"NY Waterway","shape_id":"11"},"geometry":{"type":"LineString","coordinates":[[-74.003862,40.760595],[-74.009926,40.763171],[-74.002623,40.773174],[-74.010043,40.776397]]}},{"type":"Feature","properties":{"agency":"NY Waterway","shape_id":"111"},"geometry":{"type":"LineString","coordinates":[[-74.0787384,40.433338],[-74.0789974,40.433528],[-74.0813274,40.434456],[-74.0816984,40.434896],[-74.0377374,40.577249],[-74.0557664,40.651475],[-74.0495944,40.661622],[-74.0378394,40.681095],[-74.0344954,40.686694],[-74.0263904,40.700103],[-74.0190294,40.698021],[-74.0113942,40.697639],[-74.0043782,40.701592],[-74.0061444,40.703161],[-74.0043782,40.701592],[-74.0113952,40.697639],[-74.0190294,40.698021],[-74.0263904,40.700103],[-74.0244184,40.712972],[-74.0240394,40.71544],[-74.0177754,40.715029],[-74.0240394,40.71544],[-74.0244184,40.712972],[-74.0329334,40.713896]]}},{"type":"Feature","properties":{"agency":"NY Waterway","shape_id":"113"},"geometry":{"type":"LineString","coordinates":[[-74.0100432,40.776397],[-74.0026231,40.773174],[-74.0099262,40.763171],[-74.0140272,40.757552],[-74.0155102,40.75146],[-74.0218762,40.752562],[-74.0155102,40.75146],[-74.0236372,40.718069],[-74.0240392,40.71544],[-74.0177752,40.715029],[-74.0240392,40.71544],[-74.0263902,40.700103],[-74.0190292,40.698021],[-74.0113922,40.697639],[-74.0043781,40.701592],[-74.0066932,40.703647]]}},{"type":"Feature","properties":{"agency":"NY Waterway","shape_id":"114"},"geometry":{"type":"LineString","coordinates":[[-73.969722,40.827934],[-73.964057,40.825984],[-74.002623,40.773174],[-74.010043,40.776397],[-74.002623,40.773174],[-74.009926,40.763171],[-74.003862,40.760595]]}},{"type":"Feature","properties":{"agency":"NY Waterway","shape_id":"115"},"geometry":{"type":"LineString","coordinates":[[-74.0066932,40.703647],[-74.0043781,40.701592],[-74.0113922,40.697639],[-74.0190292,40.698021],[-74.0263902,40.700103],[-74.0240392,40.71544],[-74.0177752,40.715029],[-74.0240392,40.71544],[-74.0236372,40.718069],[-74.0155102,40.75146],[-74.0218762,40.752562],[-74.0155102,40.75146],[-74.0140272,40.757552],[-74.0099262,40.763171],[-74.0026231,40.773174],[-74.0100432,40.776397]]}},{"type":"Feature","properties":{"agency":"NY Waterway","shape_id":"116"},"geometry":{"type":"LineString","coordinates":[[-74.0100432,40.776397],[-74.0026231,40.773174],[-74.0099262,40.763171],[-74.003837,40.760602],[-74.009925,40.763171],[-74.0140272,40.757552],[-74.0154412,40.751741],[-74.0155102,40.75146],[-74.0236372,40.718069],[-74.0240392,40.71544],[-74.0263902,40.700103],[-74.0190292,40.698021],[-74.0113922,40.697639],[-74.0043781,40.701592],[-74.0066932,40.703647]]}},{"type":"Feature","properties":{"agency":"NY Waterway","shape_id":"117"},"geometry":{"type":"LineString","coordinates":[[-74.0100432,40.776397],[-74.0026231,40.773174],[-74.0099262,40.763171],[-74.0140272,40.757552],[-74.0155102,40.75146],[-74.0218762,40.752562],[-74.0155102,40.75146],[-74.0236372,40.718069],[-74.0240392,40.71544],[-74.0177752,40.715029],[-74.0240392,40.71544],[-74.0263902,40.700103],[-74.0190292,40.698021],[-74.0113922,40.697639],[-74.0043781,40.701592],[-74.0066932,40.703647]]}},{"type":"Feature","properties":{"agency":"NY Waterway","shape_id":"118"},"geometry":{"type":"LineString","coordinates":[[-74.003862,40.760595],[-74.009926,40.763171],[-74.002623,40.773174],[-74.010043,40.776397],[-74.002623,40.773174],[-73.964057,40.825984],[-73.969722,40.827934]]}},{"type":"Feature","properties":{"agency":"NY Waterway","shape_id":"119"},"geometry":{"type":"LineString","coordinates":[[-74.0066932,40.703647],[-74.0043781,40.701592],[-74.0113922,40.697639],[-74.0190292,40.698021],[-74.0263902,40.700103],[-74.0240392,40.71544],[-74.0236372,40.718069],[-74.0155102,40.75146],[-74.0154412,40.751741],[-74.0140272,40.757552],[-74.009926,40.763171],[-74.00387,40.760611],[-74.0099262,40.763171],[-74.0026231,40.773174],[-74.0100432,40.776397]]}},{"type":"Feature","properties":{"agency":"NY Waterway","shape_id":"12"},"geometry":{"type":"LineString","coordinates":[[-74.0231382,40.752781],[-74.0155102,40.75146],[-74.0145472,40.755419],[-74.0140282,40.757552],[-74.0099262,40.763171],[-74.0038622,40.760595]]}},{"type":"Feature","properties":{"agency":"NY Waterway","shape_id":"120"},"geometry":{"type":"LineString","coordinates":[[-74.0066922,40.703645],[-74.0043782,40.701592],[-74.0113934,40.697639],[-74.0190294,40.698021],[-74.0263904,40.700103],[-74.0344958,40.686694],[-74.0378398,40.681095],[-74.0495948,40.661622],[-74.0557668,40.651475],[-74.0377378,40.577249],[-74.0816988,40.434896],[-74.0813278,40.434456],[-74.0789978,40.433528],[-74.0787388,40.433338]]}},{"type":"Feature","properties":{"agency":"NY Waterway","shape_id":"121"},"geometry":{"type":"LineString","coordinates":[[-74.0066932,40.703647],[-74.0043781,40.701592],[-74.0113922,40.697639],[-74.0190292,40.698021],[-74.0263902,40.700103],[-74.0240392,40.71544],[-74.0177752,40.715029],[-74.0240392,40.71544],[-74.0236372,40.718069],[-74.0155102,40.75146],[-74.0218762,40.752562],[-74.0155102,40.75146],[-74.0140272,40.757552],[-74.0099262,40.763171],[-74.0026231,40.773174],[-74.0100432,40.776397]]}},{"type":"Feature","properties":{"agency":"NY Waterway","shape_id":"13"},"geometry":{"type":"LineString","coordinates":[[-74.0231382,40.752781],[-74.0155102,40.75146],[-74.0145472,40.755419],[-74.0226602,40.758716],[-74.0145472,40.755419],[-74.0140282,40.757552],[-74.0099262,40.763171],[-74.0038622,40.760595]]}},{"type":"Feature","properties":{"agency":"NY Waterway","shape_id":"14"},"geometry":{"type":"LineString","coordinates":[[-74.0038622,40.760595],[-74.0099262,40.763171],[-74.0140282,40.757552],[-74.0145472,40.755419],[-74.0226602,40.758716],[-74.0145472,40.755419],[-74.0155102,40.75146],[-74.0231382,40.752781]]}},{"type":"Feature","properties":{"agency":"NY Waterway","shape_id":"15"},"geometry":{"type":"LineString","coordinates":[[-74.0038622,40.760595],[-74.0099262,40.763171],[-74.0140282,40.757552],[-74.0145472,40.755419],[-74.0226602,40.758716],[-74.0145472,40.755419],[-74.0155102,40.75146],[-74.0231382,40.752781]]}},{"type":"Feature","properties":{"agency":"NY Waterway","shape_id":"16"},"geometry":{"type":"LineString","coordinates":[[-74.0038622,40.760595],[-74.0099262,40.763171],[-74.0140282,40.757552],[-74.0145472,40.755419],[-74.0155102,40.75146],[-74.0231382,40.752781]]}},{"type":"Feature","properties":{"agency":"NY Waterway","shape_id":"17"},"geometry":{"type":"LineString","coordinates":[[-74.0038622,40.760595],[-74.0099262,40.763171],[-74.0140282,40.757552],[-74.0145472,40.755419],[-74.0155102,40.75146],[-74.0218762,40.752562],[-74.0155102,40.75146],[-74.0145472,40.755419],[-74.0226602,40.758716]]}},{"type":"Feature","properties":{"agency":"NY Waterway","shape_id":"18"},"geometry":{"type":"LineString","coordinates":[[-74.0226602,40.758716],[-74.0145472,40.755419],[-74.0154412,40.751741],[-74.0218762,40.752562],[-74.0155102,40.75146],[-74.0145472,40.755419],[-74.0140282,40.757552],[-74.0099262,40.763171],[-74.0038622,40.760595]]}},{"type":"Feature","properties":{"agency":"NY Waterway","shape_id":"19"},"geometry":{"type":"LineString","coordinates":[[-74.017775,40.715029],[-74.024039,40.71544],[-74.023637,40.718069],[-74.01978,40.733917],[-74.026492,40.735127]]}},{"type":"Feature","properties":{"agency":"NY Waterway","shape_id":"2"},"geometry":{"type":"LineString","coordinates":[[-74.003862,40.760595],[-74.009926,40.763171],[-74.002623,40.773174],[-73.964057,40.825984],[-73.969722,40.827934]]}},{"type":"Feature","properties":{"agency":"NY Waterway","shape_id":"20"},"geometry":{"type":"LineString","coordinates":[[-74.026492,40.735127],[-74.01978,40.733917],[-74.023637,40.718069],[-74.024039,40.71544],[-74.02639,40.700103],[-74.019029,40.698021],[-74.011392,40.697639],[-74.004378,40.701592],[-74.006693,40.703647]]}},{"type":"Feature","properties":{"agency":"NY Waterway","shape_id":"21"},"geometry":{"type":"LineString","coordinates":[[-74.026492,40.735127],[-74.01978,40.733917],[-74.023637,40.718069],[-74.024039,40.71544],[-74.017775,40.715029]]}},{"type":"Feature","properties":{"agency":"NY Waterway","shape_id":"22"},"geometry":{"type":"LineString","coordinates":[[-74.006693,40.703647],[-74.004378,40.701592],[-74.011393,40.697639],[-74.019029,40.698021],[-74.02639,40.700103],[-74.024039,40.71544],[-74.023637,40.718069],[-74.01978,40.733917],[-74.026492,40.735127]]}},{"type":"Feature","properties":{"agency":"NY Waterway","shape_id":"23"},"geometry":{"type":"LineString","coordinates":[[-74.017775,40.715029],[-74.024039,40.71544],[-74.024418,40.712972],[-74.032933,40.713896]]}},{"type":"Feature","properties":{"agency":"NY Waterway","shape_id":"24"},"geometry":{"type":"LineString","coordinates":[[-74.032933,40.713896],[-74.024418,40.712972],[-74.024039,40.71544],[-74.017775,40.715029]]}},{"type":"Feature","properties":{"agency":"NY Waterway","shape_id":"30"},"geometry":{"type":"LineString","coordinates":[[-74.0038622,40.760595],[-74.0099262,40.763171],[-74.0140272,40.757552],[-74.0155102,40.75146],[-74.0197802,40.733917],[-74.0236372,40.718069],[-74.0244182,40.712972],[-74.0323892,40.713836],[-74.0244182,40.712972],[-74.0236372,40.718069],[-74.0197802,40.733917],[-74.0264922,40.735127]]}},{"type":"Feature","properties":{"agency":"NY Waterway","shape_id":"32"},"geometry":{"type":"LineString","coordinates":[[-74.0038622,40.760595],[-74.0099262,40.763171],[-74.0140272,40.757552],[-74.0155102,40.75146],[-74.0197802,40.733917],[-74.0264922,40.735127],[-74.0197802,40.733917],[-74.0236372,40.718069],[-74.0244182,40.712972],[-74.0329332,40.713896]]}},{"type":"Feature","properties":{"agency":"NY Waterway","shape_id":"34"},"geometry":{"type":"LineString","coordinates":[[-74.0038622,40.760595],[-74.0099262,40.763171],[-74.0140272,40.757552],[-74.0155102,40.75146],[-74.0197802,40.733917],[-74.0264922,40.735127],[-74.0197802,40.733917],[-74.0236372,40.718069],[-74.0244182,40.712972],[-74.0329332,40.713896]]}},{"type":"Feature","properties":{"agency":"NY Waterway","shape_id":"38"},"geometry":{"type":"LineString","coordinates":[[-74.043438,40.711277],[-74.025034,40.70895],[-74.024418,40.712972],[-74.032389,40.713836],[-74.024418,40.712972],[-74.025034,40.70895],[-74.02639,40.700103],[-74.019029,40.698021],[-74.011392,40.697639],[-74.004378,40.701592],[-74.006693,40.703647]]}},{"type":"Feature","properties":{"agency":"NY Waterway","shape_id":"39"},"geometry":{"type":"LineString","coordinates":[[-74.006693,40.703647],[-74.004378,40.701592],[-74.011392,40.697639],[-74.019029,40.698021],[-74.02639,40.700103],[-74.025034,40.70895],[-74.024418,40.712972],[-74.032389,40.713836],[-74.024418,40.712972],[-74.025034,40.70895],[-74.043438,40.711277]]}},{"type":"Feature","properties":{"agency":"NY Waterway","shape_id":"4"},"geometry":{"type":"LineString","coordinates":[[-73.969722,40.827934],[-73.964057,40.825984],[-74.002623,40.773174],[-74.009926,40.763171],[-74.003862,40.760595]]}},{"type":"Feature","properties":{"agency":"NY Waterway","shape_id":"40"},"geometry":{"type":"LineString","coordinates":[[-74.006693,40.703647],[-74.004378,40.701592],[-74.011392,40.697639],[-74.019029,40.698021],[-74.02639,40.700103],[-74.025034,40.70895],[-74.024418,40.712972],[-74.032389,40.713836],[-74.024418,40.712972],[-74.025034,40.70895],[-74.043438,40.711277]]}},{"type":"Feature","properties":{"agency":"NY Waterway","shape_id":"41"},"geometry":{"type":"LineString","coordinates":[[-73.957989,41.192803],[-73.948205,41.192698],[-73.937923,41.192585],[-73.897221,41.157332],[-73.871184,41.157053]]}},{"type":"Feature","properties":{"agency":"NY Waterway","shape_id":"44"},"geometry":{"type":"LineString","coordinates":[[-74.0066932,40.703647],[-74.0043781,40.701592],[-74.0113922,40.697639],[-74.0190292,40.698021],[-74.0263902,40.700103],[-74.0240392,40.71544],[-74.0236372,40.718069],[-74.0155102,40.75146],[-74.0154412,40.751741],[-74.0140272,40.757552],[-74.0099262,40.763171],[-74.0026231,40.773174],[-74.0100432,40.776397]]}},{"type":"Feature","properties":{"agency":"NY Waterway","shape_id":"45"},"geometry":{"type":"LineString","coordinates":[[-74.0100432,40.776397],[-74.0026231,40.773174],[-74.0099262,40.763171],[-74.0140272,40.757552],[-74.0154412,40.751741],[-74.0155102,40.75146],[-74.0236372,40.718069],[-74.0240392,40.71544],[-74.0263902,40.700103],[-74.0190292,40.698021],[-74.0113922,40.697639],[-74.0043781,40.701592],[-74.0066932,40.703647]]}},{"type":"Feature","properties":{"agency":"NY Waterway","shape_id":"46"},"geometry":{"type":"LineString","coordinates":[[-74.0787384,40.433338],[-74.0789974,40.433528],[-74.0813274,40.434456],[-74.0816984,40.434896],[-74.0377374,40.577249],[-74.0557664,40.651475],[-74.0495944,40.661622],[-74.0378394,40.681095],[-74.0344954,40.686694],[-74.0263904,40.700103],[-74.0190294,40.698021],[-74.0113942,40.697639],[-74.0043782,40.701592],[-74.0061444,40.703161],[-74.0043782,40.701592],[-74.0113952,40.697639],[-74.0190294,40.698021],[-74.0263904,40.700103],[-74.0244184,40.712972],[-74.0240394,40.71544],[-74.0177754,40.715029],[-74.0240394,40.71544],[-74.0244184,40.712972],[-74.0329334,40.713896]]}},{"type":"Feature","properties":{"agency":"NY Waterway","shape_id":"47"},"geometry":{"type":"LineString","coordinates":[[-74.0787384,40.433338],[-74.0789974,40.433528],[-74.0813274,40.434456],[-74.0816984,40.434896],[-74.0377374,40.577249],[-74.0557664,40.651475],[-74.0495944,40.661622],[-74.0378394,40.681095],[-74.0344954,40.686694],[-74.0263904,40.700103],[-74.0190294,40.698021],[-74.0113942,40.697639],[-74.0043782,40.701592],[-74.0061444,40.703161],[-74.0043782,40.701592],[-74.0113952,40.697639],[-74.0190294,40.698021],[-74.0263904,40.700103],[-74.0244184,40.712972],[-74.0240394,40.71544],[-74.0177754,40.715029],[-74.0240394,40.71544],[-74.0244184,40.712972],[-74.0323894,40.713836],[-74.0244184,40.712972],[-74.0240394,40.71544],[-74.0236374,40.718069],[-74.0197802,40.733917],[-74.0155102,40.75146],[-74.0140274,40.757552],[-74.0099192,40.763169],[-74.0038632,40.760595]]}},{"type":"Feature","properties":{"agency":"NY Waterway","shape_id":"50"},"geometry":{"type":"LineString","coordinates":[[-74.0038612,40.760594],[-74.0099192,40.763169],[-74.0140274,40.757552],[-74.0155102,40.75146],[-74.0197802,40.733917],[-74.0236374,40.718069],[-74.0240394,40.71544],[-74.0244184,40.712972],[-74.0323894,40.713836],[-74.0244184,40.712972],[-74.0240394,40.71544],[-74.0177754,40.715029],[-74.0240394,40.71544],[-74.0244184,40.712972],[-74.0263904,40.700103],[-74.0190294,40.698021],[-74.0113942,40.697639],[-74.0043782,40.701592],[-74.0061444,40.703161],[-74.0043782,40.701592],[-74.0113952,40.697639],[-74.0190294,40.698021],[-74.0263904,40.700103],[-74.0344954,40.686694],[-74.0378394,40.681095],[-74.0495944,40.661622],[-74.0557664,40.651475],[-74.0377374,40.577249],[-74.0816984,40.434896],[-74.0813274,40.434456],[-74.0789974,40.433528],[-74.0787384,40.433338]]}},{"type":"Feature","properties":{"agency":"NY Waterway","shape_id":"51"},"geometry":{"type":"LineString","coordinates":[[-74.0329332,40.713896],[-74.0244182,40.712972],[-74.0263902,40.700103],[-74.0344952,40.686694],[-74.0378392,40.681095],[-74.0495942,40.661622],[-74.0557662,40.651475],[-74.0377372,40.577249],[-74.0816982,40.434896],[-74.0813272,40.434456],[-74.0789972,40.433528],[-74.0787382,40.433338]]}},{"type":"Feature","properties":{"agency":"NY Waterway","shape_id":"53"},"geometry":{"type":"LineString","coordinates":[[-74.0329332,40.713896],[-74.0244182,40.712972],[-74.0236372,40.718069],[-74.0197802,40.733917],[-74.0155102,40.75146],[-74.0140272,40.757552],[-74.0099262,40.763171],[-74.0038622,40.760595]]}},{"type":"Feature","properties":{"agency":"NY Waterway","shape_id":"54"},"geometry":{"type":"LineString","coordinates":[[-74.0264922,40.735127],[-74.0197802,40.733917],[-74.0155102,40.75146],[-74.0140272,40.757552],[-74.0099262,40.763171],[-74.0038622,40.760595]]}},{"type":"Feature","properties":{"agency":"NY Waterway","shape_id":"55"},"geometry":{"type":"LineString","coordinates":[[-74.0787384,40.433338],[-74.0789974,40.433528],[-74.0813274,40.434456],[-74.0816984,40.434896],[-74.0377374,40.577249],[-74.0557664,40.651475],[-74.0495944,40.661622],[-74.0378394,40.681095],[-74.0344954,40.686694],[-74.0263904,40.700103],[-74.0190294,40.698021],[-74.0113942,40.697639],[-74.0043782,40.701592],[-74.0061444,40.703161],[-74.0043782,40.701592],[-74.0113952,40.697639],[-74.0190294,40.698021],[-74.0263904,40.700103],[-74.0244184,40.712972],[-74.0240394,40.71544],[-74.0177754,40.715029],[-74.0240394,40.71544],[-74.0244184,40.712972],[-74.0323894,40.713836],[-74.0244184,40.712972],[-74.0240394,40.71544],[-74.0236374,40.718069],[-74.0197802,40.733917],[-74.0155102,40.75146],[-74.0140274,40.757552],[-74.0099192,40.763169],[-74.0038632,40.760595]]}},{"type":"Feature","properties":{"agency":"NY Waterway","shape_id":"57"},"geometry":{"type":"LineString","coordinates":[[-74.0038632,40.760595],[-74.0099192,40.763169],[-74.0140274,40.757552],[-74.0155102,40.75146],[-74.0197802,40.733917],[-74.0236374,40.718069],[-74.0240394,40.71544],[-74.0244184,40.712972],[-74.0263904,40.700103],[-74.0344954,40.686694],[-74.0378394,40.681095],[-74.0495944,40.661622],[-74.0557664,40.651475],[-74.0377374,40.577249],[-74.0816984,40.434896],[-74.0813274,40.434456],[-74.0789974,40.433528],[-74.0787384,40.433338]]}},{"type":"Feature","properties":{"agency":"NY Waterway","shape_id":"59"},"geometry":{"type":"LineString","coordinates":[[-74.003862,40.760595],[-74.009926,40.763171],[-74.014028,40.757552],[-74.014547,40.755419],[-74.02266,40.758716]]}},{"type":"Feature","properties":{"agency":"NY Waterway","shape_id":"6"},"geometry":{"type":"LineString","coordinates":[[-73.871184,41.157053],[-73.897221,41.157332],[-73.937923,41.192585],[-73.948205,41.192698],[-73.957989,41.192803]]}},{"type":"Feature","properties":{"agency":"NY Waterway","shape_id":"62"},"geometry":{"type":"LineString","coordinates":[[-74.026492,40.735127],[-74.019781,40.733917],[-74.023637,40.718069],[-74.024039,40.71544],[-74.024418,40.712972],[-74.032389,40.713836],[-74.024418,40.712972],[-74.024039,40.71544],[-74.017775,40.715029]]}},{"type":"Feature","properties":{"agency":"NY Waterway","shape_id":"63"},"geometry":{"type":"LineString","coordinates":[[-74.017775,40.715029],[-74.024039,40.71544],[-74.023637,40.718069],[-74.019781,40.733917],[-74.026492,40.735127]]}},{"type":"Feature","properties":{"agency":"NY Waterway","shape_id":"64"},"geometry":{"type":"LineString","coordinates":[[-74.017775,40.715029],[-74.024039,40.71544],[-74.024418,40.712972],[-74.032933,40.713896]]}},{"type":"Feature","properties":{"agency":"NY Waterway","shape_id":"65"},"geometry":{"type":"LineString","coordinates":[[-74.017775,40.715029],[-74.024039,40.71544],[-74.024419,40.712972],[-74.032389,40.713836],[-74.024418,40.712972],[-74.024039,40.71544],[-74.023637,40.718069],[-74.019781,40.733917],[-74.026492,40.735127]]}},{"type":"Feature","properties":{"agency":"NY Waterway","shape_id":"66"},"geometry":{"type":"LineString","coordinates":[[-74.032933,40.713896],[-74.024418,40.712972],[-74.024039,40.71544],[-74.023637,40.718069],[-74.019781,40.733917],[-74.026492,40.735127],[-74.019781,40.733917],[-74.023637,40.718069],[-74.024039,40.71544],[-74.017775,40.715029]]}},{"type":"Feature","properties":{"agency":"NY Waterway","shape_id":"68"},"geometry":{"type":"LineString","coordinates":[[-74.075224,40.6873],[-74.075994,40.686821],[-74.046509,40.666732],[-74.037836,40.681098],[-74.034495,40.686694],[-74.02639,40.700103],[-74.019029,40.698021],[-74.011392,40.697639],[-74.004378,40.701592],[-74.006693,40.703647]]}},{"type":"Feature","properties":{"agency":"NY Waterway","shape_id":"69"},"geometry":{"type":"LineString","coordinates":[[-74.006693,40.703647],[-74.004378,40.701592],[-74.011392,40.697639],[-74.019029,40.698021],[-74.02639,40.700103],[-74.034495,40.686694],[-74.037826,40.681116],[-74.046509,40.666732],[-74.075994,40.686821],[-74.075224,40.6873]]}},{"type":"Feature","properties":{"agency":"NY Waterway","shape_id":"7"},"geometry":{"type":"LineString","coordinates":[[-74.0100432,40.776397],[-74.0026231,40.773174],[-74.0099262,40.763171],[-74.0140272,40.757552],[-74.0155102,40.75146],[-74.0218762,40.752562],[-74.0155102,40.75146],[-74.0236372,40.718069],[-74.0240392,40.71544],[-74.0177752,40.715029],[-74.0240392,40.71544],[-74.0263902,40.700103],[-74.0190292,40.698021],[-74.0113922,40.697639],[-74.0043781,40.701592],[-74.0066932,40.703647]]}},{"type":"Feature","properties":{"agency":"NY Waterway","shape_id":"72"},"geometry":{"type":"LineString","coordinates":[[-74.017775,40.715029],[-74.02404,40.71544],[-74.026389,40.700103],[-74.034495,40.686694],[-74.037839,40.681095],[-74.049594,40.661622],[-74.055766,40.651475],[-74.037737,40.577249],[-74.123082,40.510778],[-74.225208,40.484555],[-74.253038,40.48666],[-74.270393,40.491469],[-74.274483,40.489683]]}},{"type":"Feature","properties":{"agency":"NY Waterway","shape_id":"8"},"geometry":{"type":"LineString","coordinates":[[-74.0066932,40.703647],[-74.0043781,40.701592],[-74.0113922,40.697639],[-74.0190292,40.698021],[-74.0263902,40.700103],[-74.0240392,40.71544],[-74.0177752,40.715029],[-74.0240392,40.71544],[-74.0236372,40.718069],[-74.0155102,40.75146],[-74.0218762,40.752562],[-74.0155102,40.75146],[-74.0140272,40.757552],[-74.0099262,40.763171],[-74.0026231,40.773174],[-74.0100432,40.776397]]}},{"type":"Feature","properties":{"agency":"NY Waterway","shape_id":"81"},"geometry":{"type":"LineString","coordinates":[[-74.006693,40.703647],[-74.004379,40.701592],[-74.011392,40.697639],[-74.01903,40.698021],[-74.02639,40.700103],[-74.034907,40.686006],[-74.037839,40.681095],[-74.049594,40.661622],[-74.055766,40.651475],[-74.037737,40.577249],[-74.123082,40.510778],[-74.225208,40.484555],[-74.253038,40.48666],[-74.270393,40.491469],[-74.274483,40.489683]]}},{"type":"Feature","properties":{"agency":"NY Waterway","shape_id":"82"},"geometry":{"type":"LineString","coordinates":[[-74.274483,40.489683],[-74.270393,40.491469],[-74.253038,40.48666],[-74.225208,40.484555],[-74.123082,40.510778],[-74.037737,40.577249],[-74.055766,40.651475],[-74.049594,40.661622],[-74.037839,40.681095],[-74.034495,40.686694],[-74.02639,40.700103],[-74.024039,40.71544],[-74.017775,40.715029],[-74.024039,40.71544],[-74.02639,40.700103],[-74.019029,40.698021],[-74.011392,40.697639],[-74.004378,40.701592],[-74.006692,40.703647]]}},{"type":"Feature","properties":{"agency":"NY Waterway","shape_id":"84"},"geometry":{"type":"LineString","coordinates":[[-74.274483,40.489683],[-74.270393,40.491469],[-74.2530382,40.48666],[-74.225208,40.484555],[-74.123082,40.510778],[-74.0377372,40.577249],[-74.0557662,40.651475],[-74.0495942,40.661622],[-74.0378392,40.681095],[-74.0344952,40.686694],[-74.0263892,40.700103],[-74.0190292,40.698021],[-74.0113932,40.697639],[-74.0043781,40.701592],[-74.0061452,40.703161],[-74.0043781,40.701592],[-74.0113932,40.697639],[-74.0190292,40.698021],[-74.0263902,40.700103],[-74.0240392,40.71544],[-74.0177752,40.715029],[-74.0240392,40.71544],[-74.0236372,40.718069],[-74.0155102,40.75146],[-74.0140272,40.757552],[-74.0099262,40.763171],[-74.0038622,40.760595]]}},{"type":"Feature","properties":{"agency":"NY Waterway","shape_id":"87"},"geometry":{"type":"LineString","coordinates":[[-74.0100432,40.776397],[-74.0026231,40.773174],[-74.0099262,40.763171],[-74.0140272,40.757552],[-74.0155102,40.75146],[-74.0218762,40.752562],[-74.0155102,40.75146],[-74.0236372,40.718069],[-74.0240392,40.71544],[-74.0177752,40.715029]]}},{"type":"Feature","properties":{"agency":"NY Waterway","shape_id":"88"},"geometry":{"type":"LineString","coordinates":[[-74.0177754,40.715029],[-74.0240394,40.71544],[-74.0236374,40.718069],[-74.0155102,40.75146],[-74.0140274,40.757552],[-74.0099264,40.763171],[-74.0026232,40.773174],[-74.0100434,40.776397]]}},{"type":"Feature","properties":{"agency":"NY Waterway","shape_id":"9"},"geometry":{"type":"LineString","coordinates":[[-74.0066932,40.703647],[-74.0043781,40.701592],[-74.0113922,40.697639],[-74.0190292,40.698021],[-74.0263902,40.700103],[-74.0240392,40.71544],[-74.0177752,40.715029],[-74.0240392,40.71544],[-74.0236372,40.718069],[-74.0155102,40.75146],[-74.0218762,40.752562],[-74.0155102,40.75146],[-74.0140272,40.757552],[-74.0099262,40.763171],[-74.0026231,40.773174],[-74.0100432,40.776397]]}},{"type":"Feature","properties":{"agency":"NY Waterway","shape_id":"93"},"geometry":{"type":"LineString","coordinates":[[-74.274483,40.489683],[-74.270393,40.491469],[-74.253038,40.48666],[-74.225208,40.484555],[-74.123082,40.510778],[-74.037737,40.577249],[-74.055766,40.651475],[-74.049594,40.661622],[-74.037839,40.681095],[-74.034495,40.686694],[-74.02639,40.700103],[-74.01903,40.698021],[-74.011392,40.697639],[-74.004378,40.701592],[-74.006145,40.703161],[-74.004378,40.701592],[-74.011392,40.697639],[-74.01903,40.698021],[-74.02639,40.700103],[-74.024039,40.71544],[-74.017775,40.715029]]}},{"type":"Feature","properties":{"agency":"NY Waterway","shape_id":"96"},"geometry":{"type":"LineString","coordinates":[[-74.0038622,40.760595],[-74.0099262,40.763171],[-74.0140272,40.757552],[-74.0155102,40.75146],[-74.0236372,40.718069],[-74.0240392,40.71544],[-74.0177752,40.715029],[-74.0240402,40.71544],[-74.0263902,40.700103],[-74.0190302,40.698021],[-74.0113942,40.697639],[-74.0043781,40.701592],[-74.0061452,40.703161],[-74.0043781,40.701592],[-74.0113942,40.697639],[-74.0190302,40.698021],[-74.0263902,40.700103],[-74.0344962,40.686693],[-74.0378392,40.681095],[-74.0495942,40.661622],[-74.0557662,40.651475],[-74.0377372,40.577249],[-74.123082,40.510778],[-74.225207,40.484555],[-74.2530382,40.48666],[-74.270393,40.491469],[-74.274483,40.489683]]}},{"type":"Feature","properties":{"agency":"NY Waterway","shape_id":"99"},"geometry":{"type":"LineString","coordinates":[[-74.0787392,40.433338],[-74.0789982,40.433528],[-74.0813282,40.434456],[-74.0816992,40.434896],[-74.0377382,40.577249],[-74.0557672,40.651475],[-74.0495952,40.661622],[-74.0378402,40.681095],[-74.0344962,40.686694],[-74.0263902,40.700103],[-74.0244184,40.712972],[-74.0240394,40.71544],[-74.0236374,40.718069],[-74.0155102,40.75146],[-74.0140272,40.757553],[-74.0099192,40.763169],[-74.0038632,40.760595],[-74.0099192,40.763169],[-74.0140272,40.757553],[-74.0155102,40.75146],[-74.0197802,40.733917],[-74.0236374,40.718069],[-74.0240394,40.71544],[-74.0177698,40.715029],[-74.0240394,40.71544],[-74.0263902,40.700103],[-74.0190294,40.698021],[-74.0113934,40.697639],[-74.0043782,40.701592],[-74.0066936,40.703647]]}}]}