{"type":"FeatureCollection","features":[{"type":"Feature","properties":{"agency":"Oneonta Public Transit","shape_id":"066a9591-e710-4798-a2fe-fb43d97572b9"},"geometry":{"type":"LineString","coordinates":[[-75.06359,42.45254],[-75.0634,42.45276],[-75.06316,42.45297],[-75.06214,42.45378],[-75.06136,42.45444],[-75.06062,42.45501],[-75.05987,42.45564],[-75.05887,42.45643],[-75.0583,42.45691],[-75.05812,42.45698],[-75.05796,42.45704],[-75.05764,42.45714],[-75.05704,42.45729],[-75.05544,42.45771],[-75.05503,42.45782],[-75.05452,42.45796],[-75.05375,42.45816],[-75.05319,42.4583],[-75.05289,42.45836],[-75.05221,42.4585],[-75.05191,42.45854],[-75.05177,42.45856],[-75.05165,42.45857],[-75.0513,42.45857],[-75.05098,42.45857],[-75.05078,42.45855],[-75.05057,42.45852],[-75.05041,42.45848],[-75.05033,42.45846],[-75.04837,42.45779],[-75.04741,42.45736],[-75.04705,42.45722],[-75.04662,42.45711],[-75.0461,42.45703],[-75.04587,42.45701],[-75.04529,42.45698],[-75.04388,42.45692],[-75.04275,42.45689],[-75.04143,42.45688],[-75.03851,42.4569],[-75.03746,42.45695],[-75.0368,42.457],[-75.03577,42.4571],[-75.03336,42.4573],[-75.03165,42.45747],[-75.03037,42.45762],[-75.03035,42.45745],[-75.03032,42.45736],[-75.03029,42.45733],[-75.03025,42.45732],[-75.03018,42.45731],[-75.03009,42.45731],[-75.02958,42.45739],[-75.02927,42.45743],[-75.02878,42.45745],[-75.02873,42.45732],[-75.02928,42.45727],[-75.03065,42.45697],[-75.030501,42.456611],[-75.0305,42.45661],[-75.03043,42.45644],[-75.0294,42.45667],[-75.02854,42.45687],[-75.02878,42.45745],[-75.02927,42.45743],[-75.02958,42.45739],[-75.03009,42.45731],[-75.03018,42.45731],[-75.03025,42.45732],[-75.03029,42.45733],[-75.03032,42.45736],[-75.03035,42.45745],[-75.03037,42.45762],[-75.02925,42.45774],[-75.02873,42.45781],[-75.02818,42.4579],[-75.02738,42.45807],[-75.02592,42.45844],[-75.02458,42.45878],[-75.02397,42.45887],[-75.02308,42.45895],[-75.02242,42.45902],[-75.0221,42.45908],[-75.02142,42.45922],[-75.02105,42.45932],[-75.02068,42.45945],[-75.01989,42.45976],[-75.01905,42.46013],[-75.01833,42.46047],[-75.01766,42.46084],[-75.01697,42.46126],[-75.01632,42.46163],[-75.01571,42.46192],[-75.01537,42.46207],[-75.01498,42.4622],[-75.01387,42.46254],[-75.01375,42.46233],[-75.01307,42.46169],[-75.01375,42.46232],[-75.01388,42.46253],[-75.01335,42.46273],[-75.01249,42.46309],[-75.01181,42.46342],[-75.01095,42.46385],[-75.00958,42.46465],[-75.00919,42.46489],[-75.0088,42.46517],[-75.00761,42.46608],[-75.00696,42.46662],[-75.00658,42.46697],[-75.00604,42.46751],[-75.00372,42.47013],[-75.00338,42.47049],[-75.00279,42.47117],[-75.00151,42.47258],[-75.00043,42.47378],[-74.99999,42.47426],[-74.99941,42.47492],[-74.99882,42.47561],[-74.99659,42.47809],[-74.99587,42.479],[-74.99504,42.48021],[-74.99444,42.48102],[-74.99379,42.48201],[-74.99343,42.48265],[-74.99308,42.48337],[-74.99285,42.48389],[-74.99263,42.48425],[-74.99238,42.48456],[-74.99202,42.48488],[-74.98983,42.48649],[-74.98939,42.48685],[-74.98748,42.48874],[-74.98714,42.48904],[-74.98677,42.48929],[-74.98629,42.48951],[-74.98182,42.491],[-74.98239,42.49391],[-74.98247,42.4945],[-74.9825,42.49491],[-74.98238,42.49611],[-74.98218,42.49739],[-74.98209,42.49767],[-74.98196,42.49783],[-74.98165,42.49808],[-74.98155,42.49814],[-74.9819,42.49886],[-74.98239,42.49994],[-74.98247,42.50009],[-74.98278,42.50054],[-74.98343,42.50142],[-74.9842,42.50228],[-74.98521,42.50332],[-74.98567,42.50376],[-74.98622,42.50428],[-74.98737,42.50522],[-74.98824,42.50603],[-74.98977,42.50765],[-74.98999,42.50792],[-74.99014,42.50813],[-74.99036,42.5085],[-74.99059,42.50896],[-74.99188,42.51184],[-74.99199,42.51225],[-74.99201,42.51244],[-74.99202,42.51275],[-74.99197,42.51328],[-74.9917,42.51491],[-74.99151,42.51594],[-74.99122,42.51773],[-74.99112,42.52014],[-74.99099,42.52072],[-74.99066,42.52147],[-74.98991,42.52278],[-74.98949,42.52337],[-74.98871,42.52435],[-74.98773,42.52553],[-74.98751,42.52576],[-74.98716,42.52609],[-74.98445,42.52831],[-74.98404,42.52862],[-74.98368,42.52886],[-74.98329,42.52908],[-74.98284,42.52927],[-74.98216,42.5295],[-74.98052,42.52997],[-74.98018,42.53004],[-74.97986,42.53007],[-74.97984,42.53069],[-74.97971,42.53135],[-74.979708,42.531357],[-74.97967,42.53153],[-74.97966,42.53185],[-74.97971,42.53271],[-74.97974,42.53291],[-74.9798,42.53316],[-74.9803,42.533],[-74.9806,42.53287],[-74.98069,42.53282],[-74.98073,42.5327],[-74.9808,42.53207],[-74.98091,42.53187],[-74.98091,42.53186],[-74.98104,42.53172],[-74.98151,42.53139],[-74.98172,42.53121],[-74.98178,42.5311],[-74.98178,42.53103],[-74.98175,42.53093],[-74.98171,42.5309],[-74.98152,42.53082],[-74.98138,42.53079],[-74.97984,42.53069],[-74.97986,42.53007],[-74.97934,42.53009],[-74.979,42.53008],[-74.97727,42.52998],[-74.97679,42.52992],[-74.97558,42.52973],[-74.97482,42.52959],[-74.97449,42.5295],[-74.97333,42.52908],[-74.97275,42.5289],[-74.97218,42.52876],[-74.97132,42.52857],[-74.97095,42.52853],[-74.9705,42.52852],[-74.97033,42.52853],[-74.96964,42.52861],[-74.96941,42.52868],[-74.96899,42.52884],[-74.96873,42.52897],[-74.96846,42.52915],[-74.96815,42.5294],[-74.96796,42.52964],[-74.9674,42.53045],[-74.96683,42.53135],[-74.96617,42.53233],[-74.96343,42.53651],[-74.96313,42.53709],[-74.96291,42.53758],[-74.96246,42.53879],[-74.96236,42.539],[-74.96211,42.53946],[-74.96121,42.5409],[-74.9605,42.54175],[-74.95948,42.54271],[-74.95701,42.5451],[-74.95649,42.54563],[-74.95608,42.54621],[-74.95593,42.54646],[-74.95568,42.54708],[-74.9555,42.54799],[-74.95536,42.54863],[-74.9547,42.55029],[-74.95416,42.55154],[-74.9535,42.55288],[-74.95335,42.55329],[-74.95331,42.5535],[-74.95326,42.55389],[-74.95327,42.55434],[-74.95335,42.55475],[-74.95346,42.55512],[-74.9543,42.55712],[-74.95449,42.55795],[-74.9545,42.55828],[-74.95448,42.55873],[-74.95442,42.55925],[-74.95427,42.56024],[-74.95413,42.56076],[-74.95178,42.56719],[-74.95114,42.56911],[-74.94991,42.57248],[-74.9498,42.57283],[-74.94961,42.57355],[-74.94939,42.57466],[-74.94913,42.57622],[-74.94904,42.57699],[-74.94838,42.58132],[-74.94833,42.58169],[-74.94827,42.5825],[-74.94816,42.58329],[-74.94808,42.5837],[-74.94745,42.58599],[-74.94687,42.58796],[-74.94676,42.58827],[-74.94642,42.58899],[-74.94589,42.58998],[-74.94552,42.59063],[-74.94517,42.59058],[-74.94552,42.59063],[-74.94463,42.59232],[-74.9443,42.59307],[-74.94428,42.59319],[-74.94429,42.59336],[-74.94433,42.59355],[-74.9444,42.5937],[-74.9445,42.59383],[-74.94509,42.59451],[-74.946,42.59544],[-74.94646,42.59587],[-74.94861,42.59769],[-74.95174,42.60017],[-74.95198,42.60044],[-74.95219,42.60074],[-74.95281,42.6021],[-74.953,42.60244],[-74.95349,42.60316],[-74.95376,42.60348],[-74.9541,42.60383],[-74.95448,42.60416],[-74.95503,42.60474],[-74.95538,42.60524],[-74.95547,42.60541],[-74.9562,42.60732],[-74.95704,42.60909],[-74.95742,42.61007],[-74.95803,42.61188],[-74.9586,42.61378],[-74.95911,42.61581],[-74.95966,42.61773],[-74.95996,42.61867],[-74.96091,42.62146],[-74.96122,42.62239],[-74.96188,42.62466],[-74.96278,42.62797],[-74.96363,42.63108],[-74.96467,42.63463],[-74.96516,42.63617],[-74.96535,42.6369],[-74.96542,42.63729],[-74.96545,42.63768],[-74.9654,42.63936],[-74.96535,42.6401],[-74.96511,42.6428],[-74.96492,42.64554],[-74.96484,42.64647],[-74.96464,42.648],[-74.96438,42.64994],[-74.96433,42.65063],[-74.96433,42.65365],[-74.96432,42.65405],[-74.96402,42.65492],[-74.96394,42.65507],[-74.96305,42.65596],[-74.96259,42.65645],[-74.96229,42.65673],[-74.96207,42.6569],[-74.9597,42.65831],[-74.95926,42.65865],[-74.9589,42.65904],[-74.95865,42.65937],[-74.9585,42.6596],[-74.95824,42.66007],[-74.95815,42.66026],[-74.95805,42.66067],[-74.95805,42.66106],[-74.95814,42.66222],[-74.95819,42.6625],[-74.95844,42.6632],[-74.95885,42.66422],[-74.95906,42.6649],[-74.95915,42.66536],[-74.95914,42.66589],[-74.95911,42.66603],[-74.95896,42.66631],[-74.95875,42.66661],[-74.95855,42.66686],[-74.95832,42.66706],[-74.95797,42.66732],[-74.95564,42.66888],[-74.95505,42.66935],[-74.95201,42.67197],[-74.95143,42.6725],[-74.95111,42.67283],[-74.95073,42.67329],[-74.95059,42.67354],[-74.94977,42.6751],[-74.94868,42.67692],[-74.94694,42.67953],[-74.94635,42.68027],[-74.94561,42.68112],[-74.94507,42.68177],[-74.94483,42.68215],[-74.94411,42.68347],[-74.94402,42.68361],[-74.94365,42.68404],[-74.94315,42.68444],[-74.94164,42.68546],[-74.9407,42.68605],[-74.94027,42.6863],[-74.93986,42.6865],[-74.93875,42.68684],[-74.93825,42.68701],[-74.93796,42.68715],[-74.93771,42.6873],[-74.9374,42.68753],[-74.93703,42.68792],[-74.93669,42.68836],[-74.93648,42.68871],[-74.93644,42.68884],[-74.9363,42.6891],[-74.93603,42.69006],[-74.93571,42.69138],[-74.93536,42.69263],[-74.93523,42.69298],[-74.93502,42.69328],[-74.93448,42.69394],[-74.93398,42.69442],[-74.92793,42.69475],[-74.92637,42.69483],[-74.92461,42.69488],[-74.9241,42.69617],[-74.92344,42.69602],[-74.9241,42.69617],[-74.92381,42.69691],[-74.9234,42.69806],[-74.92317,42.69866],[-74.92312,42.69876],[-74.92465,42.69909],[-74.92478,42.69914],[-74.92429,42.70046],[-74.92682,42.70102],[-74.92767,42.70027],[-74.92775,42.70033]]}},{"type":"Feature","properties":{"agency":"Oneonta Public Transit","shape_id":"08abc202-1957-495d-8007-9d6a2876f8c2"},"geometry":{"type":"LineString","coordinates":[[-75.09092,42.44551],[-75.08854,42.44452],[-75.08823,42.44441],[-75.08797,42.44433],[-75.08754,42.44428],[-75.08603,42.44418],[-75.0838,42.44421],[-75.08274,42.44428],[-75.08076,42.44448],[-75.08051,42.44451],[-75.07795,42.44505],[-75.07721,42.44523],[-75.07589,42.4456],[-75.07107,42.44688],[-75.06643,42.44815],[-75.06487,42.44857],[-75.06391,42.44882],[-75.06388,42.45182],[-75.06381,42.45216],[-75.06367,42.45245],[-75.06359,42.45254],[-75.06359,42.45253],[-75.0634,42.45275],[-75.06316,42.45297],[-75.06215,42.45378],[-75.06136,42.45443],[-75.06062,42.45501],[-75.05988,42.45564],[-75.05887,42.45642],[-75.05831,42.4569],[-75.05797,42.45704],[-75.05765,42.45714],[-75.05503,42.45781],[-75.05376,42.45816],[-75.05289,42.45836],[-75.05191,42.45854],[-75.05166,42.45856],[-75.05099,42.45856],[-75.05078,42.45854],[-75.05042,42.45848],[-75.04837,42.45778],[-75.04741,42.45735],[-75.04705,42.45721],[-75.04662,42.4571],[-75.04588,42.457],[-75.04275,42.45688],[-75.04144,42.45687],[-75.04017,42.45688],[-75.039947,42.455903],[-75.04004,42.45589],[-75.03988,42.45472],[-75.03868,42.4548],[-75.03873,42.45531],[-75.03888,42.4569],[-75.04144,42.45687],[-75.04275,42.45688],[-75.04588,42.457],[-75.04633,42.45706],[-75.04662,42.4571],[-75.04705,42.45721],[-75.04741,42.45735],[-75.04837,42.45778],[-75.05042,42.45848],[-75.05078,42.45854],[-75.05099,42.45856],[-75.05166,42.45856],[-75.05191,42.45854],[-75.05289,42.45836],[-75.05376,42.45816],[-75.05503,42.45781],[-75.05765,42.45714],[-75.05797,42.45704],[-75.05831,42.4569],[-75.05799,42.45659],[-75.05658,42.45575],[-75.05607,42.45542],[-75.05565,42.45512],[-75.05456,42.45421],[-75.05398,42.45363],[-75.05357,42.45315],[-75.0532,42.45265],[-75.05273,42.45193],[-75.05215,42.45078],[-75.05158,42.4495],[-75.05071,42.44772],[-75.05057,42.4476],[-75.04881,42.44807],[-75.04805,42.44825],[-75.04665,42.44854],[-75.04608,42.44863],[-75.04576,42.44756],[-75.04563,42.44758],[-75.0452,42.44763],[-75.0452,42.44762],[-75.04465,42.44766],[-75.04455,42.44762],[-75.04434,42.44765],[-75.04371,42.4477],[-75.04302,42.44783],[-75.0431,42.44806],[-75.04263,42.44808],[-75.04225,42.44809],[-75.04192,42.44806],[-75.04156,42.44718],[-75.0414,42.44684],[-75.04132,42.44671],[-75.04122,42.44668],[-75.04044,42.4466],[-75.040436,42.4466],[-75.04003,42.44657],[-75.03987,42.44749],[-75.03988,42.44749],[-75.03974,42.44828],[-75.03999,42.44829],[-75.04181,42.44841],[-75.04178,42.44872],[-75.04178,42.44902],[-75.04269,42.44901],[-75.04361,42.44895],[-75.0443,42.44889],[-75.04665,42.44854],[-75.04805,42.44825],[-75.04881,42.44807],[-75.05057,42.4476],[-75.0543,42.44664],[-75.0556,42.44629],[-75.05708,42.44579],[-75.06125,42.44427],[-75.06172,42.44419],[-75.06194,42.44417],[-75.06209,42.44418],[-75.06245,42.44426],[-75.06258,42.44431],[-75.06283,42.44447],[-75.06294,42.44458],[-75.06319,42.44494],[-75.06384,42.447788],[-75.06384,42.44779],[-75.0639,42.44816],[-75.06391,42.44882],[-75.06389,42.45039],[-75.06389,42.45157],[-75.06388,42.45182],[-75.06381,42.45216],[-75.06367,42.45245],[-75.06359,42.45254],[-75.0634,42.45275],[-75.06316,42.45297],[-75.06397,42.45355],[-75.06422,42.45369],[-75.06435,42.45374],[-75.06607,42.45405],[-75.06685,42.45422],[-75.06719,42.45432],[-75.06837,42.45475],[-75.06867,42.45483],[-75.06891,42.45484],[-75.06905,42.45483],[-75.06967,42.45464],[-75.07012,42.45446],[-75.07106,42.45381],[-75.07224,42.45305],[-75.07355,42.45216],[-75.07411,42.45181],[-75.07467,42.45142],[-75.07512,42.45115],[-75.07557,42.45094],[-75.07612,42.45077],[-75.07637,42.45072],[-75.0769,42.45067],[-75.0773,42.45067],[-75.0777,42.45072],[-75.08196,42.45174],[-75.08247,42.45189],[-75.08411,42.45246],[-75.08467,42.45263],[-75.08755,42.45333],[-75.09077,42.45414],[-75.09649,42.45562],[-75.09648,42.45563],[-75.09649,42.45562],[-75.09655,42.45554],[-75.09683,42.45522],[-75.09721,42.45484],[-75.09768,42.4544],[-75.09839,42.45368],[-75.1001,42.45212],[-75.10073,42.45164],[-75.10103,42.45177],[-75.10184,42.45208],[-75.10278,42.45239],[-75.10429,42.4528],[-75.10815,42.45373],[-75.10966,42.45042],[-75.11017,42.44922],[-75.11079,42.44787],[-75.11083,42.44774],[-75.11082,42.44766],[-75.11073,42.44753],[-75.11062,42.44745],[-75.11051,42.44741],[-75.10809,42.44686],[-75.10849,42.44602],[-75.10864,42.44564],[-75.10873,42.44512],[-75.10875,42.44461],[-75.10871,42.44426],[-75.10866,42.44404],[-75.10848,42.44355],[-75.10837,42.44335],[-75.10812,42.44294],[-75.10782,42.44257],[-75.10763,42.44237],[-75.10713,42.44196],[-75.10658,42.44163],[-75.10599,42.44133],[-75.10636,42.44083],[-75.10686,42.43966],[-75.10708,42.43939],[-75.10807,42.43851],[-75.10708,42.43939],[-75.10686,42.43966],[-75.10636,42.44083],[-75.10599,42.44133],[-75.10561,42.44177],[-75.10549,42.44187],[-75.10534,42.44196],[-75.10499,42.44213],[-75.10215,42.44337],[-75.10139,42.44363],[-75.10025,42.44392],[-75.09928,42.44412],[-75.0983,42.44423],[-75.0975,42.44426],[-75.09673,42.44426],[-75.09606,42.44421],[-75.09518,42.44411],[-75.09186,42.44352],[-75.09106,42.44338],[-75.08854,42.44306],[-75.08822,42.44379],[-75.08823,42.44384],[-75.08802,42.44435],[-75.08854,42.44452],[-75.09092,42.44551],[-75.08854,42.44452],[-75.08823,42.44441],[-75.08797,42.44433],[-75.08754,42.44428],[-75.08603,42.44418],[-75.0838,42.44421],[-75.08274,42.44428],[-75.08076,42.44448],[-75.08051,42.44451],[-75.07795,42.44505],[-75.07721,42.44523],[-75.07589,42.4456],[-75.07107,42.44688],[-75.06643,42.44815],[-75.06487,42.44857],[-75.06391,42.44882],[-75.06388,42.45182],[-75.06381,42.45216],[-75.06367,42.45245],[-75.06359,42.45254]]}},{"type":"Feature","properties":{"agency":"Oneonta Public Transit","shape_id":"0h4y"},"geometry":{"type":"LineString","coordinates":[[-75.06359,42.45254],[-75.06359,42.45253],[-75.0634,42.45275],[-75.06316,42.45297],[-75.06215,42.45378],[-75.06136,42.45443],[-75.06062,42.45501],[-75.05988,42.45564],[-75.05887,42.45642],[-75.05831,42.4569],[-75.05797,42.45704],[-75.05765,42.45714],[-75.05503,42.45781],[-75.05376,42.45816],[-75.05289,42.45836],[-75.05191,42.45854],[-75.05166,42.45856],[-75.05099,42.45856],[-75.05078,42.45854],[-75.05042,42.45848],[-75.04837,42.45778],[-75.04741,42.45735],[-75.04705,42.45721],[-75.04662,42.4571],[-75.04588,42.457],[-75.04389,42.45692],[-75.04275,42.45688],[-75.04144,42.45687],[-75.03852,42.4569],[-75.03747,42.45694],[-75.03336,42.45729],[-75.03037,42.45761],[-75.03033,42.45736],[-75.03025,42.45731],[-75.03019,42.4573],[-75.02927,42.45742],[-75.02879,42.45745],[-75.02873,42.45732],[-75.02917,42.45728],[-75.02942,42.45724],[-75.03065,42.45696],[-75.03058,42.45679],[-75.03058,42.456789],[-75.03044,42.45643],[-75.0294,42.45667],[-75.02854,42.45686],[-75.02879,42.45745],[-75.02927,42.45742],[-75.03019,42.4573],[-75.03025,42.45731],[-75.03033,42.45736],[-75.03037,42.45761],[-75.02926,42.45774],[-75.02819,42.45789],[-75.02738,42.45807],[-75.02593,42.45844],[-75.02458,42.45877],[-75.02398,42.45886],[-75.02242,42.45902],[-75.02211,42.45907],[-75.02143,42.45922],[-75.02106,42.45932],[-75.02069,42.45944],[-75.01989,42.45976],[-75.01906,42.46012],[-75.01834,42.46047],[-75.01767,42.46084],[-75.01632,42.46163],[-75.01572,42.46192],[-75.01537,42.46206],[-75.01388,42.46253],[-75.01375,42.46232],[-75.01307,42.46169],[-75.01375,42.46232],[-75.01388,42.46253],[-75.01335,42.46273],[-75.01249,42.46309],[-75.01181,42.46342],[-75.01095,42.46385],[-75.00958,42.46465],[-75.00919,42.46489],[-75.0088,42.46517],[-75.00761,42.46608],[-75.00696,42.46662],[-75.00658,42.46697],[-75.00604,42.46751],[-75.00372,42.47013],[-75.00338,42.47049],[-75.00279,42.47117],[-75.00151,42.47258],[-75.00043,42.47378],[-74.99999,42.47426],[-74.99941,42.47492],[-74.99882,42.47561],[-74.99659,42.47809],[-74.99587,42.479],[-74.99504,42.48021],[-74.99444,42.48102],[-74.99379,42.48201],[-74.99343,42.48265],[-74.99308,42.48337],[-74.99285,42.48389],[-74.99263,42.48425],[-74.99238,42.48456],[-74.99202,42.48488],[-74.98983,42.48649],[-74.98939,42.48685],[-74.98748,42.48874],[-74.98714,42.48904],[-74.98677,42.48929],[-74.98629,42.48951],[-74.98182,42.491],[-74.98239,42.49391],[-74.98247,42.4945],[-74.9825,42.49491],[-74.98238,42.49611],[-74.98218,42.49739],[-74.98209,42.49767],[-74.98196,42.49783],[-74.98165,42.49808],[-74.98155,42.49814],[-74.9819,42.49886],[-74.98239,42.49994],[-74.98247,42.50009],[-74.98278,42.50054],[-74.98343,42.50142],[-74.9842,42.50228],[-74.98521,42.50332],[-74.98567,42.50376],[-74.98622,42.50428],[-74.98737,42.50522],[-74.98824,42.50603],[-74.98977,42.50765],[-74.98999,42.50792],[-74.99014,42.50813],[-74.99036,42.5085],[-74.99059,42.50896],[-74.99188,42.51184],[-74.99199,42.51225],[-74.99201,42.51244],[-74.99202,42.51275],[-74.99197,42.51328],[-74.9917,42.51491],[-74.99151,42.51594],[-74.99122,42.51773],[-74.99112,42.52014],[-74.99099,42.52072],[-74.99066,42.52147],[-74.98991,42.52278],[-74.98949,42.52337],[-74.98871,42.52435],[-74.98773,42.52553],[-74.98751,42.52576],[-74.98716,42.52609],[-74.98445,42.52831],[-74.98404,42.52862],[-74.98368,42.52886],[-74.98329,42.52908],[-74.98284,42.52927],[-74.98216,42.5295],[-74.98052,42.52997],[-74.98018,42.53004],[-74.97986,42.53007],[-74.97984,42.53069],[-74.98138,42.53079],[-74.98152,42.53082],[-74.98171,42.5309],[-74.98175,42.53093],[-74.98178,42.53103],[-74.98178,42.5311],[-74.98172,42.53121],[-74.98151,42.53139],[-74.98104,42.53172],[-74.98091,42.53187],[-74.98104,42.53172],[-74.98151,42.53139],[-74.98172,42.53121],[-74.98178,42.5311],[-74.98178,42.53103],[-74.98175,42.53093],[-74.98171,42.5309],[-74.98152,42.53082],[-74.98138,42.53079],[-74.97984,42.53069],[-74.97986,42.53007],[-74.97934,42.53009],[-74.979,42.53008],[-74.97727,42.52998],[-74.97679,42.52992],[-74.97558,42.52973],[-74.97482,42.52959],[-74.97449,42.5295],[-74.97333,42.52908],[-74.97275,42.5289],[-74.97218,42.52876],[-74.97132,42.52857],[-74.97095,42.52853],[-74.9705,42.52852],[-74.97033,42.52853],[-74.96964,42.52861],[-74.96941,42.52868],[-74.96899,42.52884],[-74.96873,42.52897],[-74.96846,42.52915],[-74.96815,42.5294],[-74.96796,42.52964],[-74.9674,42.53045],[-74.96683,42.53135],[-74.96617,42.53233],[-74.96343,42.53651],[-74.96313,42.53709],[-74.96291,42.53758],[-74.96246,42.53879],[-74.96236,42.539],[-74.96211,42.53946],[-74.96121,42.5409],[-74.9605,42.54175],[-74.95948,42.54271],[-74.95701,42.5451],[-74.95649,42.54563],[-74.95608,42.54621],[-74.95593,42.54646],[-74.95568,42.54708],[-74.9555,42.54799],[-74.95536,42.54863],[-74.9547,42.55029],[-74.95416,42.55154],[-74.9535,42.55288],[-74.95335,42.55329],[-74.95331,42.5535],[-74.95326,42.55389],[-74.95327,42.55434],[-74.95335,42.55475],[-74.95346,42.55512],[-74.9543,42.55712],[-74.95449,42.55795],[-74.9545,42.55828],[-74.95448,42.55873],[-74.95442,42.55925],[-74.95427,42.56024],[-74.95413,42.56076],[-74.95178,42.56719],[-74.95114,42.56911],[-74.94991,42.57248],[-74.9498,42.57283],[-74.94961,42.57355],[-74.94939,42.57466],[-74.94913,42.57622],[-74.94904,42.57699],[-74.94838,42.58132],[-74.94833,42.58169],[-74.94827,42.5825],[-74.94816,42.58329],[-74.94808,42.5837],[-74.94745,42.58599],[-74.94687,42.58796],[-74.94676,42.58827],[-74.94642,42.58899],[-74.94589,42.58998],[-74.94552,42.59063],[-74.94517,42.59058],[-74.94552,42.59063],[-74.94463,42.59232],[-74.9443,42.59307],[-74.94428,42.59319],[-74.94429,42.59336],[-74.94433,42.59355],[-74.9444,42.5937],[-74.9445,42.59383],[-74.94509,42.59451],[-74.946,42.59544],[-74.94646,42.59587],[-74.94861,42.59769],[-74.95174,42.60017],[-74.95198,42.60044],[-74.95219,42.60074],[-74.95281,42.6021],[-74.953,42.60244],[-74.95349,42.60316],[-74.95376,42.60348],[-74.9541,42.60383],[-74.95448,42.60416],[-74.95503,42.60474],[-74.95538,42.60524],[-74.95547,42.60541],[-74.9562,42.60732],[-74.95704,42.60909],[-74.95742,42.61007],[-74.95803,42.61188],[-74.9586,42.61378],[-74.95911,42.61581],[-74.95966,42.61773],[-74.95996,42.61867],[-74.96091,42.62146],[-74.96122,42.62239],[-74.96188,42.62466],[-74.96278,42.62797],[-74.96363,42.63108],[-74.96467,42.63463],[-74.96516,42.63617],[-74.96535,42.6369],[-74.96542,42.63729],[-74.96545,42.63768],[-74.9654,42.63936],[-74.96535,42.6401],[-74.96511,42.6428],[-74.96492,42.64554],[-74.96484,42.64647],[-74.96464,42.648],[-74.96438,42.64994],[-74.96433,42.65063],[-74.96433,42.65132],[-74.96433,42.651321],[-74.96433,42.65365],[-74.96432,42.65405],[-74.96402,42.65492],[-74.96394,42.65507],[-74.96305,42.65596],[-74.96259,42.65645],[-74.96229,42.65673],[-74.96207,42.6569],[-74.96187,42.65702],[-74.9597,42.65831],[-74.95926,42.65865],[-74.9589,42.65904],[-74.95865,42.65937],[-74.9585,42.6596],[-74.95824,42.66007],[-74.95815,42.66026],[-74.95805,42.66067],[-74.95805,42.66106],[-74.9577,42.66104],[-74.95726,42.66106],[-74.95442,42.66124],[-74.95269,42.66142],[-74.95162,42.66148],[-74.95084,42.66148],[-74.95018,42.66145],[-74.9491,42.66137],[-74.94551,42.66087],[-74.94471,42.66076],[-74.94472,42.65769],[-74.94469,42.65737],[-74.94454,42.65684],[-74.94436,42.6564],[-74.94408,42.65562],[-74.94303,42.65297],[-74.94288,42.65251],[-74.94461,42.65229],[-74.9459,42.6521],[-74.94631,42.65206],[-74.94639,42.65247],[-74.94631,42.65206],[-74.9459,42.6521],[-74.94461,42.65229],[-74.94288,42.65251],[-74.94303,42.65297],[-74.94408,42.65562],[-74.94436,42.6564],[-74.94454,42.65684],[-74.94469,42.65737],[-74.94472,42.65769],[-74.94471,42.66076],[-74.94551,42.66087],[-74.9491,42.66137],[-74.95018,42.66145],[-74.95084,42.66148],[-74.95162,42.66148],[-74.95269,42.66142],[-74.95442,42.66124],[-74.95726,42.66106],[-74.9577,42.66104],[-74.95805,42.66106],[-74.95814,42.66222],[-74.95819,42.6625],[-74.95844,42.6632],[-74.95885,42.66422],[-74.95906,42.6649],[-74.95912,42.66514],[-74.95915,42.66536],[-74.95914,42.66589],[-74.95911,42.66603],[-74.95905,42.66617],[-74.95875,42.66661],[-74.95855,42.66686],[-74.95832,42.66706],[-74.95797,42.66732],[-74.95564,42.66888],[-74.95505,42.66935],[-74.95201,42.67197],[-74.95143,42.6725],[-74.95111,42.67283],[-74.95087,42.6731],[-74.95073,42.67329],[-74.95043,42.67383],[-74.950428,42.673834],[-74.94977,42.6751],[-74.94868,42.67692],[-74.94694,42.67953],[-74.94635,42.68027],[-74.94561,42.68112],[-74.94507,42.68177],[-74.94483,42.68215],[-74.94411,42.68347],[-74.94402,42.68361],[-74.94365,42.68404],[-74.94315,42.68444],[-74.94164,42.68546],[-74.9407,42.68605],[-74.94027,42.6863],[-74.93986,42.6865],[-74.93875,42.68684],[-74.93825,42.68701],[-74.93796,42.68715],[-74.93771,42.6873],[-74.9374,42.68753],[-74.93703,42.68792],[-74.93669,42.68836],[-74.93648,42.68871],[-74.93644,42.68884],[-74.9363,42.6891],[-74.93603,42.69006],[-74.93571,42.69138],[-74.93536,42.69263],[-74.93523,42.69298],[-74.93502,42.69328],[-74.93448,42.69394],[-74.93398,42.69442],[-74.92793,42.69475],[-74.92637,42.69483],[-74.92461,42.69488],[-74.9241,42.69617],[-74.92344,42.69602],[-74.9241,42.69617],[-74.92381,42.69691],[-74.9234,42.69806],[-74.92317,42.69866],[-74.92312,42.69876],[-74.92465,42.69909],[-74.92478,42.69914],[-74.92429,42.70046],[-74.92682,42.70102],[-74.92767,42.70027],[-74.92775,42.70033]]}},{"type":"Feature","properties":{"agency":"Oneonta Public Transit","shape_id":"2xjj"},"geometry":{"type":"LineString","coordinates":[[-75.06359,42.45254],[-75.06367,42.45245],[-75.06381,42.45216],[-75.06388,42.45182],[-75.06391,42.44882],[-75.06487,42.44857],[-75.06643,42.44815],[-75.06606,42.44733],[-75.06594,42.44736],[-75.06583,42.44754],[-75.06576,42.4476],[-75.0656,42.44763],[-75.06548,42.44763],[-75.06494,42.44776],[-75.06488,42.44774],[-75.06481,42.44757],[-75.06488,42.44774],[-75.06494,42.44776],[-75.06548,42.44763],[-75.0656,42.44763],[-75.06576,42.4476],[-75.06583,42.44754],[-75.06594,42.44736],[-75.06606,42.44733],[-75.06643,42.44815],[-75.07107,42.44688],[-75.07589,42.4456],[-75.07721,42.44523],[-75.07795,42.44505],[-75.08051,42.44451],[-75.08076,42.44448],[-75.081578,42.44439],[-75.08158,42.44439],[-75.08274,42.44428],[-75.0838,42.44421],[-75.08603,42.44418],[-75.08628,42.44354],[-75.08644,42.44321],[-75.08657,42.44309],[-75.08672,42.44299],[-75.08698,42.44292],[-75.08715,42.4429],[-75.08744,42.44292],[-75.09106,42.44338],[-75.09186,42.44352],[-75.09518,42.44411],[-75.09606,42.44421],[-75.09673,42.44426],[-75.0975,42.44426],[-75.0983,42.44423],[-75.09928,42.44412],[-75.10025,42.44392],[-75.10109,42.44372],[-75.10139,42.44363],[-75.10215,42.44337],[-75.10499,42.44213],[-75.10534,42.44196],[-75.10549,42.44187],[-75.10561,42.44177],[-75.10599,42.44133],[-75.10658,42.44163],[-75.10713,42.44196],[-75.10763,42.44237],[-75.10782,42.44257],[-75.10793,42.44237],[-75.10815,42.44205],[-75.1083,42.44186],[-75.1085,42.44165],[-75.10882,42.44139],[-75.10963,42.44084],[-75.11062,42.44029],[-75.11128,42.43995],[-75.11187,42.43969],[-75.11128,42.43995],[-75.11062,42.44029],[-75.10963,42.44084],[-75.10882,42.44139],[-75.1085,42.44165],[-75.1083,42.44186],[-75.10815,42.44205],[-75.10793,42.44237],[-75.10782,42.44257],[-75.10763,42.44237],[-75.10713,42.44196],[-75.10658,42.44163],[-75.10599,42.44133],[-75.10561,42.44177],[-75.10549,42.44187],[-75.10534,42.44196],[-75.10499,42.44213],[-75.10215,42.44337],[-75.10139,42.44363],[-75.10025,42.44392],[-75.09928,42.44412],[-75.0983,42.44423],[-75.0975,42.44426],[-75.09673,42.44426],[-75.09606,42.44421],[-75.09518,42.44411],[-75.09186,42.44352],[-75.09106,42.44338],[-75.08854,42.44306],[-75.08822,42.44379],[-75.08823,42.44384],[-75.08802,42.44435],[-75.08854,42.44452],[-75.09092,42.44551]]}},{"type":"Feature","properties":{"agency":"Oneonta Public Transit","shape_id":"56f127ab-4320-4c37-bf4b-a4412fadb865"},"geometry":{"type":"LineString","coordinates":[[-74.92775,42.70033],[-74.92767,42.70027],[-74.92967,42.69853],[-74.93038,42.69788],[-74.93448,42.69394],[-74.93502,42.69328],[-74.93523,42.69298],[-74.93536,42.69263],[-74.93571,42.69138],[-74.93615,42.68961],[-74.9363,42.6891],[-74.93644,42.68884],[-74.93648,42.68871],[-74.93669,42.68836],[-74.93703,42.68792],[-74.9374,42.68753],[-74.93771,42.6873],[-74.93796,42.68715],[-74.93825,42.68701],[-74.93875,42.68684],[-74.93986,42.6865],[-74.94027,42.6863],[-74.9407,42.68605],[-74.94164,42.68546],[-74.94315,42.68444],[-74.94365,42.68404],[-74.94402,42.68361],[-74.94411,42.68347],[-74.94483,42.68215],[-74.94507,42.68177],[-74.94561,42.68112],[-74.94635,42.68027],[-74.94694,42.67953],[-74.94868,42.67692],[-74.94977,42.6751],[-74.95059,42.67354],[-74.95073,42.67329],[-74.95111,42.67283],[-74.95143,42.6725],[-74.95201,42.67197],[-74.95505,42.66935],[-74.95564,42.66888],[-74.95797,42.66732],[-74.95832,42.66706],[-74.95855,42.66686],[-74.95875,42.66661],[-74.95896,42.66631],[-74.95911,42.66603],[-74.95914,42.66589],[-74.95915,42.66536],[-74.95906,42.6649],[-74.95885,42.66422],[-74.95844,42.6632],[-74.95819,42.6625],[-74.95814,42.66222],[-74.95805,42.66106],[-74.95805,42.66067],[-74.95815,42.66026],[-74.95824,42.66007],[-74.9585,42.6596],[-74.95865,42.65937],[-74.9589,42.65904],[-74.95926,42.65865],[-74.9597,42.65831],[-74.96207,42.6569],[-74.96229,42.65673],[-74.96259,42.65645],[-74.96305,42.65596],[-74.96394,42.65507],[-74.96402,42.65492],[-74.96432,42.65405],[-74.96433,42.65365],[-74.96433,42.65063],[-74.96438,42.64994],[-74.96464,42.648],[-74.96484,42.64647],[-74.96492,42.64554],[-74.96511,42.6428],[-74.96535,42.6401],[-74.9654,42.63936],[-74.96545,42.63768],[-74.96542,42.63729],[-74.96535,42.6369],[-74.96516,42.63617],[-74.96467,42.63463],[-74.96363,42.63108],[-74.96278,42.62797],[-74.96188,42.62466],[-74.96122,42.62239],[-74.96091,42.62146],[-74.95996,42.61867],[-74.95966,42.61773],[-74.95911,42.61581],[-74.9586,42.61378],[-74.95803,42.61188],[-74.95742,42.61007],[-74.95704,42.60909],[-74.9562,42.60732],[-74.95547,42.60541],[-74.95538,42.60524],[-74.95503,42.60474],[-74.95448,42.60416],[-74.9541,42.60383],[-74.95376,42.60348],[-74.95349,42.60316],[-74.953,42.60244],[-74.95281,42.6021],[-74.95219,42.60074],[-74.95198,42.60044],[-74.95174,42.60017],[-74.94861,42.59769],[-74.94646,42.59587],[-74.946,42.59544],[-74.94509,42.59451],[-74.9445,42.59383],[-74.9444,42.5937],[-74.94433,42.59355],[-74.94429,42.59336],[-74.94428,42.59319],[-74.9443,42.59307],[-74.94463,42.59232],[-74.94552,42.59063],[-74.94517,42.59058],[-74.94552,42.59063],[-74.94589,42.58998],[-74.94642,42.58899],[-74.94676,42.58827],[-74.94687,42.58796],[-74.94745,42.58599],[-74.94808,42.5837],[-74.94816,42.58329],[-74.94827,42.5825],[-74.94833,42.58169],[-74.94838,42.58132],[-74.94904,42.57699],[-74.94913,42.57622],[-74.94939,42.57466],[-74.94961,42.57355],[-74.9498,42.57283],[-74.94991,42.57248],[-74.95114,42.56911],[-74.95178,42.56719],[-74.95413,42.56076],[-74.95427,42.56024],[-74.95442,42.55925],[-74.95448,42.55873],[-74.9545,42.55828],[-74.95449,42.55795],[-74.9543,42.55712],[-74.95346,42.55512],[-74.95335,42.55475],[-74.95327,42.55434],[-74.95326,42.55389],[-74.95331,42.5535],[-74.95335,42.55329],[-74.9535,42.55288],[-74.95416,42.55154],[-74.9547,42.55029],[-74.95536,42.54863],[-74.9555,42.54799],[-74.95568,42.54708],[-74.95593,42.54646],[-74.95608,42.54621],[-74.95649,42.54563],[-74.95701,42.5451],[-74.95948,42.54271],[-74.9605,42.54175],[-74.96121,42.5409],[-74.96211,42.53946],[-74.96236,42.539],[-74.96246,42.53879],[-74.96291,42.53758],[-74.96313,42.53709],[-74.96343,42.53651],[-74.96617,42.53233],[-74.96683,42.53135],[-74.9674,42.53045],[-74.96741,42.53045],[-74.96796,42.52964],[-74.96815,42.5294],[-74.96846,42.52915],[-74.96873,42.52897],[-74.96899,42.52884],[-74.96941,42.52868],[-74.96964,42.52861],[-74.97033,42.52853],[-74.9705,42.52852],[-74.97095,42.52853],[-74.97132,42.52857],[-74.97218,42.52876],[-74.97275,42.5289],[-74.97333,42.52908],[-74.97449,42.5295],[-74.97482,42.52959],[-74.97558,42.52973],[-74.97679,42.52992],[-74.97727,42.52998],[-74.979,42.53008],[-74.97934,42.53009],[-74.97986,42.53007],[-74.97984,42.53069],[-74.97967,42.53153],[-74.97966,42.53185],[-74.97967,42.5321],[-74.97967,42.5321],[-74.97971,42.53271],[-74.97974,42.53291],[-74.9798,42.53316],[-74.9803,42.533],[-74.9806,42.53287],[-74.98069,42.53282],[-74.98073,42.5327],[-74.9808,42.53207],[-74.98083,42.532],[-74.98083,42.53199],[-74.98097,42.53178],[-74.98104,42.53172],[-74.98151,42.53139],[-74.98172,42.53121],[-74.98178,42.5311],[-74.98178,42.53103],[-74.98175,42.53093],[-74.98171,42.5309],[-74.98152,42.53082],[-74.98138,42.53079],[-74.97984,42.53069],[-74.97986,42.53007],[-74.98018,42.53004],[-74.98052,42.52997],[-74.98216,42.5295],[-74.98284,42.52927],[-74.98329,42.52908],[-74.98368,42.52886],[-74.98404,42.52862],[-74.98445,42.52831],[-74.98716,42.52609],[-74.98751,42.52576],[-74.98773,42.52553],[-74.98871,42.52435],[-74.98949,42.52337],[-74.98991,42.52278],[-74.99066,42.52147],[-74.99099,42.52072],[-74.99112,42.52014],[-74.99122,42.51773],[-74.99151,42.51594],[-74.9917,42.51491],[-74.99197,42.51328],[-74.99202,42.51275],[-74.99201,42.51244],[-74.99199,42.51225],[-74.99188,42.51184],[-74.99059,42.50896],[-74.99036,42.5085],[-74.99014,42.50813],[-74.98999,42.50792],[-74.98977,42.50765],[-74.98824,42.50603],[-74.98737,42.50522],[-74.98622,42.50428],[-74.98567,42.50376],[-74.98521,42.50332],[-74.9842,42.50228],[-74.98343,42.50142],[-74.98278,42.50054],[-74.98247,42.50009],[-74.98239,42.49994],[-74.9819,42.49886],[-74.98155,42.49814],[-74.98165,42.49808],[-74.98196,42.49783],[-74.98209,42.49767],[-74.98218,42.49739],[-74.98238,42.49611],[-74.9825,42.49491],[-74.98247,42.4945],[-74.98239,42.49391],[-74.98182,42.491],[-74.98629,42.48951],[-74.98677,42.48929],[-74.98714,42.48904],[-74.98748,42.48874],[-74.98939,42.48685],[-74.98983,42.48649],[-74.99202,42.48488],[-74.99238,42.48456],[-74.99263,42.48425],[-74.99285,42.48389],[-74.99308,42.48337],[-74.99343,42.48265],[-74.99379,42.48201],[-74.99444,42.48102],[-74.99504,42.48021],[-74.99587,42.479],[-74.99659,42.47809],[-74.99882,42.47561],[-74.99941,42.47492],[-74.99999,42.47426],[-75.00043,42.47378],[-75.00151,42.47258],[-75.00279,42.47117],[-75.00338,42.47049],[-75.00372,42.47013],[-75.00604,42.46751],[-75.00658,42.46697],[-75.00696,42.46662],[-75.00761,42.46608],[-75.0088,42.46517],[-75.00919,42.46489],[-75.00958,42.46465],[-75.01095,42.46385],[-75.01181,42.46342],[-75.01249,42.46309],[-75.01335,42.46273],[-75.01388,42.46253],[-75.01375,42.46232],[-75.01307,42.46169],[-75.01375,42.46232],[-75.01388,42.46253],[-75.01537,42.46206],[-75.01572,42.46192],[-75.01632,42.46163],[-75.01767,42.46084],[-75.01834,42.46047],[-75.01906,42.46012],[-75.01989,42.45976],[-75.02069,42.45944],[-75.02106,42.45932],[-75.02143,42.45922],[-75.02211,42.45907],[-75.02242,42.45902],[-75.02398,42.45886],[-75.02458,42.45877],[-75.02593,42.45844],[-75.02738,42.45807],[-75.02819,42.45789],[-75.02926,42.45774],[-75.03037,42.45761],[-75.03033,42.45736],[-75.03025,42.45731],[-75.03019,42.4573],[-75.02927,42.45742],[-75.02879,42.45745],[-75.02873,42.45732],[-75.02917,42.45728],[-75.02942,42.45724],[-75.03065,42.45696],[-75.03052,42.45663],[-75.03044,42.45643],[-75.0294,42.45667],[-75.02941,42.45667],[-75.02854,42.45686],[-75.02879,42.45745],[-75.02927,42.45742],[-75.03019,42.4573],[-75.03025,42.45731],[-75.03033,42.45736],[-75.03037,42.45761],[-75.03336,42.45729],[-75.03747,42.45694],[-75.03852,42.4569],[-75.04144,42.45687],[-75.04275,42.45688],[-75.04389,42.45692],[-75.04588,42.457],[-75.04662,42.4571],[-75.04705,42.45721],[-75.04741,42.45735],[-75.04837,42.45778],[-75.05042,42.45848],[-75.05078,42.45854],[-75.05099,42.45856],[-75.05166,42.45856],[-75.05191,42.45854],[-75.05289,42.45836],[-75.05376,42.45816],[-75.05503,42.45781],[-75.05765,42.45714],[-75.05797,42.45704],[-75.05831,42.4569],[-75.05887,42.45642],[-75.05988,42.45564],[-75.06062,42.45501],[-75.06136,42.45443],[-75.06215,42.45378],[-75.06316,42.45297],[-75.0634,42.45275],[-75.06359,42.45254]]}},{"type":"Feature","properties":{"agency":"Oneonta Public Transit","shape_id":"648ddc51-4006-43a1-8edf-2ff2841acd42"},"geometry":{"type":"LineString","coordinates":[[-75.06359,42.45254],[-75.0634,42.45275],[-75.06316,42.45297],[-75.06397,42.45355],[-75.06422,42.45369],[-75.06435,42.45374],[-75.06537,42.45392],[-75.0651,42.4549],[-75.0649,42.45579],[-75.06489,42.4559],[-75.06505,42.45708],[-75.06401,42.45716],[-75.0618,42.45734],[-75.06194,42.4584],[-75.06133,42.45845],[-75.06194,42.4584],[-75.06166,42.45645],[-75.06154,42.45564],[-75.06151,42.45559],[-75.0612,42.45537],[-75.06062,42.45501],[-75.05988,42.45564],[-75.05887,42.45642],[-75.05837,42.45685],[-75.05831,42.4569],[-75.05799,42.45659],[-75.05658,42.45575],[-75.05607,42.45542],[-75.05565,42.45512],[-75.05456,42.45421],[-75.05398,42.45363],[-75.05357,42.45315],[-75.0532,42.45265],[-75.05273,42.45193],[-75.05215,42.45078],[-75.05158,42.4495],[-75.05071,42.44772],[-75.05057,42.4476],[-75.04881,42.44807],[-75.04805,42.44825],[-75.04665,42.44854],[-75.04608,42.44863],[-75.04576,42.44756],[-75.04563,42.44758],[-75.0452,42.44763],[-75.0452,42.44762],[-75.04465,42.44766],[-75.04455,42.44762],[-75.04434,42.44765],[-75.04371,42.4477],[-75.04302,42.44783],[-75.0431,42.44806],[-75.04263,42.44808],[-75.04225,42.44809],[-75.04192,42.44806],[-75.04156,42.44718],[-75.0414,42.44684],[-75.04132,42.44671],[-75.04122,42.44668],[-75.04062,42.44662],[-75.04062,42.44662],[-75.04003,42.44657],[-75.03987,42.44749],[-75.03988,42.44749],[-75.03974,42.44828],[-75.041156,42.44837],[-75.04116,42.44837],[-75.04181,42.44841],[-75.04178,42.44872],[-75.04178,42.44902],[-75.04269,42.44901],[-75.04361,42.44895],[-75.0443,42.44889],[-75.04665,42.44854],[-75.04805,42.44825],[-75.04881,42.44807],[-75.05492,42.44647],[-75.05513,42.44694],[-75.05519,42.44699],[-75.05524,42.44701],[-75.0554,42.44737],[-75.055805,42.447232],[-75.05581,42.44723],[-75.05686,42.4469],[-75.05686,42.4468],[-75.05679,42.44667],[-75.05664,42.44639],[-75.05659,42.44636],[-75.05659,42.44627],[-75.05664,42.44621],[-75.05736,42.44598],[-75.0574,42.44593],[-75.05741,42.44587],[-75.05754,42.44562],[-75.06125,42.44427],[-75.06172,42.44419],[-75.06194,42.44417],[-75.06209,42.44418],[-75.06245,42.44426],[-75.06258,42.44431],[-75.06283,42.44447],[-75.06294,42.44458],[-75.06319,42.44494],[-75.06382,42.44767],[-75.0639,42.44816],[-75.06391,42.44882],[-75.06388,42.45182],[-75.06381,42.45216],[-75.06367,42.45245],[-75.06359,42.45254]]}},{"type":"Feature","properties":{"agency":"Oneonta Public Transit","shape_id":"a0f71587-7df0-45fe-ba2f-20fb4429f48b"},"geometry":{"type":"LineString","coordinates":[[-75.06359,42.45254],[-75.06367,42.45245],[-75.06381,42.45216],[-75.06388,42.45182],[-75.06391,42.44882],[-75.06487,42.44857],[-75.06643,42.44815],[-75.06606,42.44733],[-75.06594,42.44736],[-75.06583,42.44754],[-75.06576,42.4476],[-75.0656,42.44763],[-75.06548,42.44763],[-75.06494,42.44776],[-75.06488,42.44774],[-75.06481,42.44757],[-75.06488,42.44774],[-75.06494,42.44776],[-75.06548,42.44763],[-75.0656,42.44763],[-75.06576,42.4476],[-75.06583,42.44754],[-75.06594,42.44736],[-75.06606,42.44733],[-75.06643,42.44815],[-75.07107,42.44688],[-75.07589,42.4456],[-75.07721,42.44523],[-75.07795,42.44505],[-75.08051,42.44451],[-75.08076,42.44448],[-75.08274,42.44428],[-75.0838,42.44421],[-75.08603,42.44418],[-75.08754,42.44428],[-75.08797,42.44433],[-75.08823,42.44441],[-75.08854,42.44452],[-75.09092,42.44551]]}},{"type":"Feature","properties":{"agency":"Oneonta Public Transit","shape_id":"af972bf6-4314-40ce-b7c7-594d3e379d1a"},"geometry":{"type":"LineString","coordinates":[[-75.06359,42.45254],[-75.06359,42.45253],[-75.0634,42.45275],[-75.06316,42.45297],[-75.06215,42.45378],[-75.06136,42.45443],[-75.06062,42.45501],[-75.05988,42.45564],[-75.05887,42.45642],[-75.05831,42.4569],[-75.05797,42.45704],[-75.05765,42.45714],[-75.05503,42.45781],[-75.05376,42.45816],[-75.05289,42.45836],[-75.05191,42.45854],[-75.05166,42.45856],[-75.05099,42.45856],[-75.05078,42.45854],[-75.05042,42.45848],[-75.04837,42.45778],[-75.04741,42.45735],[-75.04705,42.45721],[-75.04662,42.4571],[-75.04588,42.457],[-75.04389,42.45692],[-75.04275,42.45688],[-75.04144,42.45687],[-75.03852,42.4569],[-75.03747,42.45694],[-75.03336,42.45729],[-75.03037,42.45761],[-75.03033,42.45736],[-75.03025,42.45731],[-75.03019,42.4573],[-75.02927,42.45742],[-75.02879,42.45745],[-75.02873,42.45732],[-75.02917,42.45728],[-75.02942,42.45724],[-75.03065,42.45696],[-75.030512,42.456615],[-75.03051,42.45661],[-75.03044,42.45643],[-75.0294,42.45667],[-75.02941,42.45667],[-75.02854,42.45686],[-75.02879,42.45745],[-75.02927,42.45742],[-75.03019,42.4573],[-75.03025,42.45731],[-75.03033,42.45736],[-75.03037,42.45761],[-75.02926,42.45774],[-75.02819,42.45789],[-75.02738,42.45807],[-75.02593,42.45844],[-75.02458,42.45877],[-75.02398,42.45886],[-75.02242,42.45902],[-75.02211,42.45907],[-75.02143,42.45922],[-75.02106,42.45932],[-75.02069,42.45944],[-75.01989,42.45976],[-75.01906,42.46012],[-75.01834,42.46047],[-75.01767,42.46084],[-75.01632,42.46163],[-75.01572,42.46192],[-75.01537,42.46206],[-75.01388,42.46253],[-75.01375,42.46232],[-75.01307,42.46169]]}},{"type":"Feature","properties":{"agency":"Oneonta Public Transit","shape_id":"b930de9b-7a26-405a-9b4b-cf9211dcaac6"},"geometry":{"type":"LineString","coordinates":[[-75.06359,42.45254],[-75.06359,42.45253],[-75.0634,42.45275],[-75.06316,42.45297],[-75.06215,42.45378],[-75.06136,42.45443],[-75.06062,42.45501],[-75.05988,42.45564],[-75.05887,42.45642],[-75.05831,42.4569],[-75.05797,42.45704],[-75.05765,42.45714],[-75.05503,42.45781],[-75.05376,42.45816],[-75.05289,42.45836],[-75.05191,42.45854],[-75.05166,42.45856],[-75.05099,42.45856],[-75.05078,42.45854],[-75.05042,42.45848],[-75.04837,42.45778],[-75.04741,42.45735],[-75.04705,42.45721],[-75.04662,42.4571],[-75.04588,42.457],[-75.04389,42.45692],[-75.04275,42.45688],[-75.04144,42.45687],[-75.03852,42.4569],[-75.03747,42.45694],[-75.03336,42.45729],[-75.03037,42.45761],[-75.03033,42.45736],[-75.03025,42.45731],[-75.03019,42.4573],[-75.02927,42.45742],[-75.02879,42.45745],[-75.02873,42.45732],[-75.02917,42.45728],[-75.02942,42.45724],[-75.03065,42.45696],[-75.030563,42.456746],[-75.03056,42.45674],[-75.03044,42.45643],[-75.0294,42.45667],[-75.02941,42.45667],[-75.02854,42.45686],[-75.02879,42.45745],[-75.02927,42.45742],[-75.03019,42.4573],[-75.03025,42.45731],[-75.03033,42.45736],[-75.03037,42.45761],[-75.02926,42.45774],[-75.02819,42.45789],[-75.02738,42.45807],[-75.02593,42.45844],[-75.02458,42.45877],[-75.02398,42.45886],[-75.02242,42.45902],[-75.02211,42.45907],[-75.02143,42.45922],[-75.02106,42.45932],[-75.02069,42.45944],[-75.01989,42.45976],[-75.01906,42.46012],[-75.01834,42.46047],[-75.01767,42.46084],[-75.01632,42.46163],[-75.01572,42.46192],[-75.01537,42.46206],[-75.01388,42.46253],[-75.01375,42.46232],[-75.01307,42.46169],[-75.01375,42.46232],[-75.01388,42.46253],[-75.01335,42.46273],[-75.01249,42.46309],[-75.01181,42.46342],[-75.01095,42.46385],[-75.00958,42.46465],[-75.00919,42.46489],[-75.0088,42.46517],[-75.00761,42.46608],[-75.00696,42.46662],[-75.00658,42.46697],[-75.00604,42.46751],[-75.00372,42.47013],[-75.00338,42.47049],[-75.00279,42.47117],[-75.00151,42.47258],[-75.00043,42.47378],[-74.99999,42.47426],[-74.99941,42.47492],[-74.99882,42.47561],[-74.99659,42.47809],[-74.99587,42.479],[-74.99504,42.48021],[-74.99444,42.48102],[-74.99379,42.48201],[-74.99343,42.48265],[-74.99308,42.48337],[-74.99285,42.48389],[-74.99263,42.48425],[-74.99238,42.48456],[-74.99202,42.48488],[-74.98983,42.48649],[-74.98939,42.48685],[-74.98748,42.48874],[-74.98714,42.48904],[-74.98677,42.48929],[-74.98629,42.48951],[-74.98182,42.491],[-74.98239,42.49391],[-74.98247,42.4945],[-74.9825,42.49491],[-74.98238,42.49611],[-74.98218,42.49739],[-74.98209,42.49767],[-74.98196,42.49783],[-74.98165,42.49808],[-74.98155,42.49814],[-74.9819,42.49886],[-74.98239,42.49994],[-74.98247,42.50009],[-74.98278,42.50054],[-74.98343,42.50142],[-74.9842,42.50228],[-74.98521,42.50332],[-74.98567,42.50376],[-74.98622,42.50428],[-74.98737,42.50522],[-74.98824,42.50603],[-74.98977,42.50765],[-74.98999,42.50792],[-74.99014,42.50813],[-74.99036,42.5085],[-74.99059,42.50896],[-74.99188,42.51184],[-74.99199,42.51225],[-74.99201,42.51244],[-74.99202,42.51275],[-74.99197,42.51328],[-74.9917,42.51491],[-74.99151,42.51594],[-74.99122,42.51773],[-74.99112,42.52014],[-74.99099,42.52072],[-74.99066,42.52147],[-74.98991,42.52278],[-74.98949,42.52337],[-74.98871,42.52435],[-74.98773,42.52553],[-74.98751,42.52576],[-74.98716,42.52609],[-74.98445,42.52831],[-74.98404,42.52862],[-74.98368,42.52886],[-74.98329,42.52908],[-74.98284,42.52927],[-74.98216,42.5295],[-74.98052,42.52997],[-74.98018,42.53004],[-74.97986,42.53007],[-74.97984,42.53069],[-74.98138,42.53079],[-74.98152,42.53082],[-74.98171,42.5309],[-74.98175,42.53093],[-74.98178,42.53103],[-74.98178,42.5311],[-74.98172,42.53121],[-74.98151,42.53139],[-74.98104,42.53172],[-74.98091,42.53187],[-74.98104,42.53172],[-74.98151,42.53139],[-74.98172,42.53121],[-74.98178,42.5311],[-74.98178,42.53103],[-74.98175,42.53093],[-74.98171,42.5309],[-74.98152,42.53082],[-74.98138,42.53079],[-74.97984,42.53069],[-74.97986,42.53007],[-74.97934,42.53009],[-74.979,42.53008],[-74.97727,42.52998],[-74.97679,42.52992],[-74.97558,42.52973],[-74.97482,42.52959],[-74.97449,42.5295],[-74.97333,42.52908],[-74.97275,42.5289],[-74.97218,42.52876],[-74.97132,42.52857],[-74.97095,42.52853],[-74.9705,42.52852],[-74.97033,42.52853],[-74.96964,42.52861],[-74.96941,42.52868],[-74.96899,42.52884],[-74.96873,42.52897],[-74.96846,42.52915],[-74.96815,42.5294],[-74.96796,42.52964],[-74.9674,42.53045],[-74.96683,42.53135],[-74.96617,42.53233],[-74.96343,42.53651],[-74.96313,42.53709],[-74.96291,42.53758],[-74.96246,42.53879],[-74.96236,42.539],[-74.96211,42.53946],[-74.96121,42.5409],[-74.9605,42.54175],[-74.95948,42.54271],[-74.95701,42.5451],[-74.95649,42.54563],[-74.95608,42.54621],[-74.95593,42.54646],[-74.95568,42.54708],[-74.9555,42.54799],[-74.95536,42.54863],[-74.9547,42.55029],[-74.95416,42.55154],[-74.9535,42.55288],[-74.95335,42.55329],[-74.95331,42.5535],[-74.95326,42.55389],[-74.95327,42.55434],[-74.95335,42.55475],[-74.95346,42.55512],[-74.9543,42.55712],[-74.95449,42.55795],[-74.9545,42.55828],[-74.95448,42.55873],[-74.95442,42.55925],[-74.95427,42.56024],[-74.95413,42.56076],[-74.95178,42.56719],[-74.95114,42.56911],[-74.94991,42.57248],[-74.9498,42.57283],[-74.94961,42.57355],[-74.94939,42.57466],[-74.94913,42.57622],[-74.94904,42.57699],[-74.94838,42.58132],[-74.94833,42.58169],[-74.94827,42.5825],[-74.94816,42.58329],[-74.94808,42.5837],[-74.94745,42.58599],[-74.94687,42.58796],[-74.94676,42.58827],[-74.94642,42.58899],[-74.94589,42.58998],[-74.94552,42.59063],[-74.94517,42.59058],[-74.94552,42.59063],[-74.94463,42.59232],[-74.9443,42.59307],[-74.94428,42.59319],[-74.94429,42.59336],[-74.94433,42.59355],[-74.9444,42.5937],[-74.9445,42.59383],[-74.94509,42.59451],[-74.946,42.59544],[-74.94646,42.59587],[-74.94861,42.59769],[-74.95174,42.60017],[-74.95198,42.60044],[-74.95219,42.60074],[-74.95281,42.6021],[-74.953,42.60244],[-74.95349,42.60316],[-74.95376,42.60348],[-74.9541,42.60383],[-74.95448,42.60416],[-74.95503,42.60474],[-74.95538,42.60524],[-74.95547,42.60541],[-74.9562,42.60732],[-74.95704,42.60909],[-74.95742,42.61007],[-74.95803,42.61188],[-74.9586,42.61378],[-74.95911,42.61581],[-74.95966,42.61773],[-74.95996,42.61867],[-74.96091,42.62146],[-74.96122,42.62239],[-74.96188,42.62466],[-74.96278,42.62797],[-74.96363,42.63108],[-74.96467,42.63463],[-74.96516,42.63617],[-74.96535,42.6369],[-74.96542,42.63729],[-74.96545,42.63768],[-74.9654,42.63936],[-74.96527,42.64104],[-74.965269,42.64105],[-74.96511,42.6428],[-74.96492,42.64554],[-74.96484,42.64647],[-74.96464,42.648],[-74.96438,42.64994],[-74.96433,42.65063],[-74.96433,42.65365],[-74.96432,42.65405],[-74.96402,42.65492],[-74.96394,42.65507],[-74.96305,42.65596],[-74.96259,42.65645],[-74.96229,42.65673],[-74.96207,42.6569],[-74.96187,42.65702],[-74.9597,42.65831],[-74.95926,42.65865],[-74.9589,42.65904],[-74.95865,42.65937],[-74.9585,42.6596],[-74.95824,42.66007],[-74.95815,42.66026],[-74.95805,42.66067],[-74.95805,42.66106],[-74.9577,42.66104],[-74.95726,42.66106],[-74.95442,42.66124],[-74.95269,42.66142],[-74.95162,42.66148],[-74.95084,42.66148],[-74.95018,42.66145],[-74.9491,42.66137],[-74.94551,42.66087],[-74.94471,42.66076],[-74.94472,42.65769],[-74.94469,42.65737],[-74.94454,42.65684],[-74.94436,42.6564],[-74.94408,42.65562],[-74.94303,42.65297],[-74.94288,42.65251],[-74.94461,42.65229],[-74.9459,42.6521],[-74.94631,42.65206],[-74.94639,42.65247],[-74.94631,42.65206],[-74.9459,42.6521],[-74.94461,42.65229],[-74.94288,42.65251],[-74.94303,42.65297],[-74.94408,42.65562],[-74.94436,42.6564],[-74.94454,42.65684],[-74.94469,42.65737],[-74.94472,42.65769],[-74.94471,42.66076],[-74.94551,42.66087],[-74.9491,42.66137],[-74.95018,42.66145],[-74.95084,42.66148],[-74.95162,42.66148],[-74.95269,42.66142],[-74.95442,42.66124],[-74.95726,42.66106],[-74.9577,42.66104],[-74.95805,42.66106],[-74.95814,42.66222],[-74.95819,42.6625],[-74.95844,42.6632],[-74.95885,42.66422],[-74.95906,42.6649],[-74.95912,42.66514],[-74.95915,42.66536],[-74.95914,42.66589],[-74.95911,42.66603],[-74.95905,42.66617],[-74.95875,42.66661],[-74.95855,42.66686],[-74.95832,42.66706],[-74.95797,42.66732],[-74.95564,42.66888],[-74.95505,42.66935],[-74.95201,42.67197],[-74.95143,42.6725],[-74.95115,42.67279],[-74.951137,42.672804],[-74.95087,42.6731],[-74.95073,42.67329],[-74.95059,42.67354],[-74.94977,42.6751],[-74.94868,42.67692],[-74.94694,42.67953],[-74.94635,42.68027],[-74.94561,42.68112],[-74.94507,42.68177],[-74.94483,42.68215],[-74.94411,42.68347],[-74.94402,42.68361],[-74.94365,42.68404],[-74.94315,42.68444],[-74.94164,42.68546],[-74.9407,42.68605],[-74.94027,42.6863],[-74.93986,42.6865],[-74.93875,42.68684],[-74.93825,42.68701],[-74.93796,42.68715],[-74.93771,42.6873],[-74.9374,42.68753],[-74.93703,42.68792],[-74.93669,42.68836],[-74.93648,42.68871],[-74.93644,42.68884],[-74.9363,42.6891],[-74.93603,42.69006],[-74.93571,42.69138],[-74.93536,42.69263],[-74.93523,42.69298],[-74.93502,42.69328],[-74.93448,42.69394],[-74.93398,42.69442],[-74.92793,42.69475],[-74.92637,42.69483],[-74.92461,42.69488],[-74.9241,42.69617],[-74.92344,42.69602],[-74.9241,42.69617],[-74.92381,42.69691],[-74.9234,42.69806],[-74.92317,42.69866],[-74.92312,42.69876],[-74.92465,42.69909],[-74.92478,42.69914],[-74.92429,42.70046],[-74.92682,42.70102],[-74.92767,42.70027],[-74.92775,42.70033]]}},{"type":"Feature","properties":{"agency":"Oneonta Public Transit","shape_id":"cx8f"},"geometry":{"type":"LineString","coordinates":[[-75.06359,42.45254],[-75.06359,42.45253],[-75.0634,42.45275],[-75.06316,42.45297],[-75.06397,42.45355],[-75.06422,42.45369],[-75.06435,42.45374],[-75.06607,42.45405],[-75.06685,42.45422],[-75.06719,42.45432],[-75.06837,42.45475],[-75.06867,42.45483],[-75.06891,42.45484],[-75.06905,42.45483],[-75.06967,42.45464],[-75.07012,42.45446],[-75.07106,42.45381],[-75.07224,42.45305],[-75.07355,42.45216],[-75.07411,42.45181],[-75.07467,42.45142],[-75.07512,42.45115],[-75.07557,42.45094],[-75.07612,42.45077],[-75.07637,42.45072],[-75.0769,42.45067],[-75.0773,42.45067],[-75.0777,42.45072],[-75.08196,42.45174],[-75.08247,42.45189],[-75.08411,42.45246],[-75.08467,42.45263],[-75.08755,42.45333],[-75.09077,42.45414],[-75.09649,42.45562],[-75.09655,42.45554],[-75.09683,42.45522],[-75.09721,42.45484],[-75.09768,42.4544],[-75.09839,42.45368],[-75.1001,42.45212],[-75.10073,42.45164],[-75.10103,42.45177],[-75.10184,42.45208],[-75.10278,42.45239],[-75.10429,42.4528],[-75.10815,42.45373],[-75.109659,42.450421],[-75.10966,42.45042],[-75.11017,42.44922],[-75.11079,42.44787],[-75.11083,42.44774],[-75.11082,42.44766],[-75.11073,42.44753],[-75.11062,42.44745],[-75.11051,42.44741],[-75.10809,42.44686],[-75.10849,42.44602],[-75.10864,42.44564],[-75.10873,42.44512],[-75.10875,42.44461],[-75.10871,42.44426],[-75.10866,42.44404],[-75.10848,42.44355],[-75.10837,42.44335],[-75.10812,42.44294],[-75.10782,42.44257],[-75.10793,42.44237],[-75.10815,42.44205],[-75.1083,42.44186],[-75.1085,42.44165],[-75.10882,42.44139],[-75.10963,42.44084],[-75.11062,42.44029],[-75.11128,42.43995],[-75.11187,42.43969],[-75.11187,42.43968],[-75.11128,42.43995],[-75.11062,42.44029],[-75.10963,42.44084],[-75.10882,42.44139],[-75.1085,42.44165],[-75.1083,42.44186],[-75.10815,42.44205],[-75.10793,42.44237],[-75.10773,42.44272],[-75.10716,42.44403],[-75.10655,42.44536],[-75.10606,42.44626],[-75.10573,42.44676],[-75.10526,42.44729],[-75.10413,42.44849],[-75.10196,42.4506],[-75.10126,42.45123],[-75.1001,42.45212],[-75.09839,42.45368],[-75.09768,42.4544],[-75.09721,42.45484],[-75.09683,42.45522],[-75.09655,42.45554],[-75.09649,42.45562],[-75.09648,42.45563],[-75.09649,42.45562],[-75.09077,42.45414],[-75.08755,42.45333],[-75.08467,42.45263],[-75.08411,42.45246],[-75.08247,42.45189],[-75.08196,42.45174],[-75.0777,42.45072],[-75.0773,42.45067],[-75.0769,42.45067],[-75.07637,42.45072],[-75.07612,42.45077],[-75.07557,42.45094],[-75.07512,42.45115],[-75.07467,42.45142],[-75.07411,42.45181],[-75.07355,42.45216],[-75.07224,42.45305],[-75.07106,42.45381],[-75.07012,42.45446],[-75.06967,42.45464],[-75.06905,42.45483],[-75.06891,42.45484],[-75.06867,42.45483],[-75.06837,42.45475],[-75.06719,42.45432],[-75.06685,42.45422],[-75.06607,42.45405],[-75.06435,42.45374],[-75.06422,42.45369],[-75.06397,42.45355],[-75.06316,42.45297],[-75.0634,42.45275],[-75.06359,42.45254]]}},{"type":"Feature","properties":{"agency":"Oneonta Public Transit","shape_id":"d67711e9-34ce-41d1-bcd3-72fb8619da9c"},"geometry":{"type":"LineString","coordinates":[[-75.06359,42.45254],[-75.0634,42.45275],[-75.06316,42.45297],[-75.06215,42.45378],[-75.06136,42.45443],[-75.06062,42.45501],[-75.05988,42.45564],[-75.05887,42.45642],[-75.05862,42.45664],[-75.05839,42.4567],[-75.05826,42.4567],[-75.05799,42.45659],[-75.05658,42.45575],[-75.05607,42.45542],[-75.05565,42.45512],[-75.05456,42.45421],[-75.05398,42.45363],[-75.05357,42.45315],[-75.0532,42.45265],[-75.05273,42.45193],[-75.05215,42.45078],[-75.05158,42.4495],[-75.05071,42.44772],[-75.05057,42.4476],[-75.04881,42.44807],[-75.04805,42.44825],[-75.04665,42.44854],[-75.04608,42.44863],[-75.04576,42.44756],[-75.04563,42.44758],[-75.0452,42.44763],[-75.0452,42.44762],[-75.04465,42.44766],[-75.04455,42.44762],[-75.04434,42.44765],[-75.04371,42.4477],[-75.04302,42.44783],[-75.0431,42.44806],[-75.04263,42.44808],[-75.04225,42.44809],[-75.04192,42.44806],[-75.04156,42.44718],[-75.0414,42.44684],[-75.04132,42.44671],[-75.04122,42.44668],[-75.04075,42.44663],[-75.040747,42.44663],[-75.04003,42.44657],[-75.03987,42.44749],[-75.03988,42.44749],[-75.03974,42.44828],[-75.03978,42.44828],[-75.04181,42.44841],[-75.04178,42.44872],[-75.04178,42.44902],[-75.04269,42.44901],[-75.04361,42.44895],[-75.0443,42.44889],[-75.04665,42.44854],[-75.04805,42.44825],[-75.04881,42.44807],[-75.05492,42.44647],[-75.05513,42.44694],[-75.05519,42.44699],[-75.05524,42.44701],[-75.0554,42.44737],[-75.05595,42.447193],[-75.05596,42.44719],[-75.05686,42.4469],[-75.05686,42.4468],[-75.05679,42.44667],[-75.05664,42.44639],[-75.05659,42.44636],[-75.05659,42.44627],[-75.05664,42.44621],[-75.05736,42.44598],[-75.0574,42.44593],[-75.05741,42.44587],[-75.05754,42.44562],[-75.06125,42.44427],[-75.06172,42.44419],[-75.06194,42.44417],[-75.06209,42.44418],[-75.06245,42.44426],[-75.06258,42.44431],[-75.06283,42.44447],[-75.06294,42.44458],[-75.06319,42.44494],[-75.06382,42.44767],[-75.0639,42.44816],[-75.06391,42.44882],[-75.06388,42.45182],[-75.06381,42.45216],[-75.06367,42.45245],[-75.06359,42.45254]]}},{"type":"Feature","properties":{"agency":"Oneonta Public Transit","shape_id":"dhrt"},"geometry":{"type":"LineString","coordinates":[[-75.06359,42.45254],[-75.0634,42.45275],[-75.06316,42.45297],[-75.06397,42.45355],[-75.06422,42.45369],[-75.06435,42.45374],[-75.06607,42.45405],[-75.06685,42.45422],[-75.06719,42.45432],[-75.06837,42.45475],[-75.06867,42.45483],[-75.06777,42.45714],[-75.06791,42.4589],[-75.06796,42.45915],[-75.06809,42.45933],[-75.0683,42.4595],[-75.06884,42.45985],[-75.06913,42.46008],[-75.06986,42.46079],[-75.07019,42.46108],[-75.07066,42.4608],[-75.072498,42.457281],[-75.075567,42.454114],[-75.070932,42.455872],[-75.069859,42.457819]]}},{"type":"Feature","properties":{"agency":"Oneonta Public Transit","shape_id":"rvta"},"geometry":{"type":"LineString","coordinates":[[-75.06359,42.45254],[-75.0634,42.45275],[-75.06316,42.45297],[-75.06215,42.45378],[-75.06136,42.45443],[-75.06062,42.45501],[-75.05988,42.45564],[-75.05887,42.45642],[-75.05831,42.4569],[-75.05797,42.45704],[-75.05765,42.45714],[-75.05503,42.45781],[-75.05376,42.45816],[-75.05289,42.45836],[-75.05191,42.45854],[-75.05195,42.45894],[-75.05275,42.45887],[-75.05282,42.45942],[-75.05288,42.46006],[-75.05305,42.4603],[-75.05315,42.46041],[-75.05321,42.46056],[-75.05319,42.46066],[-75.05298,42.46091],[-75.05293,42.46102],[-75.0529,42.46114],[-75.05295,42.46136],[-75.05301,42.46154],[-75.05318,42.46184],[-75.05339,42.46201],[-75.05352,42.46207],[-75.05386,42.46312],[-75.05399,42.46399],[-75.05374,42.46582],[-75.05358,42.46653],[-75.05377,42.46669],[-75.05358,42.4674],[-75.05358,42.46781],[-75.05369,42.46793],[-75.05408,42.46779],[-75.05412,42.46793],[-75.05403,42.46793],[-75.05395,42.46795],[-75.05384,42.46801],[-75.05378,42.46808],[-75.05346,42.46865],[-75.05334,42.46877],[-75.05329,42.4688],[-75.05313,42.46884],[-75.05293,42.46882],[-75.05251,42.4686],[-75.05239,42.46858],[-75.05229,42.46858],[-75.0522,42.46861],[-75.05212,42.46867],[-75.05204,42.46883],[-75.05187,42.46923],[-75.0517,42.46971],[-75.05155,42.46971],[-75.05151,42.46975],[-75.05146,42.46986],[-75.05135,42.47004],[-75.05131,42.47017],[-75.05129,42.47023],[-75.05149,42.47027],[-75.05187,42.46923],[-75.05204,42.46883],[-75.05212,42.46867],[-75.0522,42.46861],[-75.05229,42.46858],[-75.05239,42.46858],[-75.05251,42.4686],[-75.05293,42.46882],[-75.05313,42.46884],[-75.05329,42.4688],[-75.05334,42.46877],[-75.05346,42.46865],[-75.05378,42.46808],[-75.05384,42.46801],[-75.05395,42.46795],[-75.05403,42.46793],[-75.05412,42.46793],[-75.05408,42.46779],[-75.05369,42.46793],[-75.05358,42.46781],[-75.05358,42.4674],[-75.05377,42.46669],[-75.05358,42.46653],[-75.05374,42.46582],[-75.05399,42.46399],[-75.05386,42.46312],[-75.05352,42.46207],[-75.05339,42.46201],[-75.05318,42.46184],[-75.05301,42.46154],[-75.05295,42.46136],[-75.0529,42.46114],[-75.05293,42.46102],[-75.05298,42.46091],[-75.05319,42.46066],[-75.05321,42.46056],[-75.05315,42.46041],[-75.05305,42.4603],[-75.05288,42.46006],[-75.05282,42.45942],[-75.05275,42.45887],[-75.05195,42.45894],[-75.05191,42.45854],[-75.05289,42.45836],[-75.05376,42.45816],[-75.05503,42.45781],[-75.05765,42.45714],[-75.05797,42.45704],[-75.05831,42.4569],[-75.05799,42.45659],[-75.05658,42.45575],[-75.05607,42.45542],[-75.05565,42.45512],[-75.05456,42.45421],[-75.05398,42.45363],[-75.05357,42.45315],[-75.0532,42.45265],[-75.05273,42.45193],[-75.05215,42.45078],[-75.05158,42.4495],[-75.05071,42.44772],[-75.05057,42.4476],[-75.04881,42.44807],[-75.04805,42.44825],[-75.04665,42.44854],[-75.04608,42.44863],[-75.04576,42.44756],[-75.04563,42.44758],[-75.0452,42.44763],[-75.0452,42.44762],[-75.04465,42.44766],[-75.04455,42.44762],[-75.04434,42.44765],[-75.04371,42.4477],[-75.04302,42.44783],[-75.0431,42.44806],[-75.04263,42.44808],[-75.04225,42.44809],[-75.04192,42.44806],[-75.04156,42.44718],[-75.0414,42.44684],[-75.04132,42.44671],[-75.04122,42.44668],[-75.04072,42.44663],[-75.040714,42.446629],[-75.04003,42.44657],[-75.03987,42.44749],[-75.03988,42.44749],[-75.03974,42.44828],[-75.039818,42.44828],[-75.03982,42.44828],[-75.04181,42.44841],[-75.04178,42.44872],[-75.04178,42.44902],[-75.04269,42.44901],[-75.04361,42.44895],[-75.0443,42.44889],[-75.04665,42.44854],[-75.04805,42.44825],[-75.04881,42.44807],[-75.05492,42.44647],[-75.05513,42.44694],[-75.05519,42.44699],[-75.05524,42.44701],[-75.0554,42.44737],[-75.055909,42.447204],[-75.05592,42.4472],[-75.05686,42.4469],[-75.05686,42.4468],[-75.05679,42.44667],[-75.05664,42.44639],[-75.05659,42.44636],[-75.05659,42.44627],[-75.05664,42.44621],[-75.05736,42.44598],[-75.0574,42.44593],[-75.05741,42.44587],[-75.05754,42.44562],[-75.06125,42.44427],[-75.06172,42.44419],[-75.06194,42.44417],[-75.06209,42.44418],[-75.06245,42.44426],[-75.06258,42.44431],[-75.06283,42.44447],[-75.06294,42.44458],[-75.06319,42.44494],[-75.06382,42.44767],[-75.0639,42.44816],[-75.06391,42.44882],[-75.06388,42.45182],[-75.06381,42.45216],[-75.06367,42.45245],[-75.06359,42.45254]]}},{"type":"Feature","properties":{"agency":"Oneonta Public Transit","shape_id":"uw2v"},"geometry":{"type":"LineString","coordinates":[[-75.06359,42.45254],[-75.06359,42.45253],[-75.0634,42.45275],[-75.06316,42.45297],[-75.06397,42.45355],[-75.06422,42.45369],[-75.06435,42.45374],[-75.06607,42.45405],[-75.06685,42.45422],[-75.06719,42.45432],[-75.06837,42.45475],[-75.06867,42.45483],[-75.06891,42.45484],[-75.06905,42.45483],[-75.06967,42.45464],[-75.07012,42.45446],[-75.07106,42.45381],[-75.07224,42.45305],[-75.07355,42.45216],[-75.07411,42.45181],[-75.07467,42.45142],[-75.07512,42.45115],[-75.07557,42.45094],[-75.07612,42.45077],[-75.07637,42.45072],[-75.0769,42.45067],[-75.0773,42.45067],[-75.0777,42.45072],[-75.081254,42.451579],[-75.08126,42.45158],[-75.08196,42.45174],[-75.08247,42.45189],[-75.08411,42.45246],[-75.08467,42.45263],[-75.08755,42.45333],[-75.09077,42.45414],[-75.09649,42.45562],[-75.09655,42.45554],[-75.09683,42.45522],[-75.09721,42.45484],[-75.09768,42.4544],[-75.09839,42.45368],[-75.1001,42.45212],[-75.10126,42.45123],[-75.10196,42.4506],[-75.10413,42.44849],[-75.10526,42.44729],[-75.10573,42.44676],[-75.10606,42.44626],[-75.10655,42.44536],[-75.10716,42.44403],[-75.10773,42.44272],[-75.10793,42.44237],[-75.10815,42.44205],[-75.1083,42.44186],[-75.1085,42.44165],[-75.10882,42.44139],[-75.10963,42.44084],[-75.11062,42.44029],[-75.11128,42.43995],[-75.11187,42.43969],[-75.11128,42.43995],[-75.11062,42.44029],[-75.10963,42.44084],[-75.10882,42.44139],[-75.1085,42.44165],[-75.1083,42.44186],[-75.10815,42.44205],[-75.10793,42.44237],[-75.10773,42.44272],[-75.10716,42.44403],[-75.10655,42.44536],[-75.10606,42.44626],[-75.10573,42.44676],[-75.10526,42.44729],[-75.10413,42.44849],[-75.10196,42.4506],[-75.10126,42.45123],[-75.1001,42.45212],[-75.09839,42.45368],[-75.09768,42.4544],[-75.09721,42.45484],[-75.09683,42.45522],[-75.09655,42.45554],[-75.09649,42.45562],[-75.09648,42.45563],[-75.09649,42.45562],[-75.09077,42.45414],[-75.08755,42.45333],[-75.08467,42.45263],[-75.08411,42.45246],[-75.08247,42.45189],[-75.08196,42.45174],[-75.0777,42.45072],[-75.0773,42.45067],[-75.0769,42.45067],[-75.07637,42.45072],[-75.07612,42.45077],[-75.07557,42.45094],[-75.07512,42.45115],[-75.07467,42.45142],[-75.07411,42.45181],[-75.07355,42.45216],[-75.07224,42.45305],[-75.07106,42.45381],[-75.07012,42.45446],[-75.06967,42.45464],[-75.06905,42.45483],[-75.06891,42.45484],[-75.06867,42.45483],[-75.06837,42.45475],[-75.06719,42.45432],[-75.06685,42.45422],[-75.06607,42.45405],[-75.06435,42.45374],[-75.06422,42.45369],[-75.06397,42.45355],[-75.06316,42.45297],[-75.0634,42.45275],[-75.06359,42.45254]]}},{"type":"Feature","properties":{"agency":"Oneonta Public Transit","shape_id":"ydzt"},"geometry":{"type":"LineString","coordinates":[[-75.06359,42.45254],[-75.0634,42.45275],[-75.06316,42.45297],[-75.06397,42.45355],[-75.06422,42.45369],[-75.06435,42.45374],[-75.06607,42.45405],[-75.06685,42.45422],[-75.06719,42.45432],[-75.06837,42.45475],[-75.06867,42.45483],[-75.06777,42.45714],[-75.06791,42.4589],[-75.06796,42.45915],[-75.06809,42.45933],[-75.0683,42.4595],[-75.06884,42.45985],[-75.06913,42.46008],[-75.06986,42.46079],[-75.07019,42.46108],[-75.07066,42.4608],[-75.072498,42.457281],[-75.075567,42.454114],[-75.070932,42.455872],[-75.069859,42.457819],[-75.06902,42.45764],[-75.06844,42.45902],[-75.06833,42.45933],[-75.0683,42.4595],[-75.06809,42.45933],[-75.06802,42.45925],[-75.06796,42.45915],[-75.06791,42.4589],[-75.06583,42.45907],[-75.06357,42.45923],[-75.063562,42.459231],[-75.05885,42.45959],[-75.05866,42.45829],[-75.05848,42.45721],[-75.05843,42.45706],[-75.05837,42.45696],[-75.05831,42.4569],[-75.05837,42.45685],[-75.05831,42.4569],[-75.05799,42.45659],[-75.05658,42.45575],[-75.05607,42.45542],[-75.05565,42.45512],[-75.05456,42.45421],[-75.05398,42.45363],[-75.05357,42.45315],[-75.0532,42.45265],[-75.05273,42.45193],[-75.05215,42.45078],[-75.05158,42.4495],[-75.05071,42.44772],[-75.05057,42.4476],[-75.04881,42.44807],[-75.04805,42.44825],[-75.04665,42.44854],[-75.04608,42.44863],[-75.04576,42.44756],[-75.04563,42.44758],[-75.0452,42.44763],[-75.04465,42.44766],[-75.04455,42.44762],[-75.04434,42.44765],[-75.04371,42.4477],[-75.04302,42.44783],[-75.0431,42.44806],[-75.04263,42.44808],[-75.04225,42.44809],[-75.04192,42.44806],[-75.04178,42.4477],[-75.03986,42.44758],[-75.03987,42.44749],[-75.03988,42.44749],[-75.03986,42.44758],[-75.04178,42.4477],[-75.04192,42.44806],[-75.04188,42.4484],[-75.04181,42.44841],[-75.04178,42.44872],[-75.04178,42.44902],[-75.04269,42.44901],[-75.04361,42.44895],[-75.0443,42.44889],[-75.04665,42.44854],[-75.04805,42.44825],[-75.04881,42.44807],[-75.05057,42.4476],[-75.0543,42.44664],[-75.0556,42.44629],[-75.05708,42.44579],[-75.06125,42.44427],[-75.06172,42.44419],[-75.06194,42.44417],[-75.06209,42.44418],[-75.06245,42.44426],[-75.06258,42.44431],[-75.06283,42.44447],[-75.06294,42.44458],[-75.06319,42.44494],[-75.06382,42.44767],[-75.06387,42.44799],[-75.063871,42.447995],[-75.0639,42.44816],[-75.06391,42.44882],[-75.06388,42.45182],[-75.06381,42.45216],[-75.06367,42.45245],[-75.06359,42.45254]]}}]}