{"type":"FeatureCollection","features":[{"type":"Feature","properties":{"agency":"PETALUMA","shape_id":"22997"},"geometry":{"type":"LineString","coordinates":[[-122.621766,38.248182],[-122.621828,38.248024],[-122.62246,38.247375],[-122.622742,38.247519],[-122.6257880613,38.2492265852],[-122.630775,38.251996],[-122.630865,38.252203],[-122.631475,38.252395],[-122.6327281546,38.2531432224],[-122.633131,38.25346],[-122.6336564896,38.2536299662],[-122.6356655396,38.2547589432],[-122.6381413395,38.256178831],[-122.638644,38.256534],[-122.6389105534,38.2566000708],[-122.6412443564,38.2579332132],[-122.641487,38.258132],[-122.6418907571,38.2582690394],[-122.6438436001,38.2593581563],[-122.644198,38.259681],[-122.6446395326,38.2598116633],[-122.6460993379,38.2606418208],[-122.6475209086,38.2614600266],[-122.647846,38.261762],[-122.64823,38.26184],[-122.6496540516,38.2626690261],[-122.64993,38.262875],[-122.6502187914,38.2629938114],[-122.6560910272,38.2662716079],[-122.656442,38.266506],[-122.6566663117,38.2665928126],[-122.6577541399,38.2672031529],[-122.65844,38.2676],[-122.658592,38.267789],[-122.6588832062,38.2679611102],[-122.6601620099,38.2691386039],[-122.6624359641,38.2713016467],[-122.662628,38.271561],[-122.6629193289,38.2717690128],[-122.6637179301,38.2724700089],[-122.6642580703,38.2728139102],[-122.664574,38.273051],[-122.6649257718,38.2731853072],[-122.6668927268,38.2743342712],[-122.669181254,38.2756052605],[-122.669104665,38.27599],[-122.668971,38.276288]]}},{"type":"Feature","properties":{"agency":"PETALUMA","shape_id":"22998"},"geometry":{"type":"LineString","coordinates":[[-122.668971,38.276288],[-122.668889,38.276928],[-122.668695,38.277764],[-122.667964,38.277632],[-122.6663,38.276732],[-122.666039,38.276555],[-122.665779,38.27628],[-122.665726,38.276029],[-122.665826,38.275751],[-122.667082,38.274355],[-122.665973,38.273655],[-122.66574,38.273418],[-122.665465,38.273361],[-122.66387,38.27244],[-122.6627453568,38.2714173325],[-122.662608,38.271238],[-122.6624279659,38.271116577],[-122.66035,38.26917],[-122.6602690233,38.2690394206],[-122.65876,38.26771],[-122.65836,38.26741],[-122.658229,38.267283],[-122.657953548,38.2671820313],[-122.6562284451,38.2662369527],[-122.6550131525,38.2655385641],[-122.6548525945,38.2654426645],[-122.654731,38.26534],[-122.6544261389,38.2652437153],[-122.653252616,38.2645865145],[-122.6526564951,38.2642232353],[-122.65253,38.264098],[-122.65253,38.2641],[-122.6522123331,38.2639694125],[-122.6502859655,38.2628927516],[-122.6473413513,38.2612312546],[-122.647001,38.26094],[-122.646626065,38.2608194009],[-122.6449277955,38.2598563248],[-122.644696,38.25968],[-122.6444278724,38.2595773154],[-122.6427726406,38.2586368835],[-122.642535,38.258472],[-122.6422611668,38.2583515171],[-122.6400367874,38.2571036019],[-122.6378910201,38.2558777345],[-122.63772,38.25574],[-122.6374492135,38.2556441489],[-122.6334339152,38.2533682552],[-122.633206,38.253219],[-122.6328655693,38.2530799023],[-122.6303802202,38.2516600368],[-122.630091,38.251437],[-122.6296865607,38.2512756641],[-122.6273868749,38.2499696824],[-122.627011,38.249689],[-122.6266049276,38.2495330092],[-122.6201932945,38.2459878348],[-122.6191216479,38.2471660299],[-122.6186544024,38.2477947114],[-122.6191015313,38.2481044545],[-122.619339,38.248311],[-122.619605189,38.2484600999],[-122.6207732945,38.2491763301],[-122.6216067145,38.248304566],[-122.621766,38.248182]]}},{"type":"Feature","properties":{"agency":"PETALUMA","shape_id":"22999"},"geometry":{"type":"LineString","coordinates":[[-122.621766,38.248182],[-122.6219637607,38.2478742129],[-122.6224568221,38.2473474068],[-122.62623,38.2494],[-122.6286429448,38.25080634],[-122.6269742893,38.2526392161],[-122.626764,38.252835],[-122.62678,38.25285],[-122.6265841987,38.2530732676],[-122.62604,38.25366],[-122.62559,38.25419],[-122.6282213059,38.2556995865],[-122.628524,38.255923],[-122.62907,38.25615],[-122.62937,38.25661],[-122.6296214577,38.256876867],[-122.6319597786,38.2582186694],[-122.632338,38.258451],[-122.6331846627,38.2588728354],[-122.6334728859,38.2591621713],[-122.6338676392,38.2598977522],[-122.634344485,38.2604333659],[-122.63485,38.26074],[-122.6363723902,38.2615416057],[-122.6375765469,38.2618591693],[-122.638096,38.262134],[-122.6388395609,38.2621442413],[-122.63915,38.26221],[-122.6408309912,38.2631799434],[-122.641181,38.263442],[-122.6415896786,38.2635658435],[-122.6458306288,38.2659661307],[-122.646205,38.266258],[-122.6466818357,38.2664248153],[-122.64828,38.26737],[-122.64841,38.26752],[-122.64856,38.26813],[-122.64829,38.26817],[-122.648083,38.268164],[-122.6478083681,38.2682526464],[-122.6434515094,38.2688174923],[-122.642822,38.268843],[-122.6422694183,38.2689852809],[-122.64164,38.26899],[-122.64104,38.26885],[-122.64043,38.268468],[-122.6398911091,38.2682536043],[-122.6377544974,38.2670633075],[-122.637207,38.266659],[-122.6369,38.26658],[-122.63555,38.26582],[-122.635248,38.265535],[-122.634558952,38.2653041096],[-122.6296756839,38.2625060196],[-122.629177,38.262171],[-122.6287288932,38.2619799122],[-122.6269612884,38.2609770318],[-122.626506,38.260637],[-122.626036211,38.260463589],[-122.6236621713,38.2591026089],[-122.623185,38.258748],[-122.622610876,38.2585046107],[-122.6207224702,38.2574661349],[-122.620361,38.25721],[-122.619929622,38.2569935772],[-122.6166445836,38.2551277563],[-122.616194,38.254808],[-122.6157288932,38.2546288255],[-122.6116633779,38.2523495738],[-122.611176,38.251992],[-122.6106559778,38.2517909014],[-122.6076293356,38.250066412],[-122.607032,38.249656],[-122.6064823337,38.2494293173],[-122.6041424639,38.2481264081],[-122.603645,38.247767],[-122.6030803803,38.2475398195],[-122.6003754531,38.2460147921],[-122.599925,38.245672],[-122.5991940833,38.245353443],[-122.5970602428,38.2441252373],[-122.596626,38.243819],[-122.59658,38.2439],[-122.596040962,38.2435558117],[-122.5959877841,38.2434084512],[-122.5957808291,38.2433268488],[-122.595605627,38.2433146961],[-122.5914389024,38.2409505943],[-122.590834,38.240493],[-122.5901550453,38.2402481875],[-122.58917,38.23966],[-122.5905800258,38.2381327205],[-122.590958,38.237902],[-122.5911845473,38.2374371065],[-122.5927016531,38.2357836808],[-122.5931991534,38.2354103],[-122.5938287755,38.2350337091],[-122.5940726528,38.2347511277],[-122.5942021865,38.234708457],[-122.59437,38.234738],[-122.5946604074,38.23465],[-122.5995330575,38.234246887],[-122.599735,38.234245],[-122.59993,38.2343],[-122.60007,38.2346],[-122.60029,38.2348],[-122.6026900175,38.2362420377],[-122.602984,38.236468],[-122.60349134,38.2366744145],[-122.6047229203,38.2373665608],[-122.604984,38.237639],[-122.6055676663,38.2378317977],[-122.61004,38.24029],[-122.6100112245,38.2403742399],[-122.61006,38.24044],[-122.6102385423,38.2404658132],[-122.61042,38.24052],[-122.61058,38.24061],[-122.610679,38.240789],[-122.6109653056,38.2408601055],[-122.61358,38.24228],[-122.61358,38.24228],[-122.615301,38.243395],[-122.6156791829,38.2435259364],[-122.6178618624,38.2447933683],[-122.618118,38.24497],[-122.6184704074,38.2451017182],[-122.6200866184,38.246075278],[-122.6190071657,38.2473106341],[-122.61868,38.2478],[-122.619339,38.248311],[-122.6197916025,38.2485896451],[-122.62078,38.24915],[-122.6217588776,38.248195535]]}},{"type":"Feature","properties":{"agency":"PETALUMA","shape_id":"23000"},"geometry":{"type":"LineString","coordinates":[[-122.621766,38.248182],[-122.6219758307,38.2478110195],[-122.6224890086,38.2472926388],[-122.6222570847,38.247151019],[-122.6180860108,38.2447779665],[-122.617504,38.244388],[-122.6171059484,38.244227747],[-122.614483804,38.2427430247],[-122.614161,38.242509],[-122.6139000589,38.2423988322],[-122.6110130256,38.2407901854],[-122.610653,38.240535],[-122.6105370847,38.2405468003],[-122.61042,38.24052],[-122.6102960933,38.2403831467],[-122.61022,38.24026],[-122.6100346356,38.24024576],[-122.6098746356,38.2401789333],[-122.605552048,38.2377165166],[-122.605244,38.237481],[-122.6048371729,38.2373235386],[-122.60469,38.23724],[-122.60382,38.23675],[-122.603507,38.236505],[-122.603286881,38.236437807],[-122.602536589,38.2360394371],[-122.602142,38.236327],[-122.601944957,38.2366517452],[-122.6003062476,38.2384119909],[-122.600064,38.238601],[-122.5998705546,38.2389101648],[-122.5981646822,38.2407371067],[-122.5980888049,38.2408848256],[-122.5967534045,38.2423037415],[-122.596511,38.242509],[-122.5962666772,38.2428506848],[-122.59586,38.24334],[-122.59567,38.24338],[-122.59565,38.24349],[-122.59577,38.2436],[-122.5961051313,38.2436789591],[-122.597684131,38.2446020136],[-122.598003,38.244862],[-122.5984420982,38.2449964643],[-122.601251469,38.2466158385],[-122.601591,38.246913],[-122.6021554798,38.2470980774],[-122.6047665039,38.2486099476],[-122.605104,38.248913],[-122.6056257424,38.2490480469],[-122.60684,38.24977],[-122.6097956458,38.2514303951],[-122.610126,38.251714],[-122.61024,38.25159],[-122.6125663677,38.2529911783],[-122.612912,38.253298],[-122.6133683482,38.2533913737],[-122.6162570873,38.2550279394],[-122.616721,38.255341],[-122.6171930602,38.2555011723],[-122.6191524491,38.2566484424],[-122.6199303485,38.2570970069],[-122.620188,38.257307],[-122.6205825939,38.2574364221],[-122.6233788506,38.259086925],[-122.623729,38.259388],[-122.624088454,38.2594805951],[-122.6261254327,38.2606678398],[-122.626399,38.260877],[-122.6268323314,38.2610521977],[-122.629671313,38.2626727955],[-122.629963,38.262907],[-122.6303942847,38.2630379649],[-122.6342605726,38.2652505143],[-122.634618,38.265504],[-122.6350516025,38.2656616527],[-122.6375543253,38.2671037197],[-122.63792,38.267412],[-122.6383928271,38.2675595408],[-122.6401077883,38.2685293922],[-122.640402,38.26873],[-122.6406675215,38.268847927],[-122.6412,38.26901],[-122.64173,38.26911],[-122.64222,38.26911],[-122.6434712784,38.2689631954],[-122.643863,38.268985],[-122.6442925645,38.2688373541],[-122.64856,38.26824],[-122.6486136442,38.2680899887],[-122.6484770552,38.2674842001],[-122.648306,38.267296],[-122.6479676392,38.2671451998],[-122.6461417304,38.2660718271],[-122.645882,38.265874],[-122.6454537619,38.2657036067],[-122.6415310131,38.2635215153],[-122.641061,38.263177],[-122.6406283975,38.2630241276],[-122.6391795043,38.2621826216],[-122.6386878716,38.2621062748],[-122.6382,38.26208],[-122.6374889242,38.2617987933],[-122.6372,38.26176],[-122.6369290969,38.2616968187],[-122.63619,38.26147],[-122.63436,38.26042],[-122.63392,38.25996],[-122.6336614577,38.2593763022],[-122.6333012245,38.2589452408],[-122.6327572034,38.2585575221],[-122.632395,38.258311],[-122.6320274061,38.25819519],[-122.6311156915,38.2575907992],[-122.6303324865,38.2571906269],[-122.629965,38.25695],[-122.62944,38.25669],[-122.62907,38.25615],[-122.6272962259,38.2551096955],[-122.626869,38.254842],[-122.6265261815,38.2546814817],[-122.625654373,38.2541878937],[-122.6261928859,38.2536031305],[-122.6268095043,38.2528858071],[-122.626992,38.252768],[-122.6272096786,38.2524598807],[-122.628760962,38.2507768509],[-122.62751,38.25009],[-122.62723,38.24994],[-122.627011,38.249689],[-122.62693,38.24977],[-122.6265625374,38.2495193391],[-122.6225956248,38.2473284727],[-122.6201785423,38.2460078466],[-122.6188459746,38.2475179518],[-122.6187,38.24784],[-122.619339,38.248311],[-122.62078,38.24915],[-122.6217706123,38.2481873725]]}},{"type":"Feature","properties":{"agency":"PETALUMA","shape_id":"23001"},"geometry":{"type":"LineString","coordinates":[[-122.621766,38.248182],[-122.6219624196,38.2478573613],[-122.6225104663,38.2472610418],[-122.6222544024,38.2471257414],[-122.6179193315,38.2446515659],[-122.617504,38.244388],[-122.6171730036,38.2442656649],[-122.6145209727,38.2427598691],[-122.614161,38.242509],[-122.613594287,38.2422387301],[-122.6111172495,38.2408660165],[-122.610653,38.240535],[-122.61042,38.24052],[-122.61028,38.2404],[-122.61022,38.24026],[-122.6100373178,38.2402499733],[-122.60988,38.2402],[-122.6057099161,38.2377900046],[-122.605244,38.237481],[-122.60469,38.23724],[-122.60382,38.23675],[-122.603507,38.236505],[-122.6030776686,38.236343002],[-122.6025258601,38.2360352235],[-122.602142,38.236327],[-122.6017867067,38.2367971122],[-122.5968586264,38.2421950602],[-122.596511,38.242509],[-122.5962827705,38.2428464716],[-122.59586,38.24334],[-122.59567,38.24338],[-122.59565,38.24349],[-122.59577,38.2436],[-122.5959887755,38.2436205577],[-122.5961426822,38.2436937051],[-122.5978188572,38.2446955637],[-122.598003,38.244862],[-122.5984608737,38.2450322753],[-122.6012440381,38.2466377656],[-122.601591,38.246913],[-122.6020991534,38.2470770127],[-122.6047121343,38.248586235],[-122.605104,38.248913],[-122.6055801448,38.2490311956],[-122.6098226164,38.2514403487],[-122.610126,38.251714],[-122.6106342847,38.2518848867],[-122.6125951466,38.2529927428],[-122.612912,38.253298],[-122.6133916025,38.2533869673],[-122.6162563619,38.2550189726],[-122.616721,38.255341],[-122.6173164418,38.2555812088],[-122.6191685423,38.2566294867],[-122.6197989203,38.2570190783],[-122.620188,38.257307],[-122.6207274332,38.2575333058],[-122.6234611197,38.2591391995],[-122.623729,38.259388],[-122.6242815731,38.2595732638],[-122.6261728331,38.2606766503],[-122.626399,38.260877],[-122.626904751,38.2610837887],[-122.6296302005,38.2626710757],[-122.629963,38.262907],[-122.6304184246,38.2630569189],[-122.6342355534,38.2652382649],[-122.634618,38.265504],[-122.6352447216,38.2657564195],[-122.6375400349,38.2671146354],[-122.63792,38.267412],[-122.6384008737,38.2675426938],[-122.6401345244,38.2685577772],[-122.640402,38.26873],[-122.6406406994,38.2687973869],[-122.6412,38.26901],[-122.64173,38.26911],[-122.64222,38.26911],[-122.6434095016,38.2689841001],[-122.643863,38.268985],[-122.6442791534,38.2688457774],[-122.6486351019,38.268195777],[-122.6486324196,38.2680815652],[-122.6484555976,38.267486306],[-122.648306,38.267296],[-122.6480615165,38.2672062705],[-122.6464296689,38.2662612059],[-122.645882,38.265874],[-122.6454108466,38.2657078186],[-122.6417036166,38.2635782235],[-122.641061,38.263177],[-122.6405693889,38.2629567354],[-122.639099038,38.2621594553],[-122.6383072884,38.262082106],[-122.6378167355,38.2619502746],[-122.6374467632,38.2618021209],[-122.63619,38.26147],[-122.63436,38.26042],[-122.6339414577,38.2599452573],[-122.6336695043,38.2593889389],[-122.6333360933,38.258983151],[-122.6328921997,38.2586163403],[-122.632395,38.258311],[-122.6319844907,38.2581614917],[-122.6310146534,38.2575464161],[-122.6304004275,38.2572220659],[-122.629965,38.25695],[-122.6296269104,38.2567777888],[-122.6294560933,38.2566436638],[-122.62907,38.25615],[-122.627326616,38.2551306042],[-122.626869,38.254842],[-122.6265208171,38.2546688442],[-122.6226139748,38.252483018],[-122.622124,38.252167],[-122.6217071729,38.2520209425],[-122.6212726822,38.2518705114],[-122.620570962,38.2514594888],[-122.6203995043,38.2511747238],[-122.620221,38.25017],[-122.6202392417,38.2498735318],[-122.6204245767,38.2495530414],[-122.6216960933,38.2481953219]]}},{"type":"Feature","properties":{"agency":"PETALUMA","shape_id":"23002"},"geometry":{"type":"LineString","coordinates":[[-122.621766,38.248182],[-122.621957,38.247875],[-122.622441,38.247342],[-122.62591,38.249235],[-122.626092,38.249045],[-122.627801,38.246833],[-122.629843,38.245051],[-122.631079,38.243652],[-122.631229,38.243596],[-122.631386,38.243281],[-122.633437,38.241044],[-122.633814,38.240751],[-122.633763,38.240687],[-122.63616,38.23805],[-122.636445,38.237856],[-122.636582,38.237593],[-122.637076,38.23709],[-122.638827,38.236496],[-122.639153,38.236458],[-122.639487,38.236274],[-122.640236,38.236054],[-122.64161,38.235675],[-122.64302,38.235174],[-122.642862,38.234841],[-122.642588,38.234336],[-122.642488,38.234024],[-122.642301,38.233808],[-122.641554,38.23239],[-122.64128,38.23223],[-122.641,38.23212],[-122.64017,38.23181],[-122.63978,38.23242],[-122.639582,38.232681],[-122.63904,38.232462],[-122.638688,38.23244],[-122.638455,38.232259],[-122.63808,38.23292],[-122.636887,38.232455],[-122.635781,38.234255],[-122.63529,38.235488],[-122.63508,38.23581],[-122.636063,38.236376]]}},{"type":"Feature","properties":{"agency":"PETALUMA","shape_id":"23003"},"geometry":{"type":"LineString","coordinates":[[-122.636063,38.236376],[-122.63646,38.23656],[-122.6369951313,38.2369105481],[-122.6368715165,38.2370768683],[-122.6364244907,38.2375239058],[-122.6358688697,38.2380954295],[-122.635647,38.238242],[-122.6355290969,38.2385480593],[-122.6350521371,38.2391454219],[-122.6336627528,38.240681189],[-122.633488,38.240821],[-122.6332816625,38.2411201444],[-122.6323457882,38.2421147531],[-122.6315746531,38.2429300076],[-122.631316,38.243117],[-122.6311423914,38.2434038052],[-122.629803054,38.2448680437],[-122.6281883642,38.246279407],[-122.6267428305,38.2479712032],[-122.6249108748,38.2502447341],[-122.6227498834,38.2525568107],[-122.6223121865,38.2523173521],[-122.622124,38.252167],[-122.6218292135,38.2520662285],[-122.6215744036,38.252005145],[-122.6210849276,38.251759929],[-122.6206179006,38.251466861],[-122.6203952059,38.2511088854],[-122.620221,38.25017],[-122.620229854,38.2498651063],[-122.6207424185,38.2492023255],[-122.6215405092,38.2483399326],[-122.621766,38.248182]]}},{"type":"Feature","properties":{"agency":"PETALUMA","shape_id":"23009"},"geometry":{"type":"LineString","coordinates":[[-122.642488,38.234024],[-122.6422004663,38.2334652596],[-122.6429886589,38.233196855],[-122.6438261227,38.2348626113],[-122.6411586589,38.2357805049],[-122.6415461564,38.2364338088],[-122.641591,38.236552],[-122.6417540276,38.2367171697],[-122.6423062098,38.2375473736],[-122.6429513012,38.2388062626],[-122.6431302331,38.2393909314],[-122.643374081,38.2403289095],[-122.6440995043,38.2427993159],[-122.644114,38.243025],[-122.6442467927,38.2433407082],[-122.6448637162,38.2455453108],[-122.6451011951,38.246505441],[-122.645186,38.246923],[-122.6453652893,38.2473106445],[-122.6456301177,38.2481526413],[-122.6460868035,38.2491473593],[-122.6476980466,38.2514463395],[-122.6507707288,38.2546194875],[-122.6514555195,38.2552049356],[-122.651764,38.255522],[-122.6522189203,38.2557059152],[-122.6546748687,38.2574568493],[-122.6547868221,38.2573542123],[-122.6546,38.25722],[-122.6543290675,38.256810426],[-122.653909,38.256428],[-122.6534037913,38.2560872022],[-122.6516432741,38.2550111619],[-122.651263,38.25474],[-122.6509780863,38.2545835941],[-122.64773,38.25125],[-122.6463807801,38.2493135623],[-122.6459677199,38.2486753191],[-122.6455546597,38.2474577966],[-122.645517,38.247052],[-122.6453105787,38.2465351623],[-122.6448358277,38.2448836596],[-122.644763,38.244521],[-122.6446373442,38.2442432709],[-122.6440660337,38.2423494569],[-122.643992,38.242056],[-122.6438702324,38.241685873],[-122.6433203796,38.239741891],[-122.643232,38.239408],[-122.6431122159,38.2390155143],[-122.6428670862,38.2384820846],[-122.6424041305,38.2375906816],[-122.6418784176,38.236750086],[-122.641702,38.236378],[-122.641482,38.236125],[-122.641339,38.235908],[-122.641339,38.235798],[-122.641978,38.235569],[-122.6429544196,38.2352038932],[-122.642994,38.235101],[-122.642927,38.23493],[-122.642496,38.234071],[-122.642488,38.234024]]}},{"type":"Feature","properties":{"agency":"PETALUMA","shape_id":"23016"},"geometry":{"type":"LineString","coordinates":[[-122.639637,38.273525],[-122.640143,38.272893],[-122.64062,38.27232],[-122.640212,38.272044],[-122.639927,38.271819],[-122.639468,38.271115],[-122.638913,38.270534],[-122.63889,38.27047],[-122.63889,38.27041],[-122.638995,38.270313],[-122.639665,38.269911],[-122.64005,38.26958],[-122.64034,38.26917],[-122.640578,38.268808],[-122.64057,38.26864],[-122.64043,38.268468],[-122.640111,38.268357],[-122.637737,38.267007],[-122.637207,38.266659],[-122.636892,38.266563],[-122.63557,38.265807],[-122.635248,38.265535],[-122.63494,38.265458],[-122.632727,38.264215],[-122.629713,38.262514],[-122.629177,38.262171],[-122.628766,38.261996],[-122.626963,38.260964],[-122.626506,38.260637],[-122.626119,38.260487],[-122.623602,38.259044],[-122.623185,38.258748],[-122.622808,38.258597],[-122.620656,38.25737],[-122.620361,38.25721],[-122.620046,38.257017],[-122.619038,38.256462],[-122.616573,38.255071],[-122.616194,38.254808],[-122.615843,38.254668],[-122.611615,38.2523],[-122.611176,38.251992],[-122.610758,38.251813],[-122.607529,38.249988],[-122.607032,38.249656],[-122.606681,38.249529],[-122.604094,38.248079],[-122.603645,38.247767],[-122.603145,38.247561],[-122.600358,38.245988],[-122.599925,38.245672],[-122.599441,38.245458],[-122.597056,38.244123],[-122.596626,38.243819],[-122.596277,38.243689],[-122.596022,38.243531],[-122.596016,38.243363],[-122.597242,38.241991],[-122.598224,38.240977],[-122.598514,38.240741],[-122.598722,38.240428],[-122.602578,38.236229],[-122.602694,38.236218],[-122.60288,38.23631],[-122.602984,38.236468],[-122.603287,38.236559],[-122.604783,38.237414],[-122.604984,38.237639],[-122.605303,38.237711],[-122.609385,38.23996],[-122.61003,38.24033],[-122.610053,38.240452],[-122.610276,38.240485],[-122.610437,38.240554],[-122.610585,38.240666],[-122.610679,38.240789],[-122.611007,38.240903],[-122.613484,38.242263],[-122.61358,38.24228],[-122.615027,38.243138],[-122.615301,38.243395],[-122.615677,38.243539],[-122.617842,38.24478],[-122.618118,38.24497],[-122.618397,38.245057],[-122.620116,38.246071],[-122.618953,38.247399],[-122.61868,38.2478],[-122.619339,38.248311],[-122.619607,38.248443],[-122.62078,38.24915],[-122.621766,38.248182],[-122.621779,38.248079],[-122.622439,38.247379],[-122.625643,38.249124],[-122.625863,38.249171],[-122.626091,38.249044],[-122.626819,38.248168],[-122.627499,38.247189],[-122.628364,38.246302],[-122.629209,38.2456],[-122.629907,38.244975],[-122.630332,38.2445],[-122.631068,38.243673],[-122.631229,38.243596],[-122.631286,38.24341],[-122.633644,38.240867],[-122.633814,38.240751],[-122.633831,38.240637],[-122.635978,38.238266],[-122.636332,38.237893],[-122.636445,38.237856],[-122.636441,38.237751],[-122.636949,38.237196],[-122.637063,38.237115],[-122.637524,38.236928],[-122.638918,38.236469],[-122.639153,38.236458],[-122.639252,38.236362],[-122.639769,38.236197],[-122.641041,38.235848],[-122.642227,38.23545],[-122.642854,38.235216],[-122.642986,38.235146],[-122.642511,38.234122],[-122.642488,38.234024]]}},{"type":"Feature","properties":{"agency":"PETALUMA","shape_id":"23017"},"geometry":{"type":"LineString","coordinates":[[-122.642488,38.234024],[-122.6415407288,38.2323441208],[-122.64128,38.23223],[-122.6402194772,38.2317850018],[-122.64017,38.23181],[-122.63978,38.23242],[-122.639603411,38.2326805036],[-122.6391255681,38.2324931758],[-122.638688,38.23244],[-122.63888,38.23228],[-122.6384607288,38.2322362275],[-122.63808,38.23292],[-122.6368919534,38.2324615106],[-122.6357680674,38.2342427219],[-122.635287952,38.2354478248],[-122.63508,38.23581],[-122.636063,38.236376],[-122.63606,38.23633],[-122.63646,38.23656],[-122.63703,38.23688],[-122.6369439362,38.2370231459],[-122.6367195337,38.2372121068],[-122.6359102245,38.2380378392],[-122.635647,38.238242],[-122.6355290969,38.2385543794],[-122.6337725039,38.2405532322],[-122.633488,38.240821],[-122.633261546,38.241148584],[-122.6316750165,38.2428237753],[-122.631316,38.243117],[-122.631060584,38.243469109],[-122.6297975804,38.2448299277],[-122.6279215193,38.2465306564],[-122.6267227139,38.2479975338],[-122.6249175804,38.2502436809],[-122.622756589,38.2525525981],[-122.6223765595,38.2523436811],[-122.622124,38.252167],[-122.6217581349,38.2520272614],[-122.6213236442,38.2518978937],[-122.6205924196,38.2514594888],[-122.620420962,38.2512273825],[-122.6202772236,38.2505732042],[-122.620221,38.25017],[-122.620255335,38.2498187657],[-122.6214920959,38.2483839816],[-122.621766,38.248182],[-122.6224819805,38.2473379972],[-122.6223897669,38.247189422],[-122.6181680072,38.2448246998],[-122.617504,38.244388],[-122.6171434993,38.2442593453],[-122.6145899404,38.242781333],[-122.614161,38.242509],[-122.6137927705,38.2423419539],[-122.6111030687,38.2408421862],[-122.610653,38.240535],[-122.61058,38.24061],[-122.61042,38.24052],[-122.61028,38.2404],[-122.61022,38.24026],[-122.6100453644,38.2402605067],[-122.6097807583,38.2401157332],[-122.605615269,38.2377432387],[-122.605244,38.237481],[-122.6048961815,38.2373130049],[-122.60469,38.23724],[-122.60382,38.23675],[-122.603507,38.236505],[-122.6026485152,38.236090188],[-122.60255,38.23609],[-122.602142,38.236327],[-122.6019342282,38.2366369978],[-122.6003447283,38.2383857914],[-122.600064,38.238601],[-122.5997932662,38.2389849391],[-122.5984403599,38.2404756283],[-122.5981646822,38.2407371067],[-122.5979332368,38.241015971],[-122.5967720259,38.2422873335],[-122.596511,38.242509],[-122.596263995,38.2429054562],[-122.59586,38.24334],[-122.59567,38.24338],[-122.59565,38.24349],[-122.59577,38.2436],[-122.5959914577,38.2436268774],[-122.5961882798,38.2437295167],[-122.5977000702,38.2446509088],[-122.598003,38.244862],[-122.5984662381,38.2450154231],[-122.6011842598,38.2465846861],[-122.601591,38.246913],[-122.60213134,38.2470959709],[-122.6046899069,38.2485837111],[-122.605104,38.248913],[-122.6055774626,38.2490480469],[-122.6097180103,38.2513982219],[-122.610126,38.251714],[-122.610599416,38.2518701424],[-122.6125863303,38.2530091757],[-122.612912,38.253298],[-122.6133889203,38.2533869673],[-122.6161965836,38.2549890678],[-122.616721,38.255341],[-122.6172064712,38.2555222346],[-122.6191631779,38.2566421238],[-122.6198472001,38.2570612019],[-122.620188,38.257307],[-122.6207783952,38.257560686],[-122.623409814,38.2591166797],[-122.623729,38.259388],[-122.6241367338,38.2595163989],[-122.6261027519,38.2606499188],[-122.626399,38.260877],[-122.6268216025,38.2610543038],[-122.6296003524,38.2626106486],[-122.629963,38.262907],[-122.6304318357,38.2630653429],[-122.6342727605,38.2652347004],[-122.634618,38.265504],[-122.635019416,38.2656658645],[-122.637614793,38.2671152827],[-122.63792,38.267412],[-122.6383606405,38.2675279526],[-122.6404968515,38.2687615876],[-122.6400904719,38.269391712],[-122.6397149626,38.2698023462],[-122.6391061012,38.2701834968],[-122.6388082798,38.2703489219],[-122.6386528079,38.270387759],[-122.6386125747,38.2705014718],[-122.6382558409,38.2709268401],[-122.6383207288,38.2710457982],[-122.6386608545,38.2713922154],[-122.6388781134,38.2717038678],[-122.6391248766,38.2720934314],[-122.63951,38.27246],[-122.6394574706,38.2725945967],[-122.6387063558,38.2734436829],[-122.63934,38.2738],[-122.639637,38.273525]]}},{"type":"Feature","properties":{"agency":"PETALUMA","shape_id":"23018"},"geometry":{"type":"LineString","coordinates":[[-122.639637,38.273525],[-122.6401455976,38.2728931586],[-122.6406320699,38.2723642205],[-122.6408860933,38.2724873745],[-122.641256443,38.2727437048],[-122.6415042564,38.2728315858],[-122.6423959178,38.2718031124],[-122.6427320699,38.27154],[-122.643145793,38.2715005775],[-122.6437341693,38.2714600095],[-122.6441691252,38.2713268461],[-122.6445797374,38.2708915818],[-122.6440962098,38.2705994711],[-122.6436965595,38.2701647559],[-122.6433751019,38.2689594708],[-122.64327,38.26886],[-122.642822,38.268843],[-122.64283,38.26892],[-122.6423659778,38.2689810692],[-122.64164,38.26899],[-122.6408804086,38.2687910365],[-122.64043,38.268468],[-122.6400748404,38.2683567911],[-122.6376423962,38.2669748359],[-122.637207,38.266659],[-122.6369,38.26658],[-122.63555,38.26582],[-122.635248,38.265535],[-122.6348352196,38.2653925591],[-122.6297754771,38.262564964],[-122.629177,38.262171],[-122.6287932662,38.2620115027],[-122.6269537933,38.2609812197],[-122.626506,38.260637],[-122.6260737619,38.2604720133],[-122.623582631,38.2590628624],[-122.623185,38.258748],[-122.6227369398,38.2585720071],[-122.620720714,38.2574516616],[-122.620361,38.25721],[-122.6200583681,38.257060975],[-122.6192060933,38.2565768319],[-122.616720618,38.2551557037],[-122.616194,38.254808],[-122.6157771729,38.2546477817],[-122.6116727623,38.2523461213],[-122.611176,38.251992],[-122.6107176686,38.2518140711],[-122.6076017373,38.2500502004],[-122.607032,38.249656],[-122.6065440245,38.2494630197],[-122.6040350556,38.2480706452],[-122.603645,38.247767],[-122.6030267361,38.2475166485],[-122.6004006623,38.2460126241],[-122.599925,38.245672],[-122.5993335582,38.2454187451],[-122.5970654357,38.2441336021],[-122.596626,38.243819],[-122.5962876392,38.2436956633],[-122.5960221865,38.2434947211],[-122.59598,38.2433799751],[-122.5957902626,38.2433147211],[-122.59564,38.24344],[-122.5957244024,38.2436126394],[-122.5959512245,38.2436037051],[-122.5961292712,38.2437000248],[-122.598003,38.244862],[-122.5985359755,38.2450491275],[-122.6012805749,38.246645662],[-122.601591,38.246913],[-122.6020669669,38.2470517351],[-122.6047036994,38.2485760587],[-122.605104,38.248913],[-122.6055157718,38.2489890673],[-122.6097716545,38.2514129663],[-122.610126,38.251714],[-122.6107201154,38.2519417576],[-122.6125357497,38.2529846734],[-122.612912,38.253298],[-122.6134532933,38.2534185616],[-122.6163258316,38.2550594416],[-122.616721,38.255341],[-122.6171313694,38.2554822163],[-122.6191470847,38.2566315929],[-122.6193563558,38.2567747609],[-122.620188,38.257307],[-122.6204672589,38.2574048296],[-122.6232673885,38.2590207962],[-122.623729,38.259388],[-122.6241850136,38.2595121867],[-122.6260971191,38.2606403865],[-122.626399,38.260877],[-122.6268752467,38.2610627281],[-122.6296242239,38.262657979],[-122.629963,38.262907],[-122.6304264712,38.2630716609],[-122.6342429878,38.2652507139],[-122.634618,38.265504],[-122.6349765007,38.2656363815],[-122.637375808,38.2670217896],[-122.63792,38.267412],[-122.638379416,38.2675405879],[-122.6400848391,38.2685106391],[-122.640402,38.26873],[-122.64052,38.26873],[-122.6409840222,38.2689363721],[-122.6412,38.26901],[-122.64173,38.26911],[-122.64222,38.26911],[-122.6431720616,38.2689970883],[-122.643863,38.268985],[-122.6443569375,38.2688162957],[-122.6486163264,38.2682336824],[-122.6485948687,38.2680310246],[-122.648460962,38.2674715648],[-122.648306,38.267296],[-122.6479327705,38.2671430939],[-122.646255235,38.2661677827],[-122.645882,38.265874],[-122.645493995,38.2657394075],[-122.6436455204,38.2647157688],[-122.6413388206,38.2633974274],[-122.641061,38.263177],[-122.6405720711,38.2629799015],[-122.6390453938,38.2621468191],[-122.6384360344,38.2620926362],[-122.6380048348,38.2620074569],[-122.6375352761,38.261810545],[-122.6367423094,38.2616515359],[-122.6362007288,38.2614320911],[-122.6347655213,38.2606743238],[-122.63436,38.26042],[-122.63392,38.25996],[-122.6336453644,38.2593594533],[-122.6333414577,38.2589726204],[-122.6327806867,38.2585661124],[-122.632395,38.258311],[-122.6320059484,38.2581846593],[-122.6310667551,38.2575593725],[-122.629965,38.25695],[-122.6295223042,38.2566977536],[-122.6292495632,38.2563951328],[-122.6289922159,38.2560678579],[-122.6272043741,38.2550677365],[-122.626869,38.254842],[-122.6265100883,38.2546709505],[-122.6256758307,38.2541942125],[-122.6261392417,38.2536621063],[-122.6268229153,38.2528794882],[-122.626992,38.252768],[-122.6271587166,38.2525188575],[-122.6287368221,38.2507789573],[-122.62751,38.25009],[-122.6272916908,38.2499315745],[-122.627011,38.249689],[-122.6265223042,38.2494898495],[-122.6224548687,38.2472568289],[-122.6202,38.2459815505],[-122.6189673102,38.247371138],[-122.61867,38.24779],[-122.6195010698,38.2483843383],[-122.620800962,38.2491594897],[-122.621766,38.248182],[-122.62177,38.24818]]}},{"type":"Feature","properties":{"agency":"PETALUMA","shape_id":"23191"},"geometry":{"type":"LineString","coordinates":[[-122.653909,38.256428],[-122.651692,38.255058],[-122.651263,38.25474],[-122.650939,38.254572],[-122.64773,38.25125],[-122.646016,38.248775],[-122.645534,38.247438],[-122.645517,38.247052],[-122.645287,38.246618],[-122.644854,38.244966],[-122.645339,38.244916],[-122.649957,38.24489],[-122.650657,38.244999],[-122.65196,38.24536],[-122.654059,38.245715],[-122.65464,38.245718],[-122.655161,38.245763],[-122.655787,38.245837],[-122.65597,38.245911],[-122.656099,38.245964],[-122.656176,38.245871],[-122.656136,38.245776],[-122.655946,38.245802],[-122.654445,38.245655],[-122.654067,38.245646],[-122.653853,38.245581],[-122.653437,38.245585],[-122.651661,38.245266],[-122.65063,38.244953],[-122.650164,38.244881],[-122.649911,38.244855],[-122.644792,38.244867],[-122.644781,38.244676],[-122.644763,38.244521],[-122.644623,38.244234],[-122.643992,38.242056],[-122.643881,38.241751],[-122.64333133,38.2399784016],[-122.643232,38.239408],[-122.6431306052,38.2391052325],[-122.6430118935,38.238724572],[-122.6422713585,38.237371824],[-122.6416778433,38.2364897698],[-122.641702,38.236378],[-122.6414915476,38.2362788135],[-122.6412583664,38.2358872049],[-122.6413548513,38.235747247],[-122.6428273841,38.235218439],[-122.6429856344,38.2350983505],[-122.6425403877,38.2341752392],[-122.642488,38.234024],[-122.6423660441,38.2339160971],[-122.6421702428,38.2335431836],[-122.6414835973,38.2322980181],[-122.6411992832,38.232196887],[-122.6403061076,38.2318281786],[-122.6401129885,38.2318724237],[-122.6396462842,38.2326435484],[-122.639331196,38.2325806742],[-122.638835,38.232343],[-122.6385962707,38.2322857092],[-122.638432656,38.2322709609],[-122.6380544645,38.2328714243],[-122.6379096252,38.2328566762],[-122.637072776,38.2325617122],[-122.6368716103,38.2325237882],[-122.6367804152,38.2325975293],[-122.63581482,38.2341832309],[-122.6355166989,38.234931467],[-122.6352502262,38.235566627],[-122.6351187979,38.2357604526],[-122.6351590311,38.2358510448],[-122.6359972214,38.2362992638],[-122.636063,38.236376]]}},{"type":"Feature","properties":{"agency":"PETALUMA","shape_id":"23195"},"geometry":{"type":"LineString","coordinates":[[-122.653909,38.256428],[-122.651692,38.255058],[-122.651263,38.25474],[-122.650939,38.254572],[-122.64773,38.25125],[-122.646016,38.248775],[-122.645534,38.247438],[-122.645517,38.247052],[-122.645287,38.246618],[-122.644781,38.244676],[-122.644763,38.244521],[-122.644623,38.244234],[-122.643992,38.242056],[-122.643881,38.241751],[-122.643331,38.239978],[-122.643232,38.239408],[-122.643131,38.239105],[-122.643012,38.238725],[-122.642271,38.237372],[-122.641678,38.23649],[-122.641702,38.236378],[-122.641492,38.236279],[-122.641258,38.235887],[-122.641355,38.235747],[-122.642827,38.235218],[-122.642986,38.235098],[-122.64254,38.234175],[-122.642488,38.234024],[-122.642366,38.233916],[-122.64217,38.233543],[-122.641484,38.232298],[-122.641199,38.232197],[-122.640306,38.231828],[-122.640113,38.231872],[-122.639646,38.232644],[-122.639331,38.232581],[-122.638835,38.232343],[-122.638596,38.232286],[-122.638433,38.232271],[-122.638054,38.232871],[-122.63791,38.232857],[-122.637073,38.232562],[-122.636872,38.232524],[-122.63678,38.232598],[-122.635815,38.234183],[-122.635517,38.234931],[-122.63525,38.235567],[-122.635119,38.23576],[-122.635159,38.235851],[-122.635997,38.236299],[-122.636063,38.236376]]}},{"type":"Feature","properties":{"agency":"PETALUMA","shape_id":"23390"},"geometry":{"type":"LineString","coordinates":[[-122.636063,38.236376],[-122.636137,38.236404],[-122.636242,38.236448],[-122.636736,38.236705],[-122.637135,38.236964],[-122.636829,38.23712],[-122.636033,38.238034],[-122.634,38.23696],[-122.63369,38.23679],[-122.63222,38.23599],[-122.63059,38.23563],[-122.62797,38.2356],[-122.621981,38.235247],[-122.62168,38.235248],[-122.62112,38.235172],[-122.620535,38.234916],[-122.620272,38.234753],[-122.619251,38.233797],[-122.618339,38.233308],[-122.61614,38.23293],[-122.61569,38.232875],[-122.615286,38.232795],[-122.615045,38.232836],[-122.611988,38.233083],[-122.610676,38.233114],[-122.609992,38.23308],[-122.60959,38.233161],[-122.60901,38.233255],[-122.604486,38.233567],[-122.604091,38.233558],[-122.603749,38.233647],[-122.600316,38.234017],[-122.59944,38.233996],[-122.598597,38.234161],[-122.595785,38.234427],[-122.593906,38.234574],[-122.59229,38.23477],[-122.59142,38.23474],[-122.59067,38.23461],[-122.589626,38.234239],[-122.5875,38.23308],[-122.58798,38.23255],[-122.58814,38.23242],[-122.588516,38.232307],[-122.588894,38.231815],[-122.590696,38.229803],[-122.591157,38.229392],[-122.591856,38.229061],[-122.591519,38.228655],[-122.591319,38.228489],[-122.590937,38.22838],[-122.588878,38.227607],[-122.58861,38.227435],[-122.588184,38.227357],[-122.58672,38.22683],[-122.58577,38.22784],[-122.5846,38.2289],[-122.58462,38.22906],[-122.584855,38.229238]]}},{"type":"Feature","properties":{"agency":"PETALUMA","shape_id":"23391"},"geometry":{"type":"LineString","coordinates":[[-122.584855,38.229238],[-122.586157,38.229956],[-122.586727,38.229495],[-122.587351,38.228939],[-122.588615,38.227552],[-122.591281,38.228562],[-122.591641,38.228987],[-122.591749,38.229189],[-122.591903,38.229208],[-122.592177,38.229105],[-122.592725,38.229137],[-122.594607,38.229791],[-122.595564,38.230016],[-122.595966,38.230122],[-122.596667,38.230254],[-122.597894,38.230706],[-122.598608,38.231124],[-122.599215,38.231738],[-122.599434,38.232137],[-122.599592,38.23231],[-122.599752,38.232913],[-122.5999,38.23418],[-122.60093,38.23408],[-122.6027,38.2339],[-122.603414,38.233882],[-122.603652,38.233913],[-122.603935,38.233817],[-122.604246,38.233756],[-122.609414,38.23335],[-122.610032,38.233369],[-122.610497,38.233265],[-122.612909,38.233129],[-122.613533,38.233158],[-122.614081,38.233021],[-122.61519,38.23296],[-122.616999,38.233184],[-122.618414,38.233467],[-122.619039,38.233795],[-122.620396,38.23498],[-122.62125,38.235304],[-122.622256,38.235357],[-122.623202,38.235464],[-122.623545,38.235425],[-122.628087,38.235652],[-122.630051,38.235609],[-122.631165,38.235752],[-122.631368,38.235882],[-122.631563,38.235839],[-122.632246,38.236038],[-122.634019,38.237024],[-122.634301,38.236653],[-122.634622,38.236476],[-122.6350657599,38.2358281717],[-122.636063,38.236376]]}},{"type":"Feature","properties":{"agency":"PETALUMA","shape_id":"23426"},"geometry":{"type":"LineString","coordinates":[[-122.636063,38.236376],[-122.636273,38.236453],[-122.63646,38.23656],[-122.63703,38.23688],[-122.637248,38.237003],[-122.638887,38.236453],[-122.639153,38.236458],[-122.63942,38.236299],[-122.640461,38.235995],[-122.64118,38.235812],[-122.64126,38.23592],[-122.6415,38.23627],[-122.641591,38.236552],[-122.641821,38.236749],[-122.642302,38.237532],[-122.642989,38.238846],[-122.64309,38.23957],[-122.643302,38.239929],[-122.644027,38.242672],[-122.644114,38.243025],[-122.644276,38.243351],[-122.645101,38.246423],[-122.645186,38.246923],[-122.645393,38.247309],[-122.645712,38.248466],[-122.64607,38.24909],[-122.64769,38.2514],[-122.65076,38.25459],[-122.651428,38.255218],[-122.651764,38.255522],[-122.652235,38.255727],[-122.654463,38.257343],[-122.655438,38.257958],[-122.6560955787,38.2582332547],[-122.656790411,38.258506257],[-122.657692411,38.2588420449],[-122.657867,38.258543],[-122.656887,38.25822],[-122.656083,38.258011],[-122.6558344206,38.2579411435],[-122.6555966445,38.2578555669],[-122.6554602524,38.2577989779],[-122.6553462586,38.2577397422],[-122.6551370463,38.2576186379],[-122.6548209718,38.257397902],[-122.6545748791,38.2572136119],[-122.6544729552,38.2570103657],[-122.6544070871,38.2569143075],[-122.6543132098,38.2567929218],[-122.6541455004,38.2566628086],[-122.6539946262,38.2565390698],[-122.653909,38.256428]]}},{"type":"Feature","properties":{"agency":"PETALUMA","shape_id":"25495"},"geometry":{"type":"LineString","coordinates":[[-122.654859,38.265426],[-122.654731,38.26534],[-122.654398,38.265148],[-122.653765,38.264828],[-122.65253,38.264098],[-122.647001,38.26094],[-122.644696,38.25968],[-122.642535,38.258472],[-122.63772,38.25574],[-122.635519,38.254525],[-122.633824,38.253573],[-122.632848,38.253109],[-122.630896,38.251964],[-122.63022,38.251627],[-122.630091,38.251437],[-122.628671,38.250734],[-122.627075,38.249847],[-122.627011,38.249689],[-122.625986,38.249245],[-122.625017,38.248736],[-122.623681,38.247969],[-122.620701,38.24625],[-122.620207,38.245985],[-122.620014,38.246162],[-122.618632,38.247772],[-122.619339,38.248311],[-122.619882,38.248636],[-122.620767,38.249137],[-122.621766,38.248182],[-122.621818,38.24797],[-122.622127,38.24763],[-122.622374,38.247335],[-122.62319,38.247748],[-122.624507,38.248494],[-122.626693,38.24968],[-122.627655,38.250225],[-122.628275,38.250575],[-122.628688,38.250813],[-122.628307,38.251219],[-122.627979,38.251571],[-122.627121,38.252507],[-122.626829,38.252823],[-122.626764,38.252835],[-122.625965,38.253779],[-122.625592,38.2542],[-122.626818,38.254912],[-122.628427,38.255807],[-122.628524,38.255923],[-122.628778,38.256001],[-122.628985,38.256154],[-122.629122,38.256281],[-122.629215,38.256407],[-122.62924,38.256491],[-122.629323,38.256616],[-122.629596,38.256848],[-122.62995,38.257051],[-122.630575,38.257401],[-122.631455,38.257912],[-122.632338,38.258451],[-122.632761,38.258629],[-122.633251,38.258982],[-122.633525,38.259256],[-122.63364,38.259447],[-122.633822,38.259852],[-122.633957,38.260039],[-122.634139,38.260263],[-122.634418,38.260507],[-122.635394,38.261076],[-122.636101,38.261448],[-122.63645,38.261601],[-122.63678,38.261683],[-122.637171,38.261784],[-122.637832,38.261976],[-122.638028,38.262064],[-122.638096,38.262134],[-122.638376,38.262117],[-122.638634,38.262134],[-122.638977,38.262182],[-122.63917,38.262239],[-122.639728,38.262561],[-122.640989,38.263263],[-122.641181,38.263442],[-122.6416,38.263593],[-122.642824,38.264297],[-122.643776,38.26483],[-122.64546,38.265775],[-122.646123,38.266164],[-122.646205,38.266258],[-122.646787,38.26654],[-122.647943,38.267184],[-122.648283,38.26741],[-122.648402,38.267549],[-122.648487,38.267717],[-122.648541,38.268008],[-122.648549,38.268094],[-122.648549,38.268136],[-122.648224,38.268166],[-122.648083,38.268164],[-122.64738,38.268282],[-122.64595,38.268477],[-122.644263,38.268704],[-122.643363,38.268835],[-122.643022,38.268883],[-122.642822,38.268843],[-122.642765,38.2689],[-122.642521,38.26894],[-122.642175,38.268968],[-122.64189,38.268978],[-122.641625,38.268953],[-122.6414,38.268921],[-122.640713,38.268694],[-122.640665,38.268666],[-122.640565,38.268621],[-122.640457,38.268574],[-122.640443,38.268571],[-122.64043,38.268468],[-122.639188,38.267846],[-122.638734,38.267581],[-122.637469,38.266884],[-122.637207,38.266659],[-122.635843,38.265991],[-122.635446,38.265738],[-122.635248,38.265535],[-122.634824,38.265397],[-122.633038,38.264416],[-122.631278,38.263405],[-122.629229,38.262257],[-122.629177,38.262171],[-122.628709,38.261971],[-122.627003,38.261014],[-122.626606,38.260773],[-122.626506,38.260637],[-122.626016,38.260441],[-122.624712,38.259691],[-122.623344,38.258912],[-122.623185,38.258748],[-122.622668,38.258541],[-122.621939,38.25812],[-122.62134,38.257795],[-122.620605,38.257374],[-122.620361,38.25721],[-122.619623,38.256851],[-122.618577,38.256232],[-122.616942,38.255315],[-122.616293,38.254965],[-122.616194,38.254808],[-122.615531,38.254535],[-122.614152,38.253769],[-122.611524,38.252307],[-122.611176,38.251992],[-122.610456,38.251709],[-122.608784,38.250769],[-122.607624,38.250058],[-122.607165,38.249812],[-122.607032,38.249656],[-122.606344,38.249357],[-122.604359,38.24827],[-122.60378,38.247967],[-122.603645,38.247767],[-122.603233,38.247626],[-122.601314,38.246593],[-122.600107,38.245877],[-122.599925,38.245672]]}},{"type":"Feature","properties":{"agency":"PETALUMA","shape_id":"25603"},"geometry":{"type":"LineString","coordinates":[[-122.639637,38.273525],[-122.639835,38.273174],[-122.640256,38.272745],[-122.640527,38.272433],[-122.640639,38.272327],[-122.641463,38.272799],[-122.641836,38.272404],[-122.64219,38.272017],[-122.642469,38.271734],[-122.642721,38.271574],[-122.643274,38.271452],[-122.643697,38.271448],[-122.644245,38.27125],[-122.644502,38.270884],[-122.644314,38.270774],[-122.643826,38.270387],[-122.643531,38.269907],[-122.643317,38.268993],[-122.643306,38.268849],[-122.64292,38.268871],[-122.642822,38.268843],[-122.642566,38.268938],[-122.642077,38.268988],[-122.641241,38.268879],[-122.640602,38.268618],[-122.64043,38.268468],[-122.639481,38.268017],[-122.637534,38.266914],[-122.637207,38.266659],[-122.635929,38.266012],[-122.635468,38.265751],[-122.635248,38.265535],[-122.634851,38.265385],[-122.633743,38.264787],[-122.631136,38.263325],[-122.62979,38.262579],[-122.629301,38.262268],[-122.629177,38.262171],[-122.626737,38.260844],[-122.626506,38.260637],[-122.624906,38.259809],[-122.623249,38.258857],[-122.623185,38.258748],[-122.622031,38.258144],[-122.620481,38.257298],[-122.620361,38.25721],[-122.619268,38.256632],[-122.61736,38.25555],[-122.616303,38.254961],[-122.616194,38.254808],[-122.615166,38.254316],[-122.612543,38.252859],[-122.611261,38.252151],[-122.611176,38.251992],[-122.610778,38.251869],[-122.608943,38.250847],[-122.607473,38.249958],[-122.607119,38.249764],[-122.607032,38.249656],[-122.604705,38.248466],[-122.603767,38.247962],[-122.603645,38.247767],[-122.602603,38.247284],[-122.600297,38.246008],[-122.599997,38.245827],[-122.599925,38.245672],[-122.599503,38.245532],[-122.597358,38.244327],[-122.596988,38.244049],[-122.596626,38.243819],[-122.596124,38.243581],[-122.596011,38.243472],[-122.595968,38.243408],[-122.595813,38.243328],[-122.595732,38.243337],[-122.595668,38.243404],[-122.595641,38.243488],[-122.595657,38.243573],[-122.595813,38.243627],[-122.595974,38.243649],[-122.597942,38.244714],[-122.598003,38.244862],[-122.598559,38.245064],[-122.600217,38.246016],[-122.60136,38.246657],[-122.601591,38.246913],[-122.602089,38.247044],[-122.603449,38.247821],[-122.604425,38.248369],[-122.604989,38.248681],[-122.605104,38.248913],[-122.605439,38.248906],[-122.606024,38.249256],[-122.606362,38.249525],[-122.607076,38.249954],[-122.607993,38.250438],[-122.60876,38.250817],[-122.609623,38.251302],[-122.610063,38.251533],[-122.610126,38.251714],[-122.61048,38.251789],[-122.612046,38.25266],[-122.612912,38.253298],[-122.613167,38.253276],[-122.614583,38.254042],[-122.616548,38.255161],[-122.616721,38.255341],[-122.616919,38.255359],[-122.619279,38.25672],[-122.620105,38.257166],[-122.620188,38.257307],[-122.620411,38.257339],[-122.621864,38.258156],[-122.622084,38.258354],[-122.623592,38.259226],[-122.623729,38.259388],[-122.623881,38.25942],[-122.625235,38.260161],[-122.626277,38.260769],[-122.626399,38.260877],[-122.627409,38.261413],[-122.629828,38.262782],[-122.629963,38.262907],[-122.630434,38.263098],[-122.632961,38.26452],[-122.634495,38.265388],[-122.634618,38.265504],[-122.635549,38.265986],[-122.637512,38.267094],[-122.63792,38.267412],[-122.638298,38.267521],[-122.640273,38.268637],[-122.640402,38.26873],[-122.640804,38.268907],[-122.641175,38.269037],[-122.641667,38.269113],[-122.642716,38.269067],[-122.643172,38.269],[-122.6438,38.268945],[-122.643863,38.268985],[-122.644243,38.268837],[-122.646103,38.268593],[-122.648393,38.268282],[-122.649091,38.268219],[-122.650526,38.267987],[-122.651422,38.267882],[-122.651851,38.267911],[-122.652366,38.268029],[-122.653117,38.268374],[-122.653616,38.268657],[-122.654375,38.268962],[-122.654574,38.269055],[-122.654692,38.269038],[-122.65474,38.268949],[-122.65496,38.268823],[-122.655313,38.268453],[-122.655841,38.267878],[-122.656152,38.267556],[-122.656659,38.267011],[-122.65689,38.266737],[-122.656957,38.266621],[-122.656748,38.266495],[-122.655983,38.266073],[-122.654967,38.265532],[-122.654731,38.26534],[-122.654574,38.26531],[-122.654231,38.265129],[-122.65315,38.264498],[-122.652577,38.264168],[-122.65253,38.264098],[-122.652124,38.263907],[-122.650963,38.263275],[-122.649951,38.262689],[-122.648999,38.262158],[-122.648865,38.262135],[-122.648261,38.261787],[-122.648047,38.261684],[-122.647966,38.261566],[-122.647121,38.261073],[-122.647001,38.26094],[-122.646765,38.260888],[-122.64622,38.260572],[-122.645482,38.260151],[-122.644801,38.259782],[-122.644696,38.25968],[-122.644179,38.259405],[-122.643857,38.259245],[-122.642603,38.258531],[-122.642535,38.258472],[-122.642281,38.258354],[-122.642085,38.258293],[-122.641972,38.258198],[-122.641806,38.258135],[-122.641712,38.258029],[-122.641329,38.257823],[-122.64056,38.257368],[-122.63953,38.256799],[-122.639065,38.256553],[-122.638371,38.256161],[-122.637832,38.255843],[-122.63772,38.25574],[-122.637432,38.255628],[-122.6365,38.255089],[-122.635497,38.254523],[-122.634687,38.254061],[-122.633796,38.25356],[-122.633488,38.253419],[-122.633373,38.253394],[-122.632871,38.253118],[-122.631911,38.252574],[-122.630318,38.251673],[-122.630091,38.251437],[-122.629718,38.251346],[-122.628737,38.25078],[-122.627063,38.249828],[-122.627011,38.249689],[-122.626703,38.249622],[-122.625949,38.249238],[-122.625308,38.248872],[-122.624603,38.248482],[-122.623173,38.24768],[-122.622505,38.247292],[-122.622135,38.247039],[-122.620424,38.246078],[-122.620209,38.245969],[-122.619882,38.24631],[-122.618648,38.247776],[-122.619249,38.248181],[-122.619339,38.248311],[-122.619828,38.24859],[-122.620767,38.24915],[-122.621513,38.248358],[-122.621766,38.248182]]}},{"type":"Feature","properties":{"agency":"PETALUMA","shape_id":"25606"},"geometry":{"type":"LineString","coordinates":[[-122.599925,38.245672],[-122.599527,38.245555],[-122.59912,38.245302],[-122.597575,38.244434],[-122.597081,38.244156],[-122.596626,38.243819],[-122.596169,38.243617],[-122.596008,38.243431],[-122.595879,38.243356],[-122.595686,38.243356],[-122.595622,38.243473],[-122.595686,38.243617],[-122.595998,38.243642],[-122.597939,38.244712],[-122.598003,38.244862],[-122.601512,38.246718],[-122.601591,38.246913],[-122.604938,38.248655],[-122.605104,38.248913],[-122.60673,38.249768],[-122.60864,38.250737],[-122.609616,38.251284],[-122.610126,38.251714],[-122.610507,38.251764],[-122.611429,38.252304],[-122.612749,38.253054],[-122.612912,38.253298],[-122.613715,38.253551],[-122.616342,38.255056],[-122.616721,38.255341],[-122.617404,38.255637],[-122.617952,38.25594],[-122.620188,38.257307],[-122.620632,38.257447],[-122.622349,38.2585],[-122.623218,38.258997],[-122.623729,38.259388],[-122.624776,38.259853],[-122.626042,38.260645],[-122.626399,38.260877],[-122.627544,38.261479],[-122.629207,38.262414],[-122.629963,38.262907],[-122.630774,38.263281],[-122.63248,38.264233],[-122.634375,38.265314],[-122.634618,38.265504],[-122.636409,38.26644],[-122.63792,38.267412],[-122.640175,38.268562],[-122.640402,38.26873],[-122.640636,38.268798],[-122.641366,38.269042],[-122.642042,38.269093],[-122.643211,38.268983],[-122.643863,38.268985],[-122.649091,38.268219],[-122.650412,38.268],[-122.651775,38.267899],[-122.653127,38.268371],[-122.653813,38.268767],[-122.654317,38.268935],[-122.654575,38.269061],[-122.6548,38.26896],[-122.655079,38.268733],[-122.656946,38.266652],[-122.654731,38.26534],[-122.653803,38.264909],[-122.65253,38.264098],[-122.649704,38.262542],[-122.647365,38.261219],[-122.647001,38.26094],[-122.645037,38.259913],[-122.644696,38.25968],[-122.642699,38.258571],[-122.642535,38.258472],[-122.630156,38.251567],[-122.63772,38.25574],[-122.633576,38.253454],[-122.633179,38.253268],[-122.631172,38.252131],[-122.630091,38.251437],[-122.629448,38.251183],[-122.627131,38.24989],[-122.627011,38.249689],[-122.626063,38.249309],[-122.624508,38.248424],[-122.622532,38.247308],[-122.621835,38.246848],[-122.620242,38.245976],[-122.619974,38.246195],[-122.619405,38.246844],[-122.618649,38.247794],[-122.619287,38.248224],[-122.619339,38.248311],[-122.61955,38.248405],[-122.619904,38.248645],[-122.620805,38.249151],[-122.621545,38.248312],[-122.621766,38.248182]]}},{"type":"Feature","properties":{"agency":"PETALUMA","shape_id":"26545"},"geometry":{"type":"LineString","coordinates":[[-122.642488,38.234024],[-122.642332,38.233838],[-122.641572,38.232344],[-122.641288,38.232204],[-122.640161,38.23179],[-122.63959,38.232681],[-122.639071,38.232485],[-122.638688,38.23244],[-122.638554,38.232278],[-122.63845,38.23227],[-122.63836,38.23242],[-122.63805,38.23291],[-122.63761,38.23275],[-122.634771,38.231628],[-122.634465,38.231406],[-122.63407,38.23135],[-122.62679,38.22859],[-122.625939,38.228081],[-122.625268,38.227688],[-122.62493,38.22745],[-122.62452,38.22724],[-122.62394,38.22708],[-122.62278,38.22701],[-122.619205,38.226928],[-122.618777,38.227069],[-122.618347,38.22729],[-122.618015,38.227267],[-122.617755,38.227408],[-122.617851,38.227579],[-122.618077,38.227587],[-122.61827,38.227448],[-122.619062,38.227114],[-122.620827,38.227089],[-122.621227,38.227128],[-122.622433,38.227058],[-122.622925,38.227071],[-122.622962,38.226843],[-122.622998,38.225331],[-122.623037,38.22501],[-122.622935,38.224719],[-122.622541,38.223502],[-122.622543,38.222504],[-122.622573,38.222315],[-122.622551,38.222028],[-122.622551,38.221518],[-122.622749,38.221404],[-122.623148,38.221267],[-122.626434,38.220927],[-122.626787,38.220945],[-122.627078,38.220891],[-122.62754,38.22194],[-122.62771,38.2223],[-122.628049,38.222089],[-122.628731,38.221603],[-122.629697,38.221351],[-122.630016,38.221301],[-122.630389,38.221185],[-122.63194,38.2208],[-122.63306,38.22103],[-122.632993,38.220771],[-122.632553,38.219459],[-122.631626,38.217608],[-122.631825,38.217525],[-122.631966,38.217522],[-122.632151,38.217416],[-122.63397,38.216894],[-122.634333,38.216876],[-122.635984,38.217197],[-122.637533,38.218142],[-122.637742,38.218315],[-122.638136,38.218487],[-122.639418,38.219284],[-122.64058,38.22079],[-122.64068,38.22117],[-122.6405,38.22182],[-122.64046,38.22255],[-122.64082,38.22265],[-122.642591,38.223109],[-122.642912,38.223088],[-122.64316,38.223137],[-122.643573,38.223088],[-122.645492,38.223113],[-122.64518,38.22363],[-122.644236,38.225159],[-122.644055,38.225374],[-122.64384,38.2258],[-122.64357,38.22625],[-122.64331,38.22669],[-122.64427,38.22705],[-122.64462,38.22718],[-122.64498,38.22732],[-122.645114,38.227454],[-122.645518,38.22754],[-122.64591,38.227753],[-122.646553,38.228389],[-122.64985,38.23094],[-122.650273,38.230907],[-122.650576,38.230749],[-122.653915,38.229662],[-122.654151,38.229624],[-122.655757,38.229927],[-122.656751,38.23022],[-122.658321,38.230806],[-122.658528,38.230825],[-122.658532,38.231418],[-122.658226,38.23144],[-122.658114,38.231623],[-122.658103,38.231844],[-122.658168,38.23199],[-122.658302,38.2320927862],[-122.658436,38.232154],[-122.658551,38.23216],[-122.65861,38.23278],[-122.65885,38.23328],[-122.658873,38.234581],[-122.658412,38.234561],[-122.65815,38.234497],[-122.657788,38.234533],[-122.654116,38.234443],[-122.653405,38.234381],[-122.653047,38.234416],[-122.64818,38.23427],[-122.646457,38.234202],[-122.645697,38.234268],[-122.643023,38.235114],[-122.642626,38.234375],[-122.64248,38.234089]]}}]}