{"type":"FeatureCollection","features":[{"type":"Feature","properties":{"agency":"Pigeon Forge Mass Transit","shape_id":"1"},"geometry":{"type":"LineString","coordinates":[[-83.55126,35.789116],[-83.550391,35.787668],[-83.550327,35.787457],[-83.550405,35.787442],[-83.550439,35.787354],[-83.550416,35.787282],[-83.550326,35.787257],[-83.550255,35.787292],[-83.550236,35.78735],[-83.550244,35.787426],[-83.550327,35.787457],[-83.550391,35.787668],[-83.55134,35.789249],[-83.551426,35.789393],[-83.550619,35.789645],[-83.550387,35.789781],[-83.550271,35.789905],[-83.550014,35.789765],[-83.549702,35.789671],[-83.549434,35.789644],[-83.5491,35.789632],[-83.548918,35.789627],[-83.548909,35.789681],[-83.548875,35.789805],[-83.548813,35.789931],[-83.548565,35.79038],[-83.548135,35.791038],[-83.547964,35.791221],[-83.547789,35.791359],[-83.547626,35.791482],[-83.547376,35.79165],[-83.547233,35.791727],[-83.546815,35.791926],[-83.546366,35.792079],[-83.546031,35.792209],[-83.545721,35.792329],[-83.545517,35.79241],[-83.545353,35.792525],[-83.545176,35.79265],[-83.545002,35.792811],[-83.544874,35.792956],[-83.544744,35.793138],[-83.544639,35.793361],[-83.544444,35.794024],[-83.544355,35.794393],[-83.544078,35.795684],[-83.543952,35.796186],[-83.543718,35.796956],[-83.543272,35.798122],[-83.543148,35.798417],[-83.543006,35.798846],[-83.542743,35.799385],[-83.542467,35.799877],[-83.542074,35.80037],[-83.541727,35.80071],[-83.540851,35.801563],[-83.540068,35.802314],[-83.539359,35.802986],[-83.538741,35.8038],[-83.5385,35.804209],[-83.538359,35.80453],[-83.538242,35.804861],[-83.538165,35.805205],[-83.537878,35.807157],[-83.537665,35.808027],[-83.537258,35.809378],[-83.537112,35.809287],[-83.536921,35.80926],[-83.536602,35.809181],[-83.536529,35.809163],[-83.53636,35.809087],[-83.536234,35.808957],[-83.536129,35.808777],[-83.536059,35.808704],[-83.535937,35.808642],[-83.535851,35.808631],[-83.535687,35.808621],[-83.535422,35.808621],[-83.535331,35.808609],[-83.535217,35.808521],[-83.535172,35.808454],[-83.535092,35.808418],[-83.534971,35.808424],[-83.534917,35.808464],[-83.534881,35.808491],[-83.53489,35.808559],[-83.534905,35.808598],[-83.534981,35.808652],[-83.535097,35.808714],[-83.535318,35.808819],[-83.535731,35.809037],[-83.53585,35.809087],[-83.535993,35.809216],[-83.536057,35.80924],[-83.536107,35.80926],[-83.536265,35.809275],[-83.536501,35.809263],[-83.536566,35.809273],[-83.536744,35.809297],[-83.536802,35.809306],[-83.537004,35.809337],[-83.537077,35.809351],[-83.537258,35.809378],[-83.537563,35.808367],[-83.537665,35.808027],[-83.537878,35.807157],[-83.538165,35.805205],[-83.538242,35.804861],[-83.538359,35.80453],[-83.5385,35.804209],[-83.538741,35.8038],[-83.539359,35.802986],[-83.540068,35.802314],[-83.540851,35.801563],[-83.541727,35.80071],[-83.542074,35.80037],[-83.542467,35.799877],[-83.542743,35.799385],[-83.543006,35.798846],[-83.543148,35.798417],[-83.543272,35.798122],[-83.543718,35.796956],[-83.543952,35.796186],[-83.544078,35.795684],[-83.544355,35.794393],[-83.544444,35.794024],[-83.544639,35.793361],[-83.544744,35.793138],[-83.544874,35.792956],[-83.545002,35.792811],[-83.545176,35.79265],[-83.545353,35.792525],[-83.545517,35.79241],[-83.545721,35.792329],[-83.546031,35.792209],[-83.546366,35.792079],[-83.546815,35.791926],[-83.547233,35.791727],[-83.547376,35.79165],[-83.547626,35.791482],[-83.547789,35.791359],[-83.547964,35.791221],[-83.548135,35.791038],[-83.548565,35.79038],[-83.548813,35.789931],[-83.549077,35.789982],[-83.549169,35.789987],[-83.549241,35.789973],[-83.549333,35.789914],[-83.549381,35.789844],[-83.549392,35.789799],[-83.549434,35.789644],[-83.549702,35.789671],[-83.550014,35.789765],[-83.550271,35.789905],[-83.550387,35.789781],[-83.550619,35.789645],[-83.551426,35.789393],[-83.55134,35.789249],[-83.550391,35.787668],[-83.550327,35.787457]]}},{"type":"Feature","properties":{"agency":"Pigeon Forge Mass Transit","shape_id":"10"},"geometry":{"type":"LineString","coordinates":[[-83.546146,35.771839],[-83.546106,35.771853],[-83.546061,35.771856],[-83.546049,35.771922],[-83.546068,35.771966],[-83.546247,35.77225],[-83.546458,35.772574],[-83.546679,35.772475],[-83.546547,35.772234],[-83.546375,35.771987],[-83.546262,35.771796],[-83.546009,35.771365],[-83.545805,35.77091],[-83.545441,35.769676],[-83.545334,35.769711],[-83.544992,35.769825],[-83.543843,35.770158],[-83.543555,35.77025],[-83.54332,35.770326],[-83.542834,35.770494],[-83.542408,35.77067],[-83.541866,35.770899],[-83.541735,35.770991],[-83.541594,35.77114],[-83.541244,35.771555],[-83.541196,35.771665],[-83.541161,35.771827],[-83.541127,35.772101],[-83.541105,35.772278],[-83.541007,35.772556],[-83.540898,35.772767],[-83.540805,35.772892],[-83.540707,35.772983],[-83.540594,35.773043],[-83.540453,35.77308],[-83.540243,35.773106],[-83.540073,35.773099],[-83.539855,35.773091],[-83.539669,35.773091],[-83.539493,35.773111],[-83.539312,35.773165],[-83.539152,35.773246],[-83.538932,35.773428],[-83.538791,35.773581],[-83.538727,35.7737],[-83.53873,35.773757],[-83.538747,35.773796],[-83.53884,35.773953],[-83.539194,35.774083],[-83.539347,35.774137],[-83.539516,35.774199],[-83.540432,35.774545],[-83.540896,35.774734],[-83.541219,35.774876],[-83.542027,35.775255],[-83.5419,35.775386],[-83.541813,35.775476],[-83.541039,35.776059],[-83.540738,35.776274],[-83.541053,35.776538],[-83.541392,35.776838],[-83.541737,35.777136],[-83.542266,35.777619],[-83.542802,35.778081],[-83.542609,35.778245],[-83.542295,35.778458],[-83.542238,35.778497],[-83.542127,35.778564],[-83.54201,35.778522],[-83.54192,35.778534],[-83.541892,35.778545],[-83.541712,35.778413],[-83.541713,35.778266],[-83.541659,35.778158],[-83.541587,35.778079],[-83.541509,35.778043],[-83.541434,35.77797],[-83.54118,35.777613],[-83.540823,35.777265],[-83.540476,35.776951],[-83.539814,35.776438],[-83.53953,35.776226],[-83.539426,35.776201],[-83.539338,35.776217],[-83.539247,35.776234],[-83.539085,35.776159],[-83.538779,35.775735],[-83.538438,35.775305],[-83.5384,35.775356],[-83.538298,35.775473],[-83.538234,35.775553],[-83.538151,35.775657],[-83.538033,35.775751],[-83.537881,35.775858],[-83.537797,35.775955],[-83.537719,35.776135],[-83.537606,35.776325],[-83.537535,35.776393],[-83.537454,35.77644],[-83.537432,35.776504],[-83.537236,35.776659],[-83.53707,35.776805],[-83.536858,35.776996],[-83.536705,35.777173],[-83.536547,35.777281],[-83.536449,35.777308],[-83.535503,35.777204],[-83.535084,35.777157],[-83.534952,35.777157],[-83.53485,35.777163],[-83.534622,35.777135],[-83.534759,35.777036],[-83.534901,35.77692],[-83.535039,35.776783],[-83.53513,35.776626],[-83.535253,35.776464],[-83.535307,35.776395],[-83.535359,35.776348],[-83.535568,35.776237],[-83.535895,35.776105],[-83.536169,35.776042],[-83.536369,35.776018],[-83.536603,35.776029],[-83.536803,35.77606],[-83.536947,35.776103],[-83.537059,35.77617],[-83.53719,35.776291],[-83.537277,35.776365],[-83.537357,35.776422],[-83.537454,35.77644],[-83.537535,35.776393],[-83.537606,35.776325],[-83.537719,35.776135],[-83.537797,35.775955],[-83.537881,35.775858],[-83.538033,35.775751],[-83.538151,35.775657],[-83.538234,35.775553],[-83.538298,35.775473],[-83.5384,35.775356],[-83.538438,35.775305],[-83.538226,35.775038],[-83.538183,35.774994],[-83.538065,35.774872],[-83.537515,35.774309],[-83.537467,35.774262],[-83.537377,35.774173],[-83.537308,35.774106],[-83.537029,35.773824],[-83.536794,35.773599],[-83.536524,35.773339],[-83.53644,35.773261],[-83.536074,35.773098],[-83.536262,35.772931],[-83.536343,35.772981],[-83.536475,35.773037],[-83.536646,35.773112],[-83.537106,35.773308],[-83.537597,35.773481],[-83.537916,35.773611],[-83.538206,35.773718],[-83.538686,35.773896],[-83.53884,35.773953],[-83.539194,35.774083],[-83.539347,35.774137],[-83.539516,35.774199],[-83.540432,35.774545],[-83.540896,35.774734],[-83.541219,35.774876],[-83.542027,35.775255],[-83.54218,35.775336],[-83.542853,35.775689],[-83.543336,35.775972],[-83.543614,35.776139],[-83.544155,35.776486],[-83.544207,35.77652],[-83.544555,35.77676],[-83.545036,35.777113],[-83.545574,35.777531],[-83.545679,35.777621],[-83.545925,35.77783],[-83.546379,35.77823],[-83.546798,35.778631],[-83.547338,35.779192],[-83.548047,35.779969],[-83.548958,35.780964],[-83.549209,35.78124],[-83.549324,35.781365],[-83.549359,35.781403],[-83.54974,35.781826],[-83.549911,35.782012],[-83.550103,35.782221],[-83.551085,35.783304],[-83.551261,35.783495],[-83.551923,35.784225],[-83.553218,35.785645],[-83.553742,35.786224],[-83.553825,35.786308],[-83.554303,35.786842],[-83.554495,35.787051],[-83.554676,35.787249],[-83.555138,35.787757],[-83.555178,35.787801],[-83.555409,35.788055],[-83.555325,35.788096],[-83.555019,35.788251],[-83.554656,35.788434],[-83.554507,35.7885],[-83.554382,35.788579],[-83.554348,35.788599],[-83.55422,35.788675],[-83.554034,35.788712],[-83.553748,35.788739],[-83.55346,35.788733],[-83.55305,35.78885],[-83.552827,35.788914],[-83.55273,35.788942],[-83.552568,35.789],[-83.551735,35.789297],[-83.551426,35.789393],[-83.55134,35.789249],[-83.550391,35.787668],[-83.550327,35.787457]]}},{"type":"Feature","properties":{"agency":"Pigeon Forge Mass Transit","shape_id":"15"},"geometry":{"type":"LineString","coordinates":[[-83.55126,35.789116],[-83.550391,35.787668],[-83.550327,35.787457],[-83.550405,35.787442],[-83.550439,35.787354],[-83.550416,35.787282],[-83.550326,35.787257],[-83.550255,35.787292],[-83.550236,35.78735],[-83.550244,35.787426],[-83.550327,35.787457],[-83.550391,35.787668],[-83.55134,35.789249],[-83.551426,35.789393],[-83.551049,35.78951],[-83.550619,35.789645],[-83.550387,35.789781],[-83.550271,35.789905],[-83.550498,35.790082],[-83.550699,35.790299],[-83.551002,35.790656],[-83.551113,35.790809],[-83.551409,35.791224],[-83.551686,35.791619],[-83.552023,35.792092],[-83.552367,35.792553],[-83.552673,35.792967],[-83.552915,35.793299],[-83.553099,35.793497],[-83.553304,35.793702],[-83.553566,35.793903],[-83.553892,35.794119],[-83.554127,35.794242],[-83.555246,35.794708],[-83.555778,35.794924],[-83.556076,35.795039],[-83.556314,35.795152],[-83.556324,35.795156],[-83.556535,35.795263],[-83.556817,35.795409],[-83.557026,35.795552],[-83.557133,35.795747],[-83.557821,35.796307],[-83.558106,35.796515],[-83.558605,35.796824],[-83.55914,35.797122],[-83.559979,35.797518],[-83.560231,35.797652],[-83.560339,35.797698],[-83.56131,35.798188],[-83.561563,35.798317],[-83.561841,35.798474],[-83.562152,35.798715],[-83.562405,35.798973],[-83.56394,35.800549],[-83.564477,35.801102],[-83.564614,35.801221],[-83.564916,35.801481],[-83.566237,35.802401],[-83.56778,35.803453],[-83.568199,35.803738],[-83.568654,35.80404],[-83.569786,35.804792],[-83.570123,35.805015],[-83.570468,35.805219],[-83.571278,35.805468],[-83.571332,35.805484],[-83.571944,35.805628],[-83.572481,35.805825],[-83.572785,35.806056],[-83.573124,35.806558],[-83.573454,35.807142],[-83.573657,35.807504],[-83.57409,35.808281],[-83.574186,35.808455],[-83.574563,35.809132],[-83.574779,35.809508],[-83.574921,35.809757],[-83.574935,35.809783],[-83.575156,35.810207],[-83.575305,35.810493],[-83.575462,35.810844],[-83.575487,35.810905],[-83.575575,35.811117],[-83.575701,35.811454],[-83.575791,35.811622],[-83.575921,35.811813],[-83.576071,35.811932],[-83.576264,35.812054],[-83.576404,35.812114],[-83.576584,35.81217],[-83.576827,35.81221],[-83.577609,35.812253],[-83.577758,35.812262],[-83.57793,35.812274],[-83.578161,35.812274],[-83.578163,35.812155],[-83.578157,35.811927],[-83.57812,35.810603],[-83.578102,35.809989],[-83.578099,35.809891],[-83.578036,35.809128],[-83.577816,35.809155],[-83.577546,35.809187],[-83.577082,35.809278],[-83.576452,35.809401],[-83.576038,35.809482],[-83.575589,35.809579],[-83.575246,35.809654],[-83.57505,35.809713],[-83.574694,35.80908],[-83.574323,35.808411],[-83.573949,35.807736],[-83.573548,35.80701],[-83.57335,35.806666],[-83.573256,35.806505],[-83.572808,35.80592],[-83.57264,35.805814],[-83.572458,35.805704],[-83.572203,35.80558],[-83.57189,35.805511],[-83.57131,35.805369],[-83.571239,35.805352],[-83.570858,35.805277],[-83.570546,35.805146],[-83.569889,35.804707],[-83.567925,35.803394],[-83.567899,35.803377],[-83.566887,35.802701],[-83.564939,35.801326],[-83.564713,35.801144],[-83.564453,35.800921],[-83.563675,35.800098],[-83.562813,35.799196],[-83.562406,35.798785],[-83.562178,35.798572],[-83.561877,35.798349],[-83.56158,35.798193],[-83.561234,35.798023],[-83.560288,35.797568],[-83.560459,35.797231],[-83.56054,35.797071],[-83.560966,35.796353],[-83.56124,35.795816],[-83.561533,35.795369],[-83.561848,35.795025],[-83.562039,35.794844],[-83.562212,35.79468],[-83.562268,35.794615],[-83.562289,35.794544],[-83.562293,35.794517],[-83.562268,35.79431],[-83.561472,35.793737],[-83.561349,35.793642],[-83.561299,35.793602],[-83.560923,35.793311],[-83.560442,35.792905],[-83.560341,35.792814],[-83.560159,35.792651],[-83.560038,35.792542],[-83.559752,35.792268],[-83.559616,35.792132],[-83.559514,35.79203],[-83.559447,35.791961],[-83.559437,35.791951],[-83.559414,35.791928],[-83.559288,35.791792],[-83.558965,35.791445],[-83.558938,35.791415],[-83.558732,35.791193],[-83.558512,35.790956],[-83.558401,35.790833],[-83.558336,35.790762],[-83.557553,35.789901],[-83.557427,35.789764],[-83.557347,35.789674],[-83.557194,35.789504],[-83.557057,35.789352],[-83.556714,35.788973],[-83.556573,35.788824],[-83.556454,35.788688],[-83.555935,35.788113],[-83.555801,35.78805],[-83.55568,35.788016],[-83.555583,35.788009],[-83.555409,35.788055],[-83.555325,35.788096],[-83.555019,35.788251],[-83.554656,35.788434],[-83.554507,35.7885],[-83.554382,35.788579],[-83.55422,35.788675],[-83.554034,35.788712],[-83.553748,35.788739],[-83.55346,35.788733],[-83.55311,35.788832],[-83.55305,35.78885],[-83.552827,35.788914],[-83.55273,35.788942],[-83.552568,35.789],[-83.551735,35.789297],[-83.551426,35.789393],[-83.55134,35.789249],[-83.550391,35.787668],[-83.550327,35.787457]]}},{"type":"Feature","properties":{"agency":"Pigeon Forge Mass Transit","shape_id":"18"},"geometry":{"type":"LineString","coordinates":[[-83.55126,35.789116],[-83.550391,35.787668],[-83.550327,35.787457],[-83.550405,35.787442],[-83.550439,35.787354],[-83.550416,35.787282],[-83.550326,35.787257],[-83.550255,35.787292],[-83.550236,35.78735],[-83.550244,35.787426],[-83.550327,35.787457],[-83.550391,35.787668],[-83.551426,35.789393],[-83.550619,35.789645],[-83.550387,35.789781],[-83.550271,35.789905],[-83.550014,35.789765],[-83.549938,35.789742],[-83.549702,35.789671],[-83.549434,35.789644],[-83.5491,35.789632],[-83.548918,35.789627],[-83.548875,35.789805],[-83.548834,35.789935],[-83.548724,35.790169],[-83.548581,35.790391],[-83.548151,35.791046],[-83.547996,35.791234],[-83.547846,35.791383],[-83.547497,35.791666],[-83.547233,35.791803],[-83.546813,35.791956],[-83.546371,35.792111],[-83.546026,35.792224],[-83.545721,35.792329],[-83.545517,35.79241],[-83.545353,35.792525],[-83.545176,35.79265],[-83.545002,35.792811],[-83.544874,35.792956],[-83.544747,35.793166],[-83.544644,35.793393],[-83.544514,35.794029],[-83.54444,35.794406],[-83.544339,35.794847],[-83.544127,35.79569],[-83.544014,35.796196],[-83.54378,35.796971],[-83.543581,35.797494],[-83.543509,35.797683],[-83.543331,35.798152],[-83.543207,35.798447],[-83.543017,35.798881],[-83.542775,35.799407],[-83.542467,35.799877],[-83.542074,35.80037],[-83.541727,35.80071],[-83.540938,35.801479],[-83.540068,35.802314],[-83.539359,35.802986],[-83.538741,35.8038],[-83.5385,35.804209],[-83.538359,35.80453],[-83.538242,35.804861],[-83.538165,35.805205],[-83.53799,35.806397],[-83.537878,35.807157],[-83.537665,35.808027],[-83.537308,35.809392],[-83.537161,35.809509],[-83.537088,35.809937],[-83.537041,35.811231],[-83.537096,35.81195],[-83.537134,35.812199],[-83.537165,35.812344],[-83.537368,35.812321],[-83.537561,35.812354],[-83.537975,35.812304],[-83.538021,35.812298],[-83.53843,35.812275],[-83.538613,35.812268],[-83.538769,35.812266],[-83.538966,35.812276],[-83.539197,35.812299],[-83.539723,35.812419],[-83.540297,35.812611],[-83.540602,35.812758],[-83.541257,35.813037],[-83.541997,35.813224],[-83.542593,35.813307],[-83.543397,35.81328],[-83.544293,35.813128],[-83.544787,35.812946],[-83.545328,35.812698],[-83.545994,35.812254],[-83.546777,35.811675],[-83.547447,35.811117],[-83.548231,35.81054],[-83.548531,35.810319],[-83.549049,35.809939],[-83.549456,35.809759],[-83.549945,35.809602],[-83.55061,35.809424],[-83.55176,35.8091],[-83.552852,35.808754],[-83.553436,35.808481],[-83.553831,35.80827],[-83.554214,35.808049],[-83.554837,35.807714],[-83.555823,35.807191],[-83.55636,35.806913],[-83.556812,35.806695],[-83.557294,35.806468],[-83.557415,35.806403],[-83.557506,35.806345],[-83.558027,35.806009],[-83.558224,35.805818],[-83.558358,35.805631],[-83.558445,35.805494],[-83.558483,35.805372],[-83.55853,35.805032],[-83.558253,35.803113],[-83.558141,35.802489],[-83.558087,35.802097],[-83.558114,35.801792],[-83.558174,35.80148],[-83.558259,35.801131],[-83.558323,35.800935],[-83.558441,35.800692],[-83.558548,35.800474],[-83.558698,35.800244],[-83.558886,35.799991],[-83.559026,35.799811],[-83.559069,35.799756],[-83.559466,35.799173],[-83.559863,35.798561],[-83.559982,35.79836],[-83.560178,35.798018],[-83.560212,35.797947],[-83.560275,35.797817],[-83.560239,35.797651],[-83.560288,35.797568],[-83.560459,35.797231],[-83.56054,35.797071],[-83.560881,35.796496],[-83.560966,35.796353],[-83.56124,35.795816],[-83.561533,35.795369],[-83.561848,35.795025],[-83.562212,35.79468],[-83.562268,35.794615],[-83.562289,35.794544],[-83.562293,35.794517],[-83.562268,35.79431],[-83.561472,35.793737],[-83.561349,35.793642],[-83.560961,35.793334],[-83.560915,35.793298],[-83.560774,35.793186],[-83.560442,35.792905],[-83.561403,35.792148],[-83.561951,35.791689],[-83.562372,35.791335],[-83.563041,35.790852],[-83.563464,35.790541],[-83.563607,35.790466],[-83.563773,35.790377],[-83.565616,35.790175],[-83.56615,35.789994],[-83.56649,35.789796],[-83.567206,35.789376],[-83.567843,35.789003],[-83.568086,35.789269],[-83.568274,35.78952],[-83.56797,35.789566],[-83.567499,35.789492],[-83.567397,35.789522],[-83.566663,35.789985],[-83.56649,35.789796],[-83.56615,35.789994],[-83.565616,35.790175],[-83.563773,35.790377],[-83.563607,35.790466],[-83.563464,35.790541],[-83.563041,35.790852],[-83.562372,35.791335],[-83.561951,35.791689],[-83.561403,35.792148],[-83.561247,35.79195],[-83.560878,35.791572],[-83.560568,35.791273],[-83.560515,35.79122],[-83.560405,35.791304],[-83.560118,35.791542],[-83.559917,35.79168],[-83.559732,35.791783],[-83.559437,35.791951],[-83.559288,35.791792],[-83.558938,35.791415],[-83.558732,35.791193],[-83.558401,35.790833],[-83.558336,35.790762],[-83.557427,35.789764],[-83.557347,35.789674],[-83.557194,35.789504],[-83.557057,35.789352],[-83.556714,35.788973],[-83.556573,35.788824],[-83.556454,35.788688],[-83.555935,35.788113],[-83.55561,35.787753],[-83.555529,35.787663],[-83.555033,35.787123],[-83.5548,35.786867],[-83.554368,35.78639],[-83.554186,35.786189],[-83.553536,35.785474],[-83.552234,35.784049],[-83.551626,35.78338],[-83.551602,35.783353],[-83.551373,35.783101],[-83.551321,35.783044],[-83.551205,35.782916],[-83.55102,35.782713],[-83.550847,35.782521],[-83.550659,35.782315],[-83.550413,35.78204],[-83.55026,35.781873],[-83.549881,35.78146],[-83.549562,35.781147],[-83.54836,35.77979],[-83.548105,35.779509],[-83.547758,35.779127],[-83.547638,35.779003],[-83.547089,35.778434],[-83.546851,35.778205],[-83.546257,35.77767],[-83.545968,35.777424],[-83.545377,35.77695],[-83.54483,35.776545],[-83.54443499999998,35.776272],[-83.543952,35.775961],[-83.543899,35.775929],[-83.5436,35.775745],[-83.543158,35.775486],[-83.54238,35.775066],[-83.542214,35.774985],[-83.541482,35.774636],[-83.541072,35.774456],[-83.540674,35.774292],[-83.539674,35.773918],[-83.539334,35.773792],[-83.538791,35.773581],[-83.538932,35.773428],[-83.539119,35.773273],[-83.539152,35.773246],[-83.539312,35.773165],[-83.539493,35.773111],[-83.539669,35.773091],[-83.539855,35.773091],[-83.540073,35.773099],[-83.540243,35.773106],[-83.540453,35.77308],[-83.540594,35.773043],[-83.540707,35.772983],[-83.540805,35.772892],[-83.540898,35.772767],[-83.541007,35.772556],[-83.541105,35.772278],[-83.541161,35.771827],[-83.541196,35.771665],[-83.541244,35.771555],[-83.541594,35.77114],[-83.541735,35.770991],[-83.541866,35.770899],[-83.542408,35.77067],[-83.542834,35.770494],[-83.54332,35.770326],[-83.543555,35.77025],[-83.543843,35.770158],[-83.544992,35.769825],[-83.545334,35.769711],[-83.545441,35.769676],[-83.545805,35.77091],[-83.546009,35.771365],[-83.546262,35.771796],[-83.546106,35.771853],[-83.546061,35.771856],[-83.546049,35.771922],[-83.546068,35.771966],[-83.546247,35.77225],[-83.546458,35.772574],[-83.546679,35.772475],[-83.546547,35.772234],[-83.546375,35.771987],[-83.546262,35.771796],[-83.546009,35.771365],[-83.545805,35.77091],[-83.545441,35.769676],[-83.545334,35.769711],[-83.544992,35.769825],[-83.543843,35.770158],[-83.543555,35.77025],[-83.54332,35.770326],[-83.542834,35.770494],[-83.542408,35.77067],[-83.541866,35.770899],[-83.541735,35.770991],[-83.541594,35.77114],[-83.541244,35.771555],[-83.541196,35.771665],[-83.541161,35.771827],[-83.541127,35.772101],[-83.541105,35.772278],[-83.541007,35.772556],[-83.540898,35.772767],[-83.540805,35.772892],[-83.540707,35.772983],[-83.540594,35.773043],[-83.540453,35.77308],[-83.540243,35.773106],[-83.540073,35.773099],[-83.539855,35.773091],[-83.539669,35.773091],[-83.539493,35.773111],[-83.539312,35.773165],[-83.539152,35.773246],[-83.538932,35.773428],[-83.538791,35.773581],[-83.538727,35.7737],[-83.53873,35.773757],[-83.538747,35.773796],[-83.53884,35.773953],[-83.539194,35.774083],[-83.539347,35.774137],[-83.539516,35.774199],[-83.540432,35.774545],[-83.540896,35.774734],[-83.541219,35.774876],[-83.542027,35.775255],[-83.5419,35.775386],[-83.541813,35.775476],[-83.541039,35.776059],[-83.540738,35.776274],[-83.541053,35.776538],[-83.541392,35.776838],[-83.541737,35.777136],[-83.542266,35.777619],[-83.542802,35.778081],[-83.542609,35.778245],[-83.542295,35.778458],[-83.542238,35.778497],[-83.542127,35.778564],[-83.54201,35.778522],[-83.54192,35.778534],[-83.54181,35.778583],[-83.541674,35.778683],[-83.541558,35.778853],[-83.541272,35.779088],[-83.541334,35.779152],[-83.54073,35.779601],[-83.540325,35.779881],[-83.54016,35.77998],[-83.540029,35.780065],[-83.539832,35.780184],[-83.539676,35.780253],[-83.53955,35.78011],[-83.53941,35.78008],[-83.53922,35.78016],[-83.53918,35.78026],[-83.539287,35.780402],[-83.539383,35.780354],[-83.539676,35.780253],[-83.539832,35.780184],[-83.540029,35.780065],[-83.54016,35.77998],[-83.540325,35.779881],[-83.54073,35.779601],[-83.541334,35.779152],[-83.541101,35.778998],[-83.53812,35.776999],[-83.538211,35.776866],[-83.539085,35.776159],[-83.538779,35.775735],[-83.538438,35.775305],[-83.5384,35.775356],[-83.538234,35.775553],[-83.538151,35.775657],[-83.538033,35.775751],[-83.537881,35.775858],[-83.537797,35.775955],[-83.537719,35.776135],[-83.537606,35.776325],[-83.537535,35.776393],[-83.537454,35.77644],[-83.537432,35.776504],[-83.537236,35.776659],[-83.53707,35.776805],[-83.536858,35.776996],[-83.536705,35.777173],[-83.536547,35.777281],[-83.536449,35.777308],[-83.535503,35.777204],[-83.535084,35.777157],[-83.534952,35.777157],[-83.53485,35.777163],[-83.534622,35.777135],[-83.534759,35.777036],[-83.534901,35.77692],[-83.535039,35.776783],[-83.53513,35.776626],[-83.535253,35.776464],[-83.535359,35.776348],[-83.535568,35.776237],[-83.535895,35.776105],[-83.536169,35.776042],[-83.536369,35.776018],[-83.536603,35.776029],[-83.536803,35.77606],[-83.536947,35.776103],[-83.537059,35.77617],[-83.537277,35.776365],[-83.537357,35.776422],[-83.537454,35.77644],[-83.537535,35.776393],[-83.537606,35.776325],[-83.537719,35.776135],[-83.537797,35.775955],[-83.537881,35.775858],[-83.538033,35.775751],[-83.538151,35.775657],[-83.538234,35.775553],[-83.5384,35.775356],[-83.538438,35.775305],[-83.538226,35.775038],[-83.538183,35.774994],[-83.538065,35.774872],[-83.537515,35.774309],[-83.537467,35.774262],[-83.537377,35.774173],[-83.537308,35.774106],[-83.537029,35.773824],[-83.536794,35.773599],[-83.536524,35.773339],[-83.53644,35.773261],[-83.536074,35.773098],[-83.536262,35.772931],[-83.536343,35.772981],[-83.536475,35.773037],[-83.536646,35.773112],[-83.537106,35.773308],[-83.537597,35.773481],[-83.537916,35.773611],[-83.538206,35.773718],[-83.538686,35.773896],[-83.53884,35.773953],[-83.539194,35.774083],[-83.539347,35.774137],[-83.539516,35.774199],[-83.540432,35.774545],[-83.540896,35.774734],[-83.541219,35.774876],[-83.542027,35.775255],[-83.54218,35.775336],[-83.542853,35.775689],[-83.543336,35.775972],[-83.543614,35.776139],[-83.544155,35.776486],[-83.544207,35.77652],[-83.544555,35.77676],[-83.545036,35.777113],[-83.545574,35.777531],[-83.545679,35.777621],[-83.545925,35.77783],[-83.546379,35.77823],[-83.546798,35.778631],[-83.547338,35.779192],[-83.548047,35.779969],[-83.548958,35.780964],[-83.549209,35.78124],[-83.549324,35.781365],[-83.549359,35.781403],[-83.54974,35.781826],[-83.549911,35.782012],[-83.550103,35.782221],[-83.551085,35.783304],[-83.551261,35.783495],[-83.551923,35.784225],[-83.553218,35.785645],[-83.553742,35.786224],[-83.553825,35.786308],[-83.554303,35.786842],[-83.554495,35.787051],[-83.554676,35.787249],[-83.555138,35.787757],[-83.555178,35.787801],[-83.555409,35.788055],[-83.556068,35.788777],[-83.556747,35.789534],[-83.557123,35.789948],[-83.557562,35.790431],[-83.558007,35.79092],[-83.55851,35.791467],[-83.558644,35.791611],[-83.558829,35.791811],[-83.559035,35.792033],[-83.559252,35.792259],[-83.559705,35.792706],[-83.55997,35.792945],[-83.560149,35.793107],[-83.560523,35.793425],[-83.560778,35.793631],[-83.561038,35.793841],[-83.561544,35.79422],[-83.561832,35.794419],[-83.562061,35.794577],[-83.562212,35.79468],[-83.561848,35.795025],[-83.561533,35.795369],[-83.56124,35.795816],[-83.560966,35.796353],[-83.560685,35.796827],[-83.56054,35.797071],[-83.560459,35.797231],[-83.560288,35.797568],[-83.560239,35.797651],[-83.560105,35.797744],[-83.559881,35.798176],[-83.559699,35.798504],[-83.559488,35.798826],[-83.559179,35.799275],[-83.558939,35.799611],[-83.558681,35.799927],[-83.558511,35.800181],[-83.558383,35.800384],[-83.558295,35.800534],[-83.558194,35.800735],[-83.558138,35.80087],[-83.558089,35.80099],[-83.558053,35.801118],[-83.557999,35.801313],[-83.557966,35.801453],[-83.557933,35.801619],[-83.557914,35.801754],[-83.557904,35.801875],[-83.557904,35.802033],[-83.557918,35.802189],[-83.557935,35.802332],[-83.557966,35.80252],[-83.558078,35.803132],[-83.558371,35.805045],[-83.558325,35.805325],[-83.5583,35.805431],[-83.558244,35.805532],[-83.558131,35.80571],[-83.558,35.805878],[-83.557702,35.806124],[-83.557525,35.80624],[-83.557331,35.806352],[-83.557146,35.806451],[-83.55613,35.806928],[-83.555198,35.807408],[-83.554788,35.807611],[-83.554201,35.807932],[-83.553787,35.808158],[-83.553343,35.808395],[-83.552713,35.808715],[-83.551318,35.809119],[-83.550025,35.809478],[-83.549824,35.809535],[-83.549236,35.809739],[-83.548609,35.810113],[-83.547512,35.810962],[-83.546771,35.811532],[-83.546042,35.812102],[-83.54557,35.812445],[-83.545146,35.812685],[-83.544647,35.812911],[-83.543993,35.813093],[-83.543424,35.813189],[-83.542695,35.813202],[-83.542008,35.813146],[-83.541139,35.812906],[-83.540828,35.812758],[-83.540509,35.812615],[-83.540162,35.812478],[-83.539605,35.812302],[-83.539196,35.812205],[-83.538941,35.812182],[-83.538754,35.812164],[-83.538643,35.812162],[-83.538526,35.812165],[-83.538018,35.812199],[-83.537963,35.812204],[-83.537799,35.812218],[-83.537533,35.812243],[-83.537368,35.812321],[-83.5373,35.811935],[-83.537245,35.811229],[-83.537292,35.809951],[-83.537337,35.809552],[-83.537308,35.809392],[-83.537665,35.808027],[-83.537774,35.807584],[-83.537878,35.807157],[-83.53799,35.806397],[-83.538165,35.805205],[-83.538242,35.804861],[-83.538263,35.804803],[-83.538359,35.80453],[-83.5385,35.804209],[-83.53862,35.804004],[-83.538741,35.8038],[-83.539359,35.802986],[-83.540068,35.802314],[-83.540938,35.801479],[-83.541727,35.80071],[-83.542074,35.80037],[-83.542467,35.799877],[-83.542775,35.799407],[-83.543017,35.798881],[-83.543207,35.798447],[-83.543331,35.798152],[-83.543509,35.797683],[-83.543581,35.797494],[-83.54378,35.796971],[-83.544014,35.796196],[-83.544127,35.79569],[-83.544339,35.794847],[-83.54444,35.794406],[-83.544514,35.794029],[-83.544644,35.793393],[-83.544747,35.793166],[-83.544874,35.792956],[-83.545002,35.792811],[-83.545176,35.79265],[-83.545353,35.792525],[-83.545517,35.79241],[-83.545721,35.792329],[-83.546026,35.792224],[-83.546371,35.792111],[-83.546685,35.792],[-83.546813,35.791956],[-83.547233,35.791803],[-83.547497,35.791666],[-83.547846,35.791383],[-83.547996,35.791234],[-83.548151,35.791046],[-83.548581,35.790391],[-83.548724,35.790169],[-83.548834,35.789935],[-83.548875,35.789805],[-83.548918,35.789627],[-83.5491,35.789632],[-83.549434,35.789644],[-83.549702,35.789671],[-83.549938,35.789742],[-83.550014,35.789765],[-83.550271,35.789905],[-83.550387,35.789781],[-83.550619,35.789645],[-83.551426,35.789393],[-83.55134,35.789249],[-83.550391,35.787668],[-83.550327,35.787457]]}},{"type":"Feature","properties":{"agency":"Pigeon Forge Mass Transit","shape_id":"2"},"geometry":{"type":"LineString","coordinates":[[-83.55126,35.789116],[-83.550391,35.787668],[-83.550327,35.787457],[-83.550405,35.787442],[-83.550439,35.787354],[-83.550416,35.787282],[-83.550326,35.787257],[-83.550255,35.787292],[-83.550236,35.78735],[-83.550244,35.787426],[-83.550327,35.787457],[-83.550391,35.787668],[-83.55134,35.789249],[-83.551426,35.789393],[-83.550619,35.789645],[-83.550387,35.789781],[-83.550271,35.789905],[-83.550014,35.789765],[-83.549702,35.789671],[-83.549434,35.789644],[-83.5491,35.789632],[-83.548918,35.789627],[-83.54891,35.789521],[-83.548836,35.789145],[-83.548533,35.788492],[-83.548403,35.788184],[-83.548239,35.78773],[-83.548138,35.787205],[-83.548028,35.786236],[-83.547832,35.785033],[-83.547696,35.785053],[-83.547555,35.785073],[-83.547164,35.785193],[-83.547041,35.785323],[-83.546557,35.785658],[-83.545963,35.785895],[-83.544705,35.786254],[-83.544299,35.786384],[-83.544023,35.786502],[-83.543853,35.78661],[-83.542503,35.787553],[-83.541252,35.788503],[-83.541181,35.788549],[-83.540809,35.788762],[-83.540677,35.788838],[-83.540118,35.789045],[-83.539058,35.789206],[-83.537676,35.789288],[-83.536832,35.789345],[-83.536493,35.789353],[-83.536149,35.789314],[-83.536104,35.789487],[-83.536104,35.78965],[-83.53626,35.790207],[-83.536263,35.790313],[-83.53633,35.790731],[-83.536408,35.791221],[-83.536413,35.791594],[-83.536363,35.79185],[-83.536256,35.792055],[-83.536236,35.792093],[-83.535921,35.79252],[-83.535796,35.792755],[-83.53569,35.793011],[-83.535639,35.793308],[-83.535631,35.79389],[-83.535636,35.794102],[-83.535729,35.794213],[-83.53583,35.794342],[-83.535834,35.794433],[-83.535791,35.794522],[-83.535586,35.794551],[-83.535457,35.794628],[-83.535403,35.794686],[-83.535361,35.7949],[-83.535352,35.794947],[-83.535348,35.794991],[-83.535308,35.795209],[-83.53526599999998,35.795478],[-83.535256,35.795589],[-83.535303,35.795629],[-83.535394,35.79556],[-83.535451,35.795409],[-83.53547,35.795261],[-83.535429,35.795059],[-83.535352,35.794947],[-83.535361,35.7949],[-83.535403,35.794686],[-83.535457,35.794628],[-83.535586,35.794551],[-83.535791,35.794522],[-83.535834,35.794433],[-83.53583,35.794342],[-83.535729,35.794213],[-83.535636,35.794102],[-83.535631,35.79389],[-83.535639,35.793308],[-83.53569,35.793011],[-83.535796,35.792755],[-83.535921,35.79252],[-83.536236,35.792093],[-83.536363,35.79185],[-83.536413,35.791594],[-83.536408,35.791221],[-83.53633,35.790731],[-83.536263,35.790313],[-83.53626,35.790207],[-83.536104,35.78965],[-83.536104,35.789487],[-83.536149,35.789314],[-83.536493,35.789353],[-83.536832,35.789345],[-83.537676,35.789288],[-83.539058,35.789206],[-83.540118,35.789045],[-83.540406,35.788938],[-83.540677,35.788838],[-83.540809,35.788762],[-83.541181,35.788549],[-83.541252,35.788503],[-83.542503,35.787553],[-83.543853,35.78661],[-83.544023,35.786502],[-83.544299,35.786384],[-83.544705,35.786254],[-83.545963,35.785895],[-83.546557,35.785658],[-83.547041,35.785323],[-83.547164,35.785193],[-83.547555,35.785073],[-83.547696,35.785053],[-83.547832,35.785033],[-83.547952,35.78577],[-83.548028,35.786236],[-83.548138,35.787205],[-83.548239,35.78773],[-83.548403,35.788184],[-83.548533,35.788492],[-83.548836,35.789145],[-83.54891,35.789521],[-83.548918,35.789627],[-83.5491,35.789632],[-83.549434,35.789644],[-83.549702,35.789671],[-83.550014,35.789765],[-83.550271,35.789905],[-83.550387,35.789781],[-83.550619,35.789645],[-83.551426,35.789393],[-83.55134,35.789249],[-83.550391,35.787668],[-83.550327,35.787457]]}},{"type":"Feature","properties":{"agency":"Pigeon Forge Mass Transit","shape_id":"3"},"geometry":{"type":"LineString","coordinates":[[-83.55126,35.789116],[-83.550391,35.787668],[-83.550327,35.787457],[-83.550405,35.787442],[-83.550439,35.787354],[-83.550416,35.787282],[-83.550326,35.787257],[-83.550255,35.787292],[-83.550236,35.78735],[-83.550244,35.787426],[-83.550327,35.787457],[-83.550391,35.787668],[-83.55134,35.789249],[-83.551426,35.789393],[-83.550619,35.789645],[-83.550387,35.789781],[-83.550271,35.789905],[-83.550014,35.789765],[-83.549702,35.789671],[-83.549434,35.789644],[-83.5491,35.789632],[-83.548918,35.789627],[-83.54891,35.789521],[-83.548836,35.789145],[-83.548533,35.788492],[-83.548403,35.788184],[-83.548239,35.78773],[-83.548138,35.787205],[-83.548028,35.786236],[-83.547832,35.785033],[-83.547704,35.78444],[-83.547549,35.783759],[-83.547549,35.783747],[-83.547548,35.78358],[-83.547576,35.783402],[-83.547675,35.783238],[-83.54785,35.783071],[-83.548142,35.782845],[-83.548246,35.782762],[-83.548661,35.782492],[-83.549135,35.782184],[-83.54974,35.781826],[-83.549832,35.781744],[-83.549852,35.78171],[-83.549877,35.781521],[-83.549881,35.78146],[-83.549562,35.781147],[-83.549206,35.780744],[-83.54836,35.77979],[-83.547758,35.779127],[-83.547638,35.779003],[-83.547548,35.778908],[-83.547089,35.778434],[-83.546851,35.778205],[-83.546257,35.77767],[-83.545968,35.777424],[-83.545377,35.77695],[-83.54483,35.776545],[-83.54443499999998,35.776272],[-83.543952,35.775961],[-83.543899,35.775929],[-83.5436,35.775745],[-83.543158,35.775486],[-83.54238,35.775066],[-83.542278,35.775017],[-83.542214,35.774985],[-83.541482,35.774636],[-83.541072,35.774456],[-83.540674,35.774292],[-83.539674,35.773918],[-83.539579,35.773883],[-83.539334,35.773792],[-83.538894,35.773621],[-83.538791,35.773581],[-83.53835,35.773427],[-83.537713,35.773117],[-83.537093,35.772757],[-83.534513,35.770935],[-83.533479,35.770297],[-83.533302,35.770229],[-83.532967,35.770111],[-83.532706,35.770036],[-83.532248,35.76994],[-83.531877,35.769887],[-83.531386,35.76985],[-83.530272,35.769792],[-83.529614,35.769748],[-83.529232,35.769705],[-83.52912,35.76969],[-83.529009,35.769668],[-83.528901,35.769641],[-83.528794,35.769609],[-83.528691,35.76957],[-83.528591,35.769527],[-83.528494,35.769478],[-83.528401,35.769425],[-83.528313,35.769366],[-83.52823,35.769303],[-83.527919,35.769054],[-83.527665,35.768818],[-83.527323,35.768441],[-83.52723,35.768321],[-83.526957,35.76793],[-83.526759,35.767585],[-83.5266,35.76725],[-83.526406,35.76668],[-83.526068,35.765368],[-83.525965,35.765066],[-83.525848,35.764783],[-83.525618,35.764334],[-83.525311,35.763833],[-83.52492,35.763238],[-83.524535,35.762653],[-83.524182,35.762103],[-83.523917,35.761688],[-83.523786,35.761482],[-83.523587,35.761169],[-83.523403,35.760852],[-83.523229,35.760481],[-83.523096,35.760114],[-83.523046,35.759923],[-83.522991,35.75971],[-83.522849,35.758881],[-83.522757,35.758507],[-83.522641,35.758208],[-83.522518,35.757987],[-83.522387,35.757791],[-83.522108,35.757443],[-83.521819,35.757063],[-83.521699,35.756839],[-83.521642,35.756627],[-83.521636,35.756417],[-83.521663,35.756258],[-83.521713,35.756117],[-83.521811,35.755941],[-83.521926,35.755797],[-83.522038,35.755695],[-83.522182,35.75559],[-83.522463,35.755444],[-83.523091,35.755192],[-83.523254,35.755117],[-83.523344,35.755072],[-83.52343,35.755022],[-83.523511,35.754967],[-83.523588,35.754908],[-83.523659,35.754844],[-83.523725,35.754777],[-83.523786,35.754704],[-83.523841,35.754628],[-83.523889,35.754548],[-83.52393,35.754466],[-83.523963,35.754382],[-83.523989,35.754296],[-83.524007,35.754209],[-83.524018,35.754121],[-83.52402,35.754032],[-83.524015,35.753944],[-83.523999,35.753827],[-83.523975,35.75371],[-83.523944,35.753595],[-83.523907,35.753485],[-83.523862,35.753377],[-83.523811,35.753271],[-83.523753,35.75316],[-83.52356,35.75282],[-83.523371,35.752488],[-83.522986,35.75181],[-83.522867,35.751581],[-83.522743,35.751291],[-83.522693,35.751103],[-83.522675,35.751021],[-83.522664,35.750938],[-83.52266,35.750855],[-83.522664,35.750772],[-83.522682,35.750556],[-83.522707,35.750155],[-83.522698,35.75002],[-83.522691,35.749929],[-83.52265,35.749754],[-83.522617,35.749655],[-83.522597,35.749626],[-83.522542,35.749536],[-83.522375,35.749333],[-83.522245,35.749218],[-83.52208,35.749102],[-83.521952,35.749026],[-83.521668,35.748878],[-83.521457,35.748752],[-83.521239,35.748598],[-83.521142,35.748509],[-83.521072,35.74844],[-83.521008,35.748368],[-83.52095,35.748291],[-83.520899,35.748212],[-83.520856,35.74813],[-83.520819,35.748046],[-83.520791,35.747963],[-83.52077,35.747879],[-83.520755,35.747794],[-83.520748,35.747709],[-83.520748,35.747623],[-83.520755,35.747538],[-83.520769,35.747453],[-83.520799,35.74734],[-83.520822,35.74728],[-83.520848,35.747206],[-83.52088,35.747134],[-83.520904,35.74709],[-83.520934,35.747043],[-83.52097,35.746993],[-83.521016,35.746933],[-83.521057,35.746883],[-83.521102,35.746833],[-83.521151,35.746782],[-83.521205,35.746729],[-83.521264,35.746677],[-83.52142,35.746549],[-83.521559,35.746425],[-83.521686,35.746305],[-83.521803,35.746187],[-83.52191,35.746072],[-83.522014,35.745955],[-83.522077,35.745876],[-83.522135,35.745791],[-83.52218,35.745714],[-83.522222,35.745627],[-83.522238,35.745586],[-83.522251,35.745547],[-83.522262,35.745505],[-83.522272,35.745461],[-83.522279,35.745413],[-83.522285,35.745362],[-83.522289,35.745306],[-83.522289,35.745252],[-83.522287,35.7452],[-83.522282,35.745151],[-83.522271,35.745088],[-83.522254,35.745022],[-83.522228,35.744944],[-83.522195,35.744866],[-83.52217,35.744816],[-83.522144,35.744769],[-83.522117,35.744725],[-83.522088,35.744684],[-83.522056,35.744643],[-83.522021,35.744603],[-83.521982,35.744562],[-83.52194,35.744522],[-83.521893,35.744481],[-83.521843,35.744441],[-83.521791,35.744404],[-83.521738,35.744369],[-83.52166,35.744324],[-83.521582,35.744285],[-83.52151,35.744255],[-83.521432,35.744227],[-83.521376,35.74421],[-83.521315,35.744194],[-83.521251,35.74418],[-83.52118,35.744167],[-83.521119,35.744158],[-83.521052,35.74415],[-83.520881,35.744137],[-83.5208,35.744134],[-83.52071,35.744133],[-83.520348,35.744141],[-83.520012,35.744145],[-83.519919,35.744144],[-83.519835,35.74414],[-83.519674,35.744128],[-83.519611,35.74412],[-83.519555,35.744112],[-83.51948,35.744098],[-83.519411,35.744083],[-83.519347,35.744066],[-83.519287,35.744048],[-83.519196,35.744014],[-83.519106,35.743974],[-83.51901,35.743924],[-83.518968,35.743899],[-83.518929,35.743873],[-83.518891,35.743845],[-83.518877,35.743833],[-83.518852,35.743814],[-83.518812,35.743779],[-83.51877,35.743739],[-83.518725,35.743693],[-83.518683,35.743646],[-83.518643,35.743596],[-83.518606,35.743545],[-83.518575,35.743497],[-83.518547,35.743451],[-83.518523,35.743406],[-83.518502,35.743362],[-83.518475,35.74329],[-83.518451,35.74321],[-83.51844,35.743156],[-83.518423,35.743051],[-83.51841,35.742974],[-83.518403,35.742904],[-83.518399,35.74283],[-83.5184,35.742753],[-83.518405,35.742671],[-83.518415,35.742581],[-83.51843,35.742494],[-83.518445,35.742429],[-83.518463,35.742362],[-83.518485,35.742294],[-83.518511,35.742225],[-83.518537,35.742163],[-83.518565,35.742101],[-83.518595,35.742041],[-83.518627,35.741983],[-83.518663,35.741924],[-83.518701,35.741865],[-83.518742,35.741807],[-83.518786,35.74175],[-83.518831,35.741695],[-83.518877,35.741643],[-83.518923,35.741594],[-83.51897,35.741547],[-83.519046,35.741478],[-83.519128,35.741411],[-83.519217,35.741345],[-83.519322,35.741274],[-83.51943,35.741209],[-83.519543,35.741148],[-83.51965,35.741097],[-83.519764,35.741048],[-83.519898,35.740997],[-83.520021,35.740957],[-83.520077,35.740942],[-83.52014,35.740927],[-83.520336,35.740886],[-83.520499,35.740856],[-83.520682,35.740829],[-83.520872,35.740806],[-83.521248,35.740767],[-83.521404,35.740749],[-83.521566,35.740728],[-83.521711,35.740705],[-83.521938,35.740663],[-83.521995,35.740653],[-83.522257,35.740602],[-83.522364,35.740578],[-83.522458,35.740554],[-83.522616,35.740508],[-83.522694,35.740482],[-83.522764,35.740456],[-83.522884,35.740406],[-83.52293,35.740383],[-83.522972,35.740361],[-83.523019,35.740333],[-83.523067,35.7403],[-83.523115,35.740264],[-83.523166,35.740223],[-83.523215,35.74018],[-83.523261,35.740137],[-83.523302,35.740093],[-83.52333899999998,35.74005],[-83.523391,35.73998],[-83.523439,35.739903],[-83.523463,35.739859],[-83.523485,35.739814],[-83.523505,35.739768],[-83.523523,35.739721],[-83.523533,35.739694],[-83.523565,35.739499],[-83.523569,35.739397],[-83.523567,35.739295],[-83.523562,35.739224],[-83.523552,35.739149],[-83.523539,35.739069],[-83.523521,35.738981],[-83.523503,35.738906],[-83.523482,35.738829],[-83.52345,35.738727],[-83.523449,35.738722],[-83.523411,35.738619],[-83.523351,35.73847],[-83.523279,35.738316],[-83.523224,35.73821],[-83.523147,35.738073],[-83.523042,35.737898],[-83.522864,35.737621],[-83.522731,35.73742],[-83.52243,35.736978],[-83.522299,35.736782],[-83.522134,35.736526],[-83.521971,35.736268],[-83.521811,35.73601],[-83.521654,35.73575],[-83.521413,35.735309],[-83.521357,35.735189],[-83.521173,35.734806],[-83.521001,35.734417],[-83.520834,35.733946],[-83.520748,35.733707],[-83.520802,35.733702],[-83.520856,35.7337],[-83.520909,35.7337],[-83.520962,35.733702],[-83.520989,35.733705],[-83.521019,35.73371],[-83.521117,35.733733],[-83.521153,35.73374],[-83.521188,35.733744],[-83.52122,35.733745],[-83.521289,35.733739],[-83.521349,35.733717],[-83.521592,35.733592],[-83.521732,35.73352],[-83.521776,35.733445],[-83.521796,35.73341],[-83.522629,35.733299],[-83.523219,35.733224],[-83.523147,35.733061],[-83.522593,35.733135],[-83.521852,35.733233],[-83.521796,35.73341],[-83.521732,35.73352],[-83.521592,35.733592],[-83.521349,35.733717],[-83.521289,35.733739],[-83.52122,35.733745],[-83.521188,35.733744],[-83.521153,35.73374],[-83.521117,35.733733],[-83.521019,35.73371],[-83.520989,35.733705],[-83.520962,35.733702],[-83.520909,35.7337],[-83.520856,35.7337],[-83.520802,35.733702],[-83.520748,35.733707],[-83.520335,35.733761],[-83.519917,35.733813],[-83.520021,35.734236],[-83.520085,35.734502],[-83.520129,35.734634],[-83.520157,35.734719],[-83.520216,35.73486],[-83.520233,35.734897],[-83.520297,35.73503],[-83.520363,35.735162],[-83.520425,35.735281],[-83.520451,35.735327],[-83.520533,35.735461],[-83.520682,35.735686],[-83.520794,35.735854],[-83.520898,35.736005],[-83.520989,35.736132],[-83.521094,35.736272],[-83.521427,35.736704],[-83.521545,35.736852],[-83.521763,35.737117],[-83.521792,35.737151],[-83.521896,35.73728],[-83.522001,35.737417],[-83.52209,35.737543],[-83.522202,35.73771],[-83.522273,35.737827],[-83.522345,35.737953],[-83.522364,35.737993],[-83.522378,35.738031],[-83.522384,35.738051],[-83.522431,35.738196],[-83.522449,35.738263],[-83.522468,35.73836],[-83.522479,35.738452],[-83.522482,35.738515],[-83.522483,35.73858],[-83.522479,35.738647],[-83.522473,35.738715],[-83.522464,35.738783],[-83.522453,35.738842],[-83.522441,35.738897],[-83.522426,35.738947],[-83.522404,35.739006],[-83.522364,35.739095],[-83.522322,35.739183],[-83.522279,35.739262],[-83.522241,35.739324],[-83.522207,35.739367],[-83.522098,35.739496],[-83.522044,35.739546],[-83.521967,35.73962],[-83.52193,35.739653],[-83.521876,35.739697],[-83.521818,35.73974],[-83.521757,35.739782],[-83.521693,35.739822],[-83.521638,35.739854],[-83.52158,35.739885],[-83.521517,35.739916],[-83.52145,35.739947],[-83.521355,35.739987],[-83.521246,35.740028],[-83.521173,35.740053],[-83.521091,35.740078],[-83.520867,35.74014],[-83.520731,35.740174],[-83.520493,35.74023],[-83.520056,35.740327],[-83.519967,35.740347],[-83.519765,35.740395],[-83.519561,35.740446],[-83.519443,35.74048],[-83.519323,35.74052],[-83.519228,35.740557],[-83.519153,35.74059],[-83.519099,35.740617],[-83.519025,35.740662],[-83.518974,35.740697],[-83.518925,35.740733],[-83.518868,35.74078],[-83.518807,35.740835],[-83.51876,35.740882],[-83.518711,35.740936],[-83.518661,35.740997],[-83.518593,35.741082],[-83.518543,35.741148],[-83.518492,35.741222],[-83.518359,35.741426],[-83.518276,35.741558],[-83.518211,35.741667],[-83.518154,35.741767],[-83.518105,35.74186],[-83.518045,35.741983],[-83.517999,35.742089],[-83.517961,35.742189],[-83.517923,35.7423],[-83.517894,35.742396],[-83.51787,35.742484],[-83.517853,35.742557],[-83.517838,35.742634],[-83.517812,35.742797],[-83.517801,35.742887],[-83.517794,35.742974],[-83.517789,35.743062],[-83.517788,35.743152],[-83.517789,35.743243],[-83.517793,35.743336],[-83.517805,35.743485],[-83.517822,35.743609],[-83.517843,35.743715],[-83.517864,35.743797],[-83.517881,35.743849],[-83.517901,35.7439],[-83.517923,35.743952],[-83.517948,35.744004],[-83.517976,35.744058],[-83.518005,35.744108],[-83.518035,35.744155],[-83.518066,35.744198],[-83.518103,35.744244],[-83.518147,35.744292],[-83.518197,35.744342],[-83.518286,35.744428],[-83.518338,35.744475],[-83.518477,35.74459],[-83.518515,35.744625],[-83.518581,35.744676],[-83.518688,35.744745],[-83.518813,35.744823],[-83.518932,35.744906],[-83.519047,35.744995],[-83.519155,35.745088],[-83.519257,35.745186],[-83.519353,35.745287],[-83.519443,35.745393],[-83.519525,35.745503],[-83.5196,35.745615],[-83.519668,35.745731],[-83.519729,35.74585],[-83.519782,35.745971],[-83.519827,35.746094],[-83.519864,35.746219],[-83.519893,35.746345],[-83.519914,35.746472],[-83.519926,35.7466],[-83.51993,35.746699],[-83.519931,35.746728],[-83.519937,35.746781],[-83.519947,35.746927],[-83.519969,35.747112],[-83.520025,35.74784],[-83.52005,35.748023],[-83.520108,35.748257],[-83.520144,35.748345],[-83.520187,35.748432],[-83.520235,35.748516],[-83.52029,35.748598],[-83.52035,35.748677],[-83.520416,35.748753],[-83.520488,35.748825],[-83.520588,35.748922],[-83.520823,35.749099],[-83.521305,35.749449],[-83.521382,35.74951],[-83.521453,35.749575],[-83.521518,35.749644],[-83.521576,35.749717],[-83.521627,35.749793],[-83.521671,35.749872],[-83.521708,35.749954],[-83.521737,35.750037],[-83.521758,35.750122],[-83.521771,35.750209],[-83.521787,35.750366],[-83.521818,35.750821],[-83.521846,35.751037],[-83.521888,35.751365],[-83.521904,35.751444],[-83.521925,35.751523],[-83.521952,35.7516],[-83.521984,35.751676],[-83.522065,35.751851],[-83.52228,35.752213],[-83.522776,35.752945],[-83.522899,35.753163],[-83.52294,35.753241],[-83.522975,35.75332],[-83.523005,35.753402],[-83.523029,35.753484],[-83.523047,35.753568],[-83.523056,35.753612],[-83.523072,35.753706],[-83.523084,35.753792],[-83.523088,35.753878],[-83.523084,35.753965],[-83.523072,35.75405],[-83.523053,35.754135],[-83.523026,35.754219],[-83.522991,35.7543],[-83.522949,35.75438],[-83.5229,35.754456],[-83.522844,35.754529],[-83.522782,35.754599],[-83.522713,35.754665],[-83.522639,35.754727],[-83.522559,35.754784],[-83.522475,35.754835],[-83.522229,35.754975],[-83.521363,35.755345],[-83.521147,35.755456],[-83.521051,35.755523],[-83.52097,35.755585],[-83.520896,35.755651],[-83.520827,35.755722],[-83.520766,35.755797],[-83.520712,35.755875],[-83.520666,35.755957],[-83.520628,35.756042],[-83.520598,35.756128],[-83.520576,35.756217],[-83.520563,35.756306],[-83.520559,35.756396],[-83.520563,35.756486],[-83.520576,35.756575],[-83.520597,35.756664],[-83.520626,35.75675],[-83.520664,35.756835],[-83.52071,35.756917],[-83.520764,35.756996],[-83.520825,35.757071],[-83.520934,35.757195],[-83.521523,35.75779],[-83.521677,35.757975],[-83.521797,35.758149],[-83.521945,35.758438],[-83.522049,35.758743],[-83.522232,35.75944],[-83.522387,35.7601],[-83.522509,35.760557],[-83.522632,35.760991],[-83.522702,35.761199],[-83.522784,35.761446],[-83.522866,35.761662],[-83.522998,35.762033],[-83.523108,35.762266],[-83.52322,35.762493],[-83.523491,35.762979],[-83.523824,35.763469],[-83.524615,35.764438],[-83.52485,35.764753],[-83.525027,35.765047],[-83.52519,35.765394],[-83.525299,35.76572],[-83.525566,35.7667],[-83.525777,35.767273],[-83.525777,35.767275],[-83.525887,35.767509],[-83.526113,35.767931],[-83.52624,35.768127],[-83.526382,35.768333],[-83.526474,35.768464],[-83.526521,35.768527],[-83.526572,35.768588],[-83.526897,35.768957],[-83.527133,35.769194],[-83.527422,35.769456],[-83.527727,35.769698],[-83.528094,35.769954],[-83.528452,35.770167],[-83.528844,35.770361],[-83.528939,35.770405],[-83.529038,35.770443],[-83.529139,35.770477],[-83.529242,35.770505],[-83.529348,35.770528],[-83.529455,35.770546],[-83.529563,35.770558],[-83.529672,35.770564],[-83.530042,35.770576],[-83.530498,35.77057],[-83.531295,35.770538],[-83.531813,35.770528],[-83.532219,35.770546],[-83.532331,35.770567],[-83.532431,35.770585],[-83.532804,35.770669],[-83.533124,35.77078],[-83.533138,35.770786],[-83.533463,35.770933],[-83.534019,35.771317],[-83.534452,35.771644],[-83.536009,35.772777],[-83.536262,35.772931],[-83.536343,35.772981],[-83.536646,35.773112],[-83.537106,35.773308],[-83.537597,35.773481],[-83.537916,35.773611],[-83.538206,35.773718],[-83.538686,35.773896],[-83.53884,35.773953],[-83.539194,35.774083],[-83.539347,35.774137],[-83.539516,35.774199],[-83.540432,35.774545],[-83.540655,35.774635],[-83.540896,35.774734],[-83.541219,35.774876],[-83.542027,35.775255],[-83.54218,35.775336],[-83.542853,35.775689],[-83.543336,35.775972],[-83.543614,35.776139],[-83.544155,35.776486],[-83.544207,35.77652],[-83.544555,35.77676],[-83.545036,35.777113],[-83.545574,35.777531],[-83.545679,35.777621],[-83.545925,35.77783],[-83.546379,35.77823],[-83.546798,35.778631],[-83.547056,35.778898],[-83.547338,35.779192],[-83.548047,35.779969],[-83.549209,35.78124],[-83.549324,35.781365],[-83.549359,35.781403],[-83.54974,35.781826],[-83.549135,35.782184],[-83.548661,35.782492],[-83.548246,35.782762],[-83.548142,35.782845],[-83.54785,35.783071],[-83.547675,35.783238],[-83.547576,35.783402],[-83.547548,35.78358],[-83.547549,35.783747],[-83.547549,35.783759],[-83.547579,35.783892],[-83.547704,35.78444],[-83.547832,35.785033],[-83.548028,35.786236],[-83.548138,35.787205],[-83.548239,35.78773],[-83.548403,35.788184],[-83.548533,35.788492],[-83.548622,35.788682],[-83.548836,35.789145],[-83.54891,35.789521],[-83.548918,35.789627],[-83.5491,35.789632],[-83.549434,35.789644],[-83.549702,35.789671],[-83.550014,35.789765],[-83.550271,35.789905],[-83.550387,35.789781],[-83.550619,35.789645],[-83.551426,35.789393],[-83.55134,35.789249],[-83.550391,35.787668],[-83.550327,35.787457]]}},{"type":"Feature","properties":{"agency":"Pigeon Forge Mass Transit","shape_id":"4"},"geometry":{"type":"LineString","coordinates":[[-83.55126,35.789116],[-83.550391,35.787668],[-83.550327,35.787457],[-83.550405,35.787442],[-83.550439,35.787354],[-83.550416,35.787282],[-83.550326,35.787257],[-83.550255,35.787292],[-83.550236,35.78735],[-83.550244,35.787426],[-83.550327,35.787457],[-83.550391,35.787668],[-83.55134,35.789249],[-83.551426,35.789393],[-83.550573,35.789664],[-83.550352,35.789813],[-83.550273,35.789895],[-83.550018,35.789771],[-83.549716,35.789674],[-83.549435,35.789647],[-83.54892,35.789629],[-83.548915,35.78953],[-83.548843,35.789153],[-83.548533,35.788492],[-83.548403,35.788184],[-83.548243,35.787747],[-83.548124,35.787182],[-83.547943,35.785623],[-83.547714,35.784445],[-83.547549,35.783747],[-83.547551,35.783587],[-83.54756,35.783423],[-83.547634,35.783276],[-83.547786,35.783133],[-83.548246,35.782763],[-83.54974,35.781826],[-83.551923,35.784225],[-83.555409,35.788055],[-83.55609,35.788801],[-83.556298,35.789029],[-83.556405,35.789149],[-83.556747,35.789534],[-83.556885,35.789687],[-83.557053,35.789871],[-83.557123,35.789948],[-83.557993,35.790905],[-83.558163,35.791092],[-83.559073,35.792074],[-83.559102,35.792104],[-83.559162,35.792166],[-83.559252,35.792259],[-83.559466,35.792474],[-83.559705,35.792706],[-83.559953,35.792935],[-83.560149,35.793107],[-83.560325,35.793262],[-83.560489,35.793398],[-83.560523,35.793425],[-83.560778,35.793631],[-83.561038,35.793841],[-83.561043,35.793845],[-83.561544,35.79422],[-83.56155,35.794224],[-83.561832,35.794419],[-83.561985,35.794524],[-83.562137,35.794629],[-83.562163,35.794646],[-83.562212,35.79468],[-83.562322,35.794755],[-83.562529,35.794896],[-83.562744,35.795041],[-83.563101,35.795272],[-83.563482,35.795524],[-83.56421,35.796031],[-83.564589,35.796285],[-83.56561,35.796975],[-83.565732,35.797056],[-83.565989,35.79723],[-83.566099,35.797304],[-83.566308,35.797445],[-83.566558,35.797614],[-83.566934,35.797867],[-83.567204,35.798049],[-83.567259,35.798087],[-83.567357,35.798153],[-83.56746,35.798223],[-83.567615,35.798326],[-83.567976,35.798569],[-83.568477,35.798906],[-83.568588,35.798981],[-83.569289,35.799454],[-83.569732,35.799754],[-83.570024,35.799953],[-83.570149,35.800037],[-83.570443,35.80023],[-83.570698,35.800398],[-83.570962,35.800572],[-83.571003,35.800599],[-83.571219,35.800756],[-83.572148,35.801385],[-83.572077,35.801436],[-83.571957,35.801557],[-83.571655,35.801856],[-83.571665,35.802015],[-83.571537,35.802098],[-83.570661,35.802497],[-83.570589,35.802534],[-83.570484,35.802571],[-83.570388,35.802579],[-83.570314,35.802576],[-83.570243,35.802554],[-83.570173,35.802507],[-83.570179,35.802669],[-83.570217,35.802777],[-83.570286,35.802848],[-83.570329,35.80286],[-83.570404,35.802881],[-83.570491,35.802881],[-83.570601,35.802854],[-83.570657,35.802786],[-83.570678,35.802662],[-83.570607,35.802566],[-83.570589,35.802534],[-83.570661,35.802497],[-83.571537,35.802098],[-83.571665,35.802015],[-83.571791,35.80193],[-83.572257,35.801464],[-83.572867,35.801895],[-83.573012,35.802016],[-83.573367,35.802317],[-83.573834,35.802714],[-83.574797,35.803567],[-83.575406,35.804114],[-83.575839,35.804568],[-83.576058,35.804816],[-83.576283,35.805072],[-83.576372,35.805185],[-83.57669,35.805652],[-83.577008,35.80616],[-83.577147,35.80646],[-83.57725,35.806683],[-83.577415,35.8071],[-83.577439,35.80719],[-83.577473,35.807317],[-83.577575,35.807705],[-83.577622,35.807912],[-83.577628,35.807941],[-83.577694,35.808314],[-83.57775,35.808633],[-83.577816,35.809155],[-83.577861,35.809746],[-83.577881,35.810364],[-83.577888,35.810603],[-83.5779,35.810976],[-83.577914,35.811608],[-83.577926,35.812153],[-83.57793,35.812274],[-83.577938,35.812672],[-83.577963,35.813445],[-83.577968,35.813559],[-83.577986,35.814034],[-83.578007,35.81459],[-83.578009,35.814662],[-83.578031,35.815593],[-83.578035,35.815765],[-83.578064,35.816983],[-83.578088,35.817695],[-83.578104,35.818369],[-83.578106,35.818417],[-83.578124,35.818992],[-83.578134,35.819522],[-83.578131,35.819896],[-83.578104,35.820256],[-83.578081,35.820487],[-83.578058,35.820719],[-83.577984,35.821084],[-83.577881,35.821499],[-83.577804,35.821761],[-83.57767,35.822124],[-83.577603,35.822283],[-83.577532,35.822449],[-83.577303,35.822903],[-83.577078,35.823317],[-83.576844,35.823729],[-83.576601,35.824157],[-83.5761,35.825023],[-83.575643,35.825874],[-83.575471,35.826203],[-83.575267,35.826543],[-83.575188,35.826675],[-83.575091,35.826819],[-83.574703,35.827485],[-83.574588,35.827668],[-83.574515,35.8278],[-83.574149,35.828458],[-83.574133,35.828486],[-83.573718,35.829425],[-83.573469,35.830307],[-83.573431,35.830476],[-83.573073,35.832065],[-83.573042,35.832201],[-83.572918,35.832101],[-83.572348,35.83204],[-83.572322,35.832052],[-83.57163,35.832383],[-83.571437,35.83247],[-83.571306,35.832502],[-83.571161,35.832515],[-83.569873,35.832376],[-83.569802,35.832399],[-83.569712,35.83245],[-83.56927,35.832701],[-83.569174,35.832756],[-83.569242,35.832822],[-83.569523,35.833112],[-83.570007,35.833614],[-83.570266,35.833882],[-83.570366,35.834036],[-83.570425,35.834323],[-83.570917,35.834375],[-83.571348,35.834422],[-83.571635,35.834453],[-83.572314,35.834526],[-83.571844,35.835478],[-83.571559,35.836061],[-83.571512,35.836183],[-83.571322,35.836677],[-83.571069,35.837456],[-83.571014,35.83784],[-83.570946,35.838308],[-83.569971,35.838276],[-83.569654,35.838267],[-83.5695,35.838262],[-83.569255,35.838258],[-83.568051,35.838184],[-83.566859,35.838117],[-83.566882,35.837283],[-83.566587,35.83731],[-83.566595,35.836737],[-83.566896,35.836789],[-83.566882,35.837283],[-83.566859,35.838117],[-83.565759,35.838114],[-83.565643,35.838131],[-83.564795,35.838258],[-83.564557,35.838294],[-83.563927,35.838365],[-83.563599,35.838403],[-83.562983,35.838473],[-83.562413,35.838345],[-83.562325,35.838299],[-83.562002,35.838133],[-83.561591,35.837697],[-83.561573,35.837631],[-83.561549,35.837549],[-83.561407,35.837052],[-83.561297,35.836806],[-83.561101,35.836586],[-83.560857,35.83644],[-83.560594,35.836338],[-83.560322,35.836319],[-83.559961,35.836356],[-83.559515,35.836444],[-83.558941,35.836545],[-83.558107,35.83671],[-83.558055,35.83672],[-83.557443,35.836849],[-83.556056,35.837145],[-83.555522,35.837413],[-83.554234,35.83811],[-83.553863,35.838242],[-83.55354,35.838317],[-83.553257,35.838353],[-83.552847,35.838325],[-83.552224,35.838191],[-83.55186,35.83802],[-83.55145,35.837837],[-83.550431,35.837416],[-83.549814,35.837265],[-83.549542,35.837229],[-83.549267,35.837225],[-83.548279,35.837212],[-83.547164,35.837192],[-83.546364,35.837215],[-83.546142,35.83722],[-83.546135,35.837612],[-83.545964,35.837582],[-83.545819,35.837544],[-83.54574,35.837424],[-83.545777,35.837283],[-83.545818,35.837161],[-83.54589,35.837187],[-83.546001,35.837214],[-83.546142,35.83722],[-83.546364,35.837215],[-83.547164,35.837192],[-83.548279,35.837212],[-83.549267,35.837225],[-83.549542,35.837229],[-83.549814,35.837265],[-83.550431,35.837416],[-83.55145,35.837837],[-83.5514,35.83796],[-83.55157,35.83813],[-83.55168,35.83818],[-83.55186,35.83802],[-83.552224,35.838191],[-83.552589,35.838269],[-83.552847,35.838325],[-83.553257,35.838353],[-83.55354,35.838317],[-83.553863,35.838242],[-83.554234,35.83811],[-83.555522,35.837413],[-83.556056,35.837145],[-83.557443,35.836849],[-83.558055,35.83672],[-83.558107,35.83671],[-83.558941,35.836545],[-83.558948,35.836543],[-83.559515,35.836444],[-83.559961,35.836356],[-83.560322,35.836319],[-83.560594,35.836338],[-83.560857,35.83644],[-83.561101,35.836586],[-83.561297,35.836806],[-83.561407,35.837052],[-83.561549,35.837549],[-83.561591,35.837697],[-83.562002,35.838133],[-83.562325,35.838299],[-83.562413,35.838345],[-83.562983,35.838473],[-83.563599,35.838403],[-83.563927,35.838365],[-83.564557,35.838294],[-83.564795,35.838258],[-83.565643,35.838131],[-83.565759,35.838114],[-83.566859,35.838117],[-83.568051,35.838184],[-83.569255,35.838258],[-83.5695,35.838262],[-83.569654,35.838267],[-83.569971,35.838276],[-83.570946,35.838308],[-83.571165,35.838321],[-83.571819,35.838325],[-83.572291,35.838186],[-83.572358,35.83813],[-83.573165,35.837923],[-83.57313,35.837832],[-83.573083,35.837803],[-83.573024,35.837767],[-83.572679,35.837861],[-83.572358,35.83813],[-83.572291,35.838186],[-83.571819,35.838325],[-83.571165,35.838321],[-83.571208,35.837988],[-83.571224,35.837882],[-83.571271,35.837571],[-83.571374,35.83718],[-83.571473,35.836821],[-83.57158,35.836546],[-83.571702,35.836247],[-83.571845,35.835968],[-83.571924,35.835811],[-83.572189,35.835238],[-83.572339,35.834959],[-83.572386,35.834872],[-83.572542,35.83456],[-83.572683,35.834205],[-83.572716,35.834104],[-83.572833,35.833747],[-83.572999,35.833228],[-83.57313,35.83274],[-83.573252,35.83224],[-83.573367,35.831732],[-83.573513,35.831081],[-83.573541,35.830958],[-83.573664,35.830447],[-83.573727,35.830185],[-83.573954,35.829475],[-83.574118,35.829031],[-83.574336,35.828585],[-83.574543,35.828174],[-83.574597,35.828066],[-83.574883,35.82756],[-83.575217,35.827699],[-83.575485,35.827799],[-83.575749,35.827846],[-83.575931,35.827832],[-83.576071,35.827784],[-83.576172,35.827699],[-83.576299,35.827504],[-83.576351,35.827384],[-83.5764,35.827272],[-83.576408,35.827218],[-83.576432,35.827043],[-83.576431,35.826858],[-83.576446,35.826778],[-83.576463,35.826686],[-83.576513,35.826551],[-83.576633,35.826348],[-83.576673,35.82629],[-83.57681,35.826339],[-83.576867,35.826366],[-83.577003,35.826433],[-83.577079,35.82646],[-83.577276,35.826532],[-83.577461,35.826524],[-83.577696,35.826515],[-83.577916,35.826509],[-83.577991,35.826471],[-83.578221,35.826469],[-83.578428,35.826468],[-83.578615,35.826466],[-83.578674,35.826466],[-83.578827,35.82645],[-83.578987,35.826433],[-83.579034,35.82638],[-83.579034,35.826119],[-83.578834,35.826101],[-83.578612,35.826081],[-83.578421,35.826059],[-83.578194,35.826033],[-83.577937,35.826004],[-83.577632,35.825977],[-83.577387,35.825975],[-83.577141,35.825996],[-83.576911,35.82606],[-83.576749,35.826182],[-83.576673,35.82629],[-83.576633,35.826348],[-83.576513,35.826551],[-83.576463,35.826686],[-83.576431,35.826858],[-83.576432,35.827043],[-83.576408,35.827218],[-83.5764,35.827272],[-83.576351,35.827384],[-83.576299,35.827504],[-83.576172,35.827699],[-83.576071,35.827784],[-83.575931,35.827832],[-83.575749,35.827846],[-83.575485,35.827799],[-83.575217,35.827699],[-83.574883,35.82756],[-83.575004,35.827334],[-83.57524,35.826938],[-83.575358,35.826741],[-83.575666,35.8262],[-83.575827,35.825931],[-83.57616,35.82534],[-83.576577,35.824611],[-83.576797,35.824227],[-83.577179,35.823552],[-83.577271,35.823384],[-83.577372,35.823183],[-83.577431,35.82307],[-83.577727,35.822492],[-83.577798,35.822332],[-83.578057,35.821676],[-83.578138,35.82139],[-83.578218,35.821047],[-83.578305,35.820507],[-83.578309,35.820481],[-83.578339,35.820144],[-83.578355,35.819877],[-83.578361,35.819617],[-83.578362,35.819566],[-83.578358,35.819127],[-83.578341,35.818453],[-83.57834,35.818419],[-83.578332,35.818128],[-83.578325,35.817846],[-83.578291,35.816976],[-83.578285,35.816513],[-83.578274,35.816073],[-83.578256,35.815725],[-83.578254,35.815621],[-83.578249,35.815509],[-83.578242,35.81531],[-83.578221,35.814493],[-83.578213,35.814011],[-83.578409,35.813987],[-83.578687,35.813939],[-83.57884,35.813914],[-83.579703,35.81376],[-83.580185,35.813704],[-83.580647,35.813678],[-83.58108,35.813681],[-83.581296,35.813661],[-83.581469,35.813622],[-83.581322,35.813289],[-83.5816,35.81315],[-83.58186,35.8129],[-83.582211,35.81311],[-83.581971,35.81332],[-83.581756,35.813494],[-83.581469,35.813622],[-83.581296,35.813661],[-83.58108,35.813681],[-83.580647,35.813678],[-83.580185,35.813704],[-83.579703,35.81376],[-83.57884,35.813914],[-83.578409,35.813987],[-83.578213,35.814011],[-83.578207,35.813673],[-83.578198,35.813384],[-83.578161,35.812274],[-83.578163,35.812155],[-83.57812,35.810603],[-83.578107,35.810138],[-83.578102,35.809989],[-83.578099,35.809891],[-83.578036,35.809128],[-83.577974,35.808627],[-83.577958,35.808503],[-83.57794,35.808389],[-83.577842,35.807788],[-83.577717,35.80729],[-83.577711,35.807265],[-83.577519,35.80682],[-83.577357,35.806447],[-83.577335,35.806402],[-83.57709,35.805904],[-83.576845,35.805463],[-83.576508,35.804987],[-83.576347,35.804776],[-83.576108,35.804445],[-83.576037,35.804363],[-83.575947,35.804265],[-83.575675,35.803988],[-83.575645,35.803956],[-83.575077,35.803363],[-83.574838,35.803156],[-83.574177,35.802571],[-83.573615,35.802085],[-83.573393,35.801897],[-83.573288,35.801807],[-83.573015,35.801596],[-83.572711,35.801381],[-83.572556,35.801271],[-83.572286,35.80108],[-83.572175,35.801008],[-83.572041,35.800916],[-83.571571,35.800592],[-83.571311,35.800418],[-83.571059,35.80025],[-83.570393,35.799805],[-83.570051,35.799572],[-83.569506,35.7992],[-83.568766,35.798697],[-83.567611,35.797917],[-83.567337,35.797729],[-83.567154,35.797607],[-83.566436,35.79713],[-83.566389,35.797098],[-83.566152,35.796938],[-83.565336,35.796384],[-83.564456,35.795787],[-83.564362,35.795725],[-83.564179,35.795605],[-83.563753,35.795325],[-83.563495,35.795154],[-83.563365,35.795062],[-83.563032,35.794837],[-83.562684,35.7946],[-83.56247,35.794451],[-83.562268,35.79431],[-83.561472,35.793737],[-83.561349,35.793642],[-83.560923,35.793311],[-83.560442,35.792905],[-83.560341,35.792814],[-83.560159,35.792651],[-83.560038,35.792542],[-83.559752,35.792268],[-83.559616,35.792132],[-83.559514,35.79203],[-83.559447,35.791961],[-83.559437,35.791951],[-83.559414,35.791928],[-83.559288,35.791792],[-83.558965,35.791445],[-83.558938,35.791415],[-83.558732,35.791193],[-83.558512,35.790956],[-83.558401,35.790833],[-83.558336,35.790762],[-83.557427,35.789764],[-83.557347,35.789674],[-83.557194,35.789504],[-83.557057,35.789352],[-83.556714,35.788973],[-83.556573,35.788824],[-83.556454,35.788688],[-83.555935,35.788113],[-83.555801,35.78805],[-83.55568,35.788016],[-83.555583,35.788009],[-83.555409,35.788055],[-83.555312,35.788101],[-83.554697,35.788413],[-83.554656,35.788434],[-83.55447,35.788495],[-83.554319,35.788613],[-83.554057,35.788732],[-83.553748,35.788705],[-83.553455,35.788734],[-83.552997,35.788858],[-83.552827,35.788914],[-83.552568,35.789],[-83.551735,35.789297],[-83.551426,35.789393],[-83.55134,35.789249],[-83.550391,35.787668],[-83.550327,35.787457]]}},{"type":"Feature","properties":{"agency":"Pigeon Forge Mass Transit","shape_id":"6"},"geometry":{"type":"LineString","coordinates":[[-83.55126,35.789116],[-83.550391,35.787668],[-83.550327,35.787457],[-83.550405,35.787442],[-83.550439,35.787354],[-83.550416,35.787282],[-83.550326,35.787257],[-83.550255,35.787292],[-83.550236,35.78735],[-83.550244,35.787426],[-83.550327,35.787457],[-83.550391,35.787668],[-83.55134,35.789249],[-83.551426,35.789393],[-83.550619,35.789645],[-83.550387,35.789781],[-83.550271,35.789905],[-83.550498,35.790082],[-83.550699,35.790299],[-83.550752,35.79036],[-83.551002,35.790656],[-83.551409,35.791224],[-83.551686,35.791619],[-83.552023,35.792092],[-83.552367,35.792553],[-83.552673,35.792967],[-83.552915,35.793299],[-83.553099,35.793497],[-83.553304,35.793701],[-83.553566,35.793903],[-83.553892,35.794119],[-83.554127,35.794242],[-83.555246,35.794708],[-83.555778,35.794924],[-83.556076,35.795039],[-83.556314,35.795152],[-83.556535,35.795263],[-83.556817,35.795409],[-83.557003,35.795536],[-83.557026,35.795552],[-83.557133,35.795747],[-83.557758,35.796256],[-83.557819,35.796307],[-83.558106,35.796515],[-83.558605,35.796824],[-83.55914,35.797122],[-83.559979,35.797518],[-83.560231,35.797652],[-83.560339,35.797698],[-83.56131,35.798188],[-83.561563,35.798317],[-83.561841,35.798474],[-83.562152,35.798715],[-83.562405,35.798973],[-83.564477,35.801102],[-83.564614,35.801221],[-83.564916,35.801481],[-83.566237,35.802401],[-83.567461,35.803235],[-83.56778,35.803453],[-83.567641,35.803566],[-83.567145,35.803867],[-83.56714,35.803923],[-83.567451,35.804137],[-83.567523,35.804284],[-83.567538,35.804477],[-83.5676,35.804574],[-83.567891,35.804767],[-83.56795,35.804806],[-83.56834,35.805013],[-83.568864,35.805377],[-83.56906,35.805469],[-83.570406,35.806052],[-83.570577,35.806054],[-83.570692,35.806002],[-83.57089,35.805958],[-83.571034,35.805971],[-83.571163,35.806043],[-83.571209,35.806137],[-83.571223,35.806331],[-83.571291,35.80646],[-83.572487,35.806991],[-83.572601,35.80682],[-83.572753,35.806698],[-83.572908,35.806622],[-83.573124,35.806558],[-83.573454,35.807142],[-83.57409,35.808281],[-83.574186,35.808455],[-83.574563,35.809132],[-83.574921,35.809757],[-83.574935,35.809783],[-83.575156,35.810207],[-83.575305,35.810493],[-83.575462,35.810844],[-83.575487,35.810905],[-83.575575,35.811117],[-83.575701,35.811454],[-83.575791,35.811622],[-83.575921,35.811813],[-83.576071,35.811932],[-83.576264,35.812054],[-83.576404,35.812114],[-83.576584,35.81217],[-83.576827,35.81221],[-83.577609,35.812253],[-83.57793,35.812274],[-83.578161,35.812274],[-83.578163,35.812155],[-83.578149,35.811638],[-83.57812,35.810603],[-83.578102,35.809989],[-83.578099,35.809891],[-83.578057,35.809379],[-83.578036,35.809128],[-83.577974,35.808627],[-83.577958,35.808503],[-83.57794,35.808389],[-83.577842,35.807788],[-83.577717,35.80729],[-83.57788,35.807283],[-83.578187,35.807278],[-83.578354,35.807253],[-83.578491,35.807202],[-83.578673,35.807061],[-83.578828,35.806908],[-83.578925,35.806838],[-83.578943,35.806825],[-83.579092,35.806753],[-83.579235,35.806728],[-83.579248,35.806728],[-83.580083,35.806714],[-83.580164,35.806703],[-83.580214,35.806696],[-83.580338,35.806654],[-83.580359,35.806647],[-83.580441,35.806595],[-83.580505,35.806553],[-83.580625,35.806456],[-83.580788,35.806324],[-83.581098,35.806137],[-83.581414,35.805982],[-83.581517,35.805913],[-83.581647,35.805796],[-83.582284,35.805287],[-83.58316,35.804611],[-83.583207,35.804575],[-83.583793,35.804114],[-83.583979,35.804005],[-83.58389,35.80394],[-83.583563,35.803498],[-83.583081,35.802849],[-83.583294,35.802693],[-83.583733,35.802304],[-83.583867,35.802177],[-83.584181,35.80188],[-83.585486,35.800692],[-83.58617,35.800081],[-83.5886,35.797953],[-83.588741,35.798097],[-83.588834,35.798256],[-83.588845,35.798275],[-83.588864,35.798363],[-83.58885,35.798446],[-83.588784,35.798604],[-83.588599,35.798883],[-83.588488,35.79919],[-83.58847,35.799426],[-83.588507,35.799892],[-83.588536,35.80009],[-83.588565,35.800519],[-83.588915,35.801137],[-83.589218,35.801574],[-83.589263,35.801717],[-83.58901,35.801825],[-83.588754,35.801935],[-83.588657,35.802017],[-83.588657,35.80211],[-83.58868,35.802335],[-83.588873,35.803133],[-83.588925,35.803178],[-83.589104,35.80317],[-83.58939,35.803166],[-83.589386,35.803087],[-83.589199,35.802461],[-83.58901,35.801825],[-83.589263,35.801717],[-83.589218,35.801574],[-83.588915,35.801137],[-83.588779,35.800895],[-83.588565,35.800519],[-83.588536,35.80009],[-83.588507,35.799892],[-83.58847,35.799426],[-83.588488,35.79919],[-83.588599,35.798883],[-83.588784,35.798604],[-83.58885,35.798446],[-83.588864,35.798363],[-83.588845,35.798275],[-83.588834,35.798256],[-83.588741,35.798097],[-83.5886,35.797953],[-83.589105,35.7976],[-83.589836,35.797089],[-83.590724,35.796469],[-83.591024,35.79626],[-83.591892,35.795721],[-83.5924,35.795357],[-83.59258,35.795247],[-83.593527,35.794675],[-83.59391,35.794481],[-83.594243,35.794327],[-83.59443,35.794263],[-83.594776,35.794136],[-83.59506,35.794047],[-83.595325,35.793975],[-83.595653,35.793893],[-83.596002,35.793811],[-83.597029,35.793712],[-83.597818,35.793642],[-83.598234,35.793628],[-83.598713,35.793593],[-83.59918,35.793541],[-83.599599,35.793482],[-83.599855,35.793439],[-83.600091,35.793394],[-83.600519,35.793308],[-83.601357,35.793143],[-83.601697,35.793073],[-83.602065,35.792979],[-83.602281,35.792924],[-83.603152,35.792673],[-83.603634,35.792543],[-83.603961,35.792455],[-83.604101,35.792417],[-83.604405,35.792334],[-83.604754,35.792258],[-83.605561,35.792083],[-83.605683,35.792057],[-83.60789,35.79167],[-83.608745,35.791478],[-83.609012,35.791414],[-83.609389,35.79132],[-83.609697,35.791218],[-83.609946,35.791128],[-83.609971,35.791119],[-83.610184,35.791024],[-83.610398,35.79093],[-83.610631,35.790821],[-83.610907,35.790681],[-83.611149,35.790568],[-83.61127,35.790491],[-83.611885,35.790098],[-83.612815,35.789431],[-83.615361,35.787546],[-83.616286,35.786659],[-83.616464,35.786468],[-83.616833,35.786077],[-83.617169,35.78572],[-83.617287,35.785755],[-83.617362,35.78576],[-83.61742,35.785744],[-83.617453,35.785716],[-83.617466,35.785685],[-83.617471,35.785636],[-83.617455,35.785604],[-83.617417,35.785566],[-83.617361,35.785516],[-83.617561,35.78534],[-83.617875,35.78556],[-83.618082,35.785674],[-83.618234,35.785736],[-83.618473,35.785829],[-83.618626,35.785855],[-83.618871,35.785882],[-83.619177,35.785907],[-83.61935,35.785937],[-83.619528,35.785993],[-83.61982,35.78612],[-83.620297,35.786386],[-83.620365,35.786421],[-83.620844,35.786663],[-83.62112,35.786774],[-83.62142,35.78684],[-83.621927,35.786906],[-83.622615,35.786942],[-83.624037,35.787095],[-83.624862,35.787164],[-83.626067,35.787269],[-83.626286,35.787289],[-83.626606,35.787312],[-83.626679,35.787329],[-83.627157,35.787382],[-83.627792,35.787452],[-83.628507,35.787531],[-83.628687,35.787548],[-83.629257,35.787599],[-83.630299,35.787704],[-83.630879,35.787763],[-83.631129,35.787784],[-83.633541,35.788013],[-83.633618,35.788012],[-83.633792,35.786712],[-83.633858,35.786116],[-83.633852,35.785891],[-83.633813,35.785733],[-83.633772,35.785643],[-83.633504,35.785276],[-83.633333,35.7851],[-83.633233,35.78498],[-83.632928,35.784633],[-83.63273,35.784691],[-83.632535,35.784633],[-83.632473,35.784624],[-83.632335,35.784633],[-83.6313,35.78501],[-83.631358,35.785231],[-83.631421,35.785395],[-83.631521,35.785358],[-83.631872,35.785281],[-83.63257,35.78519],[-83.632694,35.785148],[-83.632742,35.785083],[-83.632766,35.784997],[-83.632746,35.784903],[-83.6327,35.784745],[-83.63273,35.784691],[-83.632928,35.784633],[-83.633233,35.78498],[-83.633333,35.7851],[-83.633504,35.785276],[-83.633772,35.785643],[-83.633813,35.785733],[-83.633852,35.785891],[-83.633858,35.786116],[-83.633792,35.786712],[-83.633618,35.788012],[-83.633541,35.788013],[-83.631129,35.787784],[-83.630879,35.787763],[-83.630299,35.787704],[-83.629257,35.787599],[-83.628687,35.787548],[-83.628507,35.787531],[-83.627792,35.787452],[-83.627822,35.787236],[-83.627449,35.787188],[-83.627185,35.787167],[-83.627157,35.787382],[-83.626679,35.787329],[-83.626606,35.787312],[-83.626286,35.787289],[-83.624862,35.787164],[-83.624037,35.787095],[-83.622615,35.786942],[-83.621927,35.786906],[-83.62142,35.78684],[-83.62112,35.786774],[-83.620844,35.786663],[-83.620365,35.786421],[-83.620297,35.786386],[-83.61982,35.78612],[-83.619528,35.785993],[-83.61935,35.785937],[-83.619177,35.785907],[-83.618871,35.785882],[-83.618626,35.785855],[-83.618473,35.785829],[-83.618234,35.785736],[-83.618082,35.785674],[-83.617875,35.78556],[-83.617561,35.78534],[-83.617361,35.785516],[-83.617169,35.78572],[-83.616833,35.786077],[-83.616464,35.786468],[-83.616286,35.786659],[-83.615361,35.787546],[-83.612815,35.789431],[-83.612497,35.789659],[-83.611885,35.790098],[-83.61127,35.790491],[-83.611149,35.790568],[-83.610907,35.790681],[-83.610631,35.790821],[-83.610398,35.79093],[-83.610184,35.791024],[-83.609971,35.791119],[-83.609946,35.791128],[-83.609697,35.791218],[-83.609389,35.79132],[-83.609012,35.791414],[-83.60789,35.79167],[-83.605683,35.792057],[-83.605561,35.792083],[-83.604754,35.792258],[-83.604405,35.792334],[-83.604101,35.792417],[-83.603961,35.792455],[-83.603152,35.792673],[-83.602281,35.792924],[-83.602065,35.792979],[-83.601697,35.793073],[-83.601357,35.793143],[-83.600519,35.793308],[-83.600091,35.793394],[-83.599855,35.793439],[-83.599599,35.793482],[-83.59918,35.793541],[-83.598713,35.793593],[-83.598234,35.793628],[-83.597818,35.793642],[-83.597029,35.793712],[-83.596002,35.793811],[-83.595653,35.793893],[-83.595325,35.793975],[-83.59506,35.794047],[-83.594776,35.794136],[-83.59443,35.794263],[-83.594243,35.794327],[-83.59391,35.794481],[-83.593527,35.794675],[-83.59258,35.795247],[-83.5924,35.795357],[-83.591892,35.795721],[-83.591024,35.79626],[-83.590724,35.796469],[-83.589646,35.797221],[-83.589105,35.7976],[-83.5886,35.797953],[-83.58617,35.800081],[-83.585486,35.800692],[-83.584181,35.80188],[-83.583733,35.802304],[-83.583294,35.802693],[-83.583081,35.802849],[-83.583782,35.803794],[-83.58389,35.80394],[-83.583979,35.804005],[-83.583793,35.804114],[-83.583207,35.804575],[-83.58316,35.804611],[-83.582284,35.805287],[-83.581647,35.805796],[-83.581517,35.805913],[-83.581414,35.805982],[-83.581098,35.806137],[-83.580788,35.806324],[-83.580625,35.806456],[-83.580505,35.806553],[-83.580441,35.806595],[-83.580359,35.806647],[-83.580338,35.806654],[-83.580214,35.806696],[-83.580164,35.806703],[-83.580083,35.806714],[-83.579235,35.806728],[-83.579092,35.806753],[-83.578943,35.806825],[-83.578925,35.806838],[-83.578828,35.806908],[-83.578673,35.807061],[-83.578491,35.807202],[-83.578673,35.807061],[-83.578491,35.807202],[-83.578354,35.807253],[-83.578187,35.807278],[-83.57788,35.807283],[-83.577717,35.80729],[-83.577473,35.807317],[-83.577575,35.807705],[-83.577622,35.807912],[-83.577628,35.807941],[-83.577694,35.808314],[-83.57775,35.808633],[-83.577816,35.809155],[-83.577861,35.809746],[-83.577888,35.810603],[-83.5779,35.810976],[-83.577914,35.811608],[-83.577926,35.812153],[-83.577719,35.812142],[-83.577439,35.812129],[-83.576888,35.812103],[-83.576692,35.812072],[-83.576675,35.81207],[-83.57647299999998,35.812014],[-83.576309,35.811931],[-83.576145,35.811827],[-83.576057,35.811741],[-83.575991,35.811677],[-83.575889,35.811522],[-83.575785,35.811254],[-83.575678,35.81097],[-83.575553,35.810691],[-83.575449,35.810458],[-83.57505,35.809713],[-83.574694,35.80908],[-83.574323,35.808411],[-83.573949,35.807736],[-83.573548,35.80701],[-83.573332,35.806635],[-83.573256,35.806505],[-83.572808,35.80592],[-83.57264,35.805814],[-83.572458,35.805704],[-83.572203,35.80558],[-83.57189,35.805511],[-83.57131,35.805369],[-83.570858,35.805277],[-83.570546,35.805146],[-83.569889,35.804707],[-83.567899,35.803377],[-83.56778,35.803453],[-83.567641,35.803566],[-83.567145,35.803867],[-83.56713,35.803893],[-83.56714,35.803923],[-83.567451,35.804137],[-83.567505,35.804205],[-83.567523,35.804284],[-83.567538,35.804477],[-83.5676,35.804574],[-83.567891,35.804767],[-83.56795,35.804806],[-83.56834,35.805013],[-83.568864,35.805377],[-83.56906,35.805469],[-83.570406,35.806052],[-83.570577,35.806054],[-83.570692,35.806002],[-83.57089,35.805958],[-83.571034,35.805971],[-83.571163,35.806043],[-83.571209,35.806137],[-83.571223,35.806331],[-83.571291,35.80646],[-83.572487,35.806991],[-83.572601,35.80682],[-83.572753,35.806698],[-83.572908,35.806622],[-83.573124,35.806558],[-83.573256,35.806505],[-83.572808,35.80592],[-83.57264,35.805814],[-83.572458,35.805704],[-83.572203,35.80558],[-83.57189,35.805511],[-83.57131,35.805369],[-83.570858,35.805277],[-83.570546,35.805146],[-83.569889,35.804707],[-83.567899,35.803377],[-83.567399,35.803042],[-83.566887,35.802701],[-83.564939,35.801326],[-83.564713,35.801144],[-83.564984,35.800918],[-83.5653,35.800787],[-83.565538,35.80075],[-83.565756,35.800759],[-83.565954,35.80081],[-83.565992,35.800722],[-83.566006,35.800654],[-83.565992,35.800578],[-83.565942,35.800511],[-83.565885,35.800476],[-83.565797,35.800465],[-83.565627,35.800482],[-83.56553099999998,35.800486],[-83.565437,35.800474],[-83.565338,35.800431],[-83.565196,35.800321],[-83.565364,35.800178],[-83.56479,35.799733],[-83.563774,35.798944],[-83.563715,35.798899],[-83.563545,35.799043],[-83.563313,35.798863],[-83.562813,35.799196],[-83.562406,35.798785],[-83.562178,35.798572],[-83.561877,35.798349],[-83.56158,35.798193],[-83.561234,35.798023],[-83.560288,35.797568],[-83.559917,35.797377],[-83.559844,35.797339],[-83.559369,35.797094],[-83.558928,35.796867],[-83.558545,35.796656],[-83.55836,35.796531],[-83.558205,35.796427],[-83.557587,35.795938],[-83.557236,35.795664],[-83.557026,35.795552],[-83.556817,35.795409],[-83.556535,35.795263],[-83.556314,35.795152],[-83.556076,35.795039],[-83.555778,35.794924],[-83.555246,35.794708],[-83.554127,35.794242],[-83.553892,35.794119],[-83.553566,35.793903],[-83.553304,35.793702],[-83.553099,35.793497],[-83.552915,35.793299],[-83.552673,35.792967],[-83.552367,35.792553],[-83.552023,35.792092],[-83.551686,35.791619],[-83.551409,35.791224],[-83.551002,35.790656],[-83.550699,35.790299],[-83.550498,35.790082],[-83.550271,35.789905],[-83.550387,35.789781],[-83.550619,35.789645],[-83.551426,35.789393],[-83.55134,35.789249],[-83.550391,35.787668],[-83.550327,35.787457]]}},{"type":"Feature","properties":{"agency":"Pigeon Forge Mass Transit","shape_id":"7"},"geometry":{"type":"LineString","coordinates":[[-83.570081,35.832398],[-83.569873,35.832376],[-83.569802,35.832399],[-83.569712,35.83245],[-83.56927,35.832701],[-83.569174,35.832756],[-83.569242,35.832822],[-83.569523,35.833112],[-83.570007,35.833614],[-83.570266,35.833882],[-83.570366,35.834036],[-83.570425,35.834323],[-83.570917,35.834375],[-83.571348,35.834422],[-83.571635,35.834453],[-83.572314,35.834526],[-83.571844,35.835478],[-83.571559,35.836061],[-83.571512,35.836183],[-83.571322,35.836677],[-83.571069,35.837456],[-83.571014,35.83784],[-83.570946,35.838308],[-83.569971,35.838276],[-83.569654,35.838267],[-83.5695,35.838262],[-83.569255,35.838258],[-83.568051,35.838184],[-83.566859,35.838117],[-83.566882,35.837283],[-83.566587,35.83731],[-83.566595,35.836737],[-83.566896,35.836789],[-83.566882,35.837283],[-83.566859,35.838117],[-83.565759,35.838114],[-83.565643,35.838131],[-83.564795,35.838258],[-83.564557,35.838294],[-83.563927,35.838365],[-83.563599,35.838403],[-83.562983,35.838473],[-83.562413,35.838345],[-83.562325,35.838299],[-83.562002,35.838133],[-83.561591,35.837697],[-83.561573,35.837631],[-83.561549,35.837549],[-83.561407,35.837052],[-83.561297,35.836806],[-83.561101,35.836586],[-83.560857,35.83644],[-83.560594,35.836338],[-83.560322,35.836319],[-83.559961,35.836356],[-83.559515,35.836444],[-83.558941,35.836545],[-83.558107,35.83671],[-83.558055,35.83672],[-83.557443,35.836849],[-83.556056,35.837145],[-83.555522,35.837413],[-83.554234,35.83811],[-83.553863,35.838242],[-83.55354,35.838317],[-83.553257,35.838353],[-83.552847,35.838325],[-83.552224,35.838191],[-83.55186,35.83802],[-83.55145,35.837837],[-83.550431,35.837416],[-83.549814,35.837265],[-83.549542,35.837229],[-83.549267,35.837225],[-83.548279,35.837212],[-83.547164,35.837192],[-83.546364,35.837215],[-83.546142,35.83722],[-83.546135,35.837612],[-83.545964,35.837582],[-83.545819,35.837544],[-83.54574,35.837424],[-83.545777,35.837283],[-83.545818,35.837161],[-83.54589,35.837187],[-83.546001,35.837214],[-83.546142,35.83722],[-83.546364,35.837215],[-83.547164,35.837192],[-83.548279,35.837212],[-83.549267,35.837225],[-83.549542,35.837229],[-83.549814,35.837265],[-83.550431,35.837416],[-83.55145,35.837837],[-83.5514,35.83796],[-83.55157,35.83813],[-83.55168,35.83818],[-83.55186,35.83802],[-83.552224,35.838191],[-83.552847,35.838325],[-83.553257,35.838353],[-83.55354,35.838317],[-83.553863,35.838242],[-83.554234,35.83811],[-83.555522,35.837413],[-83.556056,35.837145],[-83.557443,35.836849],[-83.558055,35.83672],[-83.558107,35.83671],[-83.558941,35.836545],[-83.558948,35.836543],[-83.559515,35.836444],[-83.559961,35.836356],[-83.560322,35.836319],[-83.560594,35.836338],[-83.560857,35.83644],[-83.561101,35.836586],[-83.561297,35.836806],[-83.561407,35.837052],[-83.561549,35.837549],[-83.561591,35.837697],[-83.562002,35.838133],[-83.562325,35.838299],[-83.562413,35.838345],[-83.562983,35.838473],[-83.563599,35.838403],[-83.563927,35.838365],[-83.564557,35.838294],[-83.564795,35.838258],[-83.565643,35.838131],[-83.565759,35.838114],[-83.566859,35.838117],[-83.568051,35.838184],[-83.569255,35.838258],[-83.5695,35.838262],[-83.569654,35.838267],[-83.569971,35.838276],[-83.570946,35.838308],[-83.571165,35.838321],[-83.571819,35.838325],[-83.572291,35.838186],[-83.572358,35.83813],[-83.573165,35.837923],[-83.57313,35.837832],[-83.573083,35.837803],[-83.573024,35.837767],[-83.572679,35.837861],[-83.572358,35.83813],[-83.572291,35.838186],[-83.571819,35.838325],[-83.571165,35.838321],[-83.571208,35.837988],[-83.571224,35.837882],[-83.571271,35.837571],[-83.571374,35.83718],[-83.571473,35.836821],[-83.57158,35.836546],[-83.571702,35.836247],[-83.571845,35.835968],[-83.571924,35.835811],[-83.572189,35.835238],[-83.572339,35.834959],[-83.572386,35.834872],[-83.572542,35.83456],[-83.572683,35.834205],[-83.572716,35.834104],[-83.572833,35.833747],[-83.572999,35.833228],[-83.57313,35.83274],[-83.573252,35.83224],[-83.573367,35.831732],[-83.573513,35.831081],[-83.573541,35.830958],[-83.573664,35.830447],[-83.573727,35.830185],[-83.573954,35.829475],[-83.574118,35.829031],[-83.574336,35.828585],[-83.574543,35.828174],[-83.574597,35.828066],[-83.574883,35.82756],[-83.575217,35.827699],[-83.575485,35.827799],[-83.575749,35.827846],[-83.575931,35.827832],[-83.576071,35.827784],[-83.576172,35.827699],[-83.576299,35.827504],[-83.576351,35.827384],[-83.5764,35.827272],[-83.576408,35.827218],[-83.576432,35.827043],[-83.576431,35.826858],[-83.576446,35.826778],[-83.576463,35.826686],[-83.576513,35.826551],[-83.576633,35.826348],[-83.576673,35.82629],[-83.57681,35.826339],[-83.576867,35.826366],[-83.577003,35.826433],[-83.577079,35.82646],[-83.577276,35.826532],[-83.577461,35.826524],[-83.577696,35.826515],[-83.577916,35.826509],[-83.577991,35.826471],[-83.578221,35.826469],[-83.578428,35.826468],[-83.578615,35.826466],[-83.578674,35.826466],[-83.578827,35.82645],[-83.578987,35.826433],[-83.579034,35.82638],[-83.579034,35.826119],[-83.578834,35.826101],[-83.578612,35.826081],[-83.578421,35.826059],[-83.578194,35.826033],[-83.577937,35.826004],[-83.577632,35.825977],[-83.577387,35.825975],[-83.577141,35.825996],[-83.576911,35.82606],[-83.576749,35.826182],[-83.576673,35.82629],[-83.576633,35.826348],[-83.576513,35.826551],[-83.576463,35.826686],[-83.576431,35.826858],[-83.576432,35.827043],[-83.576408,35.827218],[-83.5764,35.827272],[-83.576351,35.827384],[-83.576299,35.827504],[-83.576172,35.827699],[-83.576071,35.827784],[-83.575931,35.827832],[-83.575749,35.827846],[-83.575485,35.827799],[-83.575217,35.827699],[-83.574883,35.82756],[-83.575004,35.827334],[-83.57524,35.826938],[-83.575358,35.826741],[-83.575666,35.8262],[-83.575827,35.825931],[-83.57616,35.82534],[-83.576577,35.824611],[-83.576797,35.824227],[-83.577179,35.823552],[-83.577271,35.823384],[-83.577372,35.823183],[-83.577431,35.82307],[-83.577727,35.822492],[-83.577798,35.822332],[-83.578057,35.821676],[-83.578138,35.82139],[-83.578218,35.821047],[-83.578305,35.820507],[-83.578309,35.820481],[-83.578339,35.820144],[-83.578355,35.819877],[-83.578361,35.819617],[-83.578362,35.819566],[-83.578358,35.819127],[-83.578341,35.818453],[-83.57834,35.818419],[-83.578332,35.818128],[-83.578325,35.817846],[-83.578291,35.816976],[-83.578285,35.816513],[-83.578274,35.816073],[-83.578256,35.815725],[-83.578254,35.815621],[-83.578249,35.815509],[-83.578242,35.81531],[-83.578221,35.814493],[-83.578213,35.814011],[-83.578409,35.813987],[-83.578687,35.813939],[-83.57884,35.813914],[-83.579703,35.81376],[-83.580185,35.813704],[-83.580647,35.813678],[-83.58108,35.813681],[-83.581296,35.813661],[-83.581469,35.813622],[-83.581322,35.813289],[-83.5816,35.81315],[-83.58186,35.8129],[-83.582211,35.81311],[-83.581971,35.81332],[-83.581756,35.813494],[-83.581469,35.813622],[-83.581296,35.813661],[-83.58108,35.813681],[-83.580647,35.813678],[-83.580185,35.813704],[-83.579703,35.81376],[-83.57884,35.813914],[-83.578409,35.813987],[-83.578213,35.814011],[-83.578207,35.813673],[-83.578198,35.813384],[-83.578161,35.812274],[-83.578163,35.812155],[-83.57812,35.810603],[-83.578107,35.810138],[-83.578102,35.809989],[-83.578099,35.809891],[-83.578036,35.809128],[-83.577974,35.808627],[-83.577958,35.808503],[-83.57794,35.808389],[-83.577842,35.807788],[-83.577717,35.80729],[-83.577711,35.807265],[-83.577519,35.80682],[-83.577357,35.806447],[-83.577335,35.806402],[-83.57709,35.805904],[-83.576845,35.805463],[-83.576508,35.804987],[-83.576347,35.804776],[-83.576108,35.804445],[-83.576037,35.804363],[-83.575947,35.804265],[-83.575675,35.803988],[-83.575645,35.803956],[-83.575077,35.803363],[-83.574838,35.803156],[-83.574177,35.802571],[-83.573615,35.802085],[-83.573393,35.801897],[-83.573288,35.801807],[-83.573015,35.801596],[-83.572711,35.801381],[-83.572556,35.801271],[-83.572286,35.80108],[-83.572175,35.801008],[-83.572041,35.800916],[-83.571571,35.800592],[-83.571311,35.800418],[-83.571059,35.80025],[-83.570393,35.799805],[-83.570051,35.799572],[-83.569506,35.7992],[-83.568766,35.798697],[-83.567611,35.797917],[-83.567337,35.797729],[-83.567154,35.797607],[-83.566436,35.79713],[-83.566389,35.797098],[-83.566152,35.796938],[-83.565336,35.796384],[-83.564456,35.795787],[-83.564362,35.795725],[-83.564179,35.795605],[-83.563753,35.795325],[-83.563495,35.795154],[-83.563365,35.795062],[-83.563032,35.794837],[-83.562684,35.7946],[-83.56247,35.794451],[-83.562268,35.79431],[-83.561472,35.793737],[-83.561349,35.793642],[-83.560923,35.793311],[-83.560442,35.792905],[-83.560341,35.792814],[-83.560159,35.792651],[-83.560038,35.792542],[-83.559752,35.792268],[-83.559616,35.792132],[-83.559514,35.79203],[-83.559447,35.791961],[-83.559437,35.791951],[-83.559414,35.791928],[-83.559288,35.791792],[-83.558965,35.791445],[-83.558938,35.791415],[-83.558732,35.791193],[-83.558512,35.790956],[-83.558401,35.790833],[-83.558336,35.790762],[-83.557427,35.789764],[-83.557347,35.789674],[-83.557194,35.789504],[-83.557057,35.789352],[-83.556714,35.788973],[-83.556573,35.788824],[-83.556454,35.788688],[-83.555935,35.788113],[-83.555801,35.78805],[-83.55568,35.788016],[-83.555583,35.788009],[-83.555409,35.788055],[-83.555019,35.788251],[-83.554656,35.788434],[-83.554507,35.7885],[-83.554382,35.788579],[-83.55422,35.788675],[-83.554034,35.788712],[-83.553748,35.788739],[-83.55346,35.788733],[-83.55305,35.78885],[-83.552827,35.788914],[-83.55273,35.788942],[-83.552568,35.789],[-83.551735,35.789297],[-83.551426,35.789393],[-83.55134,35.789249],[-83.550391,35.787668],[-83.550327,35.787457]]}},{"type":"Feature","properties":{"agency":"Pigeon Forge Mass Transit","shape_id":"8"},"geometry":{"type":"LineString","coordinates":[[-83.577684,35.826515],[-83.577696,35.826515],[-83.577916,35.826509],[-83.577991,35.826471],[-83.578221,35.826469],[-83.578428,35.826468],[-83.578615,35.826466],[-83.578674,35.826466],[-83.578827,35.82645],[-83.578987,35.826433],[-83.579034,35.82638],[-83.579034,35.826119],[-83.578834,35.826101],[-83.578612,35.826081],[-83.578421,35.826059],[-83.578194,35.826033],[-83.577937,35.826004],[-83.577632,35.825977],[-83.577387,35.825975],[-83.577141,35.825996],[-83.576911,35.82606],[-83.576749,35.826182],[-83.576673,35.82629],[-83.576633,35.826348],[-83.576513,35.826551],[-83.576463,35.826686],[-83.576431,35.826858],[-83.576432,35.827043],[-83.576408,35.827218],[-83.5764,35.827272],[-83.576351,35.827384],[-83.576299,35.827504],[-83.576172,35.827699],[-83.576071,35.827784],[-83.575931,35.827832],[-83.575749,35.827846],[-83.575485,35.827799],[-83.575217,35.827699],[-83.574883,35.82756],[-83.575004,35.827334],[-83.57524,35.826938],[-83.575358,35.826741],[-83.575666,35.8262],[-83.575827,35.825931],[-83.57616,35.82534],[-83.576577,35.824611],[-83.576797,35.824227],[-83.577179,35.823552],[-83.577271,35.823384],[-83.577372,35.823183],[-83.577431,35.82307],[-83.577727,35.822492],[-83.577798,35.822332],[-83.578057,35.821676],[-83.578138,35.82139],[-83.578218,35.821047],[-83.578305,35.820507],[-83.578309,35.820481],[-83.578339,35.820144],[-83.578355,35.819877],[-83.578361,35.819617],[-83.578362,35.819566],[-83.578358,35.819127],[-83.578341,35.818453],[-83.57834,35.818419],[-83.578332,35.818128],[-83.578325,35.817846],[-83.578291,35.816976],[-83.578285,35.816513],[-83.578274,35.816073],[-83.578256,35.815725],[-83.578254,35.815621],[-83.578249,35.815509],[-83.578242,35.81531],[-83.578221,35.814493],[-83.578213,35.814011],[-83.578409,35.813987],[-83.578687,35.813939],[-83.57884,35.813914],[-83.579703,35.81376],[-83.580185,35.813704],[-83.580647,35.813678],[-83.58108,35.813681],[-83.581296,35.813661],[-83.581469,35.813622],[-83.581322,35.813289],[-83.5816,35.81315],[-83.581687,35.813066],[-83.58186,35.8129],[-83.582211,35.81311],[-83.581971,35.81332],[-83.581756,35.813494],[-83.581469,35.813622],[-83.581296,35.813661],[-83.58108,35.813681],[-83.580647,35.813678],[-83.580185,35.813704],[-83.579703,35.81376],[-83.57884,35.813914],[-83.578409,35.813987],[-83.578213,35.814011],[-83.578207,35.813673],[-83.578198,35.813384],[-83.578161,35.812274],[-83.578163,35.812155],[-83.57812,35.810603],[-83.578107,35.810138],[-83.578102,35.809989],[-83.578099,35.809891],[-83.578036,35.809128],[-83.577974,35.808627],[-83.577958,35.808503],[-83.57794,35.808389],[-83.577842,35.807788],[-83.577717,35.80729],[-83.577711,35.807265],[-83.577519,35.80682],[-83.577357,35.806447],[-83.577335,35.806402],[-83.57709,35.805904],[-83.576845,35.805463],[-83.576508,35.804987],[-83.576347,35.804776],[-83.576108,35.804445],[-83.576037,35.804363],[-83.575947,35.804265],[-83.575675,35.803988],[-83.575645,35.803956],[-83.575077,35.803363],[-83.574838,35.803156],[-83.574177,35.802571],[-83.573615,35.802085],[-83.573393,35.801897],[-83.573288,35.801807],[-83.573015,35.801596],[-83.572711,35.801381],[-83.572556,35.801271],[-83.572286,35.80108],[-83.572175,35.801008],[-83.572041,35.800916],[-83.571571,35.800592],[-83.571311,35.800418],[-83.571059,35.80025],[-83.570393,35.799805],[-83.570051,35.799572],[-83.569506,35.7992],[-83.568766,35.798697],[-83.567611,35.797917],[-83.567337,35.797729],[-83.567154,35.797607],[-83.566436,35.79713],[-83.566389,35.797098],[-83.566152,35.796938],[-83.565336,35.796384],[-83.564456,35.795787],[-83.564362,35.795725],[-83.564179,35.795605],[-83.563753,35.795325],[-83.563495,35.795154],[-83.563365,35.795062],[-83.563032,35.794837],[-83.562684,35.7946],[-83.56247,35.794451],[-83.562268,35.79431],[-83.561472,35.793737],[-83.561349,35.793642],[-83.560923,35.793311],[-83.560442,35.792905],[-83.560341,35.792814],[-83.560159,35.792651],[-83.560038,35.792542],[-83.559752,35.792268],[-83.559616,35.792132],[-83.559514,35.79203],[-83.559447,35.791961],[-83.559437,35.791951],[-83.559414,35.791928],[-83.559288,35.791792],[-83.558965,35.791445],[-83.558938,35.791415],[-83.558732,35.791193],[-83.558512,35.790956],[-83.558401,35.790833],[-83.558336,35.790762],[-83.557427,35.789764],[-83.557347,35.789674],[-83.557194,35.789504],[-83.557057,35.789352],[-83.556714,35.788973],[-83.556573,35.788824],[-83.556454,35.788688],[-83.555935,35.788113],[-83.555801,35.78805],[-83.55568,35.788016],[-83.555635,35.788013],[-83.555583,35.788009],[-83.555409,35.788055],[-83.555019,35.788251],[-83.554656,35.788434],[-83.554507,35.7885],[-83.554382,35.788579],[-83.55422,35.788675],[-83.554034,35.788712],[-83.553748,35.788739],[-83.55346,35.788733],[-83.55305,35.78885],[-83.552827,35.788914],[-83.55273,35.788942],[-83.552568,35.789],[-83.551735,35.789297],[-83.551426,35.789393],[-83.55134,35.789249],[-83.550391,35.787668],[-83.550327,35.787457]]}}]}