{"type":"FeatureCollection","features":[{"type":"Feature","properties":{"agency":"Prairie Express Transit","shape_id":"p_915138"},"geometry":{"type":"LineString","coordinates":[[-103.220873,40.612052],[-103.220812,40.612062],[-103.220769,40.612059],[-103.220745,40.612019],[-103.220719,40.611203],[-103.219725,40.611224],[-103.21971,40.610664],[-103.217851,40.610725],[-103.217404,40.610733],[-103.216571,40.610747],[-103.21603,40.61075],[-103.215634,40.610748],[-103.214771,40.610745],[-103.214653,40.610912],[-103.214538,40.611067],[-103.214559,40.611686],[-103.214514,40.612026],[-103.214524,40.612826],[-103.214554,40.613793],[-103.214589,40.614746],[-103.214624,40.615709],[-103.21464,40.616192],[-103.214656,40.616664],[-103.214672,40.617149],[-103.214693,40.617631],[-103.214707,40.618091],[-103.214718,40.618645],[-103.214734,40.619126],[-103.214758,40.619602],[-103.214771,40.620079],[-103.214785,40.620572],[-103.214836,40.621534],[-103.214849,40.622487],[-103.214879,40.623185],[-103.214892,40.623301],[-103.214967,40.623434],[-103.214844,40.623444],[-103.214334,40.623462],[-103.21392,40.623469],[-103.213921,40.62347],[-103.213646,40.623474],[-103.213234,40.623482],[-103.211739,40.623508],[-103.211502,40.62352],[-103.211411,40.623528],[-103.211357,40.62352],[-103.211243,40.623482],[-103.21106,40.623402],[-103.210785,40.623283],[-103.210564,40.623188],[-103.210464,40.623146],[-103.210037,40.622971],[-103.209274,40.622654],[-103.20887,40.623222],[-103.208427,40.62381],[-103.207993,40.624409],[-103.207535,40.625038],[-103.207077,40.625607],[-103.206757,40.626049],[-103.206665,40.626175],[-103.206406,40.626064],[-103.204514,40.625275],[-103.204117,40.625107],[-103.201393,40.623943],[-103.199089,40.622967],[-103.19709,40.622143],[-103.196526,40.621906],[-103.194466,40.621056],[-103.190742,40.619537],[-103.189995,40.619236],[-103.189369,40.619003],[-103.18927,40.618969],[-103.189087,40.6189],[-103.18882,40.618813],[-103.188515,40.618725],[-103.188217,40.618649],[-103.187828,40.618557],[-103.187439,40.618488],[-103.187042,40.618423],[-103.186638,40.618374],[-103.186211,40.618328],[-103.185738,40.618294],[-103.185349,40.618286],[-103.184814,40.61829],[-103.184555,40.618301],[-103.184235,40.618317],[-103.183739,40.618359],[-103.183258,40.618412],[-103.18306,40.618443],[-103.182777,40.618488],[-103.182404,40.618565],[-103.18203,40.618641],[-103.181831,40.618683],[-103.181427,40.618744],[-103.177597,40.619804],[-103.176048,40.620243],[-103.171135,40.621632],[-103.170967,40.621677],[-103.170433,40.621819],[-103.169495,40.622082],[-103.16935,40.622131],[-103.169144,40.622257],[-103.16906,40.622047],[-103.168259,40.620361],[-103.167503,40.618816],[-103.167442,40.618694],[-103.167274,40.618389],[-103.167068,40.61808],[-103.166824,40.617764],[-103.166534,40.617447],[-103.166214,40.617142],[-103.16584,40.616848],[-103.165489,40.6166],[-103.165154,40.616398],[-103.164848,40.616238],[-103.16452,40.616081],[-103.164139,40.615921],[-103.16378,40.615791],[-103.163376,40.615658],[-103.160706,40.614834],[-103.160701,40.614831],[-103.163375,40.615658],[-103.163778,40.61579],[-103.16414,40.61592],[-103.164523,40.616083],[-103.164848,40.616237],[-103.165155,40.616399],[-103.165492,40.616601],[-103.165843,40.616849],[-103.166213,40.617143],[-103.166532,40.617448],[-103.166823,40.617764],[-103.167071,40.618082],[-103.167276,40.618388],[-103.167441,40.618692],[-103.167503,40.618816],[-103.168258,40.620362],[-103.169059,40.622048],[-103.169142,40.622256],[-103.169425,40.622214],[-103.170629,40.621898],[-103.171018,40.621787],[-103.17159,40.621632],[-103.172712,40.621309],[-103.173448,40.621089],[-103.176106,40.620351],[-103.17934,40.619462],[-103.180639,40.619091],[-103.181022,40.618976],[-103.181391,40.618858],[-103.181625,40.61877],[-103.18183,40.618682],[-103.182028,40.618641],[-103.182403,40.618564],[-103.182429,40.618559],[-103.182779,40.618488],[-103.182878,40.618472],[-103.18306,40.618444],[-103.18326,40.618412],[-103.183735,40.618357],[-103.184237,40.618317],[-103.184555,40.618303],[-103.184815,40.618291],[-103.185347,40.618284],[-103.18574,40.618295],[-103.186208,40.618327],[-103.186639,40.618372],[-103.187041,40.618424],[-103.187441,40.618487],[-103.187826,40.618556],[-103.188216,40.618649],[-103.188514,40.618723],[-103.188822,40.618813],[-103.189088,40.618901],[-103.189274,40.618967],[-103.189371,40.619002],[-103.189995,40.619237],[-103.190743,40.619536],[-103.194466,40.621055],[-103.197089,40.622142],[-103.199092,40.622965],[-103.20139,40.623943],[-103.204514,40.625274],[-103.206403,40.626064],[-103.206663,40.626176],[-103.206571,40.626306],[-103.206207,40.626823],[-103.205832,40.627331],[-103.205596,40.627641],[-103.20539,40.627904],[-103.205077,40.628335],[-103.204965,40.62849],[-103.204532,40.629071],[-103.204128,40.629643],[-103.203275,40.630794],[-103.202378,40.631993],[-103.202141,40.632317],[-103.201997,40.63249],[-103.201877,40.632602],[-103.201766,40.632706],[-103.201632,40.632808],[-103.201455,40.632907],[-103.201262,40.632987],[-103.200735,40.633158],[-103.200369,40.633182],[-103.200365,40.633383],[-103.200193,40.633389],[-103.200032,40.633406],[-103.199871,40.633426],[-103.199728,40.63345],[-103.199574,40.633489],[-103.199426,40.633531],[-103.199263,40.633591],[-103.199055,40.633672],[-103.198884,40.633756],[-103.198746,40.633843],[-103.198622,40.633945],[-103.198515,40.63406],[-103.19804881510436,40.63466689643647],[-103.198528082446,40.63469542232522],[-103.1985363244846,40.634694820215],[-103.19881458896948,40.634690719869184],[-103.19878216980588,40.6343893427009],[-103.19876866182064,40.63422737753831],[-103.19857684843628,40.63423557831516],[-103.1985903564215,40.63469277004947],[-103.19839854303716,40.63468456932827],[-103.19804708024212,40.634664067520674],[-103.198262,40.634402],[-103.198515,40.63406],[-103.198622,40.633945],[-103.198746,40.633843],[-103.198884,40.633756],[-103.199055,40.633672],[-103.199263,40.633591],[-103.199426,40.633531],[-103.199574,40.633489],[-103.199728,40.63345],[-103.199871,40.633426],[-103.200032,40.633406],[-103.200193,40.633389],[-103.200365,40.633383],[-103.200369,40.633182],[-103.200735,40.633158],[-103.202181,40.633089],[-103.202197,40.63361],[-103.20222,40.634132],[-103.202233,40.634609],[-103.202263,40.63517],[-103.202305,40.636227],[-103.2023,40.636483],[-103.202378,40.637094],[-103.202381,40.637266],[-103.202412,40.637749],[-103.202426,40.638258],[-103.202429,40.638382],[-103.202439,40.638679],[-103.202469,40.639406],[-103.202498,40.640257],[-103.202522,40.64045],[-103.202552,40.641704],[-103.203796,40.64169],[-103.20381,40.642182],[-103.203826,40.642262],[-103.203847,40.642329],[-103.203893,40.642396],[-103.203962,40.642463],[-103.204056,40.642514],[-103.204182,40.642546],[-103.204325,40.642553],[-103.204802,40.642546],[-103.205766,40.642516],[-103.206751,40.64249],[-103.207792,40.642484],[-103.207797,40.64273],[-103.2078,40.643037],[-103.207804,40.64324],[-103.2078,40.643037],[-103.207797,40.64273],[-103.207792,40.642484],[-103.207776,40.64145],[-103.207757,40.640573],[-103.206643,40.640591],[-103.205749,40.640609],[-103.204772,40.640623],[-103.204646,40.640611],[-103.203895,40.640462],[-103.20378,40.640442],[-103.203665,40.640432],[-103.203394,40.640436],[-103.202522,40.64045],[-103.202498,40.640257],[-103.202469,40.639406],[-103.202439,40.638679],[-103.202429,40.638382],[-103.203941,40.63835],[-103.204439,40.638336],[-103.205851,40.638295],[-103.205814,40.637756],[-103.205779,40.636966],[-103.205771,40.636572],[-103.205754,40.636136],[-103.205742,40.635619],[-103.205727,40.635086],[-103.205692,40.634564],[-103.205671,40.634045],[-103.205655,40.633534],[-103.205638,40.632999],[-103.2058344520286,40.632832702980295],[-103.20583587985313,40.63283603818422],[-103.20591559375345,40.63264807212775],[-103.206284,40.63208],[-103.206712,40.631513],[-103.207138,40.630939],[-103.20757,40.630369],[-103.207682,40.630212],[-103.207824,40.630009],[-103.208006,40.629773],[-103.208348,40.629305],[-103.208428,40.629195],[-103.208852,40.628625],[-103.208699,40.628561],[-103.207879,40.628219],[-103.207699,40.628144],[-103.207466,40.628047],[-103.207347,40.627997],[-103.207789,40.627395],[-103.207793,40.62739],[-103.20819,40.62682],[-103.208606,40.626256],[-103.209024,40.625689],[-103.209472,40.62508],[-103.209934,40.624454],[-103.210302,40.623948],[-103.210457,40.623734],[-103.210623,40.623507],[-103.210785,40.623283],[-103.210561,40.623189],[-103.210461,40.623147],[-103.210038,40.622971],[-103.209275,40.622655],[-103.208861,40.623217],[-103.208425,40.623809],[-103.208546,40.623859],[-103.209814,40.624399],[-103.209934,40.624454],[-103.210055,40.624507],[-103.210584,40.62474],[-103.210777,40.624825],[-103.210914,40.624886],[-103.210915,40.624886],[-103.211023,40.624933],[-103.211345,40.625077],[-103.211531,40.625164],[-103.211694,40.625227],[-103.211984,40.625346],[-103.212102,40.625387],[-103.212161,40.625403],[-103.212272,40.625421],[-103.212349,40.625428],[-103.212463,40.625431],[-103.212664,40.625435],[-103.212887,40.62543],[-103.213291,40.62542],[-103.213676,40.625415],[-103.214628,40.625401],[-103.214918,40.625397],[-103.215014,40.625395],[-103.215165,40.625392],[-103.215422,40.625386],[-103.216334,40.625366],[-103.216767,40.625357],[-103.217109,40.62535],[-103.217331,40.625345],[-103.217109,40.62535],[-103.216767,40.625357],[-103.216334,40.625366],[-103.215422,40.625386],[-103.215165,40.625392],[-103.215014,40.625395],[-103.214918,40.625397],[-103.214628,40.625401],[-103.213676,40.625415],[-103.213291,40.62542],[-103.212887,40.62543],[-103.212664,40.625435],[-103.212463,40.625431],[-103.212349,40.625428],[-103.212272,40.625421],[-103.212161,40.625403],[-103.212102,40.625387],[-103.211984,40.625346],[-103.211694,40.625227],[-103.211531,40.625164],[-103.211345,40.625077],[-103.211023,40.624933],[-103.210915,40.624886],[-103.210777,40.624825],[-103.210584,40.62474],[-103.210055,40.624507],[-103.209934,40.624454],[-103.209814,40.624399],[-103.208546,40.623859],[-103.208425,40.623809],[-103.207982,40.624405],[-103.207517,40.625029],[-103.207084,40.62561],[-103.206756,40.626051],[-103.206663,40.626176],[-103.206403,40.626064],[-103.204514,40.625274],[-103.20139,40.623943],[-103.199092,40.622965],[-103.197089,40.622142],[-103.194466,40.621055],[-103.190743,40.619536],[-103.189995,40.619237],[-103.189371,40.619002],[-103.189274,40.618967],[-103.189088,40.618901],[-103.188822,40.618813],[-103.188514,40.618723],[-103.188216,40.618649],[-103.187826,40.618556],[-103.187441,40.618487],[-103.187041,40.618424],[-103.186639,40.618372],[-103.186208,40.618327],[-103.18574,40.618295],[-103.185347,40.618284],[-103.184815,40.618291],[-103.184555,40.618303],[-103.184237,40.618317],[-103.183735,40.618357],[-103.18326,40.618412],[-103.18306,40.618444],[-103.182992,40.618454],[-103.18306,40.618444],[-103.18326,40.618412],[-103.183735,40.618357],[-103.184237,40.618317],[-103.184555,40.618303],[-103.184815,40.618291],[-103.185347,40.618284],[-103.18574,40.618295],[-103.186208,40.618327],[-103.186639,40.618372],[-103.187041,40.618424],[-103.187441,40.618487],[-103.187826,40.618556],[-103.188216,40.618649],[-103.188514,40.618723],[-103.188822,40.618813],[-103.189088,40.618901],[-103.189274,40.618967],[-103.189371,40.619002],[-103.189995,40.619237],[-103.190743,40.619536],[-103.194466,40.621055],[-103.197089,40.622142],[-103.199092,40.622965],[-103.20139,40.623943],[-103.204514,40.625274],[-103.206403,40.626064],[-103.206663,40.626176],[-103.20819,40.62682],[-103.208606,40.626256],[-103.209024,40.625689],[-103.209472,40.62508],[-103.209934,40.624454],[-103.210055,40.624507],[-103.210584,40.62474],[-103.210777,40.624825],[-103.210915,40.624886],[-103.211023,40.624933],[-103.211345,40.625077],[-103.211531,40.625164],[-103.211694,40.625227],[-103.211984,40.625346],[-103.212102,40.625387],[-103.212161,40.625403],[-103.212272,40.625421],[-103.212349,40.625428],[-103.212463,40.625431],[-103.212664,40.625435],[-103.212887,40.62543],[-103.213291,40.62542],[-103.213676,40.625415],[-103.214628,40.625401],[-103.214918,40.625397],[-103.215014,40.625395],[-103.215165,40.625392],[-103.215422,40.625386],[-103.216334,40.625366],[-103.216767,40.625357],[-103.217109,40.62535],[-103.218112,40.625328],[-103.218494,40.625321],[-103.218931,40.62531],[-103.219692,40.62529],[-103.220087,40.625282],[-103.22021,40.62528],[-103.220335,40.625277],[-103.220691,40.625272],[-103.220939,40.625268],[-103.221546,40.625253],[-103.22194,40.625245],[-103.222189,40.625239],[-103.222844,40.625229],[-103.22352426967214,40.62525973790957],[-103.22477142107148,40.62523607975661],[-103.22546584340787,40.62523607975661],[-103.22713926894336,40.62521421580357],[-103.22881629058398,40.62521255567674],[-103.231332,40.625204],[-103.23295283905836,40.62515299571908],[-103.23385819286466,40.62515103802573],[-103.23511691838536,40.62512950339186],[-103.23524088601432,40.62648485640648],[-103.23555,40.626476],[-103.235733,40.626473],[-103.235972,40.626469],[-103.236219,40.626465],[-103.236433,40.626461],[-103.236658,40.626453],[-103.236868,40.626448],[-103.237102,40.626443],[-103.237313,40.626438],[-103.237575,40.626432],[-103.237554,40.625655],[-103.23753,40.624951],[-103.236728,40.624971],[-103.235204,40.625026],[-103.234672,40.625037],[-103.233862,40.625054],[-103.232877,40.625081],[-103.232761,40.625084],[-103.23234,40.625093],[-103.231329,40.625113],[-103.231302,40.62404]]}},{"type":"Feature","properties":{"agency":"Prairie Express Transit","shape_id":"p_915153"},"geometry":{"type":"LineString","coordinates":[[-103.1985363244846,40.634694820215],[-103.19881458896948,40.634690719869184],[-103.19878216980588,40.6343893427009],[-103.19876866182064,40.63422737753831],[-103.19857684843628,40.63423557831516],[-103.1985903564215,40.63469277004947],[-103.19839854303716,40.63468456932827],[-103.19804708024212,40.634664067520674],[-103.198262,40.634402],[-103.198515,40.63406],[-103.198622,40.633945],[-103.198746,40.633843],[-103.198884,40.633756],[-103.199055,40.633672],[-103.199263,40.633591],[-103.199426,40.633531],[-103.199574,40.633489],[-103.199728,40.63345],[-103.199871,40.633426],[-103.200032,40.633406],[-103.200193,40.633389],[-103.200365,40.633383],[-103.200369,40.633182],[-103.200735,40.633158],[-103.202181,40.633089],[-103.202197,40.63361],[-103.20222,40.634132],[-103.202233,40.634609],[-103.202263,40.63517],[-103.202305,40.636227],[-103.2023,40.636483],[-103.202378,40.637094],[-103.202381,40.637266],[-103.202412,40.637749],[-103.202426,40.638258],[-103.202429,40.638382],[-103.202439,40.638679],[-103.202469,40.639406],[-103.202498,40.640257],[-103.202522,40.64045],[-103.202552,40.641704],[-103.203796,40.64169],[-103.20381,40.642182],[-103.203826,40.642262],[-103.203847,40.642329],[-103.203893,40.642396],[-103.203962,40.642463],[-103.204056,40.642514],[-103.204182,40.642546],[-103.204325,40.642553],[-103.204802,40.642546],[-103.205766,40.642516],[-103.206751,40.64249],[-103.207792,40.642484],[-103.207797,40.64273],[-103.2078,40.643037],[-103.207804,40.64324],[-103.2078,40.643037],[-103.207797,40.64273],[-103.207792,40.642484],[-103.207776,40.64145],[-103.207757,40.640573],[-103.206643,40.640591],[-103.205749,40.640609],[-103.204772,40.640623],[-103.204646,40.640611],[-103.203895,40.640462],[-103.20378,40.640442],[-103.203665,40.640432],[-103.203394,40.640436],[-103.202522,40.64045],[-103.202498,40.640257],[-103.202469,40.639406],[-103.202439,40.638679],[-103.202429,40.638382],[-103.203941,40.63835],[-103.204439,40.638336],[-103.205851,40.638295],[-103.205814,40.637756],[-103.205779,40.636966],[-103.205771,40.636572],[-103.205754,40.636136],[-103.205742,40.635619],[-103.205727,40.635086],[-103.205692,40.634564],[-103.205671,40.634045],[-103.205655,40.633534],[-103.205638,40.632999],[-103.2058344520286,40.632832702980295],[-103.20583587985313,40.63283603818422],[-103.20591559375345,40.63264807212775],[-103.206284,40.63208],[-103.206712,40.631513],[-103.207138,40.630939],[-103.20757,40.630369],[-103.207682,40.630212],[-103.207824,40.630009],[-103.208006,40.629773],[-103.208348,40.629305],[-103.208428,40.629195],[-103.208852,40.628625],[-103.208699,40.628561],[-103.207879,40.628219],[-103.207699,40.628144],[-103.207466,40.628047],[-103.207347,40.627997],[-103.207789,40.627395],[-103.207793,40.62739],[-103.20819,40.62682],[-103.208606,40.626256],[-103.209024,40.625689],[-103.209472,40.62508],[-103.209934,40.624454],[-103.210302,40.623948],[-103.210457,40.623734],[-103.210623,40.623507],[-103.210785,40.623283],[-103.210561,40.623189],[-103.210461,40.623147],[-103.210038,40.622971],[-103.209275,40.622655],[-103.208861,40.623217],[-103.208425,40.623809],[-103.208546,40.623859],[-103.209814,40.624399],[-103.209934,40.624454],[-103.210055,40.624507],[-103.210584,40.62474],[-103.210777,40.624825],[-103.210914,40.624886],[-103.210915,40.624886],[-103.211023,40.624933],[-103.211345,40.625077],[-103.211531,40.625164],[-103.211694,40.625227],[-103.211984,40.625346],[-103.212102,40.625387],[-103.212161,40.625403],[-103.212272,40.625421],[-103.212349,40.625428],[-103.212463,40.625431],[-103.212664,40.625435],[-103.212887,40.62543],[-103.213291,40.62542],[-103.213676,40.625415],[-103.214628,40.625401],[-103.214918,40.625397],[-103.215014,40.625395],[-103.215165,40.625392],[-103.215422,40.625386],[-103.216334,40.625366],[-103.216767,40.625357],[-103.217109,40.62535],[-103.217331,40.625345],[-103.217109,40.62535],[-103.216767,40.625357],[-103.216334,40.625366],[-103.215422,40.625386],[-103.215165,40.625392],[-103.215014,40.625395],[-103.214918,40.625397],[-103.214628,40.625401],[-103.213676,40.625415],[-103.213291,40.62542],[-103.212887,40.62543],[-103.212664,40.625435],[-103.212463,40.625431],[-103.212349,40.625428],[-103.212272,40.625421],[-103.212161,40.625403],[-103.212102,40.625387],[-103.211984,40.625346],[-103.211694,40.625227],[-103.211531,40.625164],[-103.211345,40.625077],[-103.211023,40.624933],[-103.210915,40.624886],[-103.210777,40.624825],[-103.210584,40.62474],[-103.210055,40.624507],[-103.209934,40.624454],[-103.209814,40.624399],[-103.208546,40.623859],[-103.208425,40.623809],[-103.207982,40.624405],[-103.207517,40.625029],[-103.207084,40.62561],[-103.206756,40.626051],[-103.206663,40.626176],[-103.206403,40.626064],[-103.204514,40.625274],[-103.20139,40.623943],[-103.199092,40.622965],[-103.197089,40.622142],[-103.194466,40.621055],[-103.190743,40.619536],[-103.189995,40.619237],[-103.189371,40.619002],[-103.189274,40.618967],[-103.189088,40.618901],[-103.188822,40.618813],[-103.188514,40.618723],[-103.188216,40.618649],[-103.187826,40.618556],[-103.187441,40.618487],[-103.187041,40.618424],[-103.186639,40.618372],[-103.186208,40.618327],[-103.18574,40.618295],[-103.185347,40.618284],[-103.184815,40.618291],[-103.184555,40.618303],[-103.184237,40.618317],[-103.183735,40.618357],[-103.18326,40.618412],[-103.18306,40.618444],[-103.182992,40.618454],[-103.18306,40.618444],[-103.18326,40.618412],[-103.183735,40.618357],[-103.184237,40.618317],[-103.184555,40.618303],[-103.184815,40.618291],[-103.185347,40.618284],[-103.18574,40.618295],[-103.186208,40.618327],[-103.186639,40.618372],[-103.187041,40.618424],[-103.187441,40.618487],[-103.187826,40.618556],[-103.188216,40.618649],[-103.188514,40.618723],[-103.188822,40.618813],[-103.189088,40.618901],[-103.189274,40.618967],[-103.189371,40.619002],[-103.189995,40.619237],[-103.190743,40.619536],[-103.194466,40.621055],[-103.197089,40.622142],[-103.199092,40.622965],[-103.20139,40.623943],[-103.204514,40.625274],[-103.206403,40.626064],[-103.206663,40.626176],[-103.20819,40.62682],[-103.208606,40.626256],[-103.209024,40.625689],[-103.209472,40.62508],[-103.209934,40.624454],[-103.210055,40.624507],[-103.210584,40.62474],[-103.210777,40.624825],[-103.210915,40.624886],[-103.211023,40.624933],[-103.211345,40.625077],[-103.211531,40.625164],[-103.211694,40.625227],[-103.211984,40.625346],[-103.212102,40.625387],[-103.212161,40.625403],[-103.212272,40.625421],[-103.212349,40.625428],[-103.212463,40.625431],[-103.212664,40.625435],[-103.212887,40.62543],[-103.213291,40.62542],[-103.213676,40.625415],[-103.214628,40.625401],[-103.214918,40.625397],[-103.215014,40.625395],[-103.215165,40.625392],[-103.215422,40.625386],[-103.216334,40.625366],[-103.216767,40.625357],[-103.217109,40.62535],[-103.218112,40.625328],[-103.218494,40.625321],[-103.218931,40.62531],[-103.219692,40.62529],[-103.220087,40.625282],[-103.22021,40.62528],[-103.220335,40.625277],[-103.220691,40.625272],[-103.220939,40.625268],[-103.221546,40.625253],[-103.22194,40.625245],[-103.222189,40.625239],[-103.222844,40.625229],[-103.22352426967214,40.62525973790957],[-103.22477142107148,40.62523607975661],[-103.22546584340787,40.62523607975661],[-103.22713926894336,40.62521421580357],[-103.22881629058398,40.62521255567674],[-103.231332,40.625204],[-103.23295283905836,40.62515299571908],[-103.23385819286466,40.62515103802573],[-103.23511691838536,40.62512950339186],[-103.23524088601432,40.62648485640648],[-103.23555,40.626476],[-103.235733,40.626473],[-103.235972,40.626469],[-103.236219,40.626465],[-103.236433,40.626461],[-103.236658,40.626453],[-103.236868,40.626448],[-103.237102,40.626443],[-103.237313,40.626438],[-103.237575,40.626432],[-103.237554,40.625655],[-103.23753,40.624951],[-103.236728,40.624971],[-103.235204,40.625026],[-103.234672,40.625037],[-103.233862,40.625054],[-103.232877,40.625081],[-103.232761,40.625084],[-103.23234,40.625093],[-103.231329,40.625113],[-103.231302,40.62404]]}}]}