{"type":"FeatureCollection","features":[{"type":"Feature","properties":{"agency":"Pueblo Transit","shape_id":"p_1305585"},"geometry":{"type":"LineString","coordinates":[[-104.61063,38.26871737],[-104.61157179450112,38.26877053830526],[-104.61161630666344,38.2709255589067],[-104.61159541716832,38.27118796083056],[-104.6116001242574,38.27131879194363],[-104.61160751371366,38.27132362641191],[-104.6116222926262,38.27154504472944],[-104.608563367663,38.2715857895027],[-104.608554299508,38.2718397093338],[-104.608502,38.27190135],[-104.608479267864,38.2736456855324],[-104.60865346949043,38.27405321933563],[-104.60866298235752,38.27435941254376],[-104.6073644759568,38.274370614709824],[-104.6066538,38.27427814],[-104.600015556813,38.2744651004353],[-104.5986247,38.27446177],[-104.59780948245344,38.27457599039457],[-104.59539307725868,38.27464802841132],[-104.5952871,38.27487201],[-104.595397,38.27487],[-104.595406,38.275106],[-104.595423,38.27556],[-104.595442,38.276024],[-104.59546,38.276475],[-104.595475,38.27695],[-104.595489,38.277401],[-104.595513,38.277871],[-104.595525,38.278122],[-104.5954135,38.27812544],[-104.595431661334,38.2840928902681],[-104.595725363238,38.2847567370389],[-104.596429,38.2851257],[-104.5970766487619,38.28551823385212],[-104.59711206300416,38.28665098567223],[-104.5968553097454,38.28755439469745],[-104.59653658156304,38.28818677432327],[-104.5962708,38.28835862],[-104.596363,38.288403],[-104.596181,38.288634],[-104.596071,38.288747],[-104.59571,38.289092],[-104.595706,38.289097],[-104.595562,38.289239],[-104.595463,38.289337],[-104.595363,38.28941],[-104.595011,38.289697],[-104.595077,38.289758],[-104.595415,38.290069],[-104.595445,38.290096],[-104.595578,38.290212],[-104.595656,38.29028],[-104.59575,38.290362],[-104.59595,38.290536],[-104.596266,38.290816],[-104.596544,38.291062],[-104.596876,38.291351],[-104.597042,38.291497],[-104.59706,38.291516],[-104.59718,38.291644],[-104.597291,38.291776],[-104.597512,38.292084],[-104.597713,38.292454],[-104.597844,38.292798],[-104.597915,38.293134],[-104.597939,38.293423],[-104.597974,38.294783],[-104.5978727,38.29478463],[-104.5979486,38.29714505],[-104.5981087,38.302027],[-104.5981717,38.303787],[-104.5983287866584,38.30486502466511],[-104.59831384668776,38.30566809707653],[-104.59724563878072,38.30570326792781],[-104.5969841892929,38.305797056781046],[-104.59675261974668,38.30600221947475],[-104.5965882800688,38.30643599011705],[-104.5963831,38.30669821],[-104.59599038699768,38.30736123110557],[-104.59544507806586,38.30760155930568],[-104.59478771935396,38.30769534570501],[-104.59326384233955,38.30782430180514],[-104.59241226400816,38.3078184401688],[-104.59156815566222,38.30773051557327],[-104.59080621715482,38.30756052771832],[-104.590171268399,38.30736123110557],[-104.5893276,38.30692603],[-104.587489951,38.306202994],[-104.587056692,38.305874734],[-104.586780302,38.30544096],[-104.586480698,38.303773273],[-104.58634116226364,38.30270804352435],[-104.586306,38.302692],[-104.586207,38.30208],[-104.586197,38.302016],[-104.586074,38.302029],[-104.586032,38.302033],[-104.585863,38.302051],[-104.58583,38.302054],[-104.585557,38.302082],[-104.58552,38.302086],[-104.585275,38.302112],[-104.58519,38.302121],[-104.585019,38.302139],[-104.584873,38.302154],[-104.584747,38.302167],[-104.584665,38.302175],[-104.584431,38.3022],[-104.584379,38.302205],[-104.584258,38.302218],[-104.584207,38.302223],[-104.584031,38.30224],[-104.583926,38.30225],[-104.583697,38.30232],[-104.583459,38.302394],[-104.583434,38.302402],[-104.583017,38.302531],[-104.582938,38.302535],[-104.582894,38.302537],[-104.582746,38.302536],[-104.582638,38.302523],[-104.582399,38.302495],[-104.582248,38.302477],[-104.581706,38.302412],[-104.581651,38.302704],[-104.581644,38.302733],[-104.581587,38.302955],[-104.581477,38.303236],[-104.5814,38.303391],[-104.58136,38.303473],[-104.581322,38.30355],[-104.581276,38.303645],[-104.581238,38.303711],[-104.580981,38.304099],[-104.580896,38.304256],[-104.580814,38.304408],[-104.580186497,38.305332174],[-104.580059185,38.305436054],[-104.579841857,38.305578171],[-104.579832802,38.305659889],[-104.579945993,38.305716735],[-104.58006824,38.305670547],[-104.580188,38.305671]]}},{"type":"Feature","properties":{"agency":"Pueblo Transit","shape_id":"p_1305586"},"geometry":{"type":"LineString","coordinates":[[-104.61063,38.26871737],[-104.61037560940684,38.26877460226655],[-104.6100724366638,38.26879624091555],[-104.61004487550696,38.26787010098411],[-104.60854585816452,38.26787452602139],[-104.60854034593304,38.26720371639732],[-104.60873847659644,38.266827097478654],[-104.60905267380276,38.26654145905107],[-104.6097604,38.26612406],[-104.61095930266347,38.26504000410415],[-104.61225542275908,38.2639780961122],[-104.613185,38.26337626],[-104.61369059600072,38.26283701021322],[-104.61578718666678,38.26114313466496],[-104.61866084149617,38.25886607085553],[-104.61901797462792,38.2587302381844],[-104.61944207022226,38.25861631381244],[-104.619737821097,38.25863822235951],[-104.6218598,38.26039349],[-104.62315365725152,38.26131044534762],[-104.6228969678129,38.26150761472036],[-104.62259005652793,38.26160838997106],[-104.6221938619592,38.26160838997174],[-104.62184230903244,38.26163467914455],[-104.62160794041438,38.261713546605904],[-104.62129544892407,38.26188004429824],[-104.62155213836267,38.26206844912176],[-104.6216078,38.26227948],[-104.62186811884276,38.26247361544552],[-104.6219853031518,38.262631348460985],[-104.62247636120811,38.26225454124503],[-104.62272747044145,38.26213185940415],[-104.62308460357352,38.26201794036666],[-104.62354218039869,38.26192592870564],[-104.6237988698373,38.26178572023605],[-104.6268605,38.26426969],[-104.6294209,38.26623154],[-104.63028882235994,38.26680177333043],[-104.63349381724996,38.26924938094237],[-104.63380009662498,38.26926655684454],[-104.634374,38.26896194],[-104.6398473,38.26454065],[-104.6403236408178,38.26401641902692],[-104.6428111792408,38.26398317426609],[-104.6446568,38.26405063],[-104.6514669,38.2640031],[-104.65214233453216,38.26391252633357],[-104.65287948120236,38.26391252633357],[-104.65290896706932,38.26403985846648],[-104.65307113933665,38.26417297818537],[-104.65326279747092,38.26422506844364],[-104.65350605587192,38.26413246351439],[-104.65367559960607,38.26391831416305],[-104.65576204685858,38.26387342685948],[-104.65613799166034,38.263595610372136],[-104.656816166597,38.263271489794505],[-104.65728056899924,38.26317309576126],[-104.65834943167091,38.26327727767443],[-104.65884331994016,38.263335156450296],[-104.65959520954364,38.26328885343358],[-104.66005224047905,38.26336988369383],[-104.6604612,38.26377223],[-104.66114149533811,38.26386602608116],[-104.6617533270744,38.26384287474502],[-104.66165012654062,38.26193286413636],[-104.6616971,38.26003862],[-104.6614266594314,38.25837862346657],[-104.66339490837954,38.25840467156891],[-104.6643925,38.25847742],[-104.6678846,38.25849187],[-104.66895698129474,38.258383821225294],[-104.66925326258992,38.25455737439424],[-104.6688937,38.25449067],[-104.6657208,38.25442975],[-104.6658275,38.25212724],[-104.6657728689438,38.25186144246251],[-104.66539636983885,38.251832597231925],[-104.6655364,38.24971626],[-104.6656681,38.24769966],[-104.66559456859576,38.247221789879205],[-104.6644351282858,38.24719562427339],[-104.6634851,38.24709556],[-104.66288630510324,38.24714042574453],[-104.66219996974728,38.24711949323762],[-104.66239557353208,38.24315782877244],[-104.6625397,38.24221654],[-104.662392,38.242216],[-104.662401,38.241045],[-104.6624,38.240941],[-104.6624,38.240859],[-104.662404,38.239817],[-104.662402,38.239515],[-104.662403,38.238083],[-104.662404,38.23773],[-104.662405,38.236742],[-104.662405,38.236665],[-104.662406,38.236144],[-104.662407,38.235636],[-104.662404,38.235553],[-104.66241,38.235387],[-104.662272,38.23547],[-104.66204,38.235595],[-104.661899,38.235686],[-104.661029,38.236253],[-104.660485,38.23658],[-104.659939,38.236919],[-104.659669,38.237087],[-104.659049,38.237462],[-104.657828,38.238207],[-104.656987,38.238727],[-104.655995,38.239338],[-104.655875,38.23941],[-104.655544,38.239609],[-104.655272,38.239775],[-104.655157,38.239852],[-104.655081,38.239912],[-104.654681,38.24015],[-104.654543528232,38.2400067591671],[-104.6498785,38.24301535],[-104.64893801146684,38.2435639950981],[-104.64801658865296,38.24391823941377],[-104.64661374814848,38.2439996742896],[-104.6452578,38.24390947]]}},{"type":"Feature","properties":{"agency":"Pueblo Transit","shape_id":"p_1305589"},"geometry":{"type":"LineString","coordinates":[[-104.6452578,38.24390947],[-104.638629,38.24398924],[-104.6343125,38.24401912],[-104.6274976,38.24407409],[-104.6249015,38.24409115],[-104.6200032,38.24397053],[-104.616468,38.243991],[-104.6133049,38.24401069],[-104.606397873545,38.2440300729293],[-104.6064805,38.24663797],[-104.6065354,38.25025518],[-104.60665695109826,38.25102538160783],[-104.60664274052512,38.251739595462624],[-104.60664274052512,38.25230872960327],[-104.60641537135308,38.25235894710767],[-104.60621642332768,38.25231430932811],[-104.60539931536576,38.25196278585295],[-104.60064911040858,38.24970139144267],[-104.5985831915994,38.24869137499613],[-104.59724029242732,38.248217073248384],[-104.59389825668131,38.24712861065092],[-104.59046471519436,38.246348841920366],[-104.58901627151532,38.246120131459776],[-104.5883696904326,38.245835540715376],[-104.58782968864932,38.245361220332825],[-104.5874104767382,38.24501524351322],[-104.58736073973203,38.24479203178794],[-104.58747442431788,38.24461346191384],[-104.58764495119702,38.2445409177775],[-104.58782258336252,38.24455207841882],[-104.5874722,38.24402423],[-104.587041069373,38.24360149750305],[-104.58737667405472,38.242607999733],[-104.58854698781693,38.242506621646015],[-104.58873630327886,38.2423984848644],[-104.58889980299548,38.24194566034333],[-104.5889665,38.23989404],[-104.588988994896,38.2384269379632],[-104.5856145,38.23839376],[-104.58449592449942,38.238486663554255],[-104.5837300574048,38.24037237709459],[-104.5830172,38.24185893],[-104.58281172048422,38.24203975665105],[-104.58096691064809,38.242016003875904],[-104.5799913,38.24194706],[-104.57968521047016,38.24202839633816],[-104.57968521047016,38.24454020892193],[-104.57955,38.24508154],[-104.57974516312092,38.24565105772791],[-104.58123387106852,38.24566457422992],[-104.5824695,38.24582883],[-104.58472952507516,38.24573011363768],[-104.58816433985292,38.24613295063648],[-104.59179576474014,38.246768667571786],[-104.59443395498512,38.247439956839656],[-104.59536822460448,38.24764137088022],[-104.5966162,38.24817843],[-104.59838826114012,38.24864456947503],[-104.60011228687044,38.24948555311224],[-104.6012837,38.25017113],[-104.60250378488772,38.25061292026135],[-104.60386037252968,38.25124849098904],[-104.6048161501868,38.25170851966763],[-104.6052626,38.25205838],[-104.6061016907469,38.25246350763791],[-104.60643026005457,38.252741002783125],[-104.60656664731428,38.25345177498781],[-104.60665097504848,38.255419936308414],[-104.6067005704156,38.25567794764726],[-104.6065828,38.25585797],[-104.6066532,38.2576189],[-104.6067648,38.26455137],[-104.606918222124,38.2679714720232],[-104.6079864,38.26799545],[-104.60886645211772,38.26787916480407],[-104.61153912901744,38.26785867278943],[-104.61154956916178,38.26876851266286],[-104.61063,38.26871737]]}},{"type":"Feature","properties":{"agency":"Pueblo Transit","shape_id":"p_1305590"},"geometry":{"type":"LineString","coordinates":[[-104.658461,38.31037166],[-104.658029059054,38.31038122239],[-104.65805543300854,38.31117039152935],[-104.6599251504828,38.31107617505569],[-104.66032164278684,38.31092229005711],[-104.66062843870684,38.31057817165939],[-104.66070412064136,38.31019181928295],[-104.66074851230606,38.30777852134946],[-104.66340374022695,38.30779863152205],[-104.66278249087046,38.31001061609175],[-104.66179132332276,38.31265756965908],[-104.66117769466372,38.31340477251047],[-104.66087999313456,38.31357279028168],[-104.6604151609219,38.31373670968293],[-104.65974141535524,38.313777689475245],[-104.65941237682236,38.31374900362312],[-104.63582782899525,38.31030134175663],[-104.63562221718642,38.31022664895247],[-104.63545087401282,38.310068299952576],[-104.63533081716538,38.30988907739291],[-104.6355846,38.30919671],[-104.635466315476,38.3033498110384],[-104.6364021,38.30333231],[-104.637520887704,38.3027489961832],[-104.6374774,38.30044729],[-104.6374249,38.29795868],[-104.6373546,38.29479529],[-104.63720387266213,38.29090289847071],[-104.6364098,38.29085388],[-104.6308738,38.29089935],[-104.624504,38.29100365],[-104.6169348,38.29107789],[-104.615080184643,38.2910827273776],[-104.6149798,38.28578047],[-104.614894,38.28193934],[-104.6148604,38.2791837],[-104.614815,38.27732903],[-104.614764,38.271741],[-104.614719427509,38.2705571216677],[-104.61013284982,38.2705906492824],[-104.610111392147,38.2687399249518],[-104.61063,38.26871737]]}},{"type":"Feature","properties":{"agency":"Pueblo Transit","shape_id":"p_1305592"},"geometry":{"type":"LineString","coordinates":[[-104.61063,38.26871737],[-104.61037560940684,38.26877460226655],[-104.6100724366638,38.26879624091555],[-104.61004487550696,38.26787010098411],[-104.60854585816452,38.26787452602139],[-104.60854034593304,38.26720371639732],[-104.60873847659644,38.266827097478654],[-104.60905267380276,38.26654145905107],[-104.6097604,38.26612406],[-104.61095930266347,38.26504000410415],[-104.61225542275908,38.2639780961122],[-104.613185,38.26337626],[-104.61376138054774,38.2627784743932],[-104.6160504305354,38.26092435775354],[-104.61837498137064,38.25908941773062],[-104.61906042047625,38.25857012466972],[-104.6194308714283,38.25819354892536],[-104.619279183106,38.2579333041866],[-104.6150354,38.25468201],[-104.61470450450408,38.25452507049181],[-104.61425644623417,38.25424489799761],[-104.61408161565402,38.25404801162208],[-104.61405854569657,38.25387590733715],[-104.61403163074634,38.25377928720928],[-104.615104324526,38.2529484184354],[-104.6151499,38.25251283],[-104.6150942,38.24764272],[-104.6149609,38.24376008],[-104.61486295086549,38.24113892026713],[-104.6150522,38.24068129],[-104.6150222,38.2376379],[-104.6149606,38.23289534],[-104.6148566492066,38.231469785398616],[-104.61532482902729,38.231469785398616],[-104.615624,38.23152454],[-104.6200513,38.23148767],[-104.62064528628842,38.23140080239358],[-104.62063756101126,38.23294821340522],[-104.6205488,38.23350386]]}},{"type":"Feature","properties":{"agency":"Pueblo Transit","shape_id":"p_1305593"},"geometry":{"type":"LineString","coordinates":[[-104.61063,38.26871737],[-104.61037560940684,38.26877460226655],[-104.6100724366638,38.26879624091555],[-104.61004487550696,38.26787010098411],[-104.60854585816452,38.26787452602139],[-104.60854034593304,38.26720371639732],[-104.60873847659644,38.266827097478654],[-104.60905267380276,38.26654145905107],[-104.6097604,38.26612406],[-104.61095930266347,38.26504000410415],[-104.61225542275908,38.2639780961122],[-104.613185,38.26337626],[-104.61380775406364,38.26272681986484],[-104.61489929731128,38.2618614364994],[-104.6182237991883,38.25920317845467],[-104.61853642565232,38.25896601965198],[-104.61881725959498,38.25884535960978],[-104.61902920974016,38.258741342174005],[-104.61937362872598,38.25863732458936],[-104.61969155394344,38.25860819963864],[-104.6212228937423,38.259785670471246],[-104.6216994,38.25952714],[-104.624105,38.25761238],[-104.628755428121,38.2537423523511],[-104.627266,38.25260598],[-104.62550727281,38.2513350696167],[-104.6255121,38.24923395],[-104.6254422,38.24364611],[-104.6254068,38.24035228],[-104.6253675,38.23654346],[-104.625291354972,38.2334246178522],[-104.6251114,38.23278325],[-104.624737478777,38.2321532507034],[-104.624736137672,38.2309288222151],[-104.625233687474,38.2293771642075],[-104.6253044,38.22671409],[-104.6252594,38.22196178],[-104.625229,38.21953341],[-104.62508992926716,38.21873387244611],[-104.636505755155,38.21862312813295],[-104.64056723355024,38.21862303777016],[-104.64123680589704,38.21879998280022],[-104.6428194314436,38.21949819412271],[-104.643052,38.219812],[-104.64335098979188,38.21977490968848],[-104.64375480143232,38.21998149206309],[-104.6436194,38.22166525],[-104.6437482251172,38.224252403369405],[-104.6436449244651,38.22481309108511],[-104.64366370640168,38.22600084947098],[-104.6440916,38.22605406],[-104.64455799299004,38.22582693030651],[-104.6452529246502,38.225893326324496],[-104.6467648705598,38.22629907845052],[-104.64874636488815,38.22624743739681],[-104.6498263,38.22628467],[-104.6541665,38.22615418],[-104.654660204331,38.226092799073],[-104.65466288654,38.2239564194653],[-104.6540305,38.223761],[-104.6513562,38.22287707],[-104.6485996,38.22197049],[-104.6468812,38.22127784],[-104.64372156989212,38.21990474989536],[-104.64374794512828,38.21906711118584],[-104.6443591689848,38.21888580768788],[-104.64519804254267,38.21837619543609],[-104.6450234071552,38.21830759351397],[-104.64486124572387,38.21834924468894],[-104.6446710178913,38.21845949768249],[-104.644549,38.21844054]]}},{"type":"Feature","properties":{"agency":"Pueblo Transit","shape_id":"p_1305594"},"geometry":{"type":"LineString","coordinates":[[-104.61063,38.26871737],[-104.61157179450112,38.26877053830526],[-104.61161630666344,38.2709255589067],[-104.61159541716832,38.27118796083056],[-104.6116001242574,38.27131879194363],[-104.6114675,38.27132084],[-104.6115723,38.27638548],[-104.6117877657124,38.278954478841854],[-104.6136918,38.27901596],[-104.6191041,38.27898884],[-104.6225872,38.27897768],[-104.623786635625,38.2789631652214],[-104.623825527658,38.2826605905688],[-104.6241895,38.28267941],[-104.630642362275,38.2826592494642],[-104.630681254308,38.283508168668],[-104.6322827,38.28359875],[-104.644473173885,38.2835685183745],[-104.6444924,38.28314531],[-104.644431599643,38.2788719701095],[-104.6439651,38.27886718],[-104.6406444,38.27885863]]}},{"type":"Feature","properties":{"agency":"Pueblo Transit","shape_id":"p_1305595"},"geometry":{"type":"LineString","coordinates":[[-104.6367055,38.24039303],[-104.634540953311,38.2404707813544],[-104.6344777,38.24379724],[-104.6345558,38.24933413],[-104.6346083,38.25339344],[-104.6346309,38.25649376],[-104.634673722665,38.2567504499406],[-104.6321057,38.25874922],[-104.6265269,38.26324218],[-104.626324005504,38.2634170808445],[-104.6236522,38.26135632],[-104.621185,38.259407],[-104.619469619958,38.258176044117],[-104.6115645,38.26438689],[-104.610810504802,38.26514914186569],[-104.60985096091622,38.26590252692418],[-104.6090231,38.26642572],[-104.60876183246916,38.26678198335696],[-104.60854966931896,38.267155044200905],[-104.60850654375145,38.26787454955445],[-104.61154689628792,38.26787454955445],[-104.61157384976806,38.26876334044508],[-104.61063,38.26871737]]}},{"type":"Feature","properties":{"agency":"Pueblo Transit","shape_id":"p_1305598"},"geometry":{"type":"LineString","coordinates":[[-104.61063,38.26871737],[-104.61157179450112,38.26877053830526],[-104.61161630666344,38.2709255589067],[-104.61159541716832,38.27118796083056],[-104.6116001242574,38.27131879194363],[-104.6114675,38.27132084],[-104.6115723,38.27638548],[-104.611725,38.282038],[-104.611817,38.286118],[-104.6118608,38.28880385],[-104.611911154503,38.2912838930657],[-104.612193,38.29129553],[-104.6146384652903,38.29119575189546],[-104.6146394,38.29274149],[-104.6146812,38.29505873],[-104.61488989823108,38.29764547474221],[-104.6150594918744,38.29810656071001],[-104.616325,38.29818712],[-104.6194755,38.29812503],[-104.6218086,38.29810737],[-104.6242864,38.29806658],[-104.6268782,38.29803105],[-104.630075075035,38.2980457423953],[-104.6300691,38.29820265],[-104.63019838215035,38.30075440546065],[-104.6304034,38.30082502],[-104.6317452,38.30081427],[-104.6347372,38.30078129],[-104.63502605659968,38.3007025576735],[-104.63502605659968,38.30185538808212],[-104.63514746305847,38.3021697931963],[-104.63537813532992,38.30254136111938],[-104.6352825,38.30435634],[-104.6353391,38.30662168],[-104.6353513,38.30859524],[-104.635359027109,38.3088094478136],[-104.63191238832,38.3088040833952],[-104.629907,38.30874735],[-104.629344173035,38.3090320711751],[-104.625352,38.30851125],[-104.623058,38.3081655],[-104.62237524304793,38.30805789370223],[-104.6222542956862,38.307747291293225],[-104.62222131004202,38.30674645225943],[-104.62192443924484,38.30650486835472],[-104.62117676464422,38.30650486835472],[-104.6207149656265,38.30666880037771],[-104.6205265,38.30737933],[-104.620394982123,38.3093311374981],[-104.620829500009,38.3101948088524],[-104.6208791,38.31186413],[-104.62099814541216,38.31187581653492],[-104.62101478010985,38.312561063275865],[-104.62626124844046,38.31248754041383],[-104.6262409,38.31257289],[-104.627103187269,38.3125699050766],[-104.6270134,38.310124],[-104.62687911964512,38.30943209103376],[-104.62717421631744,38.30912741304675],[-104.63850443980007,38.3108183345783],[-104.65004162507805,38.3125466983044],[-104.6547369058038,38.31330118239754],[-104.65769672770784,38.314634086863634],[-104.66065502398855,38.31562850780733],[-104.66319365282,38.3095671719055],[-104.663767645584,38.3075488095015],[-104.659435877766,38.3075930659528],[-104.658234248056,38.3067079369252],[-104.658130983003,38.3040002467632],[-104.657601246691,38.3040015878678],[-104.657611,38.304267],[-104.657870808713,38.3069144670316],[-104.659187773418,38.3078894500667],[-104.660515466959,38.3079135899492],[-104.660608003176,38.310387927913],[-104.66010643006,38.310956556258],[-104.658821651865,38.3110745734617],[-104.658763984368,38.3103570825074],[-104.658461,38.31037166]]}},{"type":"Feature","properties":{"agency":"Pueblo Transit","shape_id":"p_1305599"},"geometry":{"type":"LineString","coordinates":[[-104.6406444,38.27885863],[-104.6404045,38.28082016],[-104.6404098,38.28258305],[-104.640413650299,38.2834759821579],[-104.6326528861146,38.28354044910648],[-104.632880665832,38.2829194237542],[-104.63268080544611,38.28260017663132],[-104.62916247912352,38.28259327222764],[-104.627815,38.28247269],[-104.6240369,38.28251962],[-104.623825527658,38.2825211156917],[-104.6238956,38.27908327],[-104.623861737481,38.2788558768544],[-104.6190536,38.27883376],[-104.615008,38.27882753],[-104.6120369,38.27881382],[-104.61024844441998,38.2789401078752],[-104.6103106,38.27781242],[-104.6102545,38.27412701],[-104.61023,38.272274],[-104.610079205637,38.2688177090179],[-104.61063,38.26871737]]}},{"type":"Feature","properties":{"agency":"Pueblo Transit","shape_id":"p_1305600"},"geometry":{"type":"LineString","coordinates":[[-104.6205488,38.23350386],[-104.6205806,38.23673452],[-104.6206367,38.24261986],[-104.6206638,38.24567341],[-104.620786584663,38.2496935576018],[-104.6233812,38.25175075],[-104.623647160747,38.2518755347654],[-104.6215049,38.25354359],[-104.617431140985,38.256856397203],[-104.61804867735232,38.25736611680273],[-104.61813962838436,38.25757416066946],[-104.6182345338094,38.25802750792616],[-104.6181689,38.2583518],[-104.618235803737,38.2590786075043],[-104.61473916422948,38.26197439469635],[-104.6129154074865,38.26345299366133],[-104.6115645,38.26438689],[-104.610810504802,38.26514914186569],[-104.60985096091622,38.26590252692418],[-104.6090231,38.26642572],[-104.60876183246916,38.26678198335696],[-104.60854966931896,38.267155044200905],[-104.60850654375145,38.26787454955445],[-104.61154689628792,38.26787454955445],[-104.61157384976806,38.26876334044508],[-104.61063,38.26871737]]}},{"type":"Feature","properties":{"agency":"Pueblo Transit","shape_id":"p_1305602"},"geometry":{"type":"LineString","coordinates":[[-104.644549,38.21844054],[-104.64434609027634,38.21890220672486],[-104.64374651202672,38.21903053769904],[-104.64372339319324,38.219932644907374],[-104.64151230566846,38.21892077854599],[-104.6407185590531,38.218636218489024],[-104.62509529706968,38.21870511778803],[-104.62508728104793,38.217910881625045],[-104.6251954973744,38.21695869633686],[-104.6254084357201,38.21602738572054],[-104.625508636022,38.21565894822538],[-104.6251401,38.21555474],[-104.6247190576498,38.21584474172423],[-104.6237548732916,38.21663245430168],[-104.62360256883416,38.21685918225438],[-104.62361058485794,38.2172685503792],[-104.624171706544,38.21729689116418],[-104.624384,38.21738281],[-104.62462428452676,38.217281056235805],[-104.6251453260921,38.21732829086247],[-104.6250962909577,38.220377589358094],[-104.6249665,38.22074741],[-104.625088848179,38.2245545521113],[-104.6240909,38.22455959],[-104.6201272,38.22459683],[-104.616228,38.22461571],[-104.615856684199,38.2246444061186],[-104.6158297,38.22698219],[-104.615823156585,38.2271630005338],[-104.6209,38.22715],[-104.625094212597,38.2271536128017],[-104.6250601,38.22913388],[-104.62513375611144,38.22968826832766],[-104.62468119717344,38.23093580455378],[-104.6245344,38.23208971],[-104.625129081317,38.2333521982045],[-104.6251496,38.23670996],[-104.625251,38.24077787],[-104.6252905,38.24488349],[-104.6253402,38.24941431],[-104.625358410201,38.2503211945487],[-104.623675323944,38.2518674881379],[-104.6251571,38.25311626],[-104.627332516154,38.2547361108503],[-104.6270817,38.25493242],[-104.6234554,38.25782471],[-104.621196962666,38.2597478186934],[-104.6205641,38.25989887],[-104.62023385458464,38.26003394009308],[-104.61943318355168,38.26014171607616],[-104.619358835527,38.2598094062817],[-104.61888987106497,38.25939626225548],[-104.61826649147493,38.25915825430437],[-104.6115645,38.26438689],[-104.610810504802,38.26514914186569],[-104.60985096091622,38.26590252692418],[-104.6090231,38.26642572],[-104.60876183246916,38.26678198335696],[-104.60854966931896,38.267155044200905],[-104.60850654375145,38.26787454955445],[-104.61154689628792,38.26787454955445],[-104.61157384976806,38.26876334044508],[-104.61063,38.26871737]]}},{"type":"Feature","properties":{"agency":"Pueblo Transit","shape_id":"p_1305603"},"geometry":{"type":"LineString","coordinates":[[-104.6225918,38.33220087],[-104.62034537785118,38.33262639421847],[-104.61994240456798,38.33167808309125],[-104.61944988166395,38.33112196894149],[-104.61877079705482,38.330565850524295],[-104.61769583169728,38.329581593754085],[-104.61727047100752,38.32870349142684],[-104.61647463509269,38.326242223352665],[-104.6163477731326,38.32571533895765],[-104.616266,38.32467256],[-104.616080665072,38.3242108914169],[-104.6160715902364,38.32360331337185],[-104.616093992468,38.3229771278921],[-104.61617031487788,38.32270796788626],[-104.616340549293,38.3224595682979],[-104.6166402441748,38.32225254569755],[-104.616886972525,38.3221720335931],[-104.6174497862404,38.32212242454645],[-104.617859872426,38.322036107699],[-104.618352986075,38.3227314182426],[-104.61883588021848,38.32323464303687],[-104.619647,38.323506],[-104.61987430163708,38.32340606966662],[-104.62101950748622,38.32337199088266],[-104.62129988547,38.32329763711601],[-104.62155262055406,38.32316751784092],[-104.6217263759246,38.32287010147854],[-104.621706759194,38.3204507358995],[-104.623859819907,38.3204310940966],[-104.624015040563,38.3203878821132],[-104.62425957745552,38.3196814097978],[-104.62468776225782,38.318507353808286],[-104.62494707724412,38.31823464057237],[-104.6251898402103,38.31809179037245],[-104.62552088061858,38.31796192631012],[-104.6260099,38.31793187],[-104.62694576918072,38.3178217238987],[-104.62695172958831,38.31762531325072],[-104.62687083413137,38.315722248421],[-104.6270436859472,38.314505510246505],[-104.62698839903,38.312475797852585],[-104.626418,38.31240365],[-104.6235098,38.31245045],[-104.620256,38.31250882],[-104.61965929982742,38.31260812147687],[-104.61919780577468,38.31259382779075],[-104.61885775752556,38.31242230333791],[-104.61851770927647,38.312036371836285],[-104.61818373331732,38.31183625839688],[-104.61783154048764,38.31179337687374],[-104.6172728897924,38.31176955379473],[-104.6165267,38.31168438],[-104.616526497522,38.31177835773232],[-104.615399248316,38.3117986605438],[-104.615387113759,38.3102942692789],[-104.6155084,38.30958869],[-104.61541374261417,38.3094524379132],[-104.615771046341,38.30859009191147],[-104.61595101321886,38.30820678892562],[-104.61608635553944,38.30776074150961],[-104.6160209354357,38.30728634143853],[-104.61543074301616,38.30594802885835],[-104.61530622808144,38.3057143780396],[-104.6154526,38.30531354],[-104.6153852,38.30212622],[-104.6153372,38.29959861],[-104.6151960440611,38.29919857727359],[-104.61516179645908,38.29866103517509],[-104.6152792168076,38.2983961022465],[-104.61538685212687,38.298242517496845],[-104.61574400568678,38.29809277205396],[-104.616325,38.29818712],[-104.61667167935796,38.29807558219491],[-104.61667167935796,38.29668099117012],[-104.6154558433372,38.29669147691712],[-104.6154685,38.29396368],[-104.615397615761,38.29288969710595],[-104.61513477266855,38.292516781403975],[-104.6141487,38.29246078],[-104.61211768461,38.2924761350439],[-104.6120735,38.29010799],[-104.6120002,38.28609236],[-104.611908,38.282061],[-104.61179223095664,38.27895168505424],[-104.61020268721975,38.27895691082816],[-104.60716754843403,38.27898929561968],[-104.60714397454042,38.27985905319247],[-104.6070495,38.28013754],[-104.60720339196904,38.2808055053186],[-104.6095843552104,38.28079162647112],[-104.6100984,38.28086352],[-104.61010011083803,38.28086548471751],[-104.61029136848607,38.28078275773856],[-104.61028356205176,38.28062343143986],[-104.6103106,38.27781242],[-104.6102545,38.27412701],[-104.61023,38.272274],[-104.610079205637,38.2688177090179],[-104.61063,38.26871737]]}},{"type":"Feature","properties":{"agency":"Pueblo Transit","shape_id":"p_1305605"},"geometry":{"type":"LineString","coordinates":[[-104.61063,38.26871737],[-104.61037560940684,38.26877460226655],[-104.6100724366638,38.26879624091555],[-104.61004487550696,38.26787010098411],[-104.60854585816452,38.26787452602139],[-104.60854034593304,38.26720371639732],[-104.60873847659644,38.266827097478654],[-104.60905267380276,38.26654145905107],[-104.6097604,38.26612406],[-104.61095930266347,38.26504000410415],[-104.61225542275908,38.2639780961122],[-104.613185,38.26337626],[-104.61369059600072,38.26283701021322],[-104.61578718666678,38.26114313466496],[-104.61866084149617,38.25886607085553],[-104.61901797462792,38.2587302381844],[-104.61944207022226,38.25861631381244],[-104.619737821097,38.25863822235951],[-104.6218598,38.26039349],[-104.62315365725152,38.26131044534762],[-104.6228969678129,38.26150761472036],[-104.62259005652793,38.26160838997106],[-104.6221938619592,38.26160838997174],[-104.62184230903244,38.26163467914455],[-104.62160794041438,38.261713546605904],[-104.62129544892407,38.26188004429824],[-104.62155213836267,38.26206844912176],[-104.6216078,38.26227948],[-104.62186811884276,38.26247361544552],[-104.6219853031518,38.262631348460985],[-104.62247636120811,38.26225454124503],[-104.62272747044145,38.26213185940415],[-104.62308460357352,38.26201794036666],[-104.62354218039869,38.26192592870564],[-104.6237988698373,38.26178572023605],[-104.6268605,38.26426969],[-104.6294209,38.26623154],[-104.63028882235994,38.26680177333043],[-104.63349381724996,38.26924938094237],[-104.63380009662498,38.26926655684454],[-104.634374,38.26896194],[-104.6398473,38.26454065],[-104.6403236408178,38.26401641902692],[-104.6428111792408,38.26398317426609],[-104.6446568,38.26405063],[-104.6514669,38.2640031],[-104.65214233453216,38.26391252633357],[-104.65287948120236,38.26391252633357],[-104.65290896706932,38.26403985846648],[-104.65307113933665,38.26417297818537],[-104.65326279747092,38.26422506844364],[-104.65350605587192,38.26413246351439],[-104.65367559960607,38.26391831416305],[-104.65576204685858,38.26387342685948],[-104.65613799166034,38.263595610372136],[-104.656816166597,38.263271489794505],[-104.65728056899924,38.26317309576126],[-104.65834943167091,38.26327727767443],[-104.65884331994016,38.263335156450296],[-104.65959520954364,38.26328885343358],[-104.66005224047905,38.26336988369383],[-104.6604612,38.26377223],[-104.66114149533811,38.26386602608116],[-104.6617533270744,38.26384287474502],[-104.66165012654062,38.26193286413636],[-104.6616971,38.26003862],[-104.6614266594314,38.25837862346657],[-104.66339490837954,38.25840467156891],[-104.6643925,38.25847742],[-104.6678846,38.25849187],[-104.671318064411,38.2585247313097],[-104.6713401,38.25794691],[-104.671611766315,38.2546569856797],[-104.6688937,38.25449067],[-104.6657208,38.25442975],[-104.6658275,38.25212724],[-104.6657728689438,38.25186144246251],[-104.66539636983885,38.251832597231925],[-104.6655364,38.24971626],[-104.6656681,38.24769966],[-104.66559456859576,38.247221789879205],[-104.6644351282858,38.24719562427339],[-104.6634851,38.24709556],[-104.66288630510324,38.24714042574453],[-104.66219996974728,38.24711949323762],[-104.66239557353208,38.24315782877244],[-104.6625397,38.24221654],[-104.662392,38.242216],[-104.662401,38.241045],[-104.6624,38.240941],[-104.6624,38.240859],[-104.662404,38.239817],[-104.662402,38.239515],[-104.662403,38.238083],[-104.662404,38.23773],[-104.662405,38.236742],[-104.662405,38.236665],[-104.662406,38.236144],[-104.662407,38.235636],[-104.662404,38.235553],[-104.66241,38.235387],[-104.662272,38.23547],[-104.66204,38.235595],[-104.661899,38.235686],[-104.661029,38.236253],[-104.660485,38.23658],[-104.659939,38.236919],[-104.659669,38.237087],[-104.659049,38.237462],[-104.657828,38.238207],[-104.656987,38.238727],[-104.655995,38.239338],[-104.655875,38.23941],[-104.655544,38.239609],[-104.655272,38.239775],[-104.655157,38.239852],[-104.655081,38.239912],[-104.654681,38.24015],[-104.654543528232,38.2400067591671],[-104.6498785,38.24301535],[-104.64893801146684,38.2435639950981],[-104.64801658865296,38.24391823941377],[-104.64661374814848,38.2439996742896],[-104.6452578,38.24390947]]}},{"type":"Feature","properties":{"agency":"Pueblo Transit","shape_id":"p_1305607"},"geometry":{"type":"LineString","coordinates":[[-104.61063,38.26871737],[-104.61157179450112,38.26877053830526],[-104.61161630666344,38.2709255589067],[-104.61159541716832,38.27118796083056],[-104.6116001242574,38.27131879194363],[-104.61160751371366,38.27132362641191],[-104.6116222926262,38.27154504472944],[-104.608563367663,38.2715857895027],[-104.608554299508,38.2718397093338],[-104.608502,38.27190135],[-104.608479267864,38.2736456855324],[-104.608627,38.27829771],[-104.608672386925,38.2788826989462],[-104.6078749,38.27886906],[-104.604698694032,38.2789913284177],[-104.605084932154,38.2807481754272],[-104.60522449625714,38.28497916370228],[-104.6053593731652,38.285457879196485],[-104.60629422278298,38.28798690030269],[-104.60717244527488,38.29042042674416],[-104.60838827292078,38.29275975425759],[-104.60952403478832,38.29484591154869],[-104.6108588180946,38.2974880150789],[-104.610971040188,38.2978901742631],[-104.61084122545442,38.29804948807083],[-104.6106301137724,38.29818295232289],[-104.60888257817828,38.29820136116385],[-104.60834893475918,38.298215167793074],[-104.60816714414402,38.29810931690176],[-104.60762933821424,38.298126390270994],[-104.6071934,38.29805152],[-104.60596976417364,38.29870089519628],[-104.60606715724349,38.2990246113381],[-104.60636506545684,38.29988628659942],[-104.6063345,38.30342201],[-104.606434083368,38.3043502750606],[-104.6075772,38.30439103],[-104.60774702363985,38.30437840447365],[-104.60775437187,38.30520299059137],[-104.60797481877114,38.30520875689578],[-104.60795644819628,38.305716189807214],[-104.60782050594048,38.305866112487706],[-104.60762945195572,38.30592344797034],[-104.60746411677955,38.3058600192322],[-104.60737226390404,38.30581388920541],[-104.60695708890682,38.30575046037083],[-104.60663376678473,38.30577640853707],[-104.60672194554256,38.30664134210326],[-104.606778597543,38.30815239911013],[-104.60685207984233,38.30922199706649],[-104.6069891100367,38.30985498046908],[-104.60757172249905,38.31064091548541],[-104.60935106358656,38.31135562315711],[-104.610410195186,38.31173236545124],[-104.6108244,38.31204888],[-104.6111639664634,38.31210244553077],[-104.61142212014904,38.31240244746999],[-104.61070979234572,38.31289926572271],[-104.61015925082329,38.31345391678613],[-104.61059635467647,38.31374156440828],[-104.610855,38.313976],[-104.61130136088984,38.31418852230624],[-104.61129854086477,38.31447837966164],[-104.61130700093932,38.31462220158341],[-104.61193022643349,38.31459343722216],[-104.6121096,38.31925507],[-104.61243318975298,38.3196262492674],[-104.61249891987175,38.32020144510511],[-104.61257981848014,38.32037201954515],[-104.6132017265284,38.320383920072544],[-104.61396015097708,38.320542593583895],[-104.617232,38.320582],[-104.61827134186105,38.320488835138605],[-104.61828651034848,38.32155987304856],[-104.61813988162191,38.32185341400984],[-104.61787190498278,38.32202398456295],[-104.61737134484568,38.32211918655466],[-104.61692134633915,38.32215885401547],[-104.61660280807024,38.32226992279038],[-104.61613258491192,38.32276576346035],[-104.6160456382111,38.323611408467485],[-104.61609114367674,38.32426987195123],[-104.6162933901949,38.325499745187614],[-104.61640968194033,38.32605902829352],[-104.61694865755072,38.32772408779826],[-104.6173986560546,38.329068698635496],[-104.6177070819968,38.32960018984432],[-104.61957786230197,38.33121843758892],[-104.62004302929458,38.33186096710895],[-104.62036156756348,38.332630408548425],[-104.62214137799134,38.33223934937868],[-104.6225918,38.33220087]]}},{"type":"Feature","properties":{"agency":"Pueblo Transit","shape_id":"p_1437445"},"geometry":{"type":"LineString","coordinates":[[-104.662376,38.229147],[-104.662377,38.22904],[-104.663297,38.229007],[-104.663643,38.228998],[-104.664042,38.228988],[-104.6646,38.228971],[-104.665228,38.228978],[-104.666075,38.228988],[-104.66629,38.22899],[-104.668136,38.229012],[-104.668304,38.229013],[-104.668182,38.229012],[-104.668698,38.229016],[-104.669438,38.229021],[-104.66964,38.229022],[-104.669829,38.228993],[-104.669999,38.228944],[-104.67018,38.228842],[-104.670352,38.228745],[-104.670685,38.228572],[-104.670936,38.228484],[-104.671011,38.22847],[-104.671225,38.228432],[-104.671487,38.22845],[-104.671823,38.228527],[-104.672114,38.228671],[-104.672653,38.229179],[-104.672402,38.229334],[-104.672069,38.229541],[-104.671005,38.230204],[-104.670797,38.230259],[-104.670184,38.23062],[-104.669049,38.231325],[-104.668897,38.231416],[-104.668993,38.231517],[-104.669083,38.231615],[-104.669669,38.232199],[-104.669773,38.232294],[-104.669912,38.232383],[-104.669972,38.232412],[-104.670146,38.232477],[-104.670342,38.232523],[-104.670508,38.232538],[-104.671662,38.23253],[-104.672233,38.232528],[-104.672659,38.232528],[-104.672944,38.232562],[-104.673201,38.232636],[-104.673458,38.232776],[-104.673661,38.232962],[-104.673974,38.233424],[-104.673988,38.233445],[-104.674251,38.233872],[-104.674494,38.234214],[-104.674725,38.234579],[-104.674843,38.234842],[-104.67485,38.235002],[-104.674854,38.235113],[-104.674774,38.235426],[-104.674753,38.235477],[-104.674572,38.235917],[-104.674557,38.236353],[-104.674557,38.236361],[-104.674544,38.237903],[-104.674549,38.239937],[-104.674442,38.240368],[-104.674226,38.240873],[-104.672832,38.240453],[-104.672469,38.240382],[-104.6721,38.24038],[-104.671165,38.240387],[-104.671165,38.24032],[-104.671165,38.240387],[-104.671163,38.240462],[-104.671144,38.241294],[-104.671038,38.241601],[-104.67087,38.241832],[-104.670696,38.241987],[-104.670469,38.242128],[-104.670067,38.242267],[-104.669707,38.242314],[-104.669353,38.242276],[-104.668539,38.242149],[-104.668173,38.242118],[-104.667749,38.24212],[-104.667261,38.242158],[-104.66717,38.242177],[-104.666904,38.242235],[-104.666806,38.242265],[-104.66648,38.242367],[-104.665963,38.242574],[-104.66542,38.242897],[-104.664743,38.243533],[-104.664714,38.243574],[-104.664621,38.243703],[-104.66452,38.243879],[-104.66446,38.243985],[-104.66435,38.244285],[-104.66425,38.244623],[-104.664241,38.244687],[-104.664218,38.244882],[-104.664208,38.244989],[-104.664194,38.245263],[-104.664187,38.245701],[-104.664182,38.245976],[-104.664174,38.246673],[-104.664174,38.246706],[-104.664165,38.247192],[-104.663862,38.247182],[-104.663847,38.247181],[-104.663589,38.247173],[-104.66348,38.247168],[-104.663138,38.247154],[-104.663047,38.247153],[-104.662574,38.247134],[-104.66218,38.24712],[-104.662175,38.247235],[-104.662109,38.248254],[-104.662087,38.248588],[-104.662071,38.248844],[-104.662069,38.248853],[-104.662014,38.249739],[-104.661946,38.250766],[-104.66185647931036,38.25211691116294],[-104.6618604221124,38.2520864604343],[-104.661833,38.252511],[-104.661806,38.252915],[-104.661776,38.2534],[-104.661749,38.25382],[-104.661709,38.254441],[-104.661683,38.254936],[-104.661604,38.255979],[-104.661508,38.257377],[-104.661453,38.258185],[-104.661454,38.25839],[-104.661459,38.25858],[-104.661464,38.258746],[-104.661564,38.259982],[-104.661586,38.260257],[-104.661599,38.26041],[-104.661758,38.263846],[-104.661609,38.26385],[-104.661534,38.263852],[-104.661395,38.263855],[-104.661133,38.263861],[-104.660866,38.263852],[-104.660681,38.263817],[-104.660599,38.263774],[-104.660482,38.263691],[-104.660178,38.263452],[-104.660151,38.263422],[-104.660091,38.263355],[-104.660044,38.263311],[-104.660003,38.263259],[-104.659977,38.263215],[-104.659953,38.263152],[-104.659938,38.26306],[-104.659938,38.263059],[-104.659926,38.262989],[-104.659929,38.262886],[-104.659929,38.26285],[-104.659922,38.262112],[-104.659918,38.261585],[-104.659909,38.260219],[-104.657696,38.260242],[-104.655293,38.260267],[-104.655095,38.260268],[-104.654874,38.260269],[-104.654044,38.260273],[-104.653334,38.260277],[-104.653222,38.260278],[-104.653198,38.261646],[-104.653198,38.261738],[-104.653162,38.2618],[-104.653014,38.261957],[-104.652967,38.262041],[-104.652965,38.262111],[-104.652983,38.262183],[-104.653072,38.262271],[-104.653174,38.262341],[-104.653195,38.262381],[-104.653222,38.262454],[-104.653226,38.262578],[-104.653226,38.263426],[-104.653208,38.263491],[-104.653168,38.263548],[-104.653059,38.263658],[-104.653004,38.263692],[-104.652917,38.263754],[-104.652884,38.263807],[-104.652861,38.263909],[-104.65221,38.263918],[-104.65202,38.263916],[-104.651553,38.263922],[-104.651246,38.263928],[-104.650931,38.263928],[-104.650465,38.263931],[-104.65035,38.263932],[-104.649916,38.263933],[-104.649768,38.263934],[-104.649199,38.263941],[-104.648622,38.263948],[-104.648043,38.263949],[-104.647482,38.26395],[-104.646909,38.263954],[-104.64632,38.263972],[-104.645749,38.263977],[-104.645174,38.26398],[-104.644613,38.263983],[-104.644029,38.263987],[-104.64402,38.263987],[-104.64402,38.26398],[-104.644026,38.263789],[-104.644021,38.26352],[-104.644012,38.263068],[-104.644009,38.262598],[-104.644014,38.262445],[-104.64401,38.262288],[-104.644008,38.262187],[-104.644008,38.262138],[-104.643976,38.26035],[-104.643962,38.259143],[-104.643958,38.258832],[-104.643963,38.258539],[-104.64377,38.258543],[-104.643461,38.258549],[-104.643379,38.258548],[-104.642824,38.258549],[-104.642249,38.258554],[-104.641664,38.258559],[-104.641098,38.25856],[-104.640521,38.25856],[-104.639945,38.258565],[-104.639513,38.258569],[-104.63951,38.258569],[-104.639368,38.25857],[-104.638802,38.258574],[-104.638286,38.258581],[-104.638203,38.258582],[-104.638089,38.258592],[-104.637769,38.258629],[-104.637672,38.258649],[-104.637618,38.258665],[-104.637358,38.258746],[-104.636982,38.258926],[-104.636881,38.258995],[-104.63646,38.259284],[-104.636148,38.259552],[-104.63495,38.260539],[-104.633696,38.261529],[-104.633266,38.261875],[-104.63249,38.262499],[-104.631285,38.26349],[-104.630066,38.264463],[-104.629444,38.264958],[-104.629173,38.265185],[-104.629059,38.26528],[-104.628855,38.265451],[-104.628728,38.26556],[-104.628143,38.265991],[-104.628089,38.26603],[-104.627993,38.266105],[-104.627566,38.266433],[-104.627375,38.266646],[-104.627286,38.266747],[-104.626973,38.267096],[-104.626905,38.267156],[-104.6266,38.267425],[-104.626517,38.267481],[-104.626352,38.267593],[-104.626051,38.267797],[-104.625996,38.267833],[-104.625618,38.268047],[-104.62527,38.268312],[-104.623616,38.269575],[-104.623163,38.269884],[-104.622855,38.270066],[-104.622493,38.270209],[-104.622104,38.270328],[-104.621722,38.270404],[-104.621304,38.27045],[-104.620937,38.270458],[-104.620269,38.270462],[-104.61968,38.270466],[-104.618659,38.270485],[-104.618571,38.270485],[-104.618537,38.270485],[-104.618302,38.270489],[-104.617902,38.270497],[-104.617636,38.270501],[-104.617205,38.270509],[-104.61695,38.270514],[-104.616815,38.270517],[-104.616642,38.27052],[-104.616116,38.270526],[-104.615022,38.270539],[-104.61485,38.270541],[-104.614605,38.270588],[-104.614255,38.270591],[-104.614242,38.270591],[-104.614092,38.270593],[-104.613765,38.270596],[-104.613745,38.270596],[-104.613093,38.270602],[-104.61285,38.270605],[-104.612383,38.270611],[-104.612075,38.270615],[-104.61175,38.270618],[-104.611603,38.27062],[-104.61157594141793,38.26876183727069],[-104.6106300697382,38.26877016739991]]}},{"type":"Feature","properties":{"agency":"Pueblo Transit","shape_id":"p_1437446"},"geometry":{"type":"LineString","coordinates":[[-104.6106312197611,38.26877259464658],[-104.61018599889957,38.26877259464658],[-104.61005661847828,38.268796495439176],[-104.61006,38.26858],[-104.610052,38.268343],[-104.610047,38.268246],[-104.610042,38.26821],[-104.610036,38.267974],[-104.610037,38.267867],[-104.609961,38.267869],[-104.609845,38.267869],[-104.609537,38.26787],[-104.609339,38.267872],[-104.609096,38.267875],[-104.608523,38.267881],[-104.607994,38.267891],[-104.607815,38.267895],[-104.607612,38.267899],[-104.607162,38.267907],[-104.607011,38.26791],[-104.607007,38.267785],[-104.607001,38.267555],[-104.606997,38.267415],[-104.606995,38.267335],[-104.606989,38.267121],[-104.606986,38.267002],[-104.606983,38.266844],[-104.606982,38.266797],[-104.606976,38.266442],[-104.606976,38.265901],[-104.606972,38.265679],[-104.606965,38.265243],[-104.60696,38.265075],[-104.606956,38.264869],[-104.606954,38.264653],[-104.606954,38.264606],[-104.606952,38.26444],[-104.606948,38.264103],[-104.606946,38.263769],[-104.606945,38.263658],[-104.606929,38.26305],[-104.606918,38.262825],[-104.606916,38.262783],[-104.606897,38.262388],[-104.606888,38.262208],[-104.606886,38.262166],[-104.606878,38.261986],[-104.606877,38.261973],[-104.606871,38.261726],[-104.60686,38.261168],[-104.606852,38.260833],[-104.606845,38.26071],[-104.606842,38.259794],[-104.606837,38.259315],[-104.606835,38.258985],[-104.606832,38.258435],[-104.606832,38.258195],[-104.606831,38.258119],[-104.606817,38.257616],[-104.606806,38.257249],[-104.60678,38.256673],[-104.606753,38.256003],[-104.606737,38.255602],[-104.606733,38.255525],[-104.606793,38.255458],[-104.606755,38.25489],[-104.606739,38.254108],[-104.60675,38.253735],[-104.606778,38.253125],[-104.606792,38.253003],[-104.606799,38.252881],[-104.606803,38.252774],[-104.606798,38.252461],[-104.606758,38.252104],[-104.60672,38.251293],[-104.606676,38.251199],[-104.606684,38.250544],[-104.606685,38.250347],[-104.60669,38.250026],[-104.606669,38.249178],[-104.606651,38.248454],[-104.606644,38.248143],[-104.606641,38.248028],[-104.606636,38.247726],[-104.606626,38.247335],[-104.606613,38.247112],[-104.606601,38.246636],[-104.606599,38.246559],[-104.606588,38.246117],[-104.606576,38.245749],[-104.606519,38.244126],[-104.607188,38.244126],[-104.607767,38.244125],[-104.608933,38.244126],[-104.610088,38.244126],[-104.61132,38.244139],[-104.612375,38.244128],[-104.612466,38.244126],[-104.612677,38.244125],[-104.613041,38.244122],[-104.613589,38.244117],[-104.61373,38.244115],[-104.613878,38.244115],[-104.614326,38.244113],[-104.614827,38.244111],[-104.614937,38.244113],[-104.614905,38.243994],[-104.614899,38.243761],[-104.614905,38.243994],[-104.614937,38.244113],[-104.614996,38.24411],[-104.61505,38.24411],[-104.615506,38.244108],[-104.616019,38.244106],[-104.616158,38.244105],[-104.616255,38.244105],[-104.616743,38.244103],[-104.617215,38.244101],[-104.617301,38.2441],[-104.617413,38.2441],[-104.617885,38.244098],[-104.618371,38.244094],[-104.618463,38.244093],[-104.618548,38.244093],[-104.61902,38.24409],[-104.619079,38.244089],[-104.619613,38.24408],[-104.620084,38.244097],[-104.620172,38.2441],[-104.62067,38.244148],[-104.620765,38.244157],[-104.620923,38.244172],[-104.621074,38.244186],[-104.621206,38.244193],[-104.62135,38.244201],[-104.621887,38.24421],[-104.621919,38.244209],[-104.622428,38.2442],[-104.622522,38.244198],[-104.622923,38.244191],[-104.623045,38.244189],[-104.623325,38.244186],[-104.623455,38.244185],[-104.623707,38.244185],[-104.624256,38.244184],[-104.624793,38.24418],[-104.625139,38.244178],[-104.625387,38.244176],[-104.625381,38.243925],[-104.625377,38.24373],[-104.625375,38.243647],[-104.625377,38.24373],[-104.625381,38.243925],[-104.625387,38.244176],[-104.625981,38.24417],[-104.626541,38.24417],[-104.627113,38.244168],[-104.627499,38.244164],[-104.627596,38.244163],[-104.627685,38.244162],[-104.627774,38.24416],[-104.62826,38.244159],[-104.628833,38.244154],[-104.629435,38.244152],[-104.629988,38.244145],[-104.630521,38.244134],[-104.630566,38.244135],[-104.631134,38.244129],[-104.631716,38.244127],[-104.632281,38.244126],[-104.632869,38.244116],[-104.633442,38.244118],[-104.634023,38.244108],[-104.634513,38.244106],[-104.634597,38.244106],[-104.634595,38.244017],[-104.63459,38.243796],[-104.634595,38.244017],[-104.634597,38.244106],[-104.634687,38.244106],[-104.63516,38.244105],[-104.635731,38.244104],[-104.636329,38.244096],[-104.636563,38.244093],[-104.636888,38.244089],[-104.63745,38.244083],[-104.637666,38.244081],[-104.637849,38.244079],[-104.638047,38.244078],[-104.638334,38.244074],[-104.63863169467068,38.2440728643591],[-104.63862842827892,38.24407163376134],[-104.639175,38.244068],[-104.639804,38.244065],[-104.642622,38.244047],[-104.64317,38.244045],[-104.643375,38.244045],[-104.643544,38.244043],[-104.643626,38.244043],[-104.643777,38.244048],[-104.643846,38.244049],[-104.64391,38.244099],[-104.644372,38.244095],[-104.645085,38.244087],[-104.646543,38.244077],[-104.646887,38.244078],[-104.647173,38.244076],[-104.647342,38.244073],[-104.647335,38.244125],[-104.647342,38.244073],[-104.647449,38.244066],[-104.647596,38.244054],[-104.647855,38.244023],[-104.648115,38.243973],[-104.648339,38.243911],[-104.648536,38.243848],[-104.648747,38.243768],[-104.648991,38.243665],[-104.649174,38.243584],[-104.649459,38.243448],[-104.649755,38.243288],[-104.650102,38.243086],[-104.650547,38.242821],[-104.652017,38.241916],[-104.65318,38.241203],[-104.654239,38.240552],[-104.654537,38.240364],[-104.654847,38.24017],[-104.65514,38.239985],[-104.655236,38.239926],[-104.655307,38.23999],[-104.655737,38.240412],[-104.656056,38.240742],[-104.656393,38.240896],[-104.656648,38.240939],[-104.6567,38.240939],[-104.656972,38.240937],[-104.657368,38.240935],[-104.657975,38.240937],[-104.658625,38.240939],[-104.659254,38.240936],[-104.659614,38.240934],[-104.660636,38.240933],[-104.661682,38.240933],[-104.662239,38.240945],[-104.6624,38.240941],[-104.6624,38.240859],[-104.662404,38.239817],[-104.662402,38.239515],[-104.662403,38.238083],[-104.66240584081837,38.23774287147282],[-104.66240556378638,38.23773829932222],[-104.662405,38.236742],[-104.662405,38.236665],[-104.662406,38.236144],[-104.662407,38.235636],[-104.662404,38.235553],[-104.66241,38.235387],[-104.662403,38.235292],[-104.662399,38.234986],[-104.662397,38.23483],[-104.662396,38.234422],[-104.662395,38.234354],[-104.662394,38.233637],[-104.662393,38.233451],[-104.662393,38.233276],[-104.662392,38.232884],[-104.662382542,38.232347],[-104.66238546176449,38.232338835735305],[-104.662394,38.231788],[-104.662393,38.230699],[-104.662376,38.229147]]}},{"type":"Feature","properties":{"agency":"Pueblo Transit","shape_id":"p_1437447"},"geometry":{"type":"LineString","coordinates":[[-104.61063,38.26871737],[-104.61157179450112,38.26877053830526],[-104.61161630666344,38.2709255589067],[-104.61159541716832,38.27118796083056],[-104.6116001242574,38.27131879194363],[-104.611615,38.271319],[-104.61161500747669,38.27153326263115],[-104.60707667429952,38.27159535824481],[-104.6071306030534,38.27437553821977],[-104.606655,38.274378],[-104.606387,38.27438],[-104.606009,38.274383],[-104.605594,38.274387],[-104.604446,38.274402],[-104.60426,38.274404],[-104.602274,38.274432],[-104.601978,38.27444],[-104.600499,38.274523],[-104.600337,38.274525],[-104.599905,38.27453],[-104.598385,38.274569],[-104.598389,38.274651],[-104.598385,38.274569],[-104.597794,38.274584],[-104.596895,38.274606],[-104.595389,38.274642],[-104.595397,38.27487],[-104.595406,38.275106],[-104.595423,38.27556],[-104.595442,38.276024],[-104.59546,38.276475],[-104.595475,38.27695],[-104.595489,38.277401],[-104.595513,38.277871],[-104.595525,38.278122],[-104.595535,38.278324],[-104.595555,38.278788],[-104.595574,38.279246],[-104.595589,38.279711],[-104.595604,38.280173],[-104.595606,38.280645],[-104.595608,38.281062],[-104.595594,38.283709],[-104.595594,38.284009],[-104.595603,38.284143],[-104.595619,38.284354],[-104.595631,38.284386],[-104.595682,38.284529],[-104.595819,38.284711],[-104.595907,38.284764],[-104.596042,38.284846],[-104.596189,38.284913],[-104.596337,38.284982],[-104.59634,38.284983],[-104.596607,38.285106],[-104.596778,38.285201],[-104.596845,38.285258],[-104.596915,38.285319],[-104.597029,38.285447],[-104.5971,38.28563],[-104.597121,38.285798],[-104.597122,38.28588],[-104.597129,38.286013],[-104.59713,38.28604],[-104.597135,38.286335],[-104.597126,38.286582],[-104.597128,38.286642],[-104.597125,38.286784],[-104.597045,38.28685],[-104.597012,38.287043],[-104.596986,38.287181],[-104.596938,38.287358],[-104.596917,38.287429],[-104.596899,38.287484],[-104.596856,38.287591],[-104.596812,38.287682],[-104.596589,38.288117],[-104.596363,38.288403],[-104.596181,38.288634],[-104.596071,38.288747],[-104.59571,38.289092],[-104.595706,38.289097],[-104.595562,38.289239],[-104.595463,38.289337],[-104.595363,38.28941],[-104.595011,38.289697],[-104.595077,38.289758],[-104.595415,38.290069],[-104.595445,38.290096],[-104.595578,38.290212],[-104.595656,38.29028],[-104.59575,38.290362],[-104.59595,38.290536],[-104.596266,38.290816],[-104.596544,38.291062],[-104.596876,38.291351],[-104.597042,38.291497],[-104.59706,38.291516],[-104.59718,38.291644],[-104.597291,38.291776],[-104.597512,38.292084],[-104.597713,38.292454],[-104.597844,38.292798],[-104.597915,38.293134],[-104.597939,38.293423],[-104.597974,38.294783],[-104.5978727,38.29478463],[-104.5979486,38.29714505],[-104.5981087,38.302027],[-104.5981717,38.303787],[-104.598287,38.303784],[-104.598294,38.303964],[-104.598312,38.304793],[-104.598321,38.305259],[-104.59833,38.305674],[-104.598348,38.306229],[-104.598354,38.306406],[-104.59836,38.306546],[-104.598367,38.306717],[-104.598373,38.306855],[-104.598385,38.307132],[-104.598388,38.307198],[-104.598401,38.307458],[-104.598425,38.308123],[-104.598433,38.308289],[-104.598444,38.308679],[-104.598445,38.308696],[-104.598449,38.308791],[-104.598457,38.309054],[-104.598467,38.309279],[-104.598476,38.309399],[-104.598501,38.309518],[-104.598574,38.309724],[-104.598702,38.310079],[-104.598697,38.310081],[-104.598327,38.310218],[-104.598246,38.310239],[-104.598165,38.310252],[-104.598097,38.310249],[-104.598012,38.310223],[-104.597944,38.310184],[-104.597892,38.310134],[-104.597814,38.310006],[-104.59774,38.309847],[-104.597693,38.309723],[-104.597673762,38.309672609],[-104.59763005052676,38.30941629399084],[-104.5976249156594,38.30941509005129],[-104.59755359238927,38.30903968069245],[-104.59745772770636,38.30883108544242],[-104.59735160919008,38.30872640412977],[-104.59715453194532,38.30861696441372],[-104.59673308983696,38.3085384532115],[-104.5965269167194,38.30852417843829],[-104.59652379086016,38.30968996754484],[-104.5976607749647,38.30967093481567],[-104.59774263781996,38.30994928798398],[-104.59794577898003,38.31020860749644],[-104.59812769643692,38.3102680843177],[-104.5988189827724,38.31004683029448],[-104.59873408795931,38.30993263440604],[-104.59860674573947,38.309808921989855],[-104.59854004267208,38.30966617663225],[-104.5984884993925,38.30948060724788],[-104.598457,38.309054],[-104.598622,38.30884],[-104.598693,38.308771],[-104.598705,38.308762],[-104.598758,38.308722],[-104.598808,38.308696],[-104.598879,38.308671],[-104.598964,38.308646],[-104.599217,38.308571],[-104.599321,38.308482],[-104.599393,38.308456],[-104.59949,38.308413],[-104.599856,38.308247],[-104.600133,38.30813],[-104.6004,38.308031],[-104.600543,38.30798],[-104.600784,38.307903],[-104.600941,38.307859],[-104.601235,38.307789],[-104.601523,38.307733],[-104.601789,38.307695],[-104.601973,38.307674],[-104.60204,38.307663],[-104.602373,38.30761],[-104.602754,38.307578],[-104.604673,38.307431],[-104.606159,38.307279],[-104.606656,38.307249],[-104.606742,38.307244],[-104.606917,38.307239],[-104.606912,38.307081],[-104.606912,38.306965],[-104.606911,38.306712],[-104.606887,38.306357],[-104.606864,38.306121],[-104.606856,38.306042],[-104.606798,38.305756],[-104.607136933,38.305761269],[-104.607402204,38.30581331],[-104.607636872,38.305921866],[-104.607786244,38.305876493],[-104.607901887,38.305808433],[-104.607969346,38.305668532],[-104.607974164,38.305222359],[-104.607757334,38.305211015],[-104.607751798,38.30446094],[-104.60777589,38.304317255],[-104.607578,38.304319],[-104.607048,38.304318],[-104.607025,38.304318],[-104.606534,38.304316],[-104.606523,38.30363],[-104.606518,38.303131],[-104.606517,38.303069],[-104.606512,38.301583],[-104.606511,38.301523],[-104.606513,38.300692],[-104.606516,38.299905],[-104.606464,38.299645],[-104.606356,38.299324],[-104.606343,38.299284],[-104.606292,38.298985],[-104.606327,38.298828],[-104.60639,38.298698],[-104.606446,38.298646],[-104.606658,38.298449],[-104.606926,38.298336],[-104.607074,38.298282],[-104.607252,38.298261],[-104.607502,38.298258],[-104.607642,38.298257],[-104.608148,38.298258],[-104.608362,38.298248],[-104.608366,38.298123],[-104.608367,38.298069],[-104.608366,38.298123],[-104.608362,38.298248],[-104.611129,38.298213],[-104.611265,38.298208],[-104.611445,38.298207],[-104.611998,38.298193],[-104.612136,38.298161],[-104.612223,38.298173],[-104.612476,38.298164],[-104.612772,38.298153],[-104.613061,38.298142],[-104.613209,38.298136],[-104.613644,38.29812],[-104.614008,38.298117],[-104.614098,38.298116],[-104.614153,38.298115],[-104.614623,38.298111],[-104.614798,38.298228],[-104.615019,38.298449],[-104.615158,38.298677],[-104.615162,38.298679],[-104.615166,38.298894],[-104.615169,38.299008],[-104.61517,38.299062],[-104.615173,38.299103],[-104.615175,38.299357],[-104.615176,38.299422],[-104.615176,38.299435],[-104.61518,38.299589],[-104.615184,38.299794],[-104.615186,38.299951],[-104.615189,38.300075],[-104.615202,38.300754],[-104.61521,38.301209],[-104.615213,38.30134],[-104.615214,38.30138],[-104.615226,38.301992],[-104.61523,38.302206],[-104.615232,38.30229],[-104.615231,38.302313],[-104.615233,38.302354],[-104.615235,38.302441],[-104.61524,38.302743],[-104.615241,38.302768],[-104.615242,38.302816],[-104.615244,38.302962],[-104.615245,38.303004],[-104.615247,38.303115],[-104.615252,38.303202],[-104.61527,38.303554],[-104.615267,38.303904],[-104.615266,38.304081],[-104.615267,38.304122],[-104.615269,38.304225],[-104.615272,38.304383],[-104.615275,38.304547],[-104.615276,38.304671],[-104.615282,38.304976],[-104.615285,38.305087],[-104.61529,38.30537],[-104.61529,38.305401],[-104.615293,38.305481],[-104.615296,38.305553],[-104.615296,38.305633],[-104.615306,38.30576],[-104.615308,38.305788],[-104.615276,38.305828],[-104.61525,38.305912],[-104.615277,38.306082],[-104.615317,38.306216],[-104.615337,38.306278],[-104.615406,38.306451],[-104.61543,38.306512],[-104.615488,38.306629],[-104.615514,38.306681],[-104.615715,38.307087],[-104.615866,38.307614],[-104.615844,38.307791],[-104.615814,38.307894],[-104.615715,38.308227],[-104.615477,38.308815],[-104.615462,38.308852],[-104.615687,38.308846],[-104.616453,38.308829],[-104.616778,38.308826],[-104.616994,38.30884],[-104.617193,38.308887],[-104.617435,38.308994],[-104.617484,38.309016],[-104.617714,38.309118],[-104.618072,38.309255],[-104.618237,38.309289],[-104.618327,38.309307],[-104.619108,38.309286],[-104.619848,38.309269],[-104.619917,38.309267],[-104.62019,38.309214],[-104.620231,38.309206],[-104.620517,38.309151],[-104.620525,38.309288],[-104.620556,38.309416],[-104.620568,38.309464],[-104.620696,38.309701],[-104.620733,38.309748],[-104.620845,38.309892],[-104.620862,38.309914],[-104.620919,38.310059],[-104.62094,38.310148],[-104.620945,38.310172],[-104.620953,38.310408],[-104.620956,38.31051],[-104.620965,38.310775],[-104.620966,38.310806],[-104.62097,38.311223],[-104.620971,38.311289],[-104.620973,38.311333],[-104.620983,38.311643],[-104.62099398673998,38.31186933448183],[-104.62099814541216,38.31187581653492],[-104.62101478010985,38.312561063275865],[-104.62626124844046,38.31248754041383],[-104.626239,38.312487],[-104.626654,38.312481],[-104.626784,38.31248],[-104.626815,38.312479],[-104.626984,38.312471],[-104.627133,38.312469],[-104.627676,38.312461],[-104.627798,38.31246],[-104.627826,38.312459],[-104.628187,38.312454],[-104.628356,38.312449],[-104.628507,38.312443],[-104.628757,38.312405],[-104.628823,38.312385],[-104.629063,38.312312],[-104.629203,38.312241],[-104.629364,38.312159],[-104.62969,38.311928],[-104.629889,38.311701],[-104.63,38.311507],[-104.630057,38.311381],[-104.630093,38.311276],[-104.630121,38.311165],[-104.630166,38.310969],[-104.63018,38.310906],[-104.630236,38.310634],[-104.630288,38.310409],[-104.63029,38.3104],[-104.630422,38.309795],[-104.630437,38.30973],[-104.63046,38.309632],[-104.630492,38.309513],[-104.630512,38.309434],[-104.630515,38.309417],[-104.630536,38.309337],[-104.630581,38.309155],[-104.630637,38.30894],[-104.630685,38.308767],[-104.630752,38.308518],[-104.630775,38.308431],[-104.630879,38.308005],[-104.63097,38.308016],[-104.630879,38.308005],[-104.630949,38.307694],[-104.630988,38.307469],[-104.631023,38.307243],[-104.631034,38.306987],[-104.631037,38.306754],[-104.631026,38.306508],[-104.631002,38.306324],[-104.63097,38.306121],[-104.630938,38.30594],[-104.63089,38.305762],[-104.630832,38.305519],[-104.630798,38.305339],[-104.630782,38.305187],[-104.630772,38.304982],[-104.630749,38.304165],[-104.630717,38.303238],[-104.630716,38.303223],[-104.630745,38.303193],[-104.630716,38.303223],[-104.630708,38.303169],[-104.63069,38.303117],[-104.63064,38.303014],[-104.630576,38.302951],[-104.630482,38.302887],[-104.630376,38.302836],[-104.630251,38.302796],[-104.630065,38.302788],[-104.629229,38.3028],[-104.627902,38.302821],[-104.627778,38.302803],[-104.627627,38.302753],[-104.627529,38.302711],[-104.627361,38.302623],[-104.626789,38.302321],[-104.626778,38.302313],[-104.626719,38.302271],[-104.626653,38.302207],[-104.626611,38.302128],[-104.6266,38.302058],[-104.626599,38.302053],[-104.626586,38.301621],[-104.626569,38.300805],[-104.626569,38.299552],[-104.626708,38.29955],[-104.626569,38.299552],[-104.626517,38.297953],[-104.625877,38.297961],[-104.625263,38.297959],[-104.624666,38.297968],[-104.624075,38.297966],[-104.623465,38.297973],[-104.622857,38.297988],[-104.622245,38.297994],[-104.621775,38.298004],[-104.621648,38.298007],[-104.621051,38.298019],[-104.620444,38.298031],[-104.61985,38.298033],[-104.61925,38.298036],[-104.618655,38.298046],[-104.61805,38.298059],[-104.617371,38.298067],[-104.617176,38.298071],[-104.616815,38.298074],[-104.616674,38.298075],[-104.616094,38.298084],[-104.615816,38.298088],[-104.615287,38.298095],[-104.615032,38.298101],[-104.614623,38.298111],[-104.614153,38.298115],[-104.614098,38.298116],[-104.614008,38.298117],[-104.613644,38.29812],[-104.613209,38.298136],[-104.613061,38.298142],[-104.612772,38.298153],[-104.612476,38.298164],[-104.612223,38.298173],[-104.611959,38.297748],[-104.610929,38.296353],[-104.610182,38.295479],[-104.609904,38.29508],[-104.609624,38.294651],[-104.609347,38.294152],[-104.607569,38.290822],[-104.607356,38.290405],[-104.607235,38.290148],[-104.607107,38.289827],[-104.606967,38.289462],[-104.606431,38.28796],[-104.606332,38.287684],[-104.606114,38.287084],[-104.605974,38.286702],[-104.605779,38.286163],[-104.605626,38.285729],[-104.605489,38.285314],[-104.605399,38.284941],[-104.605343,38.284579],[-104.605317,38.284219],[-104.605303,38.283803],[-104.605294,38.283072],[-104.605285,38.281873],[-104.605317,38.281146],[-104.605339,38.280598],[-104.605347,38.280237],[-104.605336,38.279923],[-104.605292,38.279564],[-104.605232,38.279248],[-104.605173,38.279002],[-104.605103,38.27876],[-104.60505,38.278592],[-104.604996,38.278434],[-104.604915,38.278236],[-104.604816,38.278024],[-104.60451,38.277408],[-104.604365,38.277094],[-104.604239,38.276776],[-104.604181,38.276598],[-104.604135,38.276419],[-104.604097,38.276245],[-104.604072,38.276088],[-104.604054,38.275965],[-104.604045,38.275827],[-104.604014,38.274573],[-104.604019,38.274085],[-104.604033,38.273805],[-104.604062,38.273632],[-104.60409,38.273495],[-104.604129,38.273345],[-104.604201,38.273098],[-104.604368,38.272837],[-104.604422,38.272745],[-104.604548,38.272648],[-104.604656,38.272599],[-104.604771,38.272568],[-104.604907,38.272553],[-104.605568,38.272547],[-104.605999,38.27254],[-104.606339,38.272535],[-104.607098,38.272524],[-104.607257,38.272521],[-104.607713,38.272512],[-104.607967,38.272506],[-104.608081,38.272505],[-104.608521,38.272497],[-104.608633,38.272495],[-104.608791,38.272492],[-104.609269,38.272484],[-104.609407,38.272482],[-104.610116,38.27247],[-104.610104,38.27156],[-104.610097,38.271175],[-104.610098,38.271104],[-104.610092,38.270638],[-104.610091,38.270557],[-104.610086,38.270188],[-104.610081,38.269795],[-104.61008,38.269703],[-104.610079,38.269633],[-104.610076,38.269349],[-104.610075,38.26926],[-104.610073,38.269203],[-104.610059,38.268798],[-104.61017312136288,38.26877490633899],[-104.61062321953916,38.26877490633899]]}},{"type":"Feature","properties":{"agency":"Pueblo Transit","shape_id":"p_1438816"},"geometry":{"type":"LineString","coordinates":[[-104.61062961182996,38.26876659975247],[-104.61018120894286,38.268777670425465],[-104.61006840318512,38.26879538349942],[-104.610052,38.268343],[-104.610047,38.268246],[-104.610042,38.26821],[-104.610131,38.267971],[-104.610168,38.267865],[-104.610201,38.267865],[-104.610423,38.267869],[-104.610508,38.26787],[-104.610975,38.267866],[-104.611403,38.267863],[-104.611551,38.267861],[-104.61155,38.26777],[-104.611547,38.267397],[-104.611543,38.26705],[-104.611543,38.266938],[-104.611541,38.266844],[-104.611547,38.266739],[-104.61155342998642,38.26672371672288],[-104.61155793347864,38.26650095752365],[-104.611479319,38.266300456],[-104.611260314,38.266074362],[-104.610473388,38.265470659],[-104.610434342,38.26544236],[-104.612761004,38.263584681],[-104.613185,38.26337626],[-104.61380775406364,38.26272681986484],[-104.61489929731128,38.2618614364994],[-104.6182237991883,38.25920317845467],[-104.61853642565232,38.25896601965198],[-104.61881725959498,38.25884535960978],[-104.61902920974016,38.258741342174005],[-104.61937362872598,38.25863732458936],[-104.61969155394344,38.25860819963864],[-104.6212228937423,38.259785670471246],[-104.6216994,38.25952714],[-104.624105,38.25761238],[-104.6286817830627,38.253803417345694],[-104.6278976051868,38.25317477721953],[-104.6278326703258,38.252919815682105],[-104.6278619,38.25241734],[-104.6278346,38.24974435],[-104.6277307,38.24338361],[-104.6277114,38.24032556],[-104.627683885556,38.2369664750675],[-104.6283886,38.2369645],[-104.6368962,38.23691842],[-104.63795589338972,38.23682786794254],[-104.63798850101549,38.24044609976622],[-104.6367055,38.24039303]]}},{"type":"Feature","properties":{"agency":"Pueblo Transit","shape_id":"p_1438817"},"geometry":{"type":"LineString","coordinates":[[-104.61063,38.26871737],[-104.61157179450112,38.26877053830526],[-104.61161630666344,38.2709255589067],[-104.61159541716832,38.27118796083056],[-104.6116001242574,38.27131879194363],[-104.6114675,38.27132084],[-104.61154771516,38.2724668546001],[-104.612972,38.27254897],[-104.614793188262,38.2725044055286],[-104.614764,38.271741],[-104.614627,38.271743],[-104.614625,38.271651],[-104.614622,38.271507],[-104.614619,38.271362],[-104.614613,38.271047],[-104.614614,38.27104],[-104.614605,38.270588],[-104.61486,38.270642],[-104.615456,38.270632],[-104.616115,38.270628],[-104.616653,38.270621],[-104.61679,38.270623],[-104.61697,38.270622],[-104.617261,38.270619],[-104.617634,38.270615],[-104.618066,38.27061],[-104.618542,38.270605],[-104.618659,38.270602],[-104.619568,38.270594],[-104.619596,38.270594],[-104.62033,38.270587],[-104.620586,38.270585],[-104.620628,38.270585],[-104.621118,38.270583],[-104.621448,38.270569],[-104.621814,38.270522],[-104.622258,38.270438],[-104.622597,38.270335],[-104.622943,38.270197],[-104.623326,38.269975],[-104.623737,38.269672],[-104.62525,38.268523],[-104.625391,38.268416],[-104.625712,38.268172],[-104.625996,38.267833],[-104.626051,38.267797],[-104.626352,38.267593],[-104.626517,38.267481],[-104.6266,38.267425],[-104.626905,38.267156],[-104.626973,38.267096],[-104.627286,38.266747],[-104.627375,38.266646],[-104.627566,38.266433],[-104.627993,38.266105],[-104.628089,38.26603],[-104.628143,38.265991],[-104.628728,38.26556],[-104.628855,38.265451],[-104.629173,38.265185],[-104.629444,38.264958],[-104.629539,38.265032],[-104.6293999890528,38.26500623996671],[-104.6341096,38.26132919],[-104.637239255741,38.2588854884437],[-104.638026484133,38.2587151681611],[-104.6391735,38.25865481],[-104.644088276868,38.2586065386895],[-104.6440497,38.25785417],[-104.6439777,38.25288122],[-104.6439639,38.25024195],[-104.6439399,38.24552818],[-104.64393673205,38.2421753252849],[-104.6453486,38.24220939],[-104.647419580663,38.2421659375528],[-104.6473398,38.24094538],[-104.6473787,38.2391269],[-104.6510796,38.23904998],[-104.6545314,38.23903162],[-104.6547585,38.23521935],[-104.6547404,38.23262241],[-104.6547346,38.22901551],[-104.6546908,38.22618027],[-104.6546313,38.22122974],[-104.6546014,38.21880228],[-104.6593314,38.21865043],[-104.6594321,38.22088924],[-104.659505615205,38.2241321041663],[-104.660317,38.2241496],[-104.661281237679,38.2241669728855],[-104.662169048915,38.2251674369077],[-104.6621449,38.22633162],[-104.662223,38.22933023],[-104.6622213,38.23234786],[-104.662227,38.23412386]]}},{"type":"Feature","properties":{"agency":"Pueblo Transit","shape_id":"p_1438818"},"geometry":{"type":"LineString","coordinates":[[-104.662227,38.23412386],[-104.662249,38.23649018],[-104.662246832982,38.2408610427893],[-104.6603744,38.24085774],[-104.660375,38.240933],[-104.659614,38.240934],[-104.659254,38.240936],[-104.658625,38.240939],[-104.658015,38.240937],[-104.657975,38.240937],[-104.657368,38.240935],[-104.656972,38.240937],[-104.6567,38.240939],[-104.656648,38.240939],[-104.656393,38.240896],[-104.656056,38.240742],[-104.655737,38.240412],[-104.655307,38.23999],[-104.655236,38.239926],[-104.655157,38.239852],[-104.6551,38.239772],[-104.654986,38.239644],[-104.654808,38.239434],[-104.654718,38.23916],[-104.654706,38.238969],[-104.654709,38.238949],[-104.654701,38.237673],[-104.6547,38.23713],[-104.654764,38.23713],[-104.654764810489,38.2365560970638],[-104.6518056,38.23654302],[-104.6485041,38.2366412],[-104.64368622227256,38.23680955382946],[-104.64369994606332,38.23770424525208],[-104.6437,38.237708],[-104.643702,38.238064],[-104.643704,38.238409],[-104.643708,38.238432],[-104.643718,38.23904],[-104.643722,38.239478],[-104.643724,38.23957],[-104.643727,38.239761],[-104.643732,38.239973],[-104.643733,38.240014],[-104.643737,38.240261],[-104.6437388396819,38.24036252545574],[-104.64373917273008,38.2403600072378],[-104.643741,38.240425],[-104.643739,38.240621],[-104.643739,38.240982],[-104.643741,38.241426],[-104.643744,38.241521],[-104.643746,38.241755],[-104.643747,38.241901],[-104.643748,38.242139],[-104.643752,38.242422],[-104.643755,38.24269],[-104.643761,38.243154],[-104.643771,38.243688],[-104.643775,38.243914],[-104.643777,38.244048],[-104.643777,38.244103],[-104.643713,38.244153],[-104.643716,38.244376],[-104.643719,38.244476],[-104.64372,38.244487],[-104.643742,38.2452],[-104.643744,38.245265],[-104.643747,38.245381],[-104.643743,38.245726],[-104.643742,38.245864],[-104.643742,38.245867],[-104.643763,38.24702],[-104.643768,38.24759],[-104.64377,38.247666],[-104.64377,38.247748],[-104.643771,38.247826],[-104.643785,38.248592],[-104.643789,38.248801],[-104.643814,38.248864],[-104.643833,38.248911],[-104.643853,38.249725],[-104.643852,38.249815],[-104.643851,38.249897],[-104.643851,38.250415],[-104.643864,38.251313],[-104.643865,38.25149],[-104.643867,38.251619],[-104.643868,38.251712],[-104.643868,38.251821],[-104.64388586534308,38.252102663751],[-104.6437549590299,38.25211847912925],[-104.6437541,38.25210084],[-104.6438048,38.25526377],[-104.6438689,38.25923334],[-104.643966236351,38.2638891496592],[-104.6435392,38.26391342],[-104.64051573736492,38.26402560766616],[-104.64027902682416,38.26409610508324],[-104.63991987979722,38.26438450289362],[-104.6379364087157,38.262846368006],[-104.637122,38.26211088],[-104.63494646401396,38.26053379194676],[-104.63476429636589,38.26068233188056],[-104.6331873,38.26181398],[-104.633266,38.261875],[-104.63249,38.262499],[-104.631285,38.26349],[-104.630066,38.264463],[-104.629444,38.264958],[-104.629173,38.265185],[-104.629059,38.26528],[-104.6289443,38.26519506],[-104.62760261041952,38.26643870588788],[-104.6264321968139,38.26754559967347],[-104.62567408800038,38.26799461781425],[-104.62394908030822,38.26928872573578],[-104.62333727319545,38.269789943078734],[-104.62187425618684,38.27039557608683],[-104.619311369616,38.2704310578365],[-104.6150202,38.27046263],[-104.615022,38.270539],[-104.61485,38.270541],[-104.614605,38.270588],[-104.614588,38.269644],[-104.614837,38.26964],[-104.616122,38.269623],[-104.616131,38.270085],[-104.61613,38.270107],[-104.616116,38.270526],[-104.616115,38.270628],[-104.616653,38.270621],[-104.61679,38.270623],[-104.61697,38.270622],[-104.618542,38.270605],[-104.618659,38.270602],[-104.619335,38.270596],[-104.619568,38.270594],[-104.619596,38.270594],[-104.619632,38.270731],[-104.619688,38.270955],[-104.619699,38.270991],[-104.619689,38.271063],[-104.619689,38.27127],[-104.619201,38.271382],[-104.619011,38.271401],[-104.618727,38.271396],[-104.618559,38.271393],[-104.618554,38.271024],[-104.618542,38.270605],[-104.618537,38.270485],[-104.61695,38.270514],[-104.616815,38.270517],[-104.616642,38.27052],[-104.616116,38.270526],[-104.61485,38.270541],[-104.614605,38.270588],[-104.614255,38.270591],[-104.614242,38.270591],[-104.614092,38.270593],[-104.613765,38.270596],[-104.613745,38.270596],[-104.613093,38.270602],[-104.61285,38.270605],[-104.612383,38.270611],[-104.612075,38.270615],[-104.61175,38.270618],[-104.611603,38.27062],[-104.611477,38.270622],[-104.611387,38.270623],[-104.611248,38.270624],[-104.610929,38.270628],[-104.61075,38.27063],[-104.610488,38.270634],[-104.610092,38.270638],[-104.610091,38.270557],[-104.610086,38.270188],[-104.610081,38.269795],[-104.61008,38.269703],[-104.610079,38.269633],[-104.610076,38.269349],[-104.610075,38.26926],[-104.610073,38.269203],[-104.610059,38.268798],[-104.61059369533764,38.26877570244807]]}},{"type":"Feature","properties":{"agency":"Pueblo Transit","shape_id":"p_1439978"},"geometry":{"type":"LineString","coordinates":[[-104.61063,38.26871737],[-104.61157179450112,38.26877053830526],[-104.61161630666344,38.2709255589067],[-104.61159541716832,38.27118796083056],[-104.6116001242574,38.27131879194363],[-104.61160751371366,38.27132362641191],[-104.6116222926262,38.27154504472944],[-104.608563367663,38.2715857895027],[-104.608554299508,38.2718397093338],[-104.608502,38.27190135],[-104.608479267864,38.2736456855324],[-104.60865346949043,38.27405321933563],[-104.60866298235752,38.27435941254376],[-104.6073644759568,38.274370614709824],[-104.6066538,38.27427814],[-104.600015556813,38.2744651004353],[-104.5986247,38.27446177],[-104.5947739,38.27458713],[-104.5943719629102,38.27466781764605],[-104.59238115546944,38.27472685300253],[-104.592325,38.27630343],[-104.592430269267,38.2783610092617],[-104.5921822,38.27836389],[-104.5887918,38.27842616],[-104.5846784,38.27855131],[-104.5812223,38.27864795],[-104.5768911,38.27878666],[-104.57634454201504,38.27887534383896],[-104.573287373544,38.27898333889903],[-104.5731889,38.27967585],[-104.5732996,38.28208088],[-104.5734165,38.2861955],[-104.57348673688088,38.2866143926237],[-104.57336504124449,38.28707408828205],[-104.57332701135816,38.288208389788366],[-104.5738199,38.28828173],[-104.5772036,38.28825665],[-104.5796969,38.28824313],[-104.5884055,38.28818079],[-104.59076559189916,38.28811356740098],[-104.5920914051485,38.28844554911166],[-104.5926607728018,38.28881583461222],[-104.593165,38.28932378],[-104.59351482428126,38.28948617424896],[-104.59434447428988,38.29024588501798],[-104.5935819,38.29066313],[-104.5926169136857,38.29158034574729],[-104.59189398292963,38.29279316339591],[-104.5913035,38.29315861],[-104.59074971448734,38.29394586495423],[-104.58962013518062,38.294520341324414],[-104.5874061597403,38.29474729369946],[-104.58606655543178,38.29492224585593],[-104.58449418103916,38.29547198425979],[-104.583153,38.29624815],[-104.5827798505594,38.296911783204905],[-104.582682818221,38.29708200496162],[-104.5822457,38.29898984],[-104.5817307,38.30169498],[-104.58172707268282,38.30169918753853],[-104.58171,38.302392],[-104.581706,38.302412],[-104.581651,38.302704],[-104.581644,38.302733],[-104.581587,38.302955],[-104.581477,38.303236],[-104.58136,38.303473],[-104.581322,38.30355],[-104.581276,38.303645],[-104.581238,38.303711],[-104.580981,38.304099],[-104.580896,38.304256],[-104.580726,38.304573],[-104.580607,38.304651],[-104.580721,38.304701],[-104.58172,38.305139],[-104.581784,38.305167],[-104.58253,38.305503],[-104.582783,38.305644],[-104.582969,38.305814],[-104.583144,38.306004],[-104.583221,38.306124],[-104.583323,38.306349],[-104.583352,38.306587],[-104.583346,38.30707],[-104.583363,38.307348],[-104.583402,38.307534],[-104.583486,38.307754],[-104.583611,38.307934],[-104.58367,38.308007],[-104.58377,38.308104],[-104.58392,38.308229],[-104.584104,38.308347],[-104.584252,38.308416],[-104.584359,38.308542],[-104.584389,38.30858],[-104.584406,38.308606],[-104.584411,38.30863],[-104.584417,38.30868],[-104.584413,38.308733],[-104.584398,38.308888],[-104.583804,38.30981],[-104.583741,38.309905],[-104.583022,38.311037],[-104.58272,38.311513],[-104.582263,38.312167],[-104.58201,38.312458],[-104.581718,38.312681],[-104.58138,38.312898],[-104.581287,38.312939],[-104.580961,38.313086],[-104.580825,38.31313],[-104.580602,38.313202],[-104.580294,38.313272],[-104.580192,38.31329],[-104.57984,38.313334],[-104.579249,38.313347],[-104.578956,38.313353],[-104.578772,38.313378],[-104.578742,38.313217],[-104.578743,38.313125],[-104.578775,38.313125],[-104.57905,38.313128]]}},{"type":"Feature","properties":{"agency":"Pueblo Transit","shape_id":"p_1442299"},"geometry":{"type":"LineString","coordinates":[[-104.5650622,38.27560297],[-104.5681966,38.2755206],[-104.5727654,38.27537042],[-104.577254,38.275236],[-104.5827201,38.27506116],[-104.5861799,38.27496949],[-104.5894351,38.27486174],[-104.5926792,38.2747831],[-104.5951337,38.27473014],[-104.5984738,38.27464831],[-104.59918025430504,38.27456891016757],[-104.60087926518096,38.27450227143399],[-104.60365017375194,38.274409705093404],[-104.60751612300194,38.27437730684608],[-104.6083941,38.27444799],[-104.61015142864905,38.27434416294264],[-104.61015773469174,38.2743144594404],[-104.6102545,38.27412701],[-104.61025443643712,38.27412717211715],[-104.61014532729612,38.27412178290842],[-104.6101096266388,38.2714961735945],[-104.610213,38.271558],[-104.610104,38.27156],[-104.610102,38.271443],[-104.610097,38.271175],[-104.610098,38.271104],[-104.610092,38.270638],[-104.610091,38.270557],[-104.610086,38.270188],[-104.610081,38.269795],[-104.61008,38.269703],[-104.610079,38.269633],[-104.610076,38.269349],[-104.610075,38.26926],[-104.610073,38.269203],[-104.610061,38.268851],[-104.610059,38.268798],[-104.61017357386513,38.26877755683213],[-104.61063671501722,38.26877274069176]]}},{"type":"Feature","properties":{"agency":"Pueblo Transit","shape_id":"p_1442300"},"geometry":{"type":"LineString","coordinates":[[-104.61063,38.26871737],[-104.61043349348128,38.26876889463773],[-104.61006522480046,38.26880000387055],[-104.61003832533436,38.26786735661884],[-104.6115593089348,38.26785397286972],[-104.61159253734044,38.27061065233917],[-104.6079502,38.27056662],[-104.603654,38.27062583],[-104.5979507,38.27079974],[-104.595472,38.270846],[-104.5918952,38.27093836],[-104.5887993,38.27101322],[-104.5847015,38.27113028],[-104.5804032,38.2712612],[-104.5765092,38.27137592],[-104.5730114,38.27147853],[-104.5675017,38.2716454],[-104.564315352697,38.2718325121303],[-104.5642549,38.27252258],[-104.5642978,38.27382957],[-104.56439814296472,38.27429013876903],[-104.56443042360812,38.27553795762461],[-104.5646164350482,38.27553174372639],[-104.5650622,38.27560297]]}},{"type":"Feature","properties":{"agency":"Pueblo Transit","shape_id":"p_1442306"},"geometry":{"type":"LineString","coordinates":[[-104.580188,38.305671],[-104.58036789961578,38.30527645492302],[-104.5808372632252,38.30438936259631],[-104.58147049093152,38.303272763343415],[-104.58179056298202,38.30202133301654],[-104.58207837627904,38.30052043667041],[-104.5822746,38.29995044],[-104.58263755924943,38.29749607396568],[-104.583010350645,38.2965691862446],[-104.5837402592154,38.29585715114624],[-104.5846575494523,38.29540529208225],[-104.5856344,38.29514179],[-104.58712510188263,38.29473536449416],[-104.58915485049197,38.29458984861623],[-104.5900233486951,38.29435242734661],[-104.5908705,38.29392499],[-104.59133335019553,38.293298141122],[-104.5919090961951,38.29276967686192],[-104.5925433926354,38.29170507775359],[-104.59313865544893,38.29110766997357],[-104.59430966426204,38.29023452668039],[-104.5933009,38.28917999],[-104.592210328115,38.2883897893661],[-104.591011380614,38.2880571954284],[-104.5847826,38.28805523],[-104.5772963,38.2880949],[-104.5738998,38.28810897],[-104.57349745092564,38.28817166412759],[-104.57354624295938,38.287237209424575],[-104.57369261906116,38.28639465798503],[-104.57366334384082,38.28545252070228],[-104.572533,38.285374],[-104.570085,38.285431],[-104.56973736849989,38.28547510660792],[-104.56914453078195,38.28545738235971],[-104.567668033598,38.28527570852384],[-104.5671102,38.28510127],[-104.5662519710322,38.2850466728888],[-104.56566060121828,38.284932058305145],[-104.56490131158104,38.28447359816201],[-104.56451436590018,38.28433605955431],[-104.56296658317758,38.284295944078224],[-104.56293920000677,38.28263399328884],[-104.5629851,38.28192468],[-104.56289911260713,38.280658471950574],[-104.56134597102506,38.280658471950574],[-104.5614035,38.28019194],[-104.56132139600038,38.27930037007033],[-104.5626413,38.27932921],[-104.56287945258724,38.279265645541386],[-104.56289911260713,38.28023406784274],[-104.5627785,38.28049968],[-104.5628194,38.28211906],[-104.56291729742104,38.28281165144003],[-104.5629465008688,38.28428447807943],[-104.564005125844,38.28430167043189],[-104.56441397411018,38.28430740121488],[-104.56488853013389,38.28446786296166],[-104.56563321804474,38.28494924607301],[-104.5690388816317,38.28547304212967],[-104.5721669284404,38.28546158074772],[-104.5731611,38.28551912],[-104.57332084108664,38.2854408140542],[-104.57366801745184,38.28540949100474],[-104.5734711,38.28152569],[-104.5733882,38.27971987],[-104.573369149767,38.2789940106269],[-104.5779445,38.27890783],[-104.5808773,38.27881346],[-104.5852888,38.27867828],[-104.5890693,38.27857516],[-104.59034513777408,38.27846711520874],[-104.59249097941776,38.27838494416102],[-104.59248350261788,38.27767474766191],[-104.5925538,38.27705276],[-104.5924814,38.27539155],[-104.59237891999511,38.27472795183721],[-104.5943677488359,38.27468099454603],[-104.5951337,38.27473014],[-104.5984738,38.27464831],[-104.59918025430504,38.27456891016757],[-104.60087926518096,38.27450227143399],[-104.60365017375194,38.274409705093404],[-104.60751612300194,38.27437730684608],[-104.6083941,38.27444799],[-104.61015142864905,38.27434416294264],[-104.61015773469174,38.2743144594404],[-104.6102545,38.27412701],[-104.61023,38.272274],[-104.610079205637,38.2688177090179],[-104.61063,38.26871737]]}},{"type":"Feature","properties":{"agency":"Pueblo Transit","shape_id":"p_1442308"},"geometry":{"type":"LineString","coordinates":[[-104.61063,38.26871737],[-104.61157179450112,38.26877053830526],[-104.61161630666344,38.2709255589067],[-104.61159541716832,38.27118796083056],[-104.6116001242574,38.27131879194363],[-104.6114675,38.27132084],[-104.6115723,38.27638548],[-104.611725,38.282038],[-104.611817,38.286118],[-104.6118608,38.28880385],[-104.611911154503,38.2912838930657],[-104.612193,38.29129553],[-104.6146384652903,38.29119575189546],[-104.6146394,38.29274149],[-104.6146812,38.29505873],[-104.61488989823108,38.29764547474221],[-104.6150594918744,38.29810656071001],[-104.616325,38.29818712],[-104.6194755,38.29812503],[-104.6218086,38.29810737],[-104.6242864,38.29806658],[-104.6268782,38.29803105],[-104.630075075035,38.2980457423953],[-104.6300691,38.29820265],[-104.63019838215035,38.30075440546065],[-104.6304034,38.30082502],[-104.6317452,38.30081427],[-104.6347372,38.30078129],[-104.63502605659968,38.3007025576735],[-104.63502605659968,38.30185538808212],[-104.63514746305847,38.3021697931963],[-104.63537813532992,38.30254136111938],[-104.6352825,38.30435634],[-104.6353391,38.30662168],[-104.6353513,38.30859524],[-104.635359027109,38.3088094478136],[-104.63191238832,38.3088040833952],[-104.629907,38.30874735],[-104.629344173035,38.3090320711751],[-104.625352,38.30851125],[-104.623058,38.3081655],[-104.62237524304793,38.30805789370223],[-104.6222542956862,38.307747291293225],[-104.62222131004202,38.30674645225943],[-104.62192443924484,38.30650486835472],[-104.62117676464422,38.30650486835472],[-104.6207149656265,38.30666880037771],[-104.6205265,38.30737933],[-104.620394982123,38.3093311374981],[-104.620829500009,38.3101948088524],[-104.6208791,38.31186413],[-104.62099814541216,38.31187581653492],[-104.62101478010985,38.312561063275865],[-104.62626124844046,38.31248754041383],[-104.6262409,38.31257289],[-104.627103187269,38.3125699050766],[-104.6270134,38.310124],[-104.62687911964512,38.30943209103376],[-104.62717421631744,38.30912741304675],[-104.63850443980007,38.3108183345783],[-104.65004162507805,38.3125466983044],[-104.6547369058038,38.31330118239754],[-104.65769672770784,38.314634086863634],[-104.66065502398855,38.31562850780733],[-104.66319365282,38.3095671719055],[-104.663767645584,38.3075488095015],[-104.659435877766,38.3075930659528],[-104.658234248056,38.3067079369252],[-104.658130983003,38.3040002467632],[-104.657601246691,38.3040015878678],[-104.657611,38.304267],[-104.657870808713,38.3069144670316],[-104.659187773418,38.3078894500667],[-104.660515466959,38.3079135899492],[-104.660608003176,38.310387927913],[-104.66010643006,38.310956556258],[-104.658821651865,38.3110745734617],[-104.658763984368,38.3103570825074],[-104.658461,38.31037166]]}},{"type":"Feature","properties":{"agency":"Pueblo Transit","shape_id":"p_1442309"},"geometry":{"type":"LineString","coordinates":[[-104.57905,38.313128],[-104.579233,38.31313],[-104.579256,38.313131],[-104.579583,38.313135],[-104.579801,38.313125],[-104.579994,38.313105],[-104.580134,38.313085],[-104.580191,38.313287],[-104.580192,38.31329],[-104.580219,38.313372],[-104.580301,38.313361],[-104.580868,38.313218],[-104.580917,38.313205],[-104.581341,38.31302],[-104.581352,38.313014],[-104.581629,38.312866],[-104.58198,38.312618],[-104.582348,38.312228],[-104.58255,38.311973],[-104.582924,38.311399],[-104.583887,38.309896],[-104.584654,38.308679],[-104.584739,38.308551],[-104.584908,38.308297],[-104.584992,38.308169],[-104.585155,38.307921],[-104.585568,38.307266],[-104.585646,38.307172],[-104.585742,38.307079],[-104.585827,38.307009],[-104.58594,38.30693],[-104.586056,38.306865],[-104.586154,38.306818],[-104.586296,38.306763],[-104.586434,38.306727],[-104.58656,38.306701],[-104.586673,38.306687],[-104.586803,38.306678],[-104.586925,38.306678],[-104.587045,38.306683],[-104.587455,38.306726],[-104.588041,38.30698],[-104.58925,38.307503],[-104.589699,38.307695],[-104.58997,38.3078],[-104.590267,38.307902],[-104.59065,38.30801],[-104.591012,38.308101],[-104.591378,38.308172],[-104.59168,38.30822],[-104.592027,38.308258],[-104.59238,38.308284],[-104.592725,38.30829],[-104.593214,38.308281],[-104.593625,38.308255],[-104.593972,38.308227],[-104.594849,38.308166],[-104.595366,38.308179],[-104.595464,38.308181],[-104.595719,38.308185],[-104.595901,38.308193],[-104.596043,38.308205],[-104.596079,38.308208],[-104.596314,38.308239],[-104.596595,38.308285],[-104.596744,38.308314],[-104.596932,38.308358],[-104.597065,38.308394],[-104.597212,38.308438],[-104.59731,38.308472],[-104.597502,38.308553],[-104.597669,38.308615],[-104.597708,38.308629],[-104.597862,38.308668],[-104.597982,38.308685],[-104.598117,38.308702],[-104.598297,38.308713],[-104.598445,38.308696],[-104.59845,38.308792],[-104.598457,38.309054],[-104.598467,38.309279],[-104.598476,38.309399],[-104.598501,38.309518],[-104.598574,38.309724],[-104.598666,38.309977],[-104.598702,38.310079],[-104.598697,38.310081],[-104.598619,38.31011],[-104.598327,38.310218],[-104.598246,38.310239],[-104.598105804,38.310264159],[-104.597942013,38.310215901],[-104.597750575,38.30995459],[-104.5976247034386,38.3094228993302],[-104.5976256000868,38.3094227030289],[-104.59751485478638,38.30893002976308],[-104.5974008249947,38.308751075802434],[-104.59713475548126,38.30859863319185],[-104.59652237326728,38.30851246983542],[-104.59653926656956,38.309669038664],[-104.59767111783412,38.30967235258777],[-104.59790505458628,38.31018663468339],[-104.59810777421548,38.31025622656523],[-104.59830627051969,38.31022308758196],[-104.59869481647624,38.31008721759344],[-104.59882318412204,38.31004927014456],[-104.59866570562043,38.30983989024648],[-104.59853884793893,38.30968542927812],[-104.59846395090824,38.30927798301545],[-104.598401,38.307458],[-104.598388,38.307198],[-104.598385,38.307132],[-104.598373,38.306855],[-104.598367,38.306717],[-104.59836,38.306546],[-104.598354,38.306406],[-104.598348,38.306229],[-104.59833,38.305674],[-104.598321,38.305259],[-104.598312,38.304793],[-104.598296,38.304055],[-104.598294,38.303964],[-104.597628,38.303976],[-104.596632,38.303994],[-104.596513,38.303996],[-104.596303,38.303979],[-104.596112,38.303925],[-104.595619,38.30377],[-104.595529,38.303743],[-104.595439,38.303717],[-104.59519758301452,38.30365005586887],[-104.59505355717133,38.303611356895885],[-104.59474758756392,38.30360006969255],[-104.593911,38.303602],[-104.593898,38.304393],[-104.593981,38.304628],[-104.594261,38.304974],[-104.594425,38.305181],[-104.594464,38.305231],[-104.594827,38.305675],[-104.595136,38.306071],[-104.595206,38.306133],[-104.595306,38.306209],[-104.595402,38.306262],[-104.595498,38.306295],[-104.595617,38.306327],[-104.596572,38.30651],[-104.596638,38.30628],[-104.596654,38.306224],[-104.596781,38.30596],[-104.596922,38.305834],[-104.596935,38.305823],[-104.597141,38.305729],[-104.59732,38.305692],[-104.597655,38.305686],[-104.59833,38.305674],[-104.598321,38.305259],[-104.598312,38.304793],[-104.598296,38.304055],[-104.598294,38.303964],[-104.598291,38.303886],[-104.59837002546833,38.30357176974306],[-104.598369,38.303573],[-104.5982097,38.29868327],[-104.5981373,38.29664293],[-104.597997194409,38.2930072124605],[-104.597408449495,38.2917787606584],[-104.5955982,38.29009755],[-104.59510001476824,38.28975183513501],[-104.59569557441476,38.28928806044803],[-104.59635783615276,38.288607276809046],[-104.596720462842,38.2881014518798],[-104.597121453114,38.2870741657659],[-104.59781436785757,38.28712364151505],[-104.6005290155252,38.28762047320393],[-104.60087706770004,38.28793533525422],[-104.6010658417611,38.28820389298258],[-104.601092463797,38.2886258237735],[-104.6010245474351,38.288778047551006],[-104.600654,38.28863596],[-104.60028714875943,38.28873637519485],[-104.5988693819514,38.28887728009056],[-104.5981260840862,38.28870596048543],[-104.5976775,38.2884449],[-104.59732727603053,38.28838960104582],[-104.59672666611816,38.2881664859454],[-104.59696507615936,38.287695063076455],[-104.59707052675417,38.28745035382022],[-104.597136205264,38.2870647780338],[-104.597238129213,38.2855251899675],[-104.5963984,38.28490425],[-104.595888977998,38.2845797112334],[-104.595706587774,38.2841250767782],[-104.595728045447,38.2802747655079],[-104.5956163,38.2781219],[-104.5955119,38.27527305],[-104.5953953111053,38.27463370647618],[-104.59752360470974,38.274601308329295],[-104.5984738,38.27464831],[-104.59918025430504,38.27456891016757],[-104.60087926518096,38.27450227143399],[-104.60365017375194,38.274409705093404],[-104.60751612300194,38.27437730684608],[-104.6083941,38.27444799],[-104.61015142864905,38.27434416294264],[-104.61015773469174,38.2743144594404],[-104.6102545,38.27412701],[-104.61025443643712,38.27412717211715],[-104.61014532729612,38.27412178290842],[-104.6101096266388,38.2714961735945],[-104.610213,38.271558],[-104.610104,38.27156],[-104.610102,38.271443],[-104.610097,38.271175],[-104.610098,38.271104],[-104.610092,38.270638],[-104.610091,38.270557],[-104.610086,38.270188],[-104.610081,38.269795],[-104.61008,38.269703],[-104.610079,38.269633],[-104.610076,38.269349],[-104.610075,38.26926],[-104.610073,38.269203],[-104.610061,38.268851],[-104.610059,38.268798],[-104.61017357386513,38.26877755683213],[-104.61063671501722,38.26877274069176]]}}]}