{"type":"FeatureCollection","features":[{"type":"Feature","properties":{"agency":"SCCOG Transit","shape_id":"p_1426950"},"geometry":{"type":"LineString","coordinates":[[-104.506275,37.169262],[-104.506275,37.169262],[-104.506275,37.169262],[-104.506275,37.169262],[-104.506275,37.169262],[-104.506275,37.169262]]}},{"type":"Feature","properties":{"agency":"SCCOG Transit","shape_id":"p_1426951"},"geometry":{"type":"LineString","coordinates":[[-104.506275,37.169262],[-104.506275,37.169262],[-104.506275,37.169262],[-104.506275,37.169262],[-104.506275,37.169262],[-104.506275,37.169262]]}},{"type":"Feature","properties":{"agency":"SCCOG Transit","shape_id":"p_1426952"},"geometry":{"type":"LineString","coordinates":[[-104.506275,37.169262],[-104.506275,37.169262],[-104.506275,37.169262],[-104.506275,37.169262],[-104.506275,37.169262],[-104.506275,37.169262],[-104.506275,37.169262]]}},{"type":"Feature","properties":{"agency":"SCCOG Transit","shape_id":"p_1426953"},"geometry":{"type":"LineString","coordinates":[[-104.506275,37.169262],[-104.506275,37.169262],[-104.506275,37.169262],[-104.506275,37.169262],[-104.506275,37.169262]]}},{"type":"Feature","properties":{"agency":"SCCOG Transit","shape_id":"p_1437712"},"geometry":{"type":"LineString","coordinates":[[-104.506275,37.169262],[-104.506275,37.169262],[-104.506275,37.169262],[-104.506275,37.169262],[-104.506275,37.169262],[-104.506275,37.169262]]}},{"type":"Feature","properties":{"agency":"SCCOG Transit","shape_id":"p_1437713"},"geometry":{"type":"LineString","coordinates":[[-104.506275,37.169262],[-104.506275,37.169262],[-104.506275,37.169262],[-104.506275,37.169262],[-104.506275,37.169262],[-104.506275,37.169262]]}},{"type":"Feature","properties":{"agency":"SCCOG Transit","shape_id":"p_1437715"},"geometry":{"type":"LineString","coordinates":[[-104.506275,37.169262],[-104.506275,37.169262],[-104.506275,37.169262],[-104.506275,37.169262],[-104.506275,37.169262],[-104.506275,37.169262]]}},{"type":"Feature","properties":{"agency":"SCCOG Transit","shape_id":"p_1437716"},"geometry":{"type":"LineString","coordinates":[[-104.506275,37.169262],[-104.506275,37.169262],[-104.506275,37.169262],[-104.506275,37.169262],[-104.506275,37.169262],[-104.506275,37.169262]]}},{"type":"Feature","properties":{"agency":"SCCOG Transit","shape_id":"p_1437717"},"geometry":{"type":"LineString","coordinates":[[-104.506275,37.169262],[-104.506275,37.169262],[-104.506275,37.169262],[-104.506275,37.169262],[-104.506275,37.169262],[-104.506275,37.169262]]}},{"type":"Feature","properties":{"agency":"SCCOG Transit","shape_id":"p_1437720"},"geometry":{"type":"LineString","coordinates":[[-104.506275,37.169262],[-104.506275,37.169262],[-104.506275,37.169262],[-104.506275,37.169262],[-104.506275,37.169262],[-104.506275,37.169262]]}},{"type":"Feature","properties":{"agency":"SCCOG Transit","shape_id":"p_1437724"},"geometry":{"type":"LineString","coordinates":[[-104.506275,37.169262],[-104.506275,37.169262],[-104.506275,37.169262],[-104.506275,37.169262],[-104.506275,37.169262],[-104.506275,37.169262]]}},{"type":"Feature","properties":{"agency":"SCCOG Transit","shape_id":"p_1437726"},"geometry":{"type":"LineString","coordinates":[[-104.506275,37.169262],[-104.506275,37.169262],[-104.506275,37.169262],[-104.506275,37.169262],[-104.506275,37.169262],[-104.506275,37.169262]]}},{"type":"Feature","properties":{"agency":"SCCOG Transit","shape_id":"p_1437727"},"geometry":{"type":"LineString","coordinates":[[-104.506275,37.169262],[-104.506275,37.169262],[-104.506275,37.169262],[-104.506275,37.169262],[-104.506275,37.169262],[-104.506275,37.169262]]}},{"type":"Feature","properties":{"agency":"SCCOG Transit","shape_id":"p_1437728"},"geometry":{"type":"LineString","coordinates":[[-104.506275,37.169262],[-104.506275,37.169262],[-104.506275,37.169262],[-104.506275,37.169262],[-104.506275,37.169262],[-104.506275,37.169262]]}},{"type":"Feature","properties":{"agency":"SCCOG Transit","shape_id":"p_1437729"},"geometry":{"type":"LineString","coordinates":[[-104.506275,37.169262],[-104.506275,37.169262],[-104.506275,37.169262],[-104.506275,37.169262],[-104.506275,37.169262],[-104.506275,37.169262],[-104.506275,37.169262]]}},{"type":"Feature","properties":{"agency":"SCCOG Transit","shape_id":"p_1437730"},"geometry":{"type":"LineString","coordinates":[[-104.506275,37.169262],[-104.506275,37.169262],[-104.506275,37.169262],[-104.506275,37.169262],[-104.506275,37.169262],[-104.506275,37.169262],[-104.506275,37.169262]]}},{"type":"Feature","properties":{"agency":"SCCOG Transit","shape_id":"p_1437731"},"geometry":{"type":"LineString","coordinates":[[-104.506275,37.169262],[-104.506275,37.169262],[-104.506275,37.169262],[-104.506275,37.169262],[-104.506275,37.169262],[-104.506275,37.169262],[-104.506275,37.169262]]}},{"type":"Feature","properties":{"agency":"SCCOG Transit","shape_id":"p_1437732"},"geometry":{"type":"LineString","coordinates":[[-104.506275,37.169262],[-104.506275,37.169262],[-104.506275,37.169262],[-104.506275,37.169262],[-104.506275,37.169262],[-104.506275,37.169262],[-104.506275,37.169262]]}},{"type":"Feature","properties":{"agency":"SCCOG Transit","shape_id":"p_1437733"},"geometry":{"type":"LineString","coordinates":[[-104.506275,37.169262],[-104.506275,37.169262],[-104.506275,37.169262],[-104.506275,37.169262],[-104.506275,37.169262],[-104.506275,37.169262],[-104.506275,37.169262]]}},{"type":"Feature","properties":{"agency":"SCCOG Transit","shape_id":"p_1437734"},"geometry":{"type":"LineString","coordinates":[[-104.506275,37.169262],[-104.506275,37.169262],[-104.506275,37.169262],[-104.506275,37.169262],[-104.506275,37.169262],[-104.506275,37.169262],[-104.506275,37.169262]]}},{"type":"Feature","properties":{"agency":"SCCOG Transit","shape_id":"p_1437735"},"geometry":{"type":"LineString","coordinates":[[-104.506275,37.169262],[-104.506275,37.169262],[-104.506275,37.169262],[-104.506275,37.169262],[-104.506275,37.169262]]}},{"type":"Feature","properties":{"agency":"SCCOG Transit","shape_id":"p_1437736"},"geometry":{"type":"LineString","coordinates":[[-104.506275,37.169262],[-104.506275,37.169262],[-104.506275,37.169262],[-104.506275,37.169262],[-104.506275,37.169262]]}},{"type":"Feature","properties":{"agency":"SCCOG Transit","shape_id":"p_1437737"},"geometry":{"type":"LineString","coordinates":[[-104.506275,37.169262],[-104.506275,37.169262],[-104.506275,37.169262],[-104.506275,37.169262],[-104.506275,37.169262]]}},{"type":"Feature","properties":{"agency":"SCCOG Transit","shape_id":"p_1437738"},"geometry":{"type":"LineString","coordinates":[[-104.506275,37.169262],[-104.506275,37.169262],[-104.506275,37.169262],[-104.506275,37.169262],[-104.506275,37.169262]]}}]}