{"type":"FeatureCollection","features":[{"type":"Feature","properties":{"agency":"Snoqualmie Valley Transportation","shape_id":"p_1278049"},"geometry":{"type":"LineString","coordinates":[[-121.788347819,47.492964638],[-121.787932438,47.492772603],[-121.787513,47.49318],[-121.787495,47.493198],[-121.787447,47.493242],[-121.787189,47.493483],[-121.786849,47.493326],[-121.786758,47.493283],[-121.786734,47.493272],[-121.786225,47.493036],[-121.785808,47.492844],[-121.785641,47.492767],[-121.785524,47.492712],[-121.785424,47.492685],[-121.785336,47.492675],[-121.785151,47.492674],[-121.784656,47.492669],[-121.784129,47.492663],[-121.783919,47.492661],[-121.782806,47.49265],[-121.782718,47.492654],[-121.782617,47.492674],[-121.782452,47.492739],[-121.782382,47.492785],[-121.782334,47.492822],[-121.782308,47.492842],[-121.782276,47.492815],[-121.782235,47.492795],[-121.782187,47.492785],[-121.782136,47.492783],[-121.782087,47.492792],[-121.781771,47.492621],[-121.781586,47.492517],[-121.781143,47.492268],[-121.78102,47.492214],[-121.781131,47.492072],[-121.781257,47.491933],[-121.781593,47.492073],[-121.78159373698642,47.49188641499569],[-121.781644377,47.491877179],[-121.780706954,47.492088047],[-121.77968579,47.49151305],[-121.77906985,47.49103662],[-121.778964492,47.490812094],[-121.778810507,47.490762807],[-121.778534955,47.490823046],[-121.778202672,47.490757331],[-121.77714909,47.490357562],[-121.77515539,47.489393723],[-121.77307254,47.488413436],[-121.76799914,47.48599824],[-121.763208344,47.483697557],[-121.758567291,47.481528709],[-121.758271053,47.481150541],[-121.75843873,47.480882684],[-121.758339984,47.480126337],[-121.758307069,47.479492333],[-121.758588951,47.470619049],[-121.758581,47.470709],[-121.758392,47.470702],[-121.758364,47.469472],[-121.758364,47.469459],[-121.758365,47.469398],[-121.758379,47.468743],[-121.758421,47.468205],[-121.758469,47.467957],[-121.758483,47.467881],[-121.758528,47.467648],[-121.758545,47.46756],[-121.758592,47.467317],[-121.758847,47.466438],[-121.758864,47.466362],[-121.759005,47.465739],[-121.759009,47.465451],[-121.759001,47.465264],[-121.758964,47.465069],[-121.758879,47.464825],[-121.758689,47.464515],[-121.758575,47.464351],[-121.758473,47.464089],[-121.758456,47.464046],[-121.758351,47.463759],[-121.758329,47.463651],[-121.758331,47.463544],[-121.758353,47.463415],[-121.758422,47.463323],[-121.75847,47.463287],[-121.758639,47.463163],[-121.75882,47.463025],[-121.758946,47.462897],[-121.759011,47.462822],[-121.759044,47.462728],[-121.759027,47.462662],[-121.758989,47.462618],[-121.758906,47.462567],[-121.758754,47.46251],[-121.758395,47.462404],[-121.758062,47.462294],[-121.757813,47.462126],[-121.757617,47.461835],[-121.757529,47.461555],[-121.757474,47.461184],[-121.75734,47.460638],[-121.757321,47.460356],[-121.757351,47.459774],[-121.757249,47.459455],[-121.757189,47.459295],[-121.756811,47.458592],[-121.756767,47.458403],[-121.756802,47.458234],[-121.756865,47.458105],[-121.756977,47.457913],[-121.757025,47.457838],[-121.757105,47.457714],[-121.757148,47.457516],[-121.757201,47.45726],[-121.757216,47.457075],[-121.756984,47.456173],[-121.756959,47.45594],[-121.756954,47.455797],[-121.756945,47.455578],[-121.756942,47.455493],[-121.756961,47.455165],[-121.757003,47.45494],[-121.757127,47.4548],[-121.75729,47.454632],[-121.757465,47.454443],[-121.757616,47.454276],[-121.757694,47.454194],[-121.757759,47.454135],[-121.757902,47.453988],[-121.758062,47.45384],[-121.758699,47.45361],[-121.758981,47.453463],[-121.759219,47.453273],[-121.759671,47.452884],[-121.759863,47.452629],[-121.759907,47.452529],[-121.759936,47.452416],[-121.759906,47.452309],[-121.759865,47.452208],[-121.759786,47.452117],[-121.75969,47.452003],[-121.759616,47.451937],[-121.759458,47.451793],[-121.759331,47.451679],[-121.759055,47.451432],[-121.75877,47.451254],[-121.758389,47.450924],[-121.758102,47.450539],[-121.757853,47.450183],[-121.757598,47.449688],[-121.757587,47.449668],[-121.757545,47.44945],[-121.75755,47.449163],[-121.757557,47.448775],[-121.757574,47.448518],[-121.757624,47.448345],[-121.757686,47.448247],[-121.757829,47.448071],[-121.75805,47.447863],[-121.758238,47.447697],[-121.758381,47.447531],[-121.758481,47.447395],[-121.758553,47.447304],[-121.758596,47.447195],[-121.75862,47.447103],[-121.75863,47.446985],[-121.758632,47.446233],[-121.758632,47.446024],[-121.758612,47.44525],[-121.758643,47.444803],[-121.758655,47.444741],[-121.758694,47.444553],[-121.758773,47.444329],[-121.758818,47.44424],[-121.758979,47.443926],[-121.759125,47.443707],[-121.759269,47.44351],[-121.759396,47.443358],[-121.759419,47.443336],[-121.759583,47.443185],[-121.759809,47.442997],[-121.760154,47.442739],[-121.760249,47.442791],[-121.760394,47.442836],[-121.760651,47.442885],[-121.760928,47.442922],[-121.761231,47.442961],[-121.761397,47.442994],[-121.76155,47.443045],[-121.7618,47.443151],[-121.762004,47.443257],[-121.762346,47.443604],[-121.762471,47.443709],[-121.762566,47.443792],[-121.762778,47.443961],[-121.763027,47.444138],[-121.763245,47.444309],[-121.763435,47.444402],[-121.763754,47.444535],[-121.764259,47.444724],[-121.764603,47.444868],[-121.764821,47.444946],[-121.765102,47.445058],[-121.765282,47.445127],[-121.765789,47.445264],[-121.766058,47.445314],[-121.766404,47.44537],[-121.767159,47.445449],[-121.767735,47.445522],[-121.768006,47.445564],[-121.768321,47.445636],[-121.768702,47.445752],[-121.769224,47.445945],[-121.769593,47.446124],[-121.769876,47.44628],[-121.770277,47.446584],[-121.770602,47.446826],[-121.770908,47.44707],[-121.771224,47.447315],[-121.771426,47.447461],[-121.771649,47.447597],[-121.771945,47.447722],[-121.772222,47.447786],[-121.772529,47.447835],[-121.773039,47.447853],[-121.773295,47.447837],[-121.773601,47.447796],[-121.773941,47.447714],[-121.774194,47.447614],[-121.774449,47.447501],[-121.77472,47.447332],[-121.774823,47.447243],[-121.774951,47.447131],[-121.775084,47.446974],[-121.775237,47.446716],[-121.775363,47.446458],[-121.775446,47.446215],[-121.775511,47.445945],[-121.775538,47.445695],[-121.775515,47.445344],[-121.775508,47.445313],[-121.775445,47.445041],[-121.775268,47.444666],[-121.775181,47.44449],[-121.774871,47.444151],[-121.774477,47.443834],[-121.773139,47.44307],[-121.772158,47.442477],[-121.771854,47.442305],[-121.771714,47.442231],[-121.771684,47.442215],[-121.771541,47.442139],[-121.771283,47.442043],[-121.771093,47.441992],[-121.770865,47.441972],[-121.77048,47.441964],[-121.769733,47.441965],[-121.768153,47.441968],[-121.767102,47.441967],[-121.766858,47.441975],[-121.766552,47.442011],[-121.766105,47.44209],[-121.765617,47.442232],[-121.76505,47.442483],[-121.764143,47.442935],[-121.763603,47.443205],[-121.763272,47.44334],[-121.763059,47.44336],[-121.762732,47.443365],[-121.762551,47.443355],[-121.76237,47.443337],[-121.762237,47.443311],[-121.762004,47.443257],[-121.7618,47.443151],[-121.76155,47.443045],[-121.761485,47.443023],[-121.761397,47.442994],[-121.761231,47.442961],[-121.760928,47.442922],[-121.760651,47.442885],[-121.760394,47.442836],[-121.760249,47.442791],[-121.760154,47.442739],[-121.760598,47.44237],[-121.761114,47.441992],[-121.761584,47.441635],[-121.762055,47.441264],[-121.762454,47.44096],[-121.762514,47.440914],[-121.76273,47.44075],[-121.763445,47.440204],[-121.76359,47.440072],[-121.764243,47.43955],[-121.764566,47.43927],[-121.764964,47.438923],[-121.765784,47.438184],[-121.766146,47.437841],[-121.766802,47.437235],[-121.767332,47.436742],[-121.767738,47.436239],[-121.767916,47.43595],[-121.76799,47.435774],[-121.768018,47.435584],[-121.768016,47.435484],[-121.767941,47.435262],[-121.767805,47.435021],[-121.767593,47.434776],[-121.767556,47.434708],[-121.767333,47.434435],[-121.767127,47.434104],[-121.766998,47.433895],[-121.766963,47.43361],[-121.766987,47.43351],[-121.76702671871088,47.433364356093335],[-121.76709905480648,47.43332981616422],[-121.76714727887034,47.43330295175935],[-121.76718415609544,47.433261695682205],[-121.7672068497723,47.43320316956334],[-121.767208268,47.433205088],[-121.767162881,47.433154238],[-121.767101892,47.433137927],[-121.767015372,47.4331504],[-121.766955801,47.433210845],[-121.766979913,47.433298155],[-121.767022464,47.433346127],[-121.766987,47.43351],[-121.766963,47.43361],[-121.766998,47.433895],[-121.767127,47.434104],[-121.767333,47.434435],[-121.767556,47.434708],[-121.767593,47.434776],[-121.767805,47.435021],[-121.767941,47.435262],[-121.768016,47.435484],[-121.768018,47.435584],[-121.76799,47.435774],[-121.767916,47.43595],[-121.767738,47.436239],[-121.767332,47.436742],[-121.766802,47.437235],[-121.766146,47.437841],[-121.765784,47.438184],[-121.764964,47.438923],[-121.764566,47.43927],[-121.764243,47.43955],[-121.76359,47.440072],[-121.763445,47.440204],[-121.76273,47.44075],[-121.762514,47.440914],[-121.762454,47.44096],[-121.762055,47.441264],[-121.761584,47.441635],[-121.761114,47.441992],[-121.760598,47.44237],[-121.760154,47.442739],[-121.759809,47.442997],[-121.759583,47.443185],[-121.759419,47.443336],[-121.759396,47.443358],[-121.759269,47.44351],[-121.759125,47.443707],[-121.758979,47.443926],[-121.758818,47.44424],[-121.758773,47.444329],[-121.758694,47.444553],[-121.758655,47.444741],[-121.758643,47.444803],[-121.758612,47.44525],[-121.758632,47.446024],[-121.758632,47.446233],[-121.75863,47.446985],[-121.75862,47.447103],[-121.758596,47.447195],[-121.758553,47.447304],[-121.758481,47.447395],[-121.758381,47.447531],[-121.758238,47.447697],[-121.75805,47.447863],[-121.757829,47.448071],[-121.757686,47.448247],[-121.757624,47.448345],[-121.757574,47.448518],[-121.757557,47.448775],[-121.75755,47.449163],[-121.757545,47.44945],[-121.757587,47.449668],[-121.757598,47.449688],[-121.757853,47.450183],[-121.758102,47.450539],[-121.758389,47.450924],[-121.75877,47.451254],[-121.759055,47.451432],[-121.759331,47.451679],[-121.759458,47.451793],[-121.759616,47.451937],[-121.75969,47.452003],[-121.759786,47.452117],[-121.759865,47.452208],[-121.759906,47.452309],[-121.759936,47.452416],[-121.759907,47.452529],[-121.759863,47.452629],[-121.759671,47.452884],[-121.759219,47.453273],[-121.758981,47.453463],[-121.758699,47.45361],[-121.758062,47.45384],[-121.757902,47.453988],[-121.757759,47.454135],[-121.757694,47.454194],[-121.757616,47.454276],[-121.757465,47.454443],[-121.75729,47.454632],[-121.757127,47.4548],[-121.757003,47.45494],[-121.756961,47.455165],[-121.756942,47.455493],[-121.756945,47.455578],[-121.756954,47.455797],[-121.756959,47.45594],[-121.756984,47.456173],[-121.757216,47.457075],[-121.757201,47.45726],[-121.757148,47.457516],[-121.757105,47.457714],[-121.757025,47.457838],[-121.756977,47.457913],[-121.756865,47.458105],[-121.756802,47.458234],[-121.756767,47.458403],[-121.756811,47.458592],[-121.757189,47.459295],[-121.757249,47.459455],[-121.757351,47.459774],[-121.757321,47.460356],[-121.75734,47.460638],[-121.757474,47.461184],[-121.757529,47.461555],[-121.757617,47.461835],[-121.757813,47.462126],[-121.758062,47.462294],[-121.758395,47.462404],[-121.758754,47.46251],[-121.758906,47.462567],[-121.758989,47.462618],[-121.759027,47.462662],[-121.759044,47.462728],[-121.759011,47.462822],[-121.758946,47.462897],[-121.75882,47.463025],[-121.758639,47.463163],[-121.75847,47.463287],[-121.758422,47.463323],[-121.758169,47.463268],[-121.757912,47.463301],[-121.757742,47.463348],[-121.757663,47.463458],[-121.757657,47.463638],[-121.757732,47.463798],[-121.757935,47.463929],[-121.758105,47.464137],[-121.758155,47.464288],[-121.758123,47.464541],[-121.758014,47.464824],[-121.757587,47.465167],[-121.75716020845717,47.46537842670921],[-121.75652999141678,47.46557423105767],[-121.75586598823676,47.46576190145828],[-121.75437463530606,47.46578701706204],[-121.7535908296168,47.46578119424339],[-121.75317739364866,47.46579866269602],[-121.75267782518742,47.46589182767826],[-121.75233329521409,47.46601410646719],[-121.752344,47.46591],[-121.751276085,47.46662764],[-121.75014810935949,47.4677902687346],[-121.7498216061669,47.46800201369706],[-121.749560607,47.468057936],[-121.749404802,47.468074566],[-121.74859342066289,47.46808859483144],[-121.74864297249508,47.46785720626832],[-121.74872170684564,47.467538223246805],[-121.74875383000804,47.46723535114447],[-121.74871402538618,47.46707779116977],[-121.7485503841715,47.46676983778002],[-121.74745022777122,47.46557358095788],[-121.74694611213393,47.46497717959076],[-121.74671505913332,47.46509788041362],[-121.74603240254083,47.46514758067167],[-121.74489072992272,47.46514436183568],[-121.74402644240038,47.46515468070484],[-121.74360634603585,47.46520438090923],[-121.74356433639946,47.46565168063577],[-121.74354401611173,47.46666605939674],[-121.7401579928154,47.46660103048731],[-121.7398588580386,47.46675791553358],[-121.73955918210795,47.4671351438017],[-121.7394248446218,47.46747744118329],[-121.73947651288584,47.46784069310988],[-121.73986919169128,47.4680083469986],[-121.7405512127747,47.46801533256584],[-121.74204339215083,47.468044653341366],[-121.7433708671933,47.46808366962503],[-121.74402498532994,47.46805765877235],[-121.7451290209554,47.46805026038723],[-121.74621820496488,47.46807066420013],[-121.74789178648405,47.46808635255468],[-121.7488925320419,47.46807199701411],[-121.74944201302446,47.46806840812806],[-121.749720735262,47.46801816370157],[-121.75004723845456,47.4678602523336],[-121.7504314953166,47.46748541676038],[-121.7515858214403,47.46636692574802],[-121.75285558017652,47.46582067730108],[-121.75462554689948,47.46582067730108],[-121.75593378317308,47.465755647346185],[-121.757344672,47.465293328],[-121.758041299,47.464794084],[-121.758154928,47.464281959],[-121.757965546,47.463957611],[-121.757713036,47.463778365],[-121.757649909,47.463530833],[-121.757864542,47.463274765],[-121.758344311,47.463300372],[-121.758306434,47.463599118],[-121.758470566,47.464136856],[-121.758622071,47.464444132],[-121.758955155,47.465090654],[-121.758955155,47.465722783],[-121.758407021,47.468425589],[-121.758375982,47.480838194],[-121.75820508,47.481131794],[-121.757998953,47.481175657],[-121.757797322,47.481317398],[-121.757925425,47.481451501],[-121.758550851,47.481564138],[-121.763912177,47.484088586],[-121.77401063,47.488853912],[-121.777921375,47.490732445],[-121.778673467,47.491089973],[-121.77929608,47.491284694],[-121.779669388,47.491595522],[-121.781937497,47.492831408],[-121.782003457,47.492991651],[-121.782296758,47.493062387],[-121.784558656,47.494361711],[-121.782951776,47.495915248],[-121.784138377,47.496449724],[-121.783862423,47.496760463],[-121.783641,47.496943]]}},{"type":"Feature","properties":{"agency":"Snoqualmie Valley Transportation","shape_id":"p_1305977"},"geometry":{"type":"LineString","coordinates":[[-121.791869,47.487518],[-121.79187694379638,47.48763803872092],[-121.793005,47.487646],[-121.79312,47.487615],[-121.793224,47.48758],[-121.793408,47.487827],[-121.793452,47.487898],[-121.793601,47.488128],[-121.79365,47.488301],[-121.793658,47.488333],[-121.793697,47.488449],[-121.793782,47.488591],[-121.79387,47.488676],[-121.793953,47.488757],[-121.794023,47.488811],[-121.794214,47.488961],[-121.794237,47.488981],[-121.794354,47.48908],[-121.794449,47.489152],[-121.794628,47.489288],[-121.794681,47.48933],[-121.794566,47.489396],[-121.79455,47.489486],[-121.794276,47.489648],[-121.793821,47.489926],[-121.793718,47.489989],[-121.792301,47.490855],[-121.792167,47.490937],[-121.792057,47.491008],[-121.791435,47.491362],[-121.790684,47.491828],[-121.790039,47.492445],[-121.789961,47.492521],[-121.78959,47.492867],[-121.788438,47.493989],[-121.788376,47.494049],[-121.788271,47.493999],[-121.787973,47.493856],[-121.787811,47.49378],[-121.787789,47.493769],[-121.787437,47.493601],[-121.787189,47.493483],[-121.787447,47.493242],[-121.787495,47.493198],[-121.787513,47.49318],[-121.787794,47.492901],[-121.787992,47.492989],[-121.788351,47.493148],[-121.788478,47.493027],[-121.788355,47.492969],[-121.788122,47.49286],[-121.787927,47.492769],[-121.787964,47.492733],[-121.788185,47.492514],[-121.788228,47.492448],[-121.788243,47.492424],[-121.788313,47.492317],[-121.788292,47.492168],[-121.788288,47.492137],[-121.78819,47.491921],[-121.788172,47.491881],[-121.788074,47.491664],[-121.787944,47.491377],[-121.787747,47.491146],[-121.787428,47.491011],[-121.78706,47.490856],[-121.786687,47.491233],[-121.786075,47.491852],[-121.786019,47.491703],[-121.785939,47.491429],[-121.78594,47.49119],[-121.78594,47.490616],[-121.785939,47.490479],[-121.785903,47.490335],[-121.785721,47.490194],[-121.785532,47.490125],[-121.785137,47.490112],[-121.785011,47.490108],[-121.784865,47.490103],[-121.784162,47.490107],[-121.783742,47.490109],[-121.783546,47.49011],[-121.782445,47.490121],[-121.782398,47.490121],[-121.782053,47.490135],[-121.781834,47.490177],[-121.781692,47.490226],[-121.781629,47.490266],[-121.781162,47.490558],[-121.780949,47.490711],[-121.780805,47.490796],[-121.780462,47.490997],[-121.78024,47.491128],[-121.779743,47.49142],[-121.77972,47.491435],[-121.779632,47.491489],[-121.779556,47.49142],[-121.779447,47.491332],[-121.779347,47.491258],[-121.77925,47.491179],[-121.779161,47.491123],[-121.779071,47.491042],[-121.779012,47.490953],[-121.779001,47.490894],[-121.778967,47.490834],[-121.778906,47.49079],[-121.778813,47.490765],[-121.778725,47.490765],[-121.778601,47.490796],[-121.778558,47.490831],[-121.778523,47.490883],[-121.778511,47.49096],[-121.778539,47.491009],[-121.778595,47.491062],[-121.778647,47.491087],[-121.7787,47.491099],[-121.778747,47.491103],[-121.778799,47.491105],[-121.778852,47.491094],[-121.778987,47.491118],[-121.779111,47.491179],[-121.779187,47.49123],[-121.779232,47.491263],[-121.779278,47.491296],[-121.779452,47.491473],[-121.779527,47.491539],[-121.779668,47.491628],[-121.779876,47.491733],[-121.779958,47.491777],[-121.780077,47.491834],[-121.780192,47.49189],[-121.780432,47.492012],[-121.780948,47.492265],[-121.781067,47.492324],[-121.781016,47.492368],[-121.780895,47.492496],[-121.780886,47.492506],[-121.780581,47.492806],[-121.780524,47.492862],[-121.780444,47.492941],[-121.780652,47.49304],[-121.780858,47.493137],[-121.781066398156,47.4932377636873],[-121.781159945496,47.4933712022205],[-121.78084719083,47.493701724794],[-121.781028,47.493794],[-121.781092,47.493824],[-121.78179,47.494152],[-121.782351,47.494416],[-121.783212,47.494824],[-121.783719,47.495064],[-121.783793,47.495099],[-121.783732,47.49516],[-121.783477,47.495418],[-121.783004,47.495895],[-121.78416966578078,47.49644993264354],[-121.7836648721522,47.496930357349385],[-121.783641,47.496943],[-121.783328,47.497239],[-121.783974,47.497535],[-121.784397,47.497729],[-121.78458,47.497812],[-121.784766,47.497897],[-121.784872,47.497951],[-121.784998,47.498012],[-121.785101,47.498063],[-121.785215,47.49812],[-121.785296,47.498159],[-121.785704,47.498361],[-121.786789,47.498852],[-121.78707,47.498979],[-121.787405,47.499107],[-121.788606,47.499565],[-121.788992,47.499721],[-121.78913,47.49978],[-121.7894,47.499908],[-121.789912,47.500163],[-121.790734,47.500721],[-121.791272,47.501086],[-121.792038,47.501606],[-121.792363,47.501827],[-121.793627,47.502709],[-121.793401,47.502919],[-121.793361,47.502987],[-121.793344,47.503035],[-121.793347,47.503074],[-121.793367,47.503114],[-121.793393,47.503152],[-121.793483,47.503261],[-121.793495,47.503276],[-121.793583,47.503382],[-121.7937,47.503515],[-121.793929,47.503775],[-121.794113,47.503984],[-121.794219,47.504104],[-121.795174,47.505188],[-121.795189,47.505204],[-121.795649,47.505718],[-121.795987,47.506094],[-121.796914,47.507128],[-121.797174,47.507417],[-121.797368,47.507628],[-121.797526,47.507857],[-121.7976,47.508004],[-121.79764,47.508133],[-121.797813,47.508815],[-121.797879,47.509093],[-121.798337,47.511001],[-121.798345,47.511035],[-121.798684,47.512426],[-121.799694,47.516925],[-121.79995,47.518067],[-121.800301,47.519632],[-121.800406,47.519739],[-121.800807,47.520149],[-121.801418,47.520776],[-121.801763,47.521014],[-121.802194,47.521174],[-121.802853,47.521278],[-121.804055,47.52151],[-121.804739,47.521727],[-121.805293,47.522011],[-121.805845,47.522436],[-121.806206,47.522665],[-121.807753,47.523293],[-121.807923,47.523354],[-121.807954,47.523366],[-121.808345,47.523528],[-121.808438,47.523567],[-121.809038,47.523816],[-121.809408,47.523981],[-121.810583,47.524507],[-121.812375,47.525243],[-121.812525,47.525304],[-121.812682,47.525369],[-121.812911,47.525459],[-121.813247,47.525591],[-121.813281,47.525605],[-121.813522,47.525673],[-121.813698,47.525697],[-121.813898,47.525692],[-121.814628,47.525659],[-121.814663,47.525658],[-121.815373,47.525638],[-121.816213,47.52561],[-121.817793,47.525546],[-121.817852,47.525543],[-121.818141,47.525607],[-121.818234,47.525643],[-121.818903,47.525896],[-121.820508,47.525921],[-121.821247,47.526196],[-121.821789,47.525993],[-121.822379,47.525808],[-121.822973,47.525606],[-121.823529,47.526353],[-121.823687,47.526559],[-121.824077,47.52708],[-121.824182,47.527221],[-121.824788,47.528051],[-121.82495,47.528272],[-121.825178,47.528584],[-121.825315,47.528772],[-121.825367,47.528843],[-121.825435,47.528936],[-121.825489,47.529008],[-121.825674,47.529259],[-121.825891,47.529556],[-121.825895,47.529564],[-121.826515,47.530403],[-121.826553,47.530455],[-121.827768,47.532065],[-121.827898,47.532246],[-121.828121,47.532555],[-121.829353,47.534231],[-121.829509,47.534419],[-121.830061,47.535193],[-121.830324,47.535554],[-121.830888,47.536328],[-121.83134,47.536892],[-121.831393,47.536975],[-121.831562,47.536909],[-121.831676,47.536868],[-121.833707,47.536077],[-121.833842,47.536025],[-121.834349,47.535833],[-121.837116,47.534784],[-121.837306,47.534712],[-121.837808,47.534591],[-121.838371,47.534483],[-121.838985,47.534453],[-121.839238,47.53446],[-121.83941404961786,47.53446578299437],[-121.839422,47.534465],[-121.839511,47.534477],[-121.840316,47.534587],[-121.84183,47.534912],[-121.842306,47.535012],[-121.842683,47.535065],[-121.84336,47.535117],[-121.843924,47.535137],[-121.844648,47.535068],[-121.845422,47.534876],[-121.846192,47.534591],[-121.847677,47.533997],[-121.850034,47.533143],[-121.85058,47.532946],[-121.850653,47.532925],[-121.855339,47.531592],[-121.856848,47.531206],[-121.857021,47.531162],[-121.857982,47.53092],[-121.858716,47.530725],[-121.859885,47.530431],[-121.860594,47.530332],[-121.861893,47.530235],[-121.863993,47.530317],[-121.864213,47.530324],[-121.865479,47.530368],[-121.866418,47.530349],[-121.867249,47.530283],[-121.868123,47.530206],[-121.868366,47.530185],[-121.868395,47.530285],[-121.868498,47.530695],[-121.868498,47.531154],[-121.868465,47.531275],[-121.868309,47.53185],[-121.868235,47.531996],[-121.868093,47.532173],[-121.867885,47.532448],[-121.867847,47.532503],[-121.867736,47.532698],[-121.867681,47.532814],[-121.867638,47.53294],[-121.867583,47.533275],[-121.867606,47.533551],[-121.86767,47.533786],[-121.867747,47.53392],[-121.867987,47.534341],[-121.870029,47.533541],[-121.871214,47.532875],[-121.871917,47.532371],[-121.872278,47.532127],[-121.872673,47.53193],[-121.873149,47.531756],[-121.873419,47.531678],[-121.873729,47.531588],[-121.873271,47.530804],[-121.87288,47.53015],[-121.872527,47.529543],[-121.872474,47.529423],[-121.872395,47.529308],[-121.872322,47.529193],[-121.872153,47.5289],[-121.872109,47.528838],[-121.872,47.528681],[-121.871975,47.528654],[-121.871856,47.528522],[-121.871768,47.528424],[-121.871489,47.528168],[-121.871141,47.52792],[-121.870838,47.527768],[-121.870491,47.527616],[-121.870131,47.52749],[-121.869846,47.527405],[-121.86957,47.527346],[-121.869502,47.527333],[-121.869068,47.527253],[-121.867901,47.527149],[-121.867934,47.526939],[-121.867966,47.526734],[-121.868042,47.526252],[-121.868104,47.525997],[-121.868254,47.525378],[-121.868996,47.525454],[-121.869745,47.525573],[-121.870404,47.525718],[-121.870942,47.525877],[-121.871404,47.526023],[-121.871696,47.526137],[-121.871909,47.526226],[-121.872424,47.526488],[-121.87283,47.526694],[-121.872909,47.526716],[-121.87352,47.526888],[-121.874514,47.527095],[-121.874603,47.527113],[-121.874633,47.527118],[-121.874862,47.527161],[-121.875062,47.527215],[-121.875245,47.527279],[-121.875522,47.527409],[-121.87569,47.527517],[-121.875747,47.527554],[-121.876055,47.52779],[-121.876183,47.52789],[-121.876277,47.527981],[-121.876555,47.52786],[-121.877371,47.527417],[-121.878021,47.526961],[-121.878711,47.5264],[-121.879193,47.525882],[-121.879509,47.525422],[-121.879756,47.524929],[-121.879948,47.524547],[-121.879981,47.524437],[-121.880007,47.52435],[-121.880031,47.524269],[-121.880067,47.524157],[-121.880135,47.523944],[-121.880181,47.523474],[-121.880182,47.523111],[-121.880152,47.522677],[-121.880062,47.522248],[-121.879977,47.521922],[-121.879107,47.519308],[-121.87903,47.518957],[-121.879005,47.518675],[-121.879065,47.517914],[-121.879175,47.517427],[-121.879266,47.517136],[-121.879427,47.51674],[-121.879553,47.516519],[-121.879629,47.516415],[-121.879828,47.516109],[-121.880306,47.515541],[-121.880446,47.515398],[-121.88069,47.515149],[-121.880786,47.514889],[-121.881396,47.514334],[-121.881674,47.514051],[-121.881979,47.513742],[-121.882356,47.513335],[-121.882521,47.513128],[-121.882636,47.512959],[-121.882766,47.512707],[-121.882871,47.512382],[-121.882941,47.512088],[-121.883111,47.512119],[-121.8835,47.512132],[-121.883919,47.512085],[-121.884078,47.512061],[-121.884177,47.512038],[-121.884262,47.51201],[-121.884284,47.512],[-121.884534,47.51231],[-121.884515,47.512334],[-121.884511,47.51237],[-121.884527,47.512405],[-121.884562,47.512433],[-121.884611,47.51245],[-121.884665,47.512453],[-121.88476,47.512574],[-121.884835,47.512608],[-121.884886,47.512667],[-121.885142,47.51257],[-121.885406,47.51247]]}},{"type":"Feature","properties":{"agency":"Snoqualmie Valley Transportation","shape_id":"p_1305978"},"geometry":{"type":"LineString","coordinates":[[-121.885406,47.51247],[-121.885143,47.512153],[-121.884878,47.512253],[-121.884755,47.5123],[-121.884736,47.512286],[-121.884688,47.512269],[-121.884633,47.512266],[-121.884611,47.512271],[-121.884373,47.511958],[-121.884284,47.512],[-121.884262,47.51201],[-121.884177,47.512038],[-121.884078,47.512061],[-121.883919,47.512085],[-121.8835,47.512132],[-121.883111,47.512119],[-121.882941,47.512088],[-121.882871,47.512382],[-121.882766,47.512707],[-121.882636,47.512959],[-121.882521,47.513128],[-121.882356,47.513335],[-121.881979,47.513742],[-121.881674,47.514051],[-121.881396,47.514334],[-121.880786,47.514889],[-121.880507,47.515064],[-121.88013,47.515468],[-121.879806,47.515883],[-121.879656,47.516075],[-121.879454,47.516378],[-121.879393,47.516474],[-121.879252,47.516721],[-121.878967,47.517471],[-121.87885,47.518056],[-121.878814,47.518686],[-121.878873,47.519384],[-121.879461,47.521176],[-121.879886,47.522544],[-121.879971,47.523193],[-121.879925,47.523926],[-121.879851,47.52413],[-121.879812,47.524238],[-121.879753,47.524399],[-121.87969,47.52457],[-121.879236,47.525443],[-121.879154,47.525599],[-121.878415,47.526469],[-121.877879,47.52691],[-121.877038,47.527467],[-121.876879,47.527572],[-121.876428,47.527775],[-121.876183,47.52789],[-121.876055,47.52779],[-121.875747,47.527554],[-121.87569,47.527517],[-121.875522,47.527409],[-121.875245,47.527279],[-121.875062,47.527215],[-121.874862,47.527161],[-121.87466290164323,47.52712375424102],[-121.87463448089436,47.52716981227974],[-121.874598481279,47.52721842905413],[-121.874573,47.527215],[-121.87453,47.527284],[-121.874456,47.527367],[-121.874391,47.527419],[-121.874345,47.527483],[-121.874291,47.527577],[-121.874198,47.527767],[-121.874109,47.527929],[-121.874033,47.528034],[-121.873982,47.528065],[-121.873964,47.528076],[-121.873571,47.528215],[-121.873443,47.528063],[-121.873379,47.528012],[-121.873299,47.528005],[-121.873234,47.528009],[-121.873169,47.528033],[-121.8731,47.528059],[-121.872593,47.528254],[-121.872448,47.528058],[-121.872719,47.527908],[-121.872803,47.527862],[-121.872946,47.527785],[-121.873039,47.527735],[-121.873111,47.527626],[-121.873262,47.527354],[-121.873407,47.527092],[-121.87352,47.526888],[-121.87283,47.526694],[-121.872424,47.526488],[-121.871909,47.526226],[-121.871696,47.526137],[-121.871404,47.526023],[-121.870942,47.525877],[-121.870404,47.525718],[-121.869745,47.525573],[-121.869279,47.525499],[-121.868996,47.525454],[-121.868254,47.525378],[-121.868144,47.525832],[-121.868104,47.525997],[-121.868042,47.526252],[-121.867966,47.526734],[-121.867901,47.527149],[-121.869068,47.527253],[-121.869502,47.527333],[-121.86957,47.527346],[-121.869846,47.527405],[-121.870131,47.52749],[-121.870491,47.527616],[-121.870838,47.527768],[-121.871141,47.52792],[-121.871489,47.528168],[-121.871538,47.528213],[-121.871768,47.528424],[-121.871856,47.528522],[-121.872,47.528681],[-121.872109,47.528838],[-121.872153,47.5289],[-121.872322,47.529193],[-121.872395,47.529308],[-121.872474,47.529423],[-121.872527,47.529543],[-121.87288,47.53015],[-121.873271,47.530804],[-121.873729,47.531588],[-121.873394,47.531685],[-121.873149,47.531756],[-121.872673,47.53193],[-121.872278,47.532127],[-121.871917,47.532371],[-121.871214,47.532875],[-121.870029,47.533541],[-121.867987,47.534341],[-121.86767,47.533786],[-121.867606,47.533551],[-121.867583,47.533275],[-121.867638,47.53294],[-121.867662,47.53287],[-121.867681,47.532814],[-121.867736,47.532698],[-121.867847,47.532503],[-121.867885,47.532448],[-121.868093,47.532173],[-121.868235,47.531996],[-121.868309,47.53185],[-121.868465,47.531275],[-121.868498,47.531154],[-121.868498,47.530695],[-121.868395,47.530285],[-121.868366,47.530185],[-121.86835,47.530074],[-121.868104,47.530091],[-121.867296,47.53015],[-121.865678,47.530222],[-121.864788,47.530215],[-121.864373,47.530212],[-121.864232,47.530205],[-121.862811,47.530137],[-121.861868,47.530113],[-121.86099,47.530166],[-121.86017,47.530271],[-121.859238,47.530444],[-121.85764,47.530873],[-121.857367,47.530942],[-121.856956,47.531047],[-121.856782,47.531091],[-121.855116,47.531528],[-121.853652,47.531915],[-121.8524,47.532249],[-121.850515,47.532843],[-121.849584,47.533143],[-121.84806,47.533728],[-121.845547,47.534678],[-121.844811,47.534887],[-121.844588,47.534928],[-121.844484,47.534938],[-121.843928,47.534992],[-121.843229,47.534994],[-121.842257,47.534876],[-121.840561,47.534524],[-121.839591,47.534371],[-121.839531,47.534362],[-121.839442,47.534348],[-121.839261,47.534345],[-121.83873,47.534337],[-121.838452,47.534353],[-121.837699,47.534447],[-121.837097,47.534625],[-121.834233,47.53572],[-121.832535,47.536439],[-121.83232,47.53652],[-121.831604,47.53679],[-121.831495,47.536834],[-121.83134,47.536892],[-121.830888,47.536328],[-121.830324,47.535554],[-121.830061,47.535193],[-121.829509,47.534419],[-121.829353,47.534231],[-121.828121,47.532555],[-121.827872,47.53221],[-121.827768,47.532065],[-121.826553,47.530455],[-121.826515,47.530403],[-121.825895,47.529564],[-121.825891,47.529556],[-121.825674,47.529259],[-121.825489,47.529008],[-121.825435,47.528936],[-121.825367,47.528843],[-121.825315,47.528772],[-121.825178,47.528584],[-121.82495,47.528272],[-121.824788,47.528051],[-121.824182,47.527221],[-121.824077,47.52708],[-121.823687,47.526559],[-121.823529,47.526353],[-121.822973,47.525606],[-121.822379,47.525808],[-121.821789,47.525993],[-121.821247,47.526196],[-121.820871,47.526056],[-121.820508,47.525921],[-121.818903,47.525896],[-121.818234,47.525643],[-121.818141,47.525607],[-121.817852,47.525543],[-121.817793,47.525546],[-121.816213,47.52561],[-121.815373,47.525638],[-121.814663,47.525658],[-121.814628,47.525659],[-121.813898,47.525692],[-121.813698,47.525697],[-121.813522,47.525673],[-121.813281,47.525605],[-121.813247,47.525591],[-121.812953,47.525476],[-121.812682,47.525369],[-121.812525,47.525304],[-121.812375,47.525243],[-121.810583,47.524507],[-121.809408,47.523981],[-121.809038,47.523816],[-121.808438,47.523567],[-121.808345,47.523528],[-121.807954,47.523366],[-121.807923,47.523354],[-121.807753,47.523293],[-121.806206,47.522665],[-121.805845,47.522436],[-121.805293,47.522011],[-121.804739,47.521727],[-121.804055,47.52151],[-121.802853,47.521278],[-121.802194,47.521174],[-121.801763,47.521014],[-121.801418,47.520776],[-121.800807,47.520149],[-121.800406,47.519739],[-121.800301,47.519632],[-121.79998,47.518199],[-121.79995,47.518067],[-121.798684,47.512426],[-121.798345,47.511035],[-121.798337,47.511001],[-121.797879,47.509093],[-121.797813,47.508815],[-121.79764,47.508133],[-121.7976,47.508004],[-121.797526,47.507857],[-121.797368,47.507628],[-121.797174,47.507417],[-121.796914,47.507128],[-121.795987,47.506094],[-121.795649,47.505718],[-121.795189,47.505204],[-121.795174,47.505188],[-121.794219,47.504104],[-121.794113,47.503984],[-121.793929,47.503775],[-121.7937,47.503515],[-121.793583,47.503382],[-121.793495,47.503276],[-121.793483,47.503261],[-121.793393,47.503152],[-121.793367,47.503114],[-121.793347,47.503074],[-121.793344,47.503035],[-121.793361,47.502987],[-121.793401,47.502919],[-121.793627,47.502709],[-121.792363,47.501827],[-121.792038,47.501606],[-121.791272,47.501086],[-121.790734,47.500721],[-121.789912,47.500163],[-121.7894,47.499908],[-121.78913,47.49978],[-121.788992,47.499721],[-121.788606,47.499565],[-121.787405,47.499107],[-121.78707,47.498979],[-121.786789,47.498852],[-121.785704,47.498361],[-121.785296,47.498159],[-121.785215,47.49812],[-121.785101,47.498063],[-121.784998,47.498012],[-121.784872,47.497951],[-121.784766,47.497897],[-121.784705,47.497782],[-121.784684,47.497715],[-121.784744,47.497576],[-121.785101,47.497236],[-121.785351,47.496998],[-121.784801,47.496744],[-121.784359,47.496539],[-121.784164,47.496449],[-121.783641,47.496943],[-121.783328,47.497239],[-121.783072,47.497122],[-121.782422,47.496824],[-121.78223,47.496736],[-121.782169,47.496708],[-121.782189,47.496689],[-121.782243,47.496636],[-121.782296,47.496585],[-121.783004,47.495895],[-121.783495,47.495399],[-121.783732,47.49516],[-121.783793,47.495099],[-121.783838,47.495055],[-121.784072,47.494828],[-121.784192,47.49471],[-121.784213,47.49469],[-121.784479,47.49443],[-121.784564,47.494349],[-121.78447,47.494288],[-121.78423,47.494152],[-121.783983,47.494007],[-121.783783,47.493889],[-121.783761,47.493876],[-121.783648,47.493809],[-121.783394,47.49366],[-121.783121,47.493499],[-121.782897,47.493365],[-121.782611,47.493197],[-121.78255,47.493125],[-121.782353,47.493002],[-121.782301,47.492972],[-121.782324,47.492941],[-121.782333,47.492907],[-121.782328,47.492873],[-121.782308,47.492842],[-121.782276,47.492815],[-121.782235,47.492795],[-121.782187,47.492785],[-121.782136,47.492783],[-121.782087,47.492792],[-121.781771,47.492621],[-121.781586,47.492517],[-121.781143,47.492268],[-121.781133,47.492264],[-121.78102,47.492214],[-121.780504,47.491957],[-121.780022,47.491711],[-121.779939,47.491674],[-121.779783,47.491581],[-121.779632,47.491489],[-121.779556,47.49142],[-121.779447,47.491332],[-121.779347,47.491258],[-121.77925,47.491179],[-121.779161,47.491123],[-121.779071,47.491042],[-121.779012,47.490953],[-121.779001,47.490894],[-121.778967,47.490834],[-121.778906,47.49079],[-121.778813,47.490765],[-121.778725,47.490765],[-121.778601,47.490796],[-121.778558,47.490831],[-121.778523,47.490883],[-121.778511,47.49096],[-121.778539,47.491009],[-121.778595,47.491062],[-121.778647,47.491087],[-121.7787,47.491099],[-121.778747,47.491103],[-121.778799,47.491105],[-121.778852,47.491094],[-121.778987,47.491118],[-121.779111,47.491179],[-121.779187,47.49123],[-121.779232,47.491263],[-121.779278,47.491296],[-121.779452,47.491473],[-121.779527,47.491539],[-121.779668,47.491628],[-121.779876,47.491733],[-121.779958,47.491777],[-121.780077,47.491834],[-121.780192,47.49189],[-121.780432,47.492012],[-121.780948,47.492265],[-121.781067,47.492324],[-121.781016,47.492368],[-121.780895,47.492496],[-121.780886,47.492506],[-121.780663,47.492725],[-121.780581,47.492806],[-121.780524,47.492862],[-121.780444,47.492941],[-121.780652,47.49304],[-121.780858,47.493137],[-121.781059,47.493232],[-121.781178,47.493363],[-121.780837,47.493702],[-121.780978,47.49377],[-121.781028,47.493794],[-121.781104,47.493736],[-121.781507,47.493429],[-121.781724,47.49324],[-121.781758,47.493211],[-121.781858,47.493129],[-121.781936,47.493102],[-121.782004,47.493047],[-121.782075,47.49301],[-121.782123,47.493021],[-121.782173,47.493023],[-121.782223,47.493014],[-121.782266,47.492997],[-121.782301,47.492972],[-121.782324,47.492941],[-121.782333,47.492907],[-121.782328,47.492873],[-121.782308,47.492842],[-121.782276,47.492815],[-121.782235,47.492795],[-121.782187,47.492785],[-121.782136,47.492783],[-121.782087,47.492792],[-121.781771,47.492621],[-121.781586,47.492517],[-121.781143,47.492268],[-121.78102,47.492214],[-121.780504,47.491957],[-121.780022,47.491711],[-121.779939,47.491674],[-121.779783,47.491581],[-121.779632,47.491489],[-121.77972,47.491435],[-121.779743,47.49142],[-121.78024,47.491128],[-121.780462,47.490997],[-121.780805,47.490796],[-121.780949,47.490711],[-121.781162,47.490558],[-121.781629,47.490266],[-121.781692,47.490226],[-121.781834,47.490177],[-121.782053,47.490135],[-121.782398,47.490121],[-121.782445,47.490121],[-121.783546,47.49011],[-121.783742,47.490109],[-121.784162,47.490107],[-121.784865,47.490103],[-121.785016,47.490108],[-121.785137,47.490112],[-121.785532,47.490125],[-121.785721,47.490194],[-121.785903,47.490335],[-121.785939,47.490479],[-121.78594,47.490616],[-121.78594,47.49119],[-121.785939,47.491429],[-121.786019,47.491703],[-121.786075,47.491852],[-121.786687,47.491233],[-121.786758,47.491161],[-121.78706,47.490856],[-121.787747,47.491146],[-121.787944,47.491377],[-121.788074,47.491664],[-121.788172,47.491881],[-121.78819,47.491921],[-121.788288,47.492137],[-121.788292,47.492168],[-121.788313,47.492317],[-121.788243,47.492424],[-121.788228,47.492448],[-121.788185,47.492514],[-121.787964,47.492733],[-121.787927,47.492769],[-121.787794,47.492901],[-121.787929,47.492961],[-121.788351,47.493148],[-121.788478,47.493027],[-121.788355,47.492969],[-121.788122,47.49286],[-121.788053,47.492828],[-121.787927,47.492769],[-121.787794,47.492901],[-121.787513,47.49318],[-121.787495,47.493198],[-121.787447,47.493242],[-121.787189,47.493483],[-121.787437,47.493601],[-121.787789,47.493769],[-121.787811,47.49378],[-121.787973,47.493856],[-121.788271,47.493999],[-121.788376,47.494049],[-121.788438,47.493989],[-121.78959,47.492867],[-121.789961,47.492521],[-121.790039,47.492445],[-121.790684,47.491828],[-121.791435,47.491362],[-121.792057,47.491008],[-121.792167,47.490937],[-121.792,47.490811],[-121.791829,47.490681],[-121.79149,47.490414],[-121.791386,47.490339],[-121.791275,47.490258],[-121.791111,47.490096],[-121.790913,47.489879],[-121.790711,47.489451],[-121.790755,47.488205],[-121.790772,47.487744],[-121.790787,47.487299],[-121.790804,47.486844],[-121.790807,47.486737],[-121.790945,47.486739],[-121.791256,47.486742],[-121.791872,47.486748],[-121.791872,47.48683],[-121.791871,47.486924],[-121.791871,47.487109],[-121.79187,47.48729],[-121.791869,47.487462],[-121.791869,47.487518]]}},{"type":"Feature","properties":{"agency":"Snoqualmie Valley Transportation","shape_id":"p_1435413"},"geometry":{"type":"LineString","coordinates":[[-121.874573,47.527215],[-121.87453,47.527284],[-121.874456,47.527367],[-121.874391,47.527419],[-121.874345,47.527483],[-121.874291,47.527577],[-121.874198,47.527767],[-121.874109,47.527929],[-121.874033,47.528034],[-121.873982,47.528065],[-121.873964,47.528076],[-121.873571,47.528215],[-121.873443,47.528063],[-121.873379,47.528012],[-121.873299,47.528005],[-121.873234,47.528009],[-121.873169,47.528033],[-121.8731,47.528059],[-121.872593,47.528254],[-121.872448,47.528058],[-121.872719,47.527908],[-121.872803,47.527862],[-121.872946,47.527785],[-121.873039,47.527735],[-121.873111,47.527626],[-121.873262,47.527354],[-121.873407,47.527092],[-121.87352,47.526888],[-121.87283,47.526694],[-121.872424,47.526488],[-121.871909,47.526226],[-121.871696,47.526137],[-121.871404,47.526023],[-121.870942,47.525877],[-121.870404,47.525718],[-121.869745,47.525573],[-121.869279,47.525499],[-121.868996,47.525454],[-121.868254,47.525378],[-121.868144,47.525832],[-121.868104,47.525997],[-121.868042,47.526252],[-121.867966,47.526734],[-121.867901,47.527149],[-121.869068,47.527253],[-121.869502,47.527333],[-121.86957,47.527346],[-121.869846,47.527405],[-121.870131,47.52749],[-121.870491,47.527616],[-121.870838,47.527768],[-121.871141,47.52792],[-121.871489,47.528168],[-121.871538,47.528213],[-121.871768,47.528424],[-121.871856,47.528522],[-121.872,47.528681],[-121.872109,47.528838],[-121.872153,47.5289],[-121.872322,47.529193],[-121.872395,47.529308],[-121.872474,47.529423],[-121.872527,47.529543],[-121.87288,47.53015],[-121.873271,47.530804],[-121.873729,47.531588],[-121.873394,47.531685],[-121.873149,47.531756],[-121.872673,47.53193],[-121.872278,47.532127],[-121.871917,47.532371],[-121.871214,47.532875],[-121.870029,47.533541],[-121.867987,47.534341],[-121.86767,47.533786],[-121.867606,47.533551],[-121.867583,47.533275],[-121.867638,47.53294],[-121.867662,47.53287],[-121.867681,47.532814],[-121.867736,47.532698],[-121.867847,47.532503],[-121.867885,47.532448],[-121.868093,47.532173],[-121.868235,47.531996],[-121.868309,47.53185],[-121.868465,47.531275],[-121.868498,47.531154],[-121.868498,47.530695],[-121.868395,47.530285],[-121.868366,47.530185],[-121.86835,47.530074],[-121.868104,47.530091],[-121.867296,47.53015],[-121.865678,47.530222],[-121.864788,47.530215],[-121.864373,47.530212],[-121.864232,47.530205],[-121.862811,47.530137],[-121.861868,47.530113],[-121.86099,47.530166],[-121.86017,47.530271],[-121.859238,47.530444],[-121.85764,47.530873],[-121.857367,47.530942],[-121.856956,47.531047],[-121.856782,47.531091],[-121.855116,47.531528],[-121.853652,47.531915],[-121.8524,47.532249],[-121.850515,47.532843],[-121.849584,47.533143],[-121.84806,47.533728],[-121.845547,47.534678],[-121.844811,47.534887],[-121.844588,47.534928],[-121.844484,47.534938],[-121.843928,47.534992],[-121.843229,47.534994],[-121.842257,47.534876],[-121.840561,47.534524],[-121.839591,47.534371],[-121.839531,47.534362],[-121.839442,47.534348],[-121.839261,47.534345],[-121.83873,47.534337],[-121.838452,47.534353],[-121.837699,47.534447],[-121.837097,47.534625],[-121.834233,47.53572],[-121.832535,47.536439],[-121.83232,47.53652],[-121.831604,47.53679],[-121.831495,47.536834],[-121.83134,47.536892],[-121.830888,47.536328],[-121.830324,47.535554],[-121.830061,47.535193],[-121.829509,47.534419],[-121.829353,47.534231],[-121.828121,47.532555],[-121.827872,47.53221],[-121.827768,47.532065],[-121.826553,47.530455],[-121.826515,47.530403],[-121.825895,47.529564],[-121.825891,47.529556],[-121.825674,47.529259],[-121.825489,47.529008],[-121.825435,47.528936],[-121.825367,47.528843],[-121.825315,47.528772],[-121.825178,47.528584],[-121.82495,47.528272],[-121.824788,47.528051],[-121.824182,47.527221],[-121.824077,47.52708],[-121.823687,47.526559],[-121.823529,47.526353],[-121.822973,47.525606],[-121.822379,47.525808],[-121.821789,47.525993],[-121.821247,47.526196],[-121.820871,47.526056],[-121.820508,47.525921],[-121.818903,47.525896],[-121.818234,47.525643],[-121.818141,47.525607],[-121.817852,47.525543],[-121.817793,47.525546],[-121.816213,47.52561],[-121.815373,47.525638],[-121.814663,47.525658],[-121.814628,47.525659],[-121.813898,47.525692],[-121.813698,47.525697],[-121.813522,47.525673],[-121.813281,47.525605],[-121.813247,47.525591],[-121.812953,47.525476],[-121.812682,47.525369],[-121.812525,47.525304],[-121.812375,47.525243],[-121.810583,47.524507],[-121.809408,47.523981],[-121.809038,47.523816],[-121.808438,47.523567],[-121.808345,47.523528],[-121.807954,47.523366],[-121.807923,47.523354],[-121.807753,47.523293],[-121.806206,47.522665],[-121.805845,47.522436],[-121.805293,47.522011],[-121.804739,47.521727],[-121.804055,47.52151],[-121.802853,47.521278],[-121.802194,47.521174],[-121.801763,47.521014],[-121.801418,47.520776],[-121.800807,47.520149],[-121.800406,47.519739],[-121.800301,47.519632],[-121.79998,47.518199],[-121.79995,47.518067],[-121.798684,47.512426],[-121.798345,47.511035],[-121.798337,47.511001],[-121.797879,47.509093],[-121.797813,47.508815],[-121.79764,47.508133],[-121.7976,47.508004],[-121.797526,47.507857],[-121.797368,47.507628],[-121.797174,47.507417],[-121.796914,47.507128],[-121.795987,47.506094],[-121.795649,47.505718],[-121.795189,47.505204],[-121.795174,47.505188],[-121.794219,47.504104],[-121.794113,47.503984],[-121.793929,47.503775],[-121.7937,47.503515],[-121.793583,47.503382],[-121.793495,47.503276],[-121.793483,47.503261],[-121.793393,47.503152],[-121.793367,47.503114],[-121.793347,47.503074],[-121.793344,47.503035],[-121.793361,47.502987],[-121.793401,47.502919],[-121.793627,47.502709],[-121.792363,47.501827],[-121.792038,47.501606],[-121.791272,47.501086],[-121.790734,47.500721],[-121.789912,47.500163],[-121.7894,47.499908],[-121.78913,47.49978],[-121.788992,47.499721],[-121.788606,47.499565],[-121.787405,47.499107],[-121.78707,47.498979],[-121.786789,47.498852],[-121.785704,47.498361],[-121.785296,47.498159],[-121.785215,47.49812],[-121.785101,47.498063],[-121.784998,47.498012],[-121.784872,47.497951],[-121.784766,47.497897],[-121.784705,47.497782],[-121.784684,47.497715],[-121.784744,47.497576],[-121.785101,47.497236],[-121.785351,47.496998],[-121.784801,47.496744],[-121.784359,47.496539],[-121.784164,47.496449],[-121.783641,47.496943],[-121.783328,47.497239],[-121.783072,47.497122],[-121.782422,47.496824],[-121.78223,47.496736],[-121.782169,47.496708],[-121.782189,47.496689],[-121.782243,47.496636],[-121.782296,47.496585],[-121.783004,47.495895],[-121.783495,47.495399],[-121.783732,47.49516],[-121.783793,47.495099],[-121.783838,47.495055],[-121.784072,47.494828],[-121.784192,47.49471],[-121.784213,47.49469],[-121.784479,47.49443],[-121.784564,47.494349],[-121.78447,47.494288],[-121.78423,47.494152],[-121.783983,47.494007],[-121.783783,47.493889],[-121.783761,47.493876],[-121.783648,47.493809],[-121.783394,47.49366],[-121.783121,47.493499],[-121.782897,47.493365],[-121.782611,47.493197],[-121.78255,47.493125],[-121.782353,47.493002],[-121.782301,47.492972],[-121.782324,47.492941],[-121.782333,47.492907],[-121.782328,47.492873],[-121.782308,47.492842],[-121.782276,47.492815],[-121.782235,47.492795],[-121.782187,47.492785],[-121.782136,47.492783],[-121.782087,47.492792],[-121.781771,47.492621],[-121.781586,47.492517],[-121.781143,47.492268],[-121.781133,47.492264],[-121.78102,47.492214],[-121.780504,47.491957],[-121.780022,47.491711],[-121.779939,47.491674],[-121.779783,47.491581],[-121.779632,47.491489],[-121.779556,47.49142],[-121.779447,47.491332],[-121.779347,47.491258],[-121.77925,47.491179],[-121.779161,47.491123],[-121.779071,47.491042],[-121.779012,47.490953],[-121.779001,47.490894],[-121.778967,47.490834],[-121.778906,47.49079],[-121.778813,47.490765],[-121.778725,47.490765],[-121.778601,47.490796],[-121.778558,47.490831],[-121.778523,47.490883],[-121.778511,47.49096],[-121.778539,47.491009],[-121.778595,47.491062],[-121.778647,47.491087],[-121.7787,47.491099],[-121.778747,47.491103],[-121.778799,47.491105],[-121.778852,47.491094],[-121.778987,47.491118],[-121.779111,47.491179],[-121.779187,47.49123],[-121.779232,47.491263],[-121.779278,47.491296],[-121.779452,47.491473],[-121.779527,47.491539],[-121.779668,47.491628],[-121.779876,47.491733],[-121.779958,47.491777],[-121.780077,47.491834],[-121.780192,47.49189],[-121.780432,47.492012],[-121.780948,47.492265],[-121.781067,47.492324],[-121.781016,47.492368],[-121.780895,47.492496],[-121.780886,47.492506],[-121.780663,47.492725],[-121.780581,47.492806],[-121.780524,47.492862],[-121.780444,47.492941],[-121.780652,47.49304],[-121.780858,47.493137],[-121.781059,47.493232],[-121.781178,47.493363],[-121.780837,47.493702],[-121.780978,47.49377],[-121.781028,47.493794],[-121.781104,47.493736],[-121.781507,47.493429],[-121.781724,47.49324],[-121.781758,47.493211],[-121.781858,47.493129],[-121.781936,47.493102],[-121.782004,47.493047],[-121.782075,47.49301],[-121.782123,47.493021],[-121.782173,47.493023],[-121.782223,47.493014],[-121.782266,47.492997],[-121.782301,47.492972],[-121.782324,47.492941],[-121.782333,47.492907],[-121.782328,47.492873],[-121.782308,47.492842],[-121.782276,47.492815],[-121.782235,47.492795],[-121.782187,47.492785],[-121.782136,47.492783],[-121.782087,47.492792],[-121.781771,47.492621],[-121.781586,47.492517],[-121.781143,47.492268],[-121.78102,47.492214],[-121.780504,47.491957],[-121.780022,47.491711],[-121.779939,47.491674],[-121.779783,47.491581],[-121.779632,47.491489],[-121.77972,47.491435],[-121.779743,47.49142],[-121.78024,47.491128],[-121.780462,47.490997],[-121.780805,47.490796],[-121.780949,47.490711],[-121.781162,47.490558],[-121.781629,47.490266],[-121.781692,47.490226],[-121.781834,47.490177],[-121.782053,47.490135],[-121.782398,47.490121],[-121.782445,47.490121],[-121.783546,47.49011],[-121.783742,47.490109],[-121.784162,47.490107],[-121.784865,47.490103],[-121.785016,47.490108],[-121.785137,47.490112],[-121.785532,47.490125],[-121.785721,47.490194],[-121.785903,47.490335],[-121.785939,47.490479],[-121.78594,47.490616],[-121.78594,47.49119],[-121.785939,47.491429],[-121.786019,47.491703],[-121.786075,47.491852],[-121.786687,47.491233],[-121.786758,47.491161],[-121.78706,47.490856],[-121.787747,47.491146],[-121.787944,47.491377],[-121.788074,47.491664],[-121.788172,47.491881],[-121.78819,47.491921],[-121.788288,47.492137],[-121.788292,47.492168],[-121.788313,47.492317],[-121.788243,47.492424],[-121.788228,47.492448],[-121.788185,47.492514],[-121.787964,47.492733],[-121.787927,47.492769],[-121.787794,47.492901],[-121.787929,47.492961],[-121.788351,47.493148],[-121.788478,47.493027],[-121.788355,47.492969],[-121.788122,47.49286],[-121.788053,47.492828],[-121.787927,47.492769],[-121.787794,47.492901],[-121.787513,47.49318],[-121.787495,47.493198],[-121.787447,47.493242],[-121.787189,47.493483],[-121.787437,47.493601],[-121.787789,47.493769],[-121.787811,47.49378],[-121.787973,47.493856],[-121.788271,47.493999],[-121.788376,47.494049],[-121.788438,47.493989],[-121.78959,47.492867],[-121.789961,47.492521],[-121.790039,47.492445],[-121.790684,47.491828],[-121.791435,47.491362],[-121.792057,47.491008],[-121.792167,47.490937],[-121.792,47.490811],[-121.791829,47.490681],[-121.79149,47.490414],[-121.791386,47.490339],[-121.791275,47.490258],[-121.791111,47.490096],[-121.790913,47.489879],[-121.790711,47.489451],[-121.790755,47.488205],[-121.790772,47.487744],[-121.790787,47.487299],[-121.790804,47.486844],[-121.790807,47.486737],[-121.790945,47.486739],[-121.791256,47.486742],[-121.791872,47.486748],[-121.791872,47.48683],[-121.791871,47.486924],[-121.791871,47.487109],[-121.79187,47.48729],[-121.791869,47.487462],[-121.791869,47.487518]]}},{"type":"Feature","properties":{"agency":"Snoqualmie Valley Transportation","shape_id":"p_1435414"},"geometry":{"type":"LineString","coordinates":[[-121.791869,47.487518],[-121.79187694379638,47.48763803872092],[-121.793005,47.487646],[-121.79312,47.487615],[-121.793224,47.48758],[-121.793408,47.487827],[-121.793452,47.487898],[-121.793601,47.488128],[-121.79365,47.488301],[-121.793658,47.488333],[-121.793697,47.488449],[-121.793782,47.488591],[-121.79387,47.488676],[-121.793953,47.488757],[-121.794023,47.488811],[-121.794214,47.488961],[-121.794237,47.488981],[-121.794354,47.48908],[-121.794449,47.489152],[-121.794628,47.489288],[-121.794681,47.48933],[-121.794566,47.489396],[-121.79455,47.489486],[-121.794276,47.489648],[-121.793821,47.489926],[-121.793718,47.489989],[-121.792301,47.490855],[-121.792167,47.490937],[-121.792057,47.491008],[-121.791435,47.491362],[-121.790684,47.491828],[-121.790039,47.492445],[-121.789961,47.492521],[-121.78959,47.492867],[-121.788438,47.493989],[-121.788376,47.494049],[-121.788271,47.493999],[-121.787973,47.493856],[-121.787811,47.49378],[-121.787789,47.493769],[-121.787437,47.493601],[-121.787189,47.493483],[-121.787447,47.493242],[-121.787495,47.493198],[-121.787513,47.49318],[-121.787794,47.492901],[-121.787992,47.492989],[-121.788351,47.493148],[-121.788478,47.493027],[-121.788355,47.492969],[-121.788122,47.49286],[-121.787927,47.492769],[-121.787964,47.492733],[-121.788185,47.492514],[-121.788228,47.492448],[-121.788243,47.492424],[-121.788313,47.492317],[-121.788292,47.492168],[-121.788288,47.492137],[-121.78819,47.491921],[-121.788172,47.491881],[-121.788074,47.491664],[-121.787944,47.491377],[-121.787747,47.491146],[-121.787428,47.491011],[-121.78706,47.490856],[-121.786687,47.491233],[-121.786075,47.491852],[-121.786019,47.491703],[-121.785939,47.491429],[-121.78594,47.49119],[-121.78594,47.490616],[-121.785939,47.490479],[-121.785903,47.490335],[-121.785721,47.490194],[-121.785532,47.490125],[-121.785137,47.490112],[-121.785011,47.490108],[-121.784865,47.490103],[-121.784162,47.490107],[-121.783742,47.490109],[-121.783546,47.49011],[-121.782445,47.490121],[-121.782398,47.490121],[-121.782053,47.490135],[-121.781834,47.490177],[-121.781692,47.490226],[-121.781629,47.490266],[-121.781162,47.490558],[-121.780949,47.490711],[-121.780805,47.490796],[-121.780462,47.490997],[-121.78024,47.491128],[-121.779743,47.49142],[-121.77972,47.491435],[-121.779632,47.491489],[-121.779556,47.49142],[-121.779447,47.491332],[-121.779347,47.491258],[-121.77925,47.491179],[-121.779161,47.491123],[-121.779071,47.491042],[-121.779012,47.490953],[-121.779001,47.490894],[-121.778967,47.490834],[-121.778906,47.49079],[-121.778813,47.490765],[-121.778725,47.490765],[-121.778601,47.490796],[-121.778558,47.490831],[-121.778523,47.490883],[-121.778511,47.49096],[-121.778539,47.491009],[-121.778595,47.491062],[-121.778647,47.491087],[-121.7787,47.491099],[-121.778747,47.491103],[-121.778799,47.491105],[-121.778852,47.491094],[-121.778987,47.491118],[-121.779111,47.491179],[-121.779187,47.49123],[-121.779232,47.491263],[-121.779278,47.491296],[-121.779452,47.491473],[-121.779527,47.491539],[-121.779668,47.491628],[-121.779876,47.491733],[-121.779958,47.491777],[-121.780077,47.491834],[-121.780192,47.49189],[-121.780432,47.492012],[-121.780948,47.492265],[-121.781067,47.492324],[-121.781016,47.492368],[-121.780895,47.492496],[-121.780886,47.492506],[-121.780581,47.492806],[-121.780524,47.492862],[-121.780444,47.492941],[-121.780652,47.49304],[-121.780858,47.493137],[-121.781066398156,47.4932377636873],[-121.781159945496,47.4933712022205],[-121.78084719083,47.493701724794],[-121.781028,47.493794],[-121.781092,47.493824],[-121.78179,47.494152],[-121.782351,47.494416],[-121.783212,47.494824],[-121.783719,47.495064],[-121.783793,47.495099],[-121.783732,47.49516],[-121.783477,47.495418],[-121.783004,47.495895],[-121.78416966578078,47.49644993264354],[-121.7836648721522,47.496930357349385],[-121.783641,47.496943],[-121.783328,47.497239],[-121.783974,47.497535],[-121.784397,47.497729],[-121.78458,47.497812],[-121.784766,47.497897],[-121.784872,47.497951],[-121.784998,47.498012],[-121.785101,47.498063],[-121.785215,47.49812],[-121.785296,47.498159],[-121.785704,47.498361],[-121.786789,47.498852],[-121.78707,47.498979],[-121.787405,47.499107],[-121.788606,47.499565],[-121.788992,47.499721],[-121.78913,47.49978],[-121.7894,47.499908],[-121.789912,47.500163],[-121.790734,47.500721],[-121.791272,47.501086],[-121.792038,47.501606],[-121.792363,47.501827],[-121.793627,47.502709],[-121.793401,47.502919],[-121.793361,47.502987],[-121.793344,47.503035],[-121.793347,47.503074],[-121.793367,47.503114],[-121.793393,47.503152],[-121.793483,47.503261],[-121.793495,47.503276],[-121.793583,47.503382],[-121.7937,47.503515],[-121.793929,47.503775],[-121.794113,47.503984],[-121.794219,47.504104],[-121.795174,47.505188],[-121.795189,47.505204],[-121.795649,47.505718],[-121.795987,47.506094],[-121.796914,47.507128],[-121.797174,47.507417],[-121.797368,47.507628],[-121.797526,47.507857],[-121.7976,47.508004],[-121.79764,47.508133],[-121.797813,47.508815],[-121.797879,47.509093],[-121.798337,47.511001],[-121.798345,47.511035],[-121.798684,47.512426],[-121.799694,47.516925],[-121.79995,47.518067],[-121.800301,47.519632],[-121.800406,47.519739],[-121.800807,47.520149],[-121.801418,47.520776],[-121.801763,47.521014],[-121.802194,47.521174],[-121.802853,47.521278],[-121.804055,47.52151],[-121.804739,47.521727],[-121.805293,47.522011],[-121.805845,47.522436],[-121.806206,47.522665],[-121.807753,47.523293],[-121.807923,47.523354],[-121.807954,47.523366],[-121.808345,47.523528],[-121.808438,47.523567],[-121.809038,47.523816],[-121.809408,47.523981],[-121.810583,47.524507],[-121.812375,47.525243],[-121.812525,47.525304],[-121.812682,47.525369],[-121.812911,47.525459],[-121.813247,47.525591],[-121.813281,47.525605],[-121.813522,47.525673],[-121.813698,47.525697],[-121.813898,47.525692],[-121.814628,47.525659],[-121.814663,47.525658],[-121.815373,47.525638],[-121.816213,47.52561],[-121.817793,47.525546],[-121.817852,47.525543],[-121.818141,47.525607],[-121.818234,47.525643],[-121.818903,47.525896],[-121.820508,47.525921],[-121.821247,47.526196],[-121.821789,47.525993],[-121.822379,47.525808],[-121.822973,47.525606],[-121.823529,47.526353],[-121.823687,47.526559],[-121.824077,47.52708],[-121.824182,47.527221],[-121.824788,47.528051],[-121.82495,47.528272],[-121.825178,47.528584],[-121.825315,47.528772],[-121.825367,47.528843],[-121.825435,47.528936],[-121.825489,47.529008],[-121.825674,47.529259],[-121.825891,47.529556],[-121.825895,47.529564],[-121.826515,47.530403],[-121.826553,47.530455],[-121.827768,47.532065],[-121.827898,47.532246],[-121.828121,47.532555],[-121.829353,47.534231],[-121.829509,47.534419],[-121.830061,47.535193],[-121.830324,47.535554],[-121.830888,47.536328],[-121.83134,47.536892],[-121.831393,47.536975],[-121.831562,47.536909],[-121.831676,47.536868],[-121.833707,47.536077],[-121.833842,47.536025],[-121.834349,47.535833],[-121.837116,47.534784],[-121.837306,47.534712],[-121.837808,47.534591],[-121.838371,47.534483],[-121.838985,47.534453],[-121.839238,47.53446],[-121.83941404961786,47.53446578299437],[-121.839422,47.534465],[-121.839511,47.534477],[-121.840316,47.534587],[-121.84183,47.534912],[-121.842306,47.535012],[-121.842683,47.535065],[-121.84336,47.535117],[-121.843924,47.535137],[-121.844648,47.535068],[-121.845422,47.534876],[-121.846192,47.534591],[-121.847677,47.533997],[-121.850034,47.533143],[-121.85058,47.532946],[-121.850653,47.532925],[-121.855339,47.531592],[-121.856848,47.531206],[-121.857021,47.531162],[-121.857982,47.53092],[-121.858716,47.530725],[-121.859885,47.530431],[-121.860594,47.530332],[-121.861893,47.530235],[-121.863993,47.530317],[-121.864213,47.530324],[-121.865479,47.530368],[-121.866418,47.530349],[-121.867249,47.530283],[-121.868123,47.530206],[-121.868366,47.530185],[-121.868395,47.530285],[-121.868498,47.530695],[-121.868498,47.531154],[-121.868465,47.531275],[-121.868309,47.53185],[-121.868235,47.531996],[-121.868093,47.532173],[-121.867885,47.532448],[-121.867847,47.532503],[-121.867736,47.532698],[-121.867681,47.532814],[-121.867638,47.53294],[-121.867583,47.533275],[-121.867606,47.533551],[-121.86767,47.533786],[-121.867747,47.53392],[-121.867987,47.534341],[-121.870029,47.533541],[-121.871214,47.532875],[-121.871917,47.532371],[-121.872278,47.532127],[-121.872673,47.53193],[-121.873149,47.531756],[-121.873419,47.531678],[-121.873729,47.531588],[-121.873271,47.530804],[-121.87288,47.53015],[-121.872527,47.529543],[-121.872474,47.529423],[-121.872395,47.529308],[-121.872322,47.529193],[-121.872153,47.5289],[-121.872109,47.528838],[-121.872,47.528681],[-121.871975,47.528654],[-121.871856,47.528522],[-121.871768,47.528424],[-121.871489,47.528168],[-121.871141,47.52792],[-121.870838,47.527768],[-121.870491,47.527616],[-121.870131,47.52749],[-121.869846,47.527405],[-121.86957,47.527346],[-121.869502,47.527333],[-121.869068,47.527253],[-121.867901,47.527149],[-121.867934,47.526939],[-121.867966,47.526734],[-121.868042,47.526252],[-121.868104,47.525997],[-121.868254,47.525378],[-121.868996,47.525454],[-121.869745,47.525573],[-121.870404,47.525718],[-121.870942,47.525877],[-121.871404,47.526023],[-121.871696,47.526137],[-121.871909,47.526226],[-121.872424,47.526488],[-121.87283,47.526694],[-121.872909,47.526716],[-121.87352,47.526888],[-121.874514,47.527095]]}},{"type":"Feature","properties":{"agency":"Snoqualmie Valley Transportation","shape_id":"p_1435415"},"geometry":{"type":"LineString","coordinates":[[-121.791869,47.487518],[-121.79187694379638,47.48763803872092],[-121.793005,47.487646],[-121.79312,47.487615],[-121.793224,47.48758],[-121.793408,47.487827],[-121.793452,47.487898],[-121.793601,47.488128],[-121.79365,47.488301],[-121.793658,47.488333],[-121.793697,47.488449],[-121.793782,47.488591],[-121.79387,47.488676],[-121.793953,47.488757],[-121.794023,47.488811],[-121.794214,47.488961],[-121.794237,47.488981],[-121.794354,47.48908],[-121.794449,47.489152],[-121.794628,47.489288],[-121.794681,47.48933],[-121.794566,47.489396],[-121.79455,47.489486],[-121.794276,47.489648],[-121.793821,47.489926],[-121.793718,47.489989],[-121.792301,47.490855],[-121.792167,47.490937],[-121.792057,47.491008],[-121.791435,47.491362],[-121.790684,47.491828],[-121.790039,47.492445],[-121.789961,47.492521],[-121.78959,47.492867],[-121.788438,47.493989],[-121.788376,47.494049],[-121.788271,47.493999],[-121.787973,47.493856],[-121.787811,47.49378],[-121.787789,47.493769],[-121.787437,47.493601],[-121.787189,47.493483],[-121.787447,47.493242],[-121.787495,47.493198],[-121.787513,47.49318],[-121.787794,47.492901],[-121.787992,47.492989],[-121.788351,47.493148],[-121.788478,47.493027],[-121.788355,47.492969],[-121.788122,47.49286],[-121.787927,47.492769],[-121.787964,47.492733],[-121.788185,47.492514],[-121.788228,47.492448],[-121.788243,47.492424],[-121.788313,47.492317],[-121.788292,47.492168],[-121.788288,47.492137],[-121.78819,47.491921],[-121.788172,47.491881],[-121.788074,47.491664],[-121.787944,47.491377],[-121.787747,47.491146],[-121.787428,47.491011],[-121.78706,47.490856],[-121.786687,47.491233],[-121.786075,47.491852],[-121.786019,47.491703],[-121.785939,47.491429],[-121.78594,47.49119],[-121.78594,47.490616],[-121.785939,47.490479],[-121.785903,47.490335],[-121.785721,47.490194],[-121.785532,47.490125],[-121.785137,47.490112],[-121.785011,47.490108],[-121.784865,47.490103],[-121.784162,47.490107],[-121.783742,47.490109],[-121.783546,47.49011],[-121.782445,47.490121],[-121.782398,47.490121],[-121.782053,47.490135],[-121.781834,47.490177],[-121.781692,47.490226],[-121.781629,47.490266],[-121.781162,47.490558],[-121.780949,47.490711],[-121.780805,47.490796],[-121.780462,47.490997],[-121.78024,47.491128],[-121.779743,47.49142],[-121.77972,47.491435],[-121.779632,47.491489],[-121.779556,47.49142],[-121.779447,47.491332],[-121.779347,47.491258],[-121.77925,47.491179],[-121.779161,47.491123],[-121.779071,47.491042],[-121.779012,47.490953],[-121.779001,47.490894],[-121.778967,47.490834],[-121.778906,47.49079],[-121.778813,47.490765],[-121.778725,47.490765],[-121.778601,47.490796],[-121.778558,47.490831],[-121.778523,47.490883],[-121.778511,47.49096],[-121.778539,47.491009],[-121.778595,47.491062],[-121.778647,47.491087],[-121.7787,47.491099],[-121.778747,47.491103],[-121.778799,47.491105],[-121.778852,47.491094],[-121.778987,47.491118],[-121.779111,47.491179],[-121.779187,47.49123],[-121.779232,47.491263],[-121.779278,47.491296],[-121.779452,47.491473],[-121.779527,47.491539],[-121.779668,47.491628],[-121.779876,47.491733],[-121.779958,47.491777],[-121.780077,47.491834],[-121.780192,47.49189],[-121.780432,47.492012],[-121.780948,47.492265],[-121.781067,47.492324],[-121.781016,47.492368],[-121.780895,47.492496],[-121.780886,47.492506],[-121.780581,47.492806],[-121.780524,47.492862],[-121.780444,47.492941],[-121.780652,47.49304],[-121.780858,47.493137],[-121.781066398156,47.4932377636873],[-121.781159945496,47.4933712022205],[-121.78084719083,47.493701724794],[-121.781028,47.493794],[-121.781092,47.493824],[-121.78179,47.494152],[-121.782351,47.494416],[-121.783212,47.494824],[-121.783719,47.495064],[-121.783793,47.495099],[-121.783732,47.49516],[-121.783477,47.495418],[-121.783004,47.495895],[-121.78416966578078,47.49644993264354],[-121.7836648721522,47.496930357349385],[-121.783641,47.496943],[-121.783328,47.497239],[-121.783974,47.497535],[-121.784397,47.497729],[-121.78458,47.497812],[-121.784766,47.497897],[-121.784872,47.497951],[-121.784998,47.498012],[-121.785101,47.498063],[-121.785215,47.49812],[-121.785296,47.498159],[-121.785704,47.498361],[-121.786789,47.498852],[-121.78707,47.498979],[-121.787405,47.499107],[-121.788606,47.499565],[-121.788992,47.499721],[-121.78913,47.49978],[-121.7894,47.499908],[-121.789912,47.500163],[-121.790734,47.500721],[-121.791272,47.501086],[-121.792038,47.501606],[-121.792363,47.501827],[-121.793627,47.502709],[-121.793401,47.502919],[-121.793361,47.502987],[-121.793344,47.503035],[-121.793347,47.503074],[-121.793367,47.503114],[-121.793393,47.503152],[-121.793483,47.503261],[-121.793495,47.503276],[-121.793583,47.503382],[-121.7937,47.503515],[-121.793929,47.503775],[-121.794113,47.503984],[-121.794219,47.504104],[-121.795174,47.505188],[-121.795189,47.505204],[-121.795649,47.505718],[-121.795987,47.506094],[-121.796914,47.507128],[-121.797174,47.507417],[-121.797368,47.507628],[-121.797526,47.507857],[-121.7976,47.508004],[-121.79764,47.508133],[-121.797813,47.508815],[-121.797879,47.509093],[-121.798337,47.511001],[-121.798345,47.511035],[-121.798684,47.512426],[-121.799694,47.516925],[-121.79995,47.518067],[-121.800301,47.519632],[-121.800406,47.519739],[-121.800807,47.520149],[-121.801418,47.520776],[-121.801763,47.521014],[-121.802194,47.521174],[-121.802853,47.521278],[-121.804055,47.52151],[-121.804739,47.521727],[-121.805293,47.522011],[-121.805845,47.522436],[-121.806206,47.522665],[-121.807753,47.523293],[-121.807923,47.523354],[-121.807954,47.523366],[-121.808345,47.523528],[-121.808438,47.523567],[-121.809038,47.523816],[-121.809408,47.523981],[-121.810583,47.524507],[-121.812375,47.525243],[-121.812525,47.525304],[-121.812682,47.525369],[-121.812911,47.525459],[-121.813247,47.525591],[-121.813281,47.525605],[-121.813522,47.525673],[-121.813698,47.525697],[-121.813898,47.525692],[-121.814628,47.525659],[-121.814663,47.525658],[-121.815373,47.525638],[-121.816213,47.52561],[-121.817793,47.525546],[-121.817852,47.525543],[-121.818141,47.525607],[-121.818234,47.525643],[-121.818903,47.525896],[-121.820508,47.525921],[-121.821247,47.526196],[-121.821789,47.525993],[-121.822379,47.525808],[-121.822973,47.525606],[-121.823529,47.526353],[-121.823687,47.526559],[-121.824077,47.52708],[-121.824182,47.527221],[-121.824788,47.528051],[-121.82495,47.528272],[-121.825178,47.528584],[-121.825315,47.528772],[-121.825367,47.528843],[-121.825435,47.528936],[-121.825489,47.529008],[-121.825674,47.529259],[-121.825891,47.529556],[-121.825895,47.529564],[-121.826515,47.530403],[-121.826553,47.530455],[-121.827768,47.532065],[-121.827898,47.532246]]}}]}