{"type":"FeatureCollection","features":[{"type":"Feature","properties":{"agency":"Solid Ground","shape_id":"p_1426047"},"geometry":{"type":"LineString","coordinates":[[-122.323048,47.603703],[-122.322854,47.603492],[-122.322792,47.603423],[-122.32274,47.603366],[-122.32266,47.603277],[-122.322385,47.602972],[-122.3222,47.602768],[-122.322186,47.602753],[-122.322146,47.602713],[-122.322246,47.602666],[-122.32227,47.602655],[-122.322304,47.602639],[-122.322337,47.60262],[-122.322367,47.6026],[-122.322394,47.602578],[-122.322418,47.602554],[-122.322439,47.602529],[-122.322457,47.602503],[-122.322471,47.602476],[-122.322481,47.602448],[-122.322488,47.60242],[-122.322492,47.602392],[-122.322484,47.602186],[-122.322484,47.601752],[-122.322485,47.601697],[-122.322638,47.601701],[-122.323388,47.601707],[-122.323589,47.601707],[-122.323752,47.601706],[-122.32403,47.601704],[-122.325057,47.601708],[-122.325676,47.601709],[-122.325707,47.60171],[-122.326279,47.601712],[-122.32635,47.601711],[-122.326486,47.601712],[-122.327151,47.601714],[-122.3274,47.601715],[-122.327838,47.601716],[-122.328733,47.601718],[-122.329047,47.60172],[-122.329347,47.601721],[-122.329465,47.60172],[-122.330277,47.60172],[-122.330635,47.601723],[-122.330828,47.601725],[-122.330918,47.601725],[-122.331195,47.601726],[-122.331425,47.601727],[-122.331437,47.601727],[-122.331828,47.601728],[-122.331977,47.601728],[-122.332182,47.601729],[-122.332223,47.601729],[-122.332741,47.601731],[-122.332865,47.60173],[-122.332974,47.601731],[-122.333033,47.601732],[-122.333444,47.601733],[-122.333599,47.601733],[-122.334072,47.601736],[-122.334126,47.601737],[-122.334126,47.601796],[-122.334128,47.602159],[-122.334129,47.602412],[-122.334164,47.602473],[-122.334205,47.60251],[-122.3343,47.602547],[-122.334369,47.602623],[-122.334808,47.603108],[-122.334906,47.603217],[-122.334949,47.603262],[-122.335016,47.603337],[-122.335213,47.603553],[-122.335377,47.603734],[-122.335544,47.603917],[-122.335618,47.604001],[-122.335677,47.604066],[-122.335742,47.604137],[-122.335849,47.604254],[-122.336181,47.604621],[-122.336247,47.604693],[-122.336312,47.604765],[-122.336851,47.605359],[-122.336894,47.605407],[-122.336944,47.605462],[-122.337486,47.606059],[-122.337488,47.606061],[-122.337541,47.606121],[-122.337611,47.606198],[-122.338144,47.606784],[-122.338192,47.606838],[-122.338261,47.60691],[-122.338345,47.606998],[-122.338662,47.607353],[-122.339028,47.607767],[-122.339087,47.607833],[-122.339149,47.607903],[-122.339742,47.608559],[-122.339895,47.608728],[-122.339903,47.608736],[-122.340009,47.608853],[-122.340068,47.608916],[-122.340138,47.608995],[-122.340391,47.609272],[-122.340505,47.609402],[-122.340787,47.609723],[-122.340827,47.609769],[-122.340891,47.609843],[-122.340946,47.609903],[-122.341255,47.610243],[-122.341317,47.610311],[-122.341406,47.610365],[-122.341692,47.610536],[-122.342519,47.611018],[-122.342607,47.611069],[-122.342705,47.611127],[-122.343366,47.611516],[-122.343825,47.611787],[-122.343922,47.611845],[-122.344004,47.611893],[-122.344663,47.612281],[-122.344677,47.612289],[-122.344856,47.612394],[-122.345142,47.612563],[-122.345217,47.612606],[-122.34531,47.612663],[-122.345494,47.612769],[-122.345609,47.612837],[-122.346433,47.613323],[-122.346476,47.613348],[-122.346518,47.613373],[-122.34661,47.613428],[-122.346618,47.613432],[-122.346894,47.613595],[-122.346989,47.613651],[-122.347081,47.613705],[-122.34749,47.613945],[-122.347844,47.614153],[-122.347731,47.614223],[-122.347713,47.614233],[-122.347534,47.614373],[-122.347396,47.614481],[-122.347062,47.614736],[-122.346983,47.614804],[-122.346898,47.614756],[-122.346246,47.614369],[-122.345757,47.614086],[-122.345673,47.61403],[-122.345593,47.613983],[-122.345194,47.613751],[-122.344457,47.613322],[-122.344355,47.613262],[-122.344292,47.613225],[-122.343936,47.613011],[-122.343718,47.61288],[-122.343164,47.612548],[-122.343076,47.612494],[-122.343006,47.612453],[-122.34258,47.6122],[-122.342156,47.61195],[-122.341977,47.611844],[-122.341865,47.61178],[-122.341779,47.61173],[-122.341701,47.611789],[-122.341668,47.611812],[-122.341328,47.612077],[-122.341162,47.612205],[-122.341006,47.612325],[-122.340897,47.612408],[-122.340798,47.612485],[-122.340464,47.612742],[-122.340143,47.612989],[-122.340085,47.613033],[-122.340046,47.613063],[-122.339926,47.613156],[-122.339601,47.613406],[-122.339264,47.613666],[-122.339232,47.613691],[-122.339138,47.613762],[-122.339092,47.613799],[-122.338758,47.614059],[-122.338493,47.614266],[-122.338427,47.614318],[-122.338415,47.614327],[-122.338332,47.614392],[-122.338221,47.614474],[-122.338217,47.614478],[-122.338056,47.614595],[-122.337873,47.614728],[-122.337813,47.614778],[-122.337749,47.614826],[-122.337699,47.614865],[-122.337602,47.614931],[-122.337482,47.615027],[-122.337446,47.615057],[-122.337415,47.615081],[-122.337363,47.615121],[-122.337013,47.615387],[-122.336859,47.615505],[-122.33666,47.615657],[-122.336603,47.6157],[-122.336573,47.615723],[-122.336497,47.615782],[-122.336152,47.616054],[-122.335797,47.616333],[-122.335727,47.616388],[-122.335659,47.616441],[-122.335506,47.61656],[-122.335505,47.61656],[-122.335416,47.61663],[-122.335309,47.616713],[-122.334955,47.616985],[-122.334868,47.617051],[-122.334802,47.617103],[-122.334454,47.617378],[-122.334344,47.617479],[-122.334313,47.617495],[-122.334248,47.617527],[-122.334167,47.617583],[-122.334149,47.617595],[-122.334093,47.617638],[-122.334012,47.617722],[-122.333917,47.617666],[-122.333718,47.617549],[-122.333629,47.617497],[-122.333445,47.617389],[-122.333062,47.617164],[-122.332946,47.617095],[-122.332828,47.617025],[-122.332705,47.616953],[-122.332615,47.6169],[-122.332316,47.616721],[-122.331998,47.61653],[-122.331809,47.616417],[-122.331508,47.616236],[-122.331421,47.616184],[-122.331367,47.616128],[-122.331073,47.61582],[-122.330816,47.615552],[-122.330729,47.615459],[-122.330673,47.615399],[-122.330487,47.615195],[-122.330333,47.615028],[-122.330149,47.614829],[-122.329872,47.614529],[-122.329751,47.614397],[-122.32949,47.614108],[-122.329256,47.613849],[-122.329008,47.61358],[-122.329001,47.613573],[-122.328955,47.613523],[-122.328916,47.61348],[-122.328855,47.613414],[-122.328838,47.613395],[-122.328666,47.613207],[-122.328065,47.612551],[-122.328006,47.612485],[-122.327941,47.612414],[-122.327644,47.612084],[-122.32748,47.611903],[-122.327158,47.611545],[-122.327104,47.611485],[-122.327039,47.611414],[-122.326785,47.611138],[-122.32651,47.61084],[-122.326446,47.61077],[-122.326384,47.610703],[-122.326197,47.610499],[-122.326086,47.610373],[-122.326056,47.610338],[-122.326023,47.610228],[-122.325906,47.610103],[-122.32584,47.610032],[-122.325783,47.609971],[-122.325701,47.609883],[-122.325574,47.609818],[-122.325369,47.609598],[-122.325213,47.609431],[-122.325127,47.609339],[-122.325068,47.609272],[-122.324839,47.609014],[-122.324673,47.608827],[-122.324555,47.608693],[-122.324488,47.608619],[-122.324434,47.608558],[-122.324324,47.608436],[-122.324263,47.608368],[-122.324233,47.608263],[-122.323958,47.607963],[-122.323893,47.607893],[-122.323841,47.607835],[-122.32364,47.607616],[-122.323536,47.607503],[-122.323306,47.607252],[-122.323285,47.607228],[-122.323245,47.607183],[-122.323188,47.607122],[-122.323182,47.607116],[-122.322905,47.606813],[-122.322677,47.606564],[-122.322664,47.606558],[-122.322528,47.606493],[-122.322443,47.6064],[-122.322313,47.606257],[-122.32218,47.606112],[-122.322109,47.606034],[-122.321941,47.605851],[-122.321879,47.605782],[-122.322004,47.60573],[-122.322116,47.605683],[-122.322455,47.60554],[-122.322923,47.605347],[-122.323007,47.60531],[-122.323084,47.605277],[-122.323189,47.605234],[-122.323538,47.605089],[-122.323557,47.605081],[-122.323868,47.604952],[-122.323995,47.604896],[-122.324104,47.604854],[-122.324043,47.604787],[-122.323849,47.604576],[-122.323754,47.604472],[-122.323451,47.604143],[-122.323048,47.603703]]}}]}