{"type":"FeatureCollection","features":[{"type":"Feature","properties":{"agency":"Stanford Marguerite Shuttle","shape_id":"11273689:9109+11273689:1880"},"geometry":{"type":"LineString","coordinates":[[-122.23088832,37.4856126],[-122.23084259,37.48564911],[-122.23066711,37.48553848],[-122.23046112,37.48548126],[-122.23004913,37.48546982],[-122.23012543,37.4864769],[-122.23020935,37.48752213],[-122.22827148,37.48757553],[-122.22650909,37.48765564],[-122.22615814,37.48764038],[-122.22532654,37.48722839],[-122.22406769,37.48669052],[-122.22367096,37.48669815],[-122.2231369,37.48672104],[-122.22281647,37.4867897],[-122.21835327,37.48701096],[-122.21481323,37.48712158],[-122.21398926,37.48703003],[-122.20462799,37.48553085],[-122.20442963,37.48548889],[-122.20445253,37.4853904],[-122.20442963,37.48548889],[-122.20424652,37.48546982],[-122.2020874,37.48511887],[-122.20220184,37.48469925],[-122.2022934,37.4844017],[-122.20314026,37.483181],[-122.2089386,37.48448181],[-122.2097168,37.48461914],[-122.21456909,37.48537827],[-122.21708679,37.48566818],[-122.21884155,37.48590469],[-122.2190094,37.48592758],[-122.21846771,37.48664856],[-122.21820831,37.48701096],[-122.22413635,37.48674011],[-122.22592926,37.48749924],[-122.22624969,37.48762894],[-122.22640991,37.4876709],[-122.23066711,37.48746872],[-122.23103333,37.48746109],[-122.23117065,37.48749924],[-122.2310791,37.48609924],[-122.23097992,37.4858017],[-122.23084259,37.48564911],[-122.23088832,37.4856126]]}},{"type":"Feature","properties":{"agency":"Stanford Marguerite Shuttle","shape_id":"12881950:753"},"geometry":{"type":"LineString","coordinates":[[-122.16645813,37.44416046],[-122.16636658,37.44416428],[-122.16593933,37.44393158],[-122.16573334,37.44375229],[-122.16532898,37.44327927],[-122.1649704,37.44303131],[-122.16536713,37.44255066],[-122.16516113,37.44234848],[-122.16564941,37.44150925],[-122.16596222,37.44036865],[-122.16625977,37.44046021],[-122.16657257,37.44063187],[-122.16716766,37.44129181],[-122.16783905,37.44184113],[-122.16819,37.44205856],[-122.16851807,37.44218063],[-122.16874695,37.44232941],[-122.16893768,37.4425087],[-122.16945648,37.44207001],[-122.1703186,37.44132996],[-122.17066193,37.4407196],[-122.17066956,37.4407196],[-122.17082214,37.44034958],[-122.17150879,37.43875122],[-122.17150879,37.43873978],[-122.17192078,37.43788147],[-122.17208099,37.43756866],[-122.17208099,37.43755341],[-122.17306519,37.43563461],[-122.1731463,37.43560266],[-122.17310333,37.43556595],[-122.17312622,37.43523788],[-122.17308807,37.4349823],[-122.1734848,37.43494415],[-122.17394257,37.43361282],[-122.1739502,37.43358612],[-122.1740799,37.4330864],[-122.17420959,37.43277359],[-122.17420959,37.43276978],[-122.17422485,37.43273544],[-122.174263,37.43264771],[-122.17424774,37.43258286],[-122.17394257,37.43252182],[-122.17340851,37.43241119],[-122.17391205,37.43090057],[-122.17410278,37.43064117],[-122.17443848,37.43046951],[-122.17479706,37.430439],[-122.17556763,37.43059921],[-122.17636108,37.43072128],[-122.17680359,37.43077087],[-122.17843628,37.43109894],[-122.17913055,37.43096924],[-122.17913818,37.43096924],[-122.17980957,37.43061066],[-122.18022919,37.43016052],[-122.18054962,37.42950058],[-122.18096924,37.4280014],[-122.18118286,37.42731857],[-122.18138123,37.42695236],[-122.18154144,37.42686844],[-122.18157196,37.42679596],[-122.18156433,37.42669296],[-122.18144989,37.426651],[-122.1812973,37.42668152],[-122.18083191,37.426651],[-122.18049622,37.42652893],[-122.18048859,37.4265213],[-122.18000031,37.42630005],[-122.17910004,37.42609024],[-122.17858124,37.42605972],[-122.17772675,37.42618942],[-122.17630005,37.42591095],[-122.17626953,37.42589951],[-122.17414856,37.42545319],[-122.17366791,37.42534256],[-122.17334747,37.42527008],[-122.17308807,37.42520142],[-122.17355347,37.42391968],[-122.17352295,37.42353821],[-122.17336273,37.42316055],[-122.17211914,37.42359161],[-122.17189789,37.42361832],[-122.17098236,37.42359924],[-122.17085266,37.42366409],[-122.17072296,37.42372894],[-122.17066193,37.42374039],[-122.17051697,37.42372894],[-122.17043304,37.42370987],[-122.17035675,37.42362976],[-122.16999817,37.42256927],[-122.16905975,37.42256165],[-122.16841125,37.42142105],[-122.16819763,37.42156982],[-122.16818237,37.42159271],[-122.16757965,37.42195892],[-122.16603851,37.42264938],[-122.16594648,37.42264289],[-122.16588593,37.42271042],[-122.16558838,37.42282867],[-122.1651535,37.42287827],[-122.16370392,37.42240906],[-122.16368866,37.42240143],[-122.16342163,37.42234039],[-122.16291046,37.4222908],[-122.162117,37.42237091],[-122.16143036,37.42253113],[-122.160981,37.42293],[-122.16056061,37.42399979],[-122.16034698,37.42424011],[-122.16039276,37.42446136],[-122.16030121,37.42473984],[-122.16029358,37.42475891],[-122.16005707,37.42527008],[-122.159501,37.426307],[-122.15953827,37.42636871],[-122.15949249,37.4265213],[-122.1594162,37.42661285],[-122.15923309,37.42668915],[-122.15883636,37.42668152],[-122.1585083,37.42673874],[-122.15787506,37.42713547],[-122.157809,37.42713],[-122.15782166,37.42715073],[-122.15731049,37.42752838],[-122.15538025,37.4287796],[-122.155309,37.428764],[-122.1552887,37.42882919],[-122.15470886,37.42915344],[-122.1545105,37.42938614],[-122.15422058,37.4295311],[-122.15387726,37.42959213],[-122.15350342,37.42955017],[-122.15312195,37.42951965],[-122.15287018,37.42948914],[-122.15257263,37.42942047],[-122.15235901,37.4292984],[-122.1518631,37.4289093],[-122.1506424,37.42795944],[-122.15041351,37.42776871],[-122.15026093,37.4275589],[-122.15023804,37.42731857],[-122.15029907,37.42708969],[-122.15081024,37.42647171],[-122.15109253,37.42612839],[-122.15142822,37.42583847],[-122.15171051,37.42573929],[-122.15219879,37.42573929],[-122.15239716,37.42567062],[-122.15228271,37.42536163],[-122.15229797,37.4251442],[-122.15228271,37.42514038],[-122.15229797,37.42504883],[-122.15197754,37.42494965],[-122.15168762,37.4248085],[-122.14929199,37.42771149],[-122.14684296,37.42552948],[-122.14656067,37.42533875],[-122.14562988,37.42485046],[-122.14238739,37.42316818],[-122.14148712,37.4226799],[-122.13780212,37.42073822],[-122.13755035,37.42060089],[-122.13487244,37.41923904],[-122.13011169,37.41675949],[-122.12995148,37.41664886],[-122.12883759,37.41608047],[-122.12824249,37.41571045],[-122.12747955,37.41511917],[-122.12666321,37.41434097],[-122.12483215,37.41212845],[-122.12490082,37.41204071],[-122.12480164,37.4120903],[-122.12026215,37.40647125],[-122.11923218,37.40541077],[-122.11579132,37.40245819],[-122.11515808,37.40201187],[-122.11358643,37.40113831],[-122.11319733,37.40169907],[-122.11312103,37.40185165],[-122.11081696,37.4057312],[-122.10862732,37.40491867],[-122.10800934,37.40465927],[-122.1078186,37.40457153],[-122.10706329,37.40412903],[-122.10684204,37.40391159],[-122.1062088,37.40304947],[-122.10793304,37.40127945],[-122.10800171,37.40121841],[-122.10806274,37.40116119],[-122.1100235,37.39942169],[-122.11322784,37.40113831],[-122.11361694,37.40137863],[-122.11514282,37.40221024],[-122.11560059,37.40253067],[-122.11688995,37.40362167],[-122.119133,37.4055481],[-122.11962891,37.40602875],[-122.12174225,37.40858078],[-122.12316132,37.41041946],[-122.12381744,37.41112137],[-122.12484741,37.41241837],[-122.12500763,37.41260147],[-122.12618256,37.41407013],[-122.12664795,37.4145813],[-122.12727356,37.41516113],[-122.12811279,37.41580963],[-122.12856293,37.41609955],[-122.13059998,37.41719818],[-122.13256836,37.41820908],[-122.13456726,37.41928101],[-122.13813782,37.42108917],[-122.13816833,37.42110825],[-122.141922,37.42308044],[-122.14222717,37.42325974],[-122.14617157,37.42530823],[-122.14627075,37.42536163],[-122.14659119,37.42556],[-122.14691925,37.4258194],[-122.14919281,37.42782974],[-122.15168762,37.4248085],[-122.15197754,37.42494965],[-122.15229797,37.42504883],[-122.152227,37.425235],[-122.15239716,37.42565918],[-122.15215302,37.42573166],[-122.15177155,37.42572021],[-122.15158844,37.42575836],[-122.15123749,37.42597961],[-122.15075684,37.42652893],[-122.15071,37.4265],[-122.15029144,37.42713928],[-122.15026093,37.42750931],[-122.1504364,37.42778015],[-122.15167999,37.42876816],[-122.15177155,37.42882919],[-122.15235901,37.4292984],[-122.15257263,37.42942047],[-122.15286255,37.42948914],[-122.15319061,37.42952728],[-122.15322113,37.4296875],[-122.15364075,37.42974091],[-122.15396118,37.42972565],[-122.15428162,37.42964172],[-122.155558,37.428903],[-122.15631104,37.42826843],[-122.158248,37.427064],[-122.15840149,37.4269104],[-122.15861511,37.42681885],[-122.15882874,37.4267807],[-122.15901184,37.42678452],[-122.15918732,37.42681122],[-122.15923309,37.42689896],[-122.1593399,37.42697144],[-122.15947723,37.42697525],[-122.15959167,37.42694092],[-122.15966797,37.42683029],[-122.15962219,37.42654037],[-122.15969086,37.4262886],[-122.15969849,37.42627335],[-122.15976715,37.42602158],[-122.16018677,37.42530823],[-122.1605072,37.42449951],[-122.16069794,37.42427826],[-122.16065979,37.42406082],[-122.16075134,37.42375183],[-122.16087341,37.42340851],[-122.16120911,37.4229393],[-122.16161346,37.42277908],[-122.16175842,37.42259979],[-122.16204834,37.42250061],[-122.16217804,37.42247009],[-122.16291046,37.42240906],[-122.16329956,37.42243958],[-122.16362762,37.42250824],[-122.16388702,37.42258835],[-122.16487885,37.42290878],[-122.16512299,37.42295074],[-122.16542053,37.42292023],[-122.16583252,37.4228096],[-122.1676712,37.42190933],[-122.16818237,37.4215889],[-122.16841125,37.42142105],[-122.16908264,37.42263031],[-122.17002106,37.42261887],[-122.17037964,37.42367172],[-122.1704483,37.42372131],[-122.17064667,37.42374039],[-122.17066193,37.42374039],[-122.17074585,37.42372131],[-122.17098236,37.42359924],[-122.17189789,37.42361832],[-122.17211914,37.42359161],[-122.17336273,37.42316055],[-122.17352295,37.42353821],[-122.17355347,37.42391968],[-122.17308807,37.42520142],[-122.17365265,37.42535019],[-122.17367554,37.42535019],[-122.17440796,37.42549896],[-122.17698669,37.42604828],[-122.17756653,37.42617035],[-122.17782593,37.42617798],[-122.17858124,37.42605972],[-122.17896271,37.42607117],[-122.18000031,37.42630005],[-122.18058777,37.42657089],[-122.18074799,37.42662048],[-122.18123627,37.42679977],[-122.18126678,37.42684937],[-122.18080139,37.42855835],[-122.18079376,37.42858124],[-122.18065643,37.429039],[-122.1805191,37.42941666],[-122.180336,37.42975235],[-122.18031,37.42975],[-122.18010712,37.4300499],[-122.17935181,37.43059921],[-122.17874908,37.43080139],[-122.17810059,37.43083954],[-122.1780014,37.43082809],[-122.17797089,37.43082809],[-122.17661285,37.43061829],[-122.1758194,37.43054962],[-122.17481995,37.43035889],[-122.17459106,37.43035889],[-122.17401886,37.43059158],[-122.17381287,37.43090057],[-122.1733017,37.43238831],[-122.1736908,37.43246841],[-122.17370605,37.43248367],[-122.17422485,37.43257141],[-122.174263,37.43262482],[-122.1740799,37.43307495],[-122.17390442,37.43366623],[-122.17391205,37.43369675],[-122.1735611,37.4347496],[-122.17347717,37.43494034],[-122.17302704,37.43498611],[-122.17303467,37.43511963],[-122.17301178,37.43551636],[-122.17282104,37.43583679],[-122.17281342,37.43584061],[-122.17150879,37.43840027],[-122.17150116,37.43843079],[-122.17034912,37.4411087],[-122.16908264,37.44223022],[-122.16882324,37.44240952],[-122.16856384,37.44219589],[-122.16819,37.44205856],[-122.16716003,37.44128036],[-122.16657257,37.44064713],[-122.16622162,37.44044876],[-122.16599274,37.44036484],[-122.16569519,37.44114304],[-122.16545105,37.44155121],[-122.16499329,37.44232941],[-122.16480255,37.44224167],[-122.16472626,37.44224167],[-122.16445923,37.44245148],[-122.1643219,37.44287872],[-122.1644516,37.44301987],[-122.16467285,37.44311905],[-122.1649704,37.44303131],[-122.16532898,37.44327927],[-122.16579437,37.44356537],[-122.16620636,37.44380951],[-122.16681671,37.44420624],[-122.16689301,37.44434357],[-122.1668396,37.44441605],[-122.16675568,37.44442749],[-122.16665649,37.4443779],[-122.16645813,37.44416046]]}},{"type":"Feature","properties":{"agency":"Stanford Marguerite Shuttle","shape_id":"14602095:9434"},"geometry":{"type":"LineString","coordinates":[[-122.15002,37.395402],[-122.14993286,37.39548111],[-122.14977264,37.39537048],[-122.14923096,37.39485168],[-122.1490097,37.39456177],[-122.14864349,37.39387131],[-122.14865112,37.39387131],[-122.14808655,37.39276123],[-122.14563751,37.39358902],[-122.14598846,37.39432907],[-122.146616,37.394153],[-122.14698792,37.39398956],[-122.1471405,37.39400101],[-122.14752197,37.39474869],[-122.14722443,37.39494705],[-122.14646912,37.39493942],[-122.14633179,37.3946991],[-122.14610291,37.39427185],[-122.14598846,37.39432144],[-122.14563751,37.39359665],[-122.14438629,37.3940506],[-122.14324188,37.39448929],[-122.14335632,37.39503098],[-122.14337158,37.39503098],[-122.14382172,37.3970108],[-122.14450073,37.39899826],[-122.14524841,37.4011116],[-122.14562988,37.40222168],[-122.145527,37.402242],[-122.14565277,37.40227127],[-122.14601898,37.40333939],[-122.1460495,37.40370941],[-122.14582062,37.40472031],[-122.14571381,37.40504837],[-122.14562988,37.40531158],[-122.14568329,37.40541077],[-122.14543152,37.40641022],[-122.14543152,37.40644073],[-122.14528656,37.40745926],[-122.14536285,37.40779877],[-122.14556122,37.40810013],[-122.14555359,37.40810013],[-122.14579773,37.40829849],[-122.14666748,37.40876007],[-122.1472168,37.40901947],[-122.14742279,37.40876007],[-122.14743042,37.408741],[-122.14785767,37.40816116],[-122.14810181,37.40797043],[-122.14866638,37.4077301],[-122.14911652,37.40768051],[-122.1495285,37.40771103],[-122.14994049,37.40782166],[-122.15020752,37.40795898],[-122.15072632,37.40821838],[-122.15171814,37.40874863],[-122.15322113,37.40951157],[-122.15099335,37.41220093],[-122.15100861,37.41220856],[-122.14862061,37.4151001],[-122.14658356,37.41753006],[-122.14646912,37.41767883],[-122.14543152,37.4189415],[-122.14521027,37.4192009],[-122.14482117,37.41968155],[-122.141922,37.42308044],[-122.14222717,37.42325974],[-122.14617157,37.42530823],[-122.14627075,37.42536163],[-122.14659119,37.42556],[-122.14691925,37.4258194],[-122.15180206,37.43013],[-122.1518631,37.43019104],[-122.15206909,37.43035889],[-122.15490723,37.43283844],[-122.15641022,37.43421173],[-122.15960693,37.4369812],[-122.16293335,37.43991852],[-122.16377258,37.44065857],[-122.16401672,37.44102859],[-122.16487885,37.44200134],[-122.1648407,37.44216919],[-122.16445923,37.44245148],[-122.1643219,37.44274139],[-122.1643219,37.44287872],[-122.1644516,37.44301987],[-122.16464996,37.44311142],[-122.164606,37.44318]]}},{"type":"Feature","properties":{"agency":"Stanford Marguerite Shuttle","shape_id":"18:753"},"geometry":{"type":"LineString","coordinates":[[-122.16645813,37.44416046],[-122.16641235,37.44417572],[-122.16619873,37.44404984],[-122.16572571,37.44375229],[-122.16532898,37.44327927],[-122.1649704,37.44303131],[-122.16522217,37.44285583],[-122.16536713,37.44255066],[-122.16516113,37.44234848],[-122.16564941,37.44150925],[-122.16596222,37.44036865],[-122.16625977,37.44046021],[-122.16657257,37.44063187],[-122.16716766,37.44129181],[-122.16783905,37.44184113],[-122.16819,37.44205856],[-122.16851807,37.44218063],[-122.16874695,37.44232941],[-122.16893768,37.4425087],[-122.16945648,37.44207001],[-122.1703186,37.44132996],[-122.17066193,37.4407196],[-122.17125702,37.43931961],[-122.17150879,37.43875122],[-122.17151642,37.43875122],[-122.17166138,37.43841171],[-122.17201233,37.43768692],[-122.17206573,37.43758392],[-122.17206573,37.43754578],[-122.17307281,37.43559265],[-122.17307281,37.43558121],[-122.17311859,37.43495178],[-122.17343903,37.43492508],[-122.1735611,37.43475342],[-122.17366028,37.43439102],[-122.17394257,37.43358612],[-122.17394257,37.43358231],[-122.17407227,37.43319321],[-122.17420197,37.43278885],[-122.17421722,37.43275833],[-122.17427063,37.4325676],[-122.17340088,37.43241119],[-122.17391968,37.43087006],[-122.17411804,37.43061829],[-122.17446899,37.43046188],[-122.1747818,37.430439],[-122.17636108,37.43072128],[-122.17680359,37.43077087],[-122.17843628,37.43109894],[-122.17913055,37.43096924],[-122.17913818,37.43096924],[-122.17980957,37.43061066],[-122.18022919,37.43016052],[-122.18054962,37.42950058],[-122.18096924,37.4280014],[-122.18118286,37.42731857],[-122.1815567,37.42673874],[-122.18144989,37.426651],[-122.1812973,37.42668152],[-122.18083191,37.426651],[-122.18049622,37.42652893],[-122.18048859,37.4265213],[-122.18000031,37.42630005],[-122.17910004,37.42609024],[-122.17858124,37.42605972],[-122.17772675,37.42618942],[-122.17630005,37.42591095],[-122.17626953,37.42589951],[-122.17405701,37.42544174],[-122.17334747,37.42527008],[-122.17308807,37.42520142],[-122.17355347,37.42391968],[-122.17352295,37.42353821],[-122.17336273,37.42316055],[-122.17211914,37.42359161],[-122.17189789,37.42361832],[-122.17098236,37.42359924],[-122.17072296,37.42372894],[-122.17066193,37.42374039],[-122.17051697,37.42372894],[-122.17043304,37.42370987],[-122.17035675,37.42362976],[-122.16999817,37.42256927],[-122.16905975,37.42256165],[-122.16876221,37.42195129],[-122.16841125,37.42142105],[-122.16819763,37.42156982],[-122.16818237,37.42155838],[-122.16753387,37.42196274],[-122.16696167,37.4222374],[-122.16694641,37.42224503],[-122.16596985,37.42271042],[-122.16594696,37.42269135],[-122.16593933,37.42272949],[-122.16567993,37.42282867],[-122.16516113,37.42287827],[-122.16368866,37.42240906],[-122.16368866,37.42240143],[-122.16342163,37.42234039],[-122.16291046,37.4222908],[-122.162117,37.42237091],[-122.16143036,37.42253113],[-122.160981,37.42293],[-122.16056061,37.42399979],[-122.16034698,37.42424011],[-122.16039276,37.42446136],[-122.160236,37.424727],[-122.16005707,37.42527008],[-122.159501,37.426307],[-122.1594162,37.42662048],[-122.15923309,37.42668915],[-122.15883636,37.42668152],[-122.1585083,37.42673874],[-122.15789032,37.42713928],[-122.157809,37.42713],[-122.15731049,37.42752838],[-122.15538025,37.4287796],[-122.155309,37.428764],[-122.15455627,37.42947006],[-122.15425873,37.42961884],[-122.15383148,37.42971039],[-122.15348816,37.42969894],[-122.15350342,37.42955017],[-122.15338135,37.42950821],[-122.15312195,37.42951965],[-122.15257263,37.42942047],[-122.15235901,37.4292984],[-122.1518631,37.4289093],[-122.1506424,37.42795944],[-122.15041351,37.42776871],[-122.15026093,37.4275589],[-122.15029907,37.42708969],[-122.15081024,37.42647171],[-122.15081787,37.42644882],[-122.15113831,37.42607117],[-122.15142822,37.42583084],[-122.15177155,37.42572021],[-122.15216064,37.42573929],[-122.15239716,37.42567062],[-122.15226746,37.42533112],[-122.15226746,37.42514038],[-122.15228271,37.42514038],[-122.15229797,37.42504883],[-122.15197754,37.42494965],[-122.15168762,37.4248085],[-122.14929199,37.42771149],[-122.14684296,37.42552948],[-122.14656067,37.42533875],[-122.14562988,37.42485046],[-122.14238739,37.42316818],[-122.14148712,37.4226799],[-122.14070892,37.42224884],[-122.13925171,37.42148972],[-122.13887787,37.42132187],[-122.13755035,37.42060089],[-122.13487244,37.41923904],[-122.13011169,37.41675949],[-122.12995148,37.41664886],[-122.12883759,37.41608047],[-122.12824249,37.41571045],[-122.12747955,37.41511917],[-122.12666321,37.41434097],[-122.12483215,37.41212845],[-122.12490082,37.41204071],[-122.12480164,37.4120903],[-122.12026215,37.40647125],[-122.11923218,37.40541077],[-122.11579132,37.40245819],[-122.11515808,37.40201187],[-122.11358643,37.40113831],[-122.11319733,37.40169907],[-122.11312103,37.40185165],[-122.11081696,37.4057312],[-122.10862732,37.40491867],[-122.10800934,37.40465927],[-122.1078186,37.40457153],[-122.10706329,37.40412903],[-122.10684204,37.40391159],[-122.1062088,37.40304947],[-122.10793304,37.40127945],[-122.10800171,37.40121841],[-122.10806274,37.40116119],[-122.1100235,37.39942169],[-122.11322784,37.40113831],[-122.11361694,37.40137863],[-122.11514282,37.40221024],[-122.11560059,37.40253067],[-122.11688995,37.40362167],[-122.119133,37.4055481],[-122.11962891,37.40602875],[-122.12174225,37.40858078],[-122.12316132,37.41041946],[-122.12381744,37.41112137],[-122.12484741,37.41241837],[-122.12500763,37.41260147],[-122.12618256,37.41407013],[-122.12664795,37.4145813],[-122.12727356,37.41516113],[-122.12811279,37.41580963],[-122.12856293,37.41609955],[-122.13059998,37.41719818],[-122.13256836,37.41820908],[-122.13456726,37.41928101],[-122.13815308,37.42111969],[-122.13816833,37.42110825],[-122.141922,37.42308044],[-122.14222717,37.42325974],[-122.14617157,37.42530823],[-122.14627075,37.42536163],[-122.14659119,37.42556],[-122.14691925,37.4258194],[-122.14919281,37.42782974],[-122.15168762,37.4248085],[-122.15197754,37.42494965],[-122.15229797,37.42504883],[-122.152227,37.425235],[-122.15239716,37.42565918],[-122.15215302,37.42573166],[-122.15177155,37.42572021],[-122.15158844,37.42575836],[-122.15123749,37.42597961],[-122.15075684,37.42652893],[-122.15071,37.4265],[-122.15029144,37.42713928],[-122.15026093,37.42750931],[-122.1504364,37.42778015],[-122.15167999,37.42876816],[-122.15177155,37.42882919],[-122.15235901,37.4292984],[-122.15257263,37.42942047],[-122.15286255,37.42948914],[-122.15323639,37.4295311],[-122.1531601,37.42967987],[-122.15364075,37.42974091],[-122.15428162,37.42964172],[-122.155558,37.428903],[-122.15557098,37.42881012],[-122.15596771,37.42852402],[-122.15627289,37.42821884],[-122.15679169,37.42789078],[-122.1572113,37.42773056],[-122.158248,37.427064],[-122.15840149,37.4269104],[-122.15882874,37.4267807],[-122.15918732,37.42681122],[-122.15923309,37.42689896],[-122.1593399,37.42697144],[-122.15959167,37.42694092],[-122.15966797,37.42683029],[-122.15962219,37.42654037],[-122.15975052,37.42627682],[-122.15976715,37.42602158],[-122.1605072,37.42449951],[-122.16069794,37.42427826],[-122.16065979,37.42406082],[-122.16075134,37.42375183],[-122.1608963,37.42335129],[-122.16118622,37.42293167],[-122.16130829,37.42284012],[-122.16156006,37.4228096],[-122.16175842,37.42259979],[-122.16204834,37.42250061],[-122.1623764,37.4224205],[-122.16300201,37.42240143],[-122.16362762,37.42250824],[-122.16388702,37.42258835],[-122.16430664,37.42274094],[-122.16493988,37.42292023],[-122.16542053,37.42292023],[-122.16542053,37.42293167],[-122.16596222,37.42277908],[-122.1675415,37.42200851],[-122.16816711,37.4215889],[-122.16818237,37.4215889],[-122.16841125,37.42142105],[-122.16876221,37.42195129],[-122.16908264,37.42263031],[-122.17002106,37.42264175],[-122.17034912,37.42358017],[-122.17035675,37.42363358],[-122.17043304,37.42371368],[-122.17046356,37.42372513],[-122.17064667,37.4237442],[-122.17066204,37.42378618],[-122.17098236,37.42359924],[-122.17189789,37.42361832],[-122.17211914,37.42359161],[-122.17336273,37.42316055],[-122.17352295,37.42353821],[-122.17355347,37.42391968],[-122.17308807,37.42520142],[-122.17365265,37.42535019],[-122.1736908,37.42536163],[-122.17440796,37.42549896],[-122.17698669,37.42604828],[-122.17756653,37.42617035],[-122.17788696,37.42618942],[-122.17858124,37.42605972],[-122.17896271,37.42607117],[-122.18000031,37.42630005],[-122.18058777,37.42657089],[-122.18074799,37.42662048],[-122.18123627,37.42679977],[-122.18126678,37.42684937],[-122.18080139,37.42855835],[-122.18079376,37.42856979],[-122.1806488,37.429039],[-122.18031,37.42975],[-122.18010712,37.4300499],[-122.17935181,37.43059921],[-122.17874908,37.43080139],[-122.17810059,37.43083954],[-122.1780014,37.43082809],[-122.17797089,37.43082809],[-122.17661285,37.43061829],[-122.1758194,37.43054962],[-122.17481995,37.43035889],[-122.17459106,37.43035889],[-122.17401886,37.43059158],[-122.17381287,37.43090057],[-122.1733017,37.43238831],[-122.1736908,37.43246841],[-122.17369843,37.43246841],[-122.17427063,37.4325676],[-122.17390442,37.43368912],[-122.17388916,37.43370056],[-122.1735611,37.4347496],[-122.17343903,37.43492126],[-122.17298889,37.43497086],[-122.17301941,37.43514252],[-122.17299652,37.43552017],[-122.17282867,37.43582153],[-122.17279053,37.43583679],[-122.17275238,37.43591309],[-122.17150879,37.43840027],[-122.17150116,37.43843079],[-122.17034912,37.4411087],[-122.16908264,37.44223022],[-122.1688385,37.44242096],[-122.16851807,37.44218063],[-122.16806793,37.44200134],[-122.16716766,37.44129181],[-122.16657257,37.44063187],[-122.16625977,37.44046021],[-122.16596222,37.44036865],[-122.1656723,37.4412384],[-122.16499329,37.44232941],[-122.16480255,37.44224167],[-122.16461945,37.44229126],[-122.16439056,37.44251633],[-122.16430664,37.44279099],[-122.16436005,37.44293976],[-122.16454315,37.44306946],[-122.16467285,37.44311905],[-122.16475677,37.44311905],[-122.1649704,37.44303131],[-122.16532898,37.44327927],[-122.16590118,37.44356155],[-122.16628265,37.44382858],[-122.16677856,37.44412994],[-122.16692352,37.4442482],[-122.16689301,37.44432068],[-122.16677094,37.44442368],[-122.16656494,37.44430923],[-122.16645813,37.44416046]]}},{"type":"Feature","properties":{"agency":"Stanford Marguerite Shuttle","shape_id":"20:9172"},"geometry":{"type":"LineString","coordinates":[[-122.164344,37.442472],[-122.16442108,37.44250107],[-122.1643219,37.44287872],[-122.1644516,37.44301987],[-122.16467285,37.44311905],[-122.16487122,37.44308853],[-122.16506958,37.44295883],[-122.16536713,37.44255066],[-122.16516113,37.44234848],[-122.16564941,37.44150925],[-122.1656723,37.4412384],[-122.16674042,37.43795013],[-122.16899109,37.43127823],[-122.16976166,37.43062973],[-122.17012787,37.42993927],[-122.17017365,37.42935944],[-122.17002869,37.42919922],[-122.16973114,37.42910004],[-122.16941071,37.42906189],[-122.16918945,37.42913055],[-122.16899109,37.42937088],[-122.16889954,37.42930603],[-122.16871643,37.43027878],[-122.16873932,37.43067932],[-122.16899109,37.43125916],[-122.16571045,37.44108963],[-122.16499329,37.44232178],[-122.16486359,37.4422493],[-122.16475677,37.44223022],[-122.16442871,37.4425087],[-122.164344,37.442472]]}},{"type":"Feature","properties":{"agency":"Stanford Marguerite Shuttle","shape_id":"22:2742+22:7593"},"geometry":{"type":"LineString","coordinates":[[-122.16422866,37.44269048],[-122.1643219,37.44271851],[-122.16432953,37.44292831],[-122.16448975,37.44305038],[-122.16464233,37.44311142],[-122.1649704,37.44303894],[-122.16525269,37.44277954],[-122.16530609,37.44267654],[-122.16530609,37.44255829],[-122.1652298,37.44245148],[-122.16518402,37.44237137],[-122.16567993,37.44145966],[-122.1656723,37.44120026],[-122.16596222,37.44036102],[-122.16625977,37.44046021],[-122.16657257,37.44062042],[-122.16716766,37.44129181],[-122.16805267,37.4419899],[-122.16873932,37.44234085],[-122.16876221,37.44242859],[-122.16887665,37.44253159],[-122.16944885,37.44205856],[-122.16945648,37.44207001],[-122.1703186,37.44132996],[-122.17066193,37.4407196],[-122.17125702,37.43931961],[-122.17150879,37.43875122],[-122.17205048,37.43758011],[-122.17205811,37.43756104],[-122.17247009,37.43675995],[-122.17362976,37.43704987],[-122.17372131,37.43708038],[-122.17376709,37.43709183],[-122.17520905,37.43743896],[-122.17562866,37.43748856],[-122.17592621,37.43748093],[-122.17623138,37.43740082],[-122.17655945,37.4372406],[-122.17656708,37.43722916],[-122.17730713,37.43667984],[-122.17775726,37.43632889],[-122.17778015,37.43634033],[-122.17861938,37.43571854],[-122.17909241,37.43518066],[-122.17957306,37.4337883],[-122.1770401,37.43323898],[-122.17684174,37.43381882],[-122.17742157,37.43394089],[-122.17740011,37.43399885],[-122.17742157,37.43394089],[-122.17936707,37.43434906],[-122.17913055,37.43503952],[-122.17909241,37.43518066],[-122.17871094,37.43564987],[-122.17707825,37.43685913],[-122.17655945,37.4372406],[-122.17591858,37.43746948],[-122.17562866,37.43748856],[-122.17520905,37.43743896],[-122.17462158,37.43730164],[-122.17292786,37.43688965],[-122.17234802,37.4367218],[-122.17150879,37.43840027],[-122.17150116,37.43843079],[-122.17034912,37.4411087],[-122.16908264,37.44223022],[-122.16906738,37.44223022],[-122.16756439,37.44351959],[-122.16734314,37.44337845],[-122.16716766,37.4432373],[-122.16708374,37.44313812],[-122.16686249,37.44292068],[-122.165802,37.4418602],[-122.16542816,37.44157028],[-122.16497803,37.44232178],[-122.16481781,37.44224167],[-122.16468811,37.44226074],[-122.1645813,37.44232941],[-122.16447449,37.44241714],[-122.16435242,37.44259262],[-122.16432953,37.44271851],[-122.16422866,37.44269048]]}},{"type":"Feature","properties":{"agency":"Stanford Marguerite Shuttle","shape_id":"28:4276"},"geometry":{"type":"LineString","coordinates":[[-122.17634394,37.43077753],[-122.17636108,37.43072128],[-122.17680359,37.43077087],[-122.17843628,37.43109894],[-122.17913055,37.43096924],[-122.17913818,37.43096924],[-122.17980957,37.43061066],[-122.18022919,37.43016052],[-122.18054962,37.42950058],[-122.18096924,37.4280014],[-122.18118286,37.42731857],[-122.18141937,37.42689896],[-122.1815567,37.42681122],[-122.18151855,37.42668915],[-122.18206787,37.42541885],[-122.18225861,37.42470932],[-122.18228149,37.42370987],[-122.18206024,37.42253113],[-122.18231201,37.42190933],[-122.18103027,37.42161179],[-122.17883301,37.42103958],[-122.17743683,37.42058182],[-122.17681122,37.42026138],[-122.17626953,37.4197998],[-122.17604828,37.41955185],[-122.1751709,37.41820145],[-122.17472076,37.41765976],[-122.17436981,37.41732025],[-122.17373657,37.41682816],[-122.16999054,37.41419983],[-122.16927338,37.41376114],[-122.16854858,37.41341019],[-122.16767883,37.41312027],[-122.16696167,37.41296005],[-122.16622162,37.41284943],[-122.1652298,37.41259003],[-122.16494751,37.41249084],[-122.16490936,37.41244125],[-122.16429901,37.41225052],[-122.16368866,37.41197968],[-122.1631012,37.41165924],[-122.16117096,37.41022873],[-122.16107178,37.41016006],[-122.16094971,37.41014099],[-122.15770721,37.40774918],[-122.15592194,37.40626144],[-122.1532135,37.4095192],[-122.15225983,37.40903091],[-122.15039063,37.40805054],[-122.15029907,37.40800095],[-122.15029144,37.40800095],[-122.14993286,37.40782166],[-122.14943695,37.40771103],[-122.14901733,37.40769958],[-122.14868164,37.40774918],[-122.14836121,37.4078598],[-122.14788818,37.40816879],[-122.14723206,37.40903854],[-122.14659119,37.40871811],[-122.146645,37.408653],[-122.14653778,37.40869904],[-122.14579773,37.40829849],[-122.14549255,37.40802002],[-122.14530182,37.40764999],[-122.14527893,37.4074707],[-122.14531708,37.40707016],[-122.14533234,37.40707016],[-122.14546204,37.40623856],[-122.14614105,37.40419006],[-122.14617157,37.40383911],[-122.14610291,37.40346146],[-122.14530182,37.40127945],[-122.14440155,37.39873123],[-122.14438629,37.39868927],[-122.14382172,37.3970108],[-122.14344025,37.39527893],[-122.14343262,37.39525986],[-122.14324951,37.39455032],[-122.14510345,37.39379883],[-122.14562225,37.3936615],[-122.14598846,37.39432907],[-122.146616,37.394153],[-122.14698792,37.39398956],[-122.1471405,37.39400101],[-122.14752197,37.39474869],[-122.1472168,37.39496994],[-122.14646912,37.39493942],[-122.14633179,37.3946991],[-122.14569855,37.39356995],[-122.14341736,37.39437103],[-122.14324188,37.39448929],[-122.14337158,37.39503098],[-122.14382172,37.3970108],[-122.14450073,37.39899826],[-122.14524841,37.4011116],[-122.14562988,37.40222168],[-122.145527,37.402242],[-122.14565277,37.40227127],[-122.14601898,37.40333939],[-122.1460495,37.40370941],[-122.14582062,37.40472031],[-122.14571381,37.40504837],[-122.14562988,37.40531158],[-122.14568329,37.40541077],[-122.14543152,37.40641022],[-122.14541626,37.40644073],[-122.14527893,37.4074707],[-122.14536285,37.40779877],[-122.14556122,37.40810013],[-122.14579773,37.40829849],[-122.14723206,37.40903854],[-122.14745331,37.40877151],[-122.14788818,37.40816879],[-122.14864349,37.40776062],[-122.14901733,37.40769958],[-122.1495285,37.40771866],[-122.14993286,37.40782166],[-122.15019226,37.40795135],[-122.15022278,37.40795898],[-122.15039063,37.40803909],[-122.15171814,37.40874863],[-122.15183258,37.40879822],[-122.1533432,37.40959167],[-122.15590668,37.40645981],[-122.15680695,37.4071312],[-122.15798187,37.40792847],[-122.16036224,37.40969086],[-122.16094971,37.41014099],[-122.16101074,37.41022873],[-122.16201019,37.41096115],[-122.16320038,37.41175842],[-122.16387177,37.41210938],[-122.1641922,37.41225052],[-122.1652298,37.41259003],[-122.16622162,37.41284943],[-122.16693878,37.41296005],[-122.16767883,37.41312027],[-122.16860199,37.41342926],[-122.16929626,37.41378021],[-122.16999054,37.41419983],[-122.17373657,37.41682816],[-122.17436981,37.41732025],[-122.17472076,37.41765976],[-122.1751709,37.41820145],[-122.17601776,37.41965103],[-122.1763382,37.41997147],[-122.17674255,37.42023849],[-122.1775589,37.42063141],[-122.1786499,37.42098999],[-122.18093109,37.42156982],[-122.18125153,37.42169189],[-122.18193054,37.42187119],[-122.18206787,37.4220314],[-122.18213654,37.42222977],[-122.18206024,37.42269897],[-122.18228149,37.42370987],[-122.18225861,37.42457962],[-122.18200684,37.42559052],[-122.18173218,37.42623138],[-122.18123627,37.42675018],[-122.18115234,37.42745972],[-122.18079376,37.42858124],[-122.18077087,37.42856598],[-122.18061066,37.42903137],[-122.18041992,37.42961121],[-122.18031,37.42975],[-122.17987061,37.4302597],[-122.17913818,37.43069077],[-122.17874908,37.43080139],[-122.17829895,37.43083954],[-122.17832184,37.43054962],[-122.17832184,37.43053055],[-122.17835999,37.42947006],[-122.17829132,37.4289093],[-122.17801666,37.42842102],[-122.17772675,37.42813873],[-122.17730713,37.4278717],[-122.17703247,37.42776108],[-122.17645264,37.42763138],[-122.17604065,37.42887115],[-122.17604065,37.42890167],[-122.17559052,37.43022156],[-122.17579651,37.43027496],[-122.17581177,37.43027878],[-122.17623901,37.43037033],[-122.17611694,37.43067932],[-122.17636108,37.43072128],[-122.17634394,37.43077753]]}},{"type":"Feature","properties":{"agency":"Stanford Marguerite Shuttle","shape_id":"33:3377"},"geometry":{"type":"LineString","coordinates":[[-122.21180278,37.4200556],[-122.2117691,37.42002869],[-122.21183777,37.41995621],[-122.2117691,37.41994095],[-122.2116394,37.41987991],[-122.21128082,37.41960144],[-122.21112061,37.41955948],[-122.21076965,37.41957855],[-122.2108078,37.42034149],[-122.20867157,37.4205513],[-122.20658875,37.42097092],[-122.20426178,37.42124176],[-122.20426941,37.42098618],[-122.20443726,37.42080688],[-122.20463562,37.42063141],[-122.20471191,37.42047119],[-122.20472717,37.42020416],[-122.20483398,37.42018509],[-122.20491791,37.42021179],[-122.20491791,37.42016983],[-122.20453644,37.42020035],[-122.20446777,37.42050934],[-122.2041626,37.4209404],[-122.20413971,37.42126846],[-122.20142365,37.42155838],[-122.19989014,37.42179871],[-122.19802856,37.42229843],[-122.19645691,37.42301178],[-122.19165802,37.42623138],[-122.19126892,37.42660904],[-122.18997955,37.42863083],[-122.18829346,37.42996979],[-122.1880722,37.43013],[-122.18766785,37.43043137],[-122.18200684,37.43460083],[-122.18180084,37.4347496],[-122.17594147,37.43914032],[-122.17565155,37.43886948],[-122.17546082,37.43870926],[-122.17392731,37.43835831],[-122.17378998,37.43828964],[-122.17314911,37.43814087],[-122.17276764,37.43809891],[-122.17180634,37.43785095],[-122.17153168,37.43838882],[-122.17150879,37.43841934],[-122.17105865,37.43957138],[-122.16674805,37.43798447],[-122.16564941,37.44119263],[-122.16511536,37.4422493],[-122.16479492,37.44221497],[-122.16455078,37.44247055],[-122.16436005,37.44267654],[-122.16434479,37.44293213],[-122.164606,37.44318],[-122.16482544,37.44305038],[-122.16508484,37.44296646],[-122.16530609,37.44261551],[-122.16516113,37.44229507],[-122.16562653,37.44166183],[-122.16564941,37.44116974],[-122.16675568,37.4379921],[-122.17115021,37.43955612],[-122.17431641,37.44070816],[-122.17475128,37.44086838],[-122.17486572,37.44072342],[-122.17491913,37.44043732],[-122.17503357,37.44026184],[-122.17539215,37.43996811],[-122.17575836,37.43968964],[-122.17611694,37.43955231],[-122.17623138,37.43955231],[-122.17635345,37.43932724],[-122.17738342,37.4392128],[-122.17806244,37.43890762],[-122.17821503,37.43896484],[-122.17836761,37.43907928],[-122.17863092,37.43890968],[-122.17860413,37.43889236],[-122.17920685,37.43840027],[-122.17819214,37.43743896],[-122.18193054,37.43479156],[-122.18208313,37.43466949],[-122.18622589,37.43161774],[-122.186288,37.43167421],[-122.18627167,37.43159103],[-122.18862915,37.42988968],[-122.19007111,37.42866135],[-122.19125366,37.4269104],[-122.1917572,37.42636871],[-122.19583893,37.42353058],[-122.19716644,37.42279053],[-122.19809723,37.42240906],[-122.19927216,37.42205048],[-122.20056152,37.42179871],[-122.20642853,37.42111969],[-122.20913696,37.42063141],[-122.2109375,37.42047882],[-122.21089935,37.41957092],[-122.21112061,37.41955948],[-122.21128082,37.41960144],[-122.2116394,37.41987991],[-122.2117691,37.41994095],[-122.21173859,37.42000961],[-122.21180278,37.4200556]]}},{"type":"Feature","properties":{"agency":"Stanford Marguerite Shuttle","shape_id":"33:9877"},"geometry":{"type":"LineString","coordinates":[[-122.18800981,37.43007648],[-122.1880722,37.43013],[-122.18766785,37.43043137],[-122.18200684,37.43460083],[-122.18180084,37.4347496],[-122.1759491,37.43914795],[-122.17617035,37.43931961],[-122.17627716,37.43935013],[-122.17666626,37.43927002],[-122.17691803,37.43928146],[-122.1774826,37.43918991],[-122.17806244,37.43888855],[-122.17813873,37.43891144],[-122.17829132,37.43901062],[-122.17835999,37.43909073],[-122.17874908,37.43877029],[-122.17917633,37.43841171],[-122.17816925,37.43747711],[-122.17740631,37.43804932],[-122.17594147,37.43912888],[-122.17541504,37.43873596],[-122.17438507,37.43844986],[-122.17332458,37.4382515],[-122.17182922,37.43787384],[-122.17115021,37.43946075],[-122.17053986,37.43920135],[-122.17021942,37.4391098],[-122.16954803,37.4389801],[-122.16674042,37.43795013],[-122.1656723,37.4412384],[-122.16503906,37.44229507],[-122.16479492,37.44222641],[-122.16456604,37.44233704],[-122.16435242,37.44255066],[-122.16428375,37.44284821],[-122.16451263,37.44307709],[-122.16470337,37.44314194],[-122.16499329,37.44305801],[-122.16527557,37.44324875],[-122.16564178,37.44342804],[-122.16589355,37.44362259],[-122.16625977,37.44386292],[-122.1665802,37.44406128],[-122.16684723,37.44423294],[-122.16685486,37.44432449],[-122.16680145,37.44440079],[-122.16668701,37.44438171],[-122.16662265,37.44426122],[-122.16652679,37.44428635],[-122.16622162,37.44409561],[-122.16581726,37.4438591],[-122.16558838,37.44361496],[-122.16532898,37.44337845],[-122.1649704,37.44306946],[-122.16516876,37.44289017],[-122.16533661,37.44259644],[-122.16519928,37.44231033],[-122.16564941,37.44150925],[-122.1656723,37.4412384],[-122.16674042,37.43795013],[-122.16964722,37.43901062],[-122.16973877,37.43907166],[-122.17115784,37.43957138],[-122.17150879,37.43875122],[-122.17150879,37.43875504],[-122.17192078,37.43788147],[-122.17285919,37.4381218],[-122.172966,37.43817902],[-122.17384338,37.43835449],[-122.17392731,37.43835831],[-122.17546844,37.43870926],[-122.17565155,37.43886948],[-122.17592621,37.43913269],[-122.17821503,37.43746185],[-122.18193054,37.43479156],[-122.18208313,37.43466949],[-122.18622589,37.43161774],[-122.186288,37.43167421],[-122.18627167,37.43159103],[-122.18862915,37.42988968],[-122.19007111,37.42866135],[-122.19125366,37.4269104],[-122.1917572,37.42636871],[-122.19583893,37.42353058],[-122.19716644,37.42279053],[-122.19809723,37.42240906],[-122.19927216,37.42205048],[-122.20056152,37.42179871],[-122.20642853,37.42111969],[-122.20913696,37.42063141],[-122.2109375,37.42047882],[-122.21089935,37.41957092],[-122.21112061,37.41955948],[-122.21128082,37.41960144],[-122.2116394,37.41987991],[-122.2117691,37.41994095],[-122.21173859,37.42000961],[-122.2117691,37.42002869],[-122.21183777,37.41995621],[-122.2117691,37.41994095],[-122.2116394,37.41987991],[-122.21128082,37.41960144],[-122.21112061,37.41955948],[-122.21076965,37.41957855],[-122.2108078,37.42034149],[-122.20867157,37.4205513],[-122.20658875,37.42097092],[-122.20426178,37.42124176],[-122.20426941,37.42098618],[-122.20443726,37.42080688],[-122.20463562,37.42063141],[-122.20471191,37.42047119],[-122.20472717,37.42020416],[-122.20483398,37.42018509],[-122.20491791,37.42021179],[-122.20491791,37.42016983],[-122.20453644,37.42020035],[-122.20446777,37.42050934],[-122.2041626,37.4209404],[-122.20413971,37.42126846],[-122.20142365,37.42155838],[-122.19989014,37.42179871],[-122.19802856,37.42229843],[-122.19645691,37.42301178],[-122.19165802,37.42623138],[-122.19126892,37.42660904],[-122.18997955,37.42863083],[-122.18829346,37.42996979],[-122.1880722,37.43013],[-122.18800981,37.43007648]]}},{"type":"Feature","properties":{"agency":"Stanford Marguerite Shuttle","shape_id":"36:1208"},"geometry":{"type":"LineString","coordinates":[[-122.181236,37.431349],[-122.18134308,37.4314003],[-122.18154907,37.43133163],[-122.18251801,37.43083954],[-122.18266296,37.43075943],[-122.18270874,37.43053055],[-122.18235779,37.430439],[-122.18205261,37.43029022],[-122.18153381,37.42985916],[-122.18128204,37.42971039],[-122.18080902,37.42955017],[-122.18048096,37.42950058],[-122.18026733,37.42987061],[-122.17987061,37.4302597],[-122.17935181,37.43059921],[-122.17874908,37.43080139],[-122.17797089,37.43082809],[-122.17661285,37.43061829],[-122.1757431,37.43053818],[-122.17481995,37.43035889],[-122.17436218,37.43040848],[-122.17407227,37.43054962],[-122.17385864,37.43078995],[-122.1733017,37.43238831],[-122.16893768,37.43146896],[-122.16899109,37.43127823],[-122.16956329,37.43085861],[-122.16986084,37.43048859],[-122.17012787,37.42993927],[-122.17018127,37.42955017],[-122.17014313,37.42929077],[-122.16996765,37.4291687],[-122.16973114,37.42910004],[-122.16932678,37.42906952],[-122.16899109,37.42937088],[-122.16873169,37.43027878],[-122.16876221,37.43069077],[-122.16899109,37.43127823],[-122.16893768,37.43146896],[-122.17266846,37.43225861],[-122.17268372,37.43225861],[-122.1733017,37.43238831],[-122.17299652,37.43328857],[-122.17262268,37.43386078],[-122.17230225,37.43413162],[-122.17275238,37.43457031],[-122.17297363,37.43497086],[-122.17301178,37.43547821],[-122.1728363,37.43581009],[-122.17273195,37.43580994],[-122.17279816,37.43592072],[-122.17151642,37.43840027],[-122.17108154,37.43941116],[-122.17038727,37.43915176],[-122.16957855,37.43899155],[-122.16625977,37.43777084],[-122.16339111,37.43632126],[-122.16330719,37.43624115],[-122.16311646,37.4361496],[-122.16294861,37.43590927],[-122.16284943,37.43585968],[-122.16274261,37.43585968],[-122.16260529,37.43595123],[-122.1625824,37.4360466],[-122.16252136,37.43612671],[-122.16239929,37.43619156],[-122.16015625,37.43725967],[-122.1594162,37.43751907],[-122.15821075,37.43785858],[-122.15712738,37.43804932],[-122.15557098,37.43844986],[-122.1543808,37.43893814],[-122.15270233,37.43943024],[-122.12814331,37.44646072],[-122.12625885,37.4469986],[-122.1252594,37.44739151],[-122.12368774,37.44850159],[-122.12272644,37.44897079],[-122.12206268,37.44916916],[-122.12168121,37.44915009],[-122.12153625,37.44910049],[-122.12142181,37.44902039],[-122.12129974,37.44871902],[-122.12142944,37.44849014],[-122.12171173,37.44837189],[-122.12187958,37.44837189],[-122.12206268,37.44842911],[-122.12225342,37.44855881],[-122.12300873,37.44924927],[-122.12393188,37.45018005],[-122.12505341,37.45111084],[-122.1259079,37.45175934],[-122.12612152,37.45183945],[-122.12653351,37.45212936],[-122.12802124,37.45306015],[-122.13311005,37.45600128],[-122.13488007,37.4570694],[-122.13613129,37.4577713],[-122.14334869,37.46202087],[-122.1463089,37.46372986],[-122.15235138,37.46730042],[-122.15239716,37.46738815],[-122.15332031,37.46804047],[-122.15377808,37.46841812],[-122.1539917,37.46876907],[-122.15409088,37.46920013],[-122.15422058,37.46940994],[-122.15435791,37.4695015],[-122.15455627,37.4695816],[-122.15499878,37.46965027],[-122.15500641,37.47138977],[-122.15490723,37.47179031],[-122.15058136,37.48038864],[-122.15006256,37.48181152],[-122.14981079,37.48202133],[-122.14862823,37.48220825],[-122.14743805,37.48258972],[-122.1465683,37.48300934],[-122.14562988,37.48363876],[-122.13392639,37.49417114],[-122.13098907,37.49705887],[-122.12953186,37.49834061],[-122.12763977,37.49975967],[-122.11406708,37.50886917],[-122.11170197,37.51068878],[-122.10971832,37.51250839],[-122.10848999,37.51388168],[-122.103302,37.52108002],[-122.10256958,37.52194977],[-122.10157013,37.52294159],[-122.09351349,37.52983856],[-122.09248352,37.53052902],[-122.09133148,37.53116989],[-122.0901413,37.53171921],[-122.08892059,37.53216934],[-122.08789825,37.53247833],[-122.08637238,37.53281021],[-122.08035278,37.53372955],[-122.07814026,37.53414154],[-122.07666779,37.53458023],[-122.07537079,37.53506851],[-122.07296753,37.53622818],[-122.07086182,37.5376091],[-122.05445099,37.54999161],[-122.05139923,37.55157852],[-122.05164337,37.55168152],[-122.05355835,37.55265045],[-122.05404663,37.55284882],[-122.05453491,37.55197525],[-122.05471039,37.55176163],[-122.05458832,37.55162048],[-122.05480194,37.5513382],[-122.05484009,37.55128098],[-122.05497742,37.55123901],[-122.0550766,37.5513916],[-122.05454254,37.55197144],[-122.05413055,37.55271149],[-122.05343628,37.55241013],[-122.05155945,37.55147934],[-122.04897308,37.55361938],[-122.04889679,37.55376053],[-122.0459671,37.55559158],[-122.04428101,37.55688095],[-122.04283905,37.55818176],[-122.04147339,37.55966187],[-122.03559113,37.56713867],[-122.0326004,37.57056046],[-122.03237915,37.57062149],[-122.0320282,37.57059097],[-122.02889252,37.56901932],[-122.02635956,37.56779099],[-122.02636719,37.56779099],[-122.02574158,37.56748962],[-122.0161972,37.56277847],[-122.01419067,37.56180954],[-122.01290894,37.5611496],[-122.0125885,37.56103897],[-122.01119995,37.56031036],[-122.01085663,37.56019974],[-122.00875854,37.55912018],[-122.00691223,37.55817032],[-122.00541687,37.55739594],[-122.00390625,37.55657959],[-122.00379181,37.55649185],[-122.00359344,37.55641937],[-122.00003815,37.55458832],[-121.99980164,37.55442047],[-121.99897003,37.55400848],[-121.99871826,37.55385971],[-121.98747253,37.54808044],[-121.98259735,37.54555893],[-121.98026276,37.54870987],[-121.98018646,37.54878998],[-121.98020172,37.54880142],[-121.97377777,37.5570488],[-121.97463989,37.55747986],[-121.97473145,37.55738831],[-121.97522736,37.55764008],[-121.97534943,37.55759811],[-121.975494,37.557676]]}},{"type":"Feature","properties":{"agency":"Stanford Marguerite Shuttle","shape_id":"36:9334"},"geometry":{"type":"LineString","coordinates":[[-121.975494,37.557676],[-121.97554779,37.55752945],[-121.97550201,37.55735397],[-121.97507477,37.55703354],[-121.97521973,37.55680466],[-121.97454071,37.55630875],[-121.97959137,37.54978943],[-121.980166,37.549157],[-121.98008728,37.54912186],[-121.98164368,37.54718018],[-121.98246002,37.54595947],[-121.98265839,37.54589844],[-121.98293304,37.54590988],[-121.98715973,37.54808044],[-121.98745728,37.54824066],[-121.98841095,37.54872131],[-121.99378967,37.55147171],[-122.00498962,37.55725098],[-122.00531006,37.55741119],[-122.00578308,37.55759811],[-122.00784302,37.55863953],[-122.00839996,37.55894852],[-122.00920868,37.55934143],[-122.010849,37.56018829],[-122.01120758,37.56031036],[-122.01252747,37.56100845],[-122.01262665,37.56106949],[-122.01264191,37.5611496],[-122.01281738,37.56127167],[-122.01525879,37.56248856],[-122.01708984,37.56336975],[-122.01831055,37.56399918],[-122.01914215,37.5643692],[-122.01983643,37.56475067],[-122.02075195,37.56517029],[-122.02332306,37.56647873],[-122.02594757,37.56776047],[-122.02675629,37.56811905],[-122.03114319,37.57027054],[-122.03250122,37.57096863],[-122.03572083,37.56726837],[-122.03820801,37.5639801],[-122.04190826,37.55950165],[-122.04379272,37.55754852],[-122.04537964,37.55625153],[-122.04702759,37.55511093],[-122.048172,37.5544281],[-122.04830933,37.55443954],[-122.05036926,37.55342102],[-122.0528717,37.55231094],[-122.05381775,37.55274963],[-122.05410004,37.55284882],[-122.05445862,37.55212021],[-122.05473328,37.5517807],[-122.05458832,37.55162048],[-122.05480194,37.5513382],[-122.05484009,37.55128098],[-122.05497742,37.55123901],[-122.0550766,37.55139923],[-122.05451202,37.5520401],[-122.05416107,37.55271912],[-122.05377197,37.55258179],[-122.05296326,37.5521698],[-122.05400848,37.55083847],[-122.05467224,37.55027008],[-122.05471802,37.55012894],[-122.07079315,37.53794861],[-122.07280731,37.53660965],[-122.07418823,37.53591919],[-122.07823181,37.53430939],[-122.07994843,37.53390884],[-122.08683014,37.53284836],[-122.08875275,37.53234863],[-122.08982849,37.53197861],[-122.09114075,37.53141022],[-122.0931778,37.53025055],[-122.09468079,37.52907944],[-122.10224152,37.5225296],[-122.1034317,37.52114868],[-122.10858917,37.51395035],[-122.11051178,37.51189041],[-122.11197662,37.51057816],[-122.11422729,37.50886917],[-122.12683868,37.50043106],[-122.12917328,37.49876022],[-122.1312027,37.49707031],[-122.13420105,37.49417114],[-122.14502716,37.48440933],[-122.14610291,37.48352814],[-122.14675903,37.48310852],[-122.14779663,37.48263931],[-122.14904785,37.4822998],[-122.15039825,37.48215866],[-122.15042877,37.4814415],[-122.15083313,37.48014069],[-122.15503693,37.47185898],[-122.155159,37.47121048],[-122.15511322,37.4699707],[-122.15547943,37.46820068],[-122.15590668,37.46825027],[-122.15605927,37.46829987],[-122.15619659,37.46841049],[-122.15627289,37.46858978],[-122.15621185,37.46875],[-122.15605927,37.46886063],[-122.1558609,37.46889114],[-122.15566254,37.46883011],[-122.15426636,37.46807861],[-122.15406036,37.46807098],[-122.14559174,37.46311951],[-122.14160919,37.46073914],[-122.13690186,37.45801926],[-122.12744141,37.45246887],[-122.12651062,37.45185089],[-122.12653351,37.4516983],[-122.12490845,37.45029068],[-122.12480927,37.45009995],[-122.12473297,37.44985962],[-122.12471771,37.44823837],[-122.12509918,37.44762039],[-122.1257782,37.44718933],[-122.12732697,37.44668961],[-122.12769318,37.44657898],[-122.15409851,37.43902969],[-122.15545654,37.43849182],[-122.15722656,37.4380188],[-122.1579895,37.43790054],[-122.1594162,37.43751144],[-122.15988159,37.43745041],[-122.16033936,37.43729019],[-122.162323,37.43632889],[-122.16249847,37.43623352],[-122.1626358,37.43617249],[-122.1627655,37.43618011],[-122.16290283,37.43616867],[-122.16320038,37.43627167],[-122.16332245,37.43632889],[-122.16346741,37.43635941],[-122.16586304,37.43758011],[-122.16674042,37.43795013],[-122.16899109,37.43127823],[-122.16976166,37.43062973],[-122.17012787,37.42993927],[-122.17017365,37.42935944],[-122.17002869,37.42919922],[-122.16973114,37.42910004],[-122.16941071,37.42906189],[-122.16918945,37.42913055],[-122.16899109,37.42937088],[-122.16873169,37.43027878],[-122.16876221,37.43069077],[-122.16899109,37.43127823],[-122.16893768,37.43146896],[-122.17266846,37.43225861],[-122.17268372,37.43225861],[-122.1733017,37.43238831],[-122.17299652,37.43328857],[-122.17262268,37.43386078],[-122.17230225,37.43413162],[-122.17275238,37.43457031],[-122.17297363,37.43497086],[-122.17301178,37.43547821],[-122.1728363,37.43581009],[-122.17273195,37.43580994],[-122.17279816,37.43592072],[-122.17151642,37.43840027],[-122.171431,37.438374]]}},{"type":"Feature","properties":{"agency":"Stanford Marguerite Shuttle","shape_id":"38:2657"},"geometry":{"type":"LineString","coordinates":[[-122.16645813,37.44416046],[-122.16628265,37.4437294],[-122.16620636,37.4437294],[-122.16584778,37.44348145],[-122.16532898,37.44327927],[-122.1649704,37.44303131],[-122.16536713,37.44255066],[-122.16516113,37.44234848],[-122.16555786,37.44168091],[-122.16523743,37.44139099],[-122.16398621,37.44049835],[-122.16277313,37.43944931],[-122.16252136,37.43935013],[-122.16227722,37.43912888],[-122.16229248,37.43912125],[-122.16065216,37.43769836],[-122.15619659,37.43379974],[-122.15473175,37.43246078],[-122.15184784,37.42995834],[-122.15144348,37.42958832],[-122.15141296,37.42956924],[-122.14684296,37.42552948],[-122.14656067,37.42533875],[-122.14562988,37.42485046],[-122.14215851,37.42303848],[-122.14259338,37.42253876],[-122.14587402,37.41861343],[-122.14588165,37.41859055],[-122.14681244,37.4174614],[-122.14920807,37.41453934],[-122.14974213,37.41392899],[-122.14974976,37.41394043],[-122.15003204,37.4135437],[-122.15149689,37.41183853],[-122.15148926,37.4118309],[-122.1533432,37.40959167],[-122.15225983,37.40903091],[-122.15039063,37.40805054],[-122.15029907,37.40800095],[-122.15029144,37.40800095],[-122.14993286,37.40782166],[-122.14943695,37.40771103],[-122.14901733,37.40769958],[-122.14868164,37.40774918],[-122.14836121,37.4078598],[-122.14788818,37.40816879],[-122.14723206,37.40903854],[-122.14659119,37.40871811],[-122.146645,37.408653],[-122.14653778,37.40869904],[-122.14579773,37.40829849],[-122.14549255,37.40802002],[-122.14537048,37.40782166],[-122.14528656,37.40745163],[-122.14533234,37.40707016],[-122.14546204,37.40623856],[-122.14614105,37.40419006],[-122.14617157,37.40383911],[-122.14610291,37.40346146],[-122.14530182,37.40127945],[-122.14440155,37.39873123],[-122.14438629,37.39868927],[-122.14382172,37.3970108],[-122.14344025,37.39527893],[-122.14343262,37.39525986],[-122.14324951,37.39455032],[-122.14510345,37.39379883],[-122.14562225,37.3936615],[-122.14598846,37.39432907],[-122.14659119,37.39411926],[-122.14659882,37.39411163],[-122.14707184,37.39395523],[-122.14719391,37.39404297],[-122.14737701,37.39441299],[-122.14755249,37.39472961],[-122.14732361,37.39496613],[-122.14687347,37.3949852],[-122.14646912,37.39496613],[-122.14634705,37.3947525],[-122.14633179,37.3946991],[-122.14572906,37.39361954],[-122.14807129,37.39276886],[-122.14878082,37.39413071],[-122.14880371,37.39416122],[-122.1490097,37.39456177],[-122.14949799,37.3951416],[-122.14977264,37.39537048],[-122.15026855,37.39569092],[-122.15021492,37.39577237]]}},{"type":"Feature","properties":{"agency":"Stanford Marguerite Shuttle","shape_id":"3:4078+3:4647"},"geometry":{"type":"LineString","coordinates":[[-122.164606,37.44318],[-122.16490936,37.44306946],[-122.16519165,37.44284821],[-122.16536713,37.44255066],[-122.16516113,37.44239044],[-122.16568756,37.44150925],[-122.16610718,37.44018555],[-122.16718292,37.44132233],[-122.16818237,37.44208145],[-122.16882324,37.44242859],[-122.16945648,37.44207001],[-122.1703186,37.44132996],[-122.17066193,37.4407196],[-122.17125702,37.43931961],[-122.17150879,37.43875122],[-122.17205048,37.43758011],[-122.17205811,37.43756104],[-122.17208099,37.43756866],[-122.17267609,37.43645096],[-122.17308044,37.43559265],[-122.17308044,37.43558884],[-122.17312622,37.43530655],[-122.17302704,37.43503189],[-122.17311859,37.43495178],[-122.17340088,37.43490982],[-122.17353058,37.43479919],[-122.17396545,37.43360138],[-122.17396545,37.43359756],[-122.17417908,37.43280029],[-122.17427,37.43279],[-122.17421722,37.43273544],[-122.17422485,37.43257904],[-122.17394257,37.43252182],[-122.17340851,37.43241119],[-122.17388153,37.4310112],[-122.1740799,37.43067932],[-122.17436981,37.43051147],[-122.1747818,37.43045044],[-122.17635345,37.43072891],[-122.17636108,37.43072128],[-122.17680359,37.43077087],[-122.17843628,37.43109894],[-122.17913055,37.43096924],[-122.17913818,37.43096924],[-122.17980957,37.43061066],[-122.18022919,37.43016052],[-122.18054962,37.42950058],[-122.18096924,37.4280014],[-122.18118286,37.42731857],[-122.1815567,37.42673874],[-122.18144989,37.426651],[-122.1812973,37.42668152],[-122.18083191,37.426651],[-122.18049622,37.42652893],[-122.18048859,37.4265213],[-122.18000031,37.42630005],[-122.17910004,37.42609024],[-122.17858124,37.42605972],[-122.17772675,37.42618942],[-122.17630005,37.42591095],[-122.17626953,37.42589951],[-122.17405701,37.42544174],[-122.17334747,37.42527008],[-122.17308807,37.42520142],[-122.17355347,37.42391968],[-122.17352295,37.42353821],[-122.17336273,37.42316055],[-122.17211914,37.42359161],[-122.17189789,37.42361832],[-122.17098236,37.42359924],[-122.17072296,37.42372894],[-122.17066193,37.42374039],[-122.17065,37.42369],[-122.17066193,37.42374039],[-122.17051697,37.42372894],[-122.17043304,37.42370987],[-122.17035675,37.42362976],[-122.16999817,37.42256927],[-122.16905975,37.42256165],[-122.16876221,37.42195129],[-122.16841125,37.42142105],[-122.16819763,37.42156982],[-122.168144,37.42152],[-122.16815186,37.42161179],[-122.16757965,37.42195892],[-122.16594648,37.42264289],[-122.16558838,37.42282104],[-122.16520691,37.42287827],[-122.16374207,37.4224205],[-122.16371473,37.42234198],[-122.16368866,37.42240143],[-122.16342163,37.42234039],[-122.16291046,37.4222908],[-122.162117,37.42237091],[-122.16143036,37.42253113],[-122.160981,37.42293],[-122.16056061,37.42399979],[-122.16034698,37.42424011],[-122.16039276,37.42446136],[-122.160236,37.424727],[-122.16005707,37.42527008],[-122.159501,37.426307],[-122.1594162,37.42662048],[-122.1592865,37.42663956],[-122.15920258,37.42675018],[-122.15927887,37.42692947],[-122.15927887,37.42742157],[-122.15953827,37.4277916],[-122.16056824,37.42861176],[-122.16166687,37.42948151],[-122.16268921,37.43022156],[-122.16335297,37.4307785],[-122.16403961,37.43143082],[-122.16401672,37.43159103],[-122.16410065,37.43167114],[-122.16397858,37.43198013],[-122.16336823,37.4336586],[-122.16320801,37.43516159],[-122.16304779,37.4356308],[-122.16256714,37.43584061],[-122.16203308,37.43635941],[-122.15998077,37.43730927],[-122.16039276,37.43767929],[-122.1620636,37.43914032],[-122.16293335,37.43991852],[-122.16377258,37.44065857],[-122.16401672,37.44102859],[-122.16487885,37.44200134],[-122.1648407,37.44216919],[-122.16445923,37.44245148],[-122.1643219,37.44274139],[-122.1643219,37.44287872],[-122.1644516,37.44301987],[-122.16464996,37.44311142],[-122.164606,37.44318]]}},{"type":"Feature","properties":{"agency":"Stanford Marguerite Shuttle","shape_id":"44:2281"},"geometry":{"type":"LineString","coordinates":[[-122.164606,37.44318],[-122.16506958,37.44295883],[-122.16536713,37.44255066],[-122.16516113,37.44234848],[-122.16564941,37.44150925],[-122.1656723,37.4412384],[-122.16790771,37.43447113],[-122.1676712,37.43442917],[-122.16745758,37.43432999],[-122.16738892,37.43426895],[-122.16493225,37.43209839],[-122.16446686,37.43173981],[-122.1643219,37.43143845],[-122.16414642,37.43141937],[-122.16323853,37.43054962],[-122.16047668,37.42816925],[-122.1602478,37.42803955],[-122.15992737,37.42792892],[-122.15966797,37.42776108],[-122.15949249,37.42753983],[-122.15943146,37.42718887],[-122.15950012,37.42697144],[-122.15966034,37.42686081],[-122.15962219,37.42654037],[-122.15975052,37.42627682],[-122.15976715,37.42602158],[-122.1605072,37.42449951],[-122.16069794,37.42427826],[-122.16065216,37.42409134],[-122.16075134,37.42375183],[-122.1608963,37.42335129],[-122.16118622,37.42293167],[-122.16130829,37.42284012],[-122.16156006,37.4228096],[-122.16175842,37.42259979],[-122.16204834,37.42250061],[-122.16217804,37.42247009],[-122.16291046,37.42240906],[-122.16329956,37.42243958],[-122.16362762,37.42250824],[-122.16388702,37.42258835],[-122.16484833,37.42290115],[-122.16512299,37.42295074],[-122.16539764,37.42293167],[-122.16542053,37.42293167],[-122.16596222,37.42277908],[-122.1675415,37.42200851],[-122.16816711,37.4215889],[-122.16816711,37.42158127],[-122.16838837,37.42140961],[-122.16853333,37.42156982],[-122.16908264,37.42263031],[-122.16957855,37.42259979],[-122.17002106,37.42263031],[-122.17037201,37.42367172],[-122.17051697,37.42372894],[-122.17064667,37.42374039],[-122.17066204,37.42378618]]}},{"type":"Feature","properties":{"agency":"Stanford Marguerite Shuttle","shape_id":"45:1968"},"geometry":{"type":"LineString","coordinates":[[-122.164606,37.44318],[-122.16506958,37.44295883],[-122.16536713,37.44265366],[-122.16511536,37.44241714],[-122.16562653,37.44150925],[-122.16602325,37.44031143],[-122.16664886,37.44073486],[-122.16691589,37.44095612],[-122.1672821,37.44132233],[-122.16810608,37.4420433],[-122.16897583,37.44245911],[-122.16945648,37.44207001],[-122.1703186,37.44132996],[-122.17066193,37.4407196],[-122.17125702,37.43931961],[-122.17150879,37.43875122],[-122.17150879,37.43873978],[-122.17192078,37.43788147],[-122.17208099,37.43756866],[-122.17288971,37.43590164],[-122.17307281,37.43558121],[-122.17308044,37.43558502],[-122.17313385,37.43530655],[-122.17312622,37.43501282],[-122.17342377,37.43494797],[-122.17353058,37.43479919],[-122.17396545,37.43362427],[-122.17401065,37.43359677],[-122.17398834,37.43358231],[-122.17420959,37.43284225],[-122.17427,37.43279],[-122.17424774,37.43275833],[-122.17427826,37.43264008],[-122.17424774,37.43258286],[-122.17394257,37.43252182],[-122.17340851,37.43241119],[-122.17391205,37.43090057],[-122.17410278,37.43064117],[-122.17443848,37.43046951],[-122.17479706,37.430439],[-122.17556763,37.43059921],[-122.17636108,37.43072128],[-122.17680359,37.43077087],[-122.17843628,37.43109894],[-122.17913055,37.43096924],[-122.17913818,37.43096924],[-122.17980957,37.43061066],[-122.18022919,37.43016052],[-122.18054962,37.42950058],[-122.18096924,37.4280014],[-122.1811173,37.42802896]]}},{"type":"Feature","properties":{"agency":"Stanford Marguerite Shuttle","shape_id":"46:2954"},"geometry":{"type":"LineString","coordinates":[[-122.18121,37.43148],[-122.18119812,37.43141937],[-122.18154907,37.43133163],[-122.18266296,37.43075943],[-122.18267822,37.43053055],[-122.18216705,37.43035889],[-122.18193817,37.43022156],[-122.18147278,37.42982101],[-122.18122864,37.42969131],[-122.18099213,37.42959976],[-122.18048096,37.42948914],[-122.18031,37.42975],[-122.18010712,37.4300499],[-122.17935181,37.43059921],[-122.17874908,37.43080139],[-122.17810059,37.43083954],[-122.1780014,37.43082809],[-122.17797089,37.43082809],[-122.17662811,37.43061447],[-122.17616272,37.43059158],[-122.17623901,37.43037033],[-122.17572784,37.4302597],[-122.17572784,37.43025208],[-122.17411041,37.42991257],[-122.17364502,37.4298172],[-122.17317963,37.42971039],[-122.17315674,37.4296608],[-122.17306519,37.42961884],[-122.17298889,37.42963028],[-122.17292786,37.4296608],[-122.17254639,37.42957687],[-122.17254639,37.42957306],[-122.17006683,37.42905426],[-122.1700592,37.42905426],[-122.16819763,37.4286499],[-122.16817474,37.42860794],[-122.16809845,37.42859268],[-122.16805267,37.42863083],[-122.1678772,37.42858124],[-122.16786194,37.42856979],[-122.16703033,37.42840576],[-122.16693115,37.42825699],[-122.16688538,37.42818832],[-122.16671753,37.42816544],[-122.16658783,37.42821503],[-122.16649628,37.42829514],[-122.16638947,37.42826843],[-122.16637421,37.42826843],[-122.16410065,37.42778778],[-122.164065,37.42771867],[-122.16403198,37.42776489],[-122.16294861,37.42753601],[-122.16291809,37.42751694],[-122.16177368,37.42728424],[-122.1605835,37.42703247],[-122.16044617,37.42699432],[-122.16043854,37.42699814],[-122.15992737,37.4269104],[-122.15988922,37.42686081],[-122.15966797,37.42678833],[-122.15959167,37.42665863],[-122.15949249,37.42662048],[-122.15934753,37.42662048],[-122.15923309,37.42668915],[-122.15883636,37.42668152],[-122.1585083,37.42673874],[-122.15785217,37.42716217],[-122.157809,37.42713],[-122.15731049,37.42752838],[-122.15538025,37.4287796],[-122.155309,37.428764],[-122.15455627,37.42947006],[-122.15425873,37.42961884],[-122.15383148,37.42971039],[-122.15348816,37.42969894],[-122.15350342,37.42955017],[-122.15338135,37.42950821],[-122.15312195,37.42951965],[-122.15257263,37.42942047],[-122.15235901,37.4292984],[-122.1518631,37.4289093],[-122.1504364,37.42778015],[-122.15026093,37.42752838],[-122.15032959,37.42705154],[-122.15081024,37.42647171],[-122.15086,37.4265],[-122.15100098,37.42623901],[-122.15146637,37.4258194],[-122.15171051,37.42573166],[-122.15215302,37.42573166],[-122.15239716,37.42565918],[-122.15232086,37.42546082],[-122.15226746,37.42525864],[-122.15229034,37.42515182],[-122.15228271,37.42514038],[-122.15229797,37.42504883],[-122.15245819,37.42472839],[-122.15363312,37.42349243],[-122.15389252,37.42290878],[-122.15345764,37.4226799],[-122.15641022,37.41913986],[-122.15789795,37.41991043],[-122.15801239,37.42000961],[-122.15830994,37.42015839],[-122.15833282,37.42016983],[-122.15886688,37.42052841],[-122.16024017,37.42160034],[-122.16053009,37.42185974],[-122.16116333,37.4224205],[-122.16132355,37.42261887],[-122.160981,37.42293],[-122.16056061,37.42399979],[-122.16034698,37.42424011],[-122.16039276,37.42446136],[-122.160236,37.424727],[-122.16005707,37.42527008],[-122.159501,37.426307],[-122.1594162,37.42662048],[-122.1592865,37.42663956],[-122.15920258,37.42675018],[-122.15920258,37.42684937],[-122.15930176,37.42694855],[-122.15952301,37.42697144],[-122.15963745,37.42687988],[-122.16062927,37.4270401],[-122.1611557,37.42715073],[-122.16117096,37.42715454],[-122.16291046,37.42751694],[-122.16292572,37.42752457],[-122.16464996,37.4279213],[-122.16464233,37.42790604],[-122.16648865,37.42830658],[-122.1665802,37.42843246],[-122.16669464,37.42853546],[-122.16682434,37.42851639],[-122.16700745,37.42842484],[-122.16721344,37.42845154],[-122.16722107,37.42845535],[-122.16804504,37.42862701],[-122.16806793,37.42868423],[-122.16815948,37.42869949],[-122.16821289,37.42865372],[-122.16916656,37.42886734],[-122.16916656,37.42886353],[-122.17249298,37.42956161],[-122.17248535,37.42956543],[-122.17293549,37.42966843],[-122.17299652,37.42972946],[-122.17308807,37.42975235],[-122.17317963,37.4297142],[-122.1741333,37.42992401],[-122.1758194,37.43027496],[-122.17581177,37.43027878],[-122.17623901,37.43037033],[-122.17611694,37.43067932],[-122.17636108,37.43072128],[-122.17680359,37.43077087],[-122.17843628,37.43109894],[-122.17913055,37.43096924],[-122.17913818,37.43096924],[-122.17938995,37.43087006],[-122.17984009,37.43151093],[-122.18000031,37.43201065],[-122.17996979,37.43254852],[-122.18032837,37.43260956],[-122.18036236,37.43239743],[-122.18029785,37.43238831],[-122.1802063,37.43151093],[-122.18119812,37.43141937],[-122.18121,37.43148]]}},{"type":"Feature","properties":{"agency":"Stanford Marguerite Shuttle","shape_id":"47:5630"},"geometry":{"type":"LineString","coordinates":[[-122.1807,37.42856],[-122.18079376,37.42858124],[-122.18065643,37.429039],[-122.18031,37.42975],[-122.18010712,37.4300499],[-122.17935181,37.43059921],[-122.17874908,37.43080139],[-122.17810059,37.43083954],[-122.1780014,37.43082809],[-122.17797089,37.43082809],[-122.17661285,37.43061829],[-122.1758194,37.43054962],[-122.17481995,37.43035889],[-122.17459106,37.43035889],[-122.17401886,37.43059158],[-122.17381287,37.43090057],[-122.1733017,37.43238831],[-122.1736908,37.43246841],[-122.17394257,37.43252182],[-122.17423248,37.43258286],[-122.174263,37.43262863],[-122.17425537,37.43267441],[-122.17422485,37.43278503],[-122.17422485,37.43279648],[-122.17391968,37.43367386],[-122.17391968,37.4336853],[-122.1735611,37.4347496],[-122.17340088,37.43490982],[-122.17304993,37.43495941],[-122.17305756,37.43503189],[-122.17308044,37.43510818],[-122.1730423,37.43552017],[-122.17288971,37.43585968],[-122.17273195,37.43580994],[-122.17282104,37.43584061],[-122.17180634,37.43785095],[-122.17153168,37.43838882],[-122.17150879,37.43840027],[-122.17150116,37.43843079],[-122.17108154,37.43941116],[-122.17038727,37.43915176],[-122.169487,37.43896103],[-122.16674042,37.43795013],[-122.1656723,37.4412384],[-122.16499329,37.44232941],[-122.16480255,37.44224167],[-122.16468811,37.4422493],[-122.16433716,37.44266891],[-122.1643219,37.44287872],[-122.1644516,37.44301987],[-122.16464996,37.44311142],[-122.164606,37.44318]]}},{"type":"Feature","properties":{"agency":"Stanford Marguerite Shuttle","shape_id":"48:5810"},"geometry":{"type":"LineString","coordinates":[[-122.16053,37.42864],[-122.16047668,37.42853928],[-122.16175079,37.42956161],[-122.16262817,37.43019104],[-122.16333771,37.43078995],[-122.1640625,37.43146896],[-122.16407013,37.43177032],[-122.16397858,37.43198013],[-122.16329956,37.43402863],[-122.16320038,37.43518066],[-122.16304779,37.43563843],[-122.16259766,37.43585968],[-122.16227722,37.43622971],[-122.15998077,37.43730927],[-122.16040039,37.43767166],[-122.16294861,37.43991852],[-122.16293335,37.43991852],[-122.16377258,37.44065857],[-122.16401672,37.44102859],[-122.16487885,37.44200134],[-122.1648407,37.44216919],[-122.16445923,37.44245148],[-122.1643219,37.44274139],[-122.1643219,37.44287872],[-122.1644516,37.44301987],[-122.16464996,37.44311142],[-122.164606,37.44318]]}},{"type":"Feature","properties":{"agency":"Stanford Marguerite Shuttle","shape_id":"4:4063"},"geometry":{"type":"LineString","coordinates":[[-122.175902,37.439731],[-122.17585754,37.43964005],[-122.17623138,37.43949127],[-122.17627716,37.43935013],[-122.1774826,37.43918991],[-122.17806244,37.43888855],[-122.17813873,37.43891144],[-122.17829132,37.43901062],[-122.17835999,37.43909073],[-122.17863092,37.43890968],[-122.17861176,37.43888855],[-122.17920685,37.43840027],[-122.1782074,37.43751144],[-122.18208313,37.43466949],[-122.18164063,37.43432999],[-122.18173165,37.43422221],[-122.18167114,37.43428802],[-122.1812973,37.43416977],[-122.18103027,37.43410873],[-122.17956543,37.43378448],[-122.17979431,37.43310165],[-122.17996979,37.43254852],[-122.18032837,37.43260956],[-122.18036236,37.43239743],[-122.18029785,37.43238831],[-122.1802063,37.43151093],[-122.18119812,37.43141937],[-122.18154907,37.43133163],[-122.18266296,37.43075943],[-122.18267822,37.43053055],[-122.18216705,37.43035889],[-122.18193817,37.43022156],[-122.18147278,37.42982101],[-122.18122864,37.42969131],[-122.18099213,37.42959976],[-122.18048096,37.42948914],[-122.18031,37.42975],[-122.18010712,37.4300499],[-122.17935181,37.43059921],[-122.17874908,37.43080139],[-122.17810059,37.43083954],[-122.1780014,37.43082809],[-122.17797089,37.43082809],[-122.17634583,37.4305954],[-122.17617035,37.43056107],[-122.17623901,37.43037033],[-122.17572784,37.4302597],[-122.17315674,37.4296875],[-122.17311096,37.42961502],[-122.17301178,37.42961502],[-122.17295074,37.42965317],[-122.17255402,37.42955399],[-122.172556,37.429524],[-122.17249298,37.42956543],[-122.17128754,37.42930984],[-122.17006683,37.42905426],[-122.17002106,37.429039],[-122.16820526,37.4286499],[-122.16818237,37.42860413],[-122.1681366,37.42858887],[-122.16806793,37.42861557],[-122.16788483,37.42858887],[-122.16784668,37.42858887],[-122.16718292,37.42842865],[-122.16698456,37.42840195],[-122.16694641,37.42826843],[-122.16683197,37.42817307],[-122.16665649,37.42817307],[-122.16651917,37.42827606],[-122.16639709,37.42825699],[-122.16637421,37.42824554],[-122.16409302,37.42776108],[-122.16404724,37.42774582],[-122.16296387,37.42752075],[-122.16294,37.42746],[-122.16290283,37.42751694],[-122.16169739,37.42724991],[-122.16046906,37.42698288],[-122.1604538,37.42697525],[-122.15988922,37.42686081],[-122.15966797,37.42678833],[-122.15959167,37.42665863],[-122.15949249,37.42662048],[-122.15934753,37.42662048],[-122.15923309,37.42668915],[-122.15883636,37.42668152],[-122.1585083,37.42673874],[-122.15818024,37.42692947],[-122.1578598,37.42713928],[-122.15781403,37.42716217],[-122.15731049,37.42752838],[-122.15538025,37.4287796],[-122.1553421,37.42879868],[-122.15498352,37.42905045],[-122.15476227,37.42912292],[-122.15458679,37.42933273],[-122.15432739,37.42947006],[-122.15402222,37.42957306],[-122.15350342,37.42955017],[-122.15312195,37.42951965],[-122.15257263,37.42942047],[-122.15235901,37.4292984],[-122.1518631,37.4289093],[-122.1506424,37.42795944],[-122.15041351,37.42776871],[-122.15026093,37.4275589],[-122.15029907,37.42708969],[-122.15081024,37.42647171],[-122.15086,37.4265],[-122.15100098,37.42623901],[-122.15146637,37.4258194],[-122.15171051,37.42573166],[-122.15215302,37.42573166],[-122.15239716,37.42565918],[-122.15231323,37.42542267],[-122.15229797,37.42515945],[-122.15228271,37.42514038],[-122.15229797,37.42504883],[-122.15245819,37.42472839],[-122.15363312,37.42349243],[-122.15389252,37.42290878],[-122.15345764,37.4226799],[-122.15641022,37.41913986],[-122.15789795,37.41991043],[-122.15801239,37.42000961],[-122.15830994,37.42015839],[-122.15828705,37.42018127],[-122.15868378,37.4204216],[-122.16018677,37.42160034],[-122.16049393,37.42187946],[-122.16053009,37.42185974],[-122.16116333,37.4224205],[-122.16132355,37.42261887],[-122.160981,37.42293],[-122.16056061,37.42399979],[-122.16034698,37.42424011],[-122.16039276,37.42446136],[-122.160236,37.424727],[-122.16005707,37.42527008],[-122.15966034,37.42598343],[-122.15953827,37.42630386],[-122.1595459,37.42631531],[-122.1594162,37.42662048],[-122.1592865,37.42663956],[-122.15920258,37.42675018],[-122.15920258,37.42684937],[-122.15930176,37.42694855],[-122.15952301,37.42697144],[-122.15963745,37.42687988],[-122.16003418,37.42691422],[-122.1605072,37.42699051],[-122.16117096,37.42713928],[-122.16121674,37.4271431],[-122.16290283,37.42751694],[-122.16294098,37.42752457],[-122.1646347,37.42790604],[-122.16466522,37.42790222],[-122.16649628,37.42829514],[-122.16660309,37.42845917],[-122.16670227,37.42851639],[-122.16685486,37.42852783],[-122.16701508,37.42841721],[-122.16719818,37.4284668],[-122.16723633,37.42845917],[-122.16807556,37.42863846],[-122.16810608,37.42870712],[-122.16821289,37.42865372],[-122.16918182,37.42887115],[-122.17082214,37.42922592],[-122.17248535,37.42956924],[-122.17249298,37.42956543],[-122.172966,37.42965698],[-122.172966,37.42970276],[-122.17301941,37.42974091],[-122.17307281,37.42973709],[-122.17315674,37.42969513],[-122.17417145,37.42991638],[-122.17578888,37.43027115],[-122.17578888,37.43027496],[-122.17581177,37.43027878],[-122.17623901,37.43037033],[-122.17611694,37.43067932],[-122.17636108,37.43072128],[-122.17680359,37.43077087],[-122.17843628,37.43109894],[-122.17913055,37.43096924],[-122.17913818,37.43096924],[-122.17980957,37.43061066],[-122.18022919,37.43016052],[-122.18054962,37.42950058],[-122.18099976,37.42959976],[-122.18128204,37.42971039],[-122.18153381,37.42985916],[-122.18205261,37.43029022],[-122.18235779,37.430439],[-122.18270874,37.43053055],[-122.18266296,37.43075943],[-122.18251801,37.43083954],[-122.18154907,37.43133163],[-122.18134308,37.4314003],[-122.181236,37.431349],[-122.18125153,37.43141937],[-122.18041992,37.43149185],[-122.18052673,37.43225098],[-122.18047333,37.43246078],[-122.18038177,37.43244934],[-122.18036236,37.43239743],[-122.18032837,37.43260956],[-122.17996979,37.43254852],[-122.1796875,37.43341064],[-122.17936707,37.43434906],[-122.17967987,37.43439102],[-122.18000031,37.43436813],[-122.18060303,37.43420029],[-122.18100739,37.43418121],[-122.18146515,37.43427277],[-122.18148041,37.43426895],[-122.18161011,37.43431091],[-122.18200684,37.43460083],[-122.1781311,37.43745041],[-122.17920685,37.43840027],[-122.17874908,37.43877029],[-122.17836761,37.43907928],[-122.17813873,37.43891144],[-122.17806244,37.43889999],[-122.17736053,37.43923187],[-122.17627716,37.43935013],[-122.1762619,37.43952179],[-122.17629242,37.44000626],[-122.17604828,37.44013214],[-122.17563629,37.43989944],[-122.17584229,37.43963242],[-122.175902,37.439731]]}},{"type":"Feature","properties":{"agency":"Stanford Marguerite Shuttle","shape_id":"51:8745"},"geometry":{"type":"LineString","coordinates":[[-122.164606,37.44318],[-122.16506958,37.44295883],[-122.16536713,37.44255066],[-122.16516113,37.44234848],[-122.16564941,37.44150925],[-122.1656723,37.4412384],[-122.16674042,37.43795013],[-122.16893768,37.43146896],[-122.17076111,37.43183899],[-122.17120361,37.43193054],[-122.17266846,37.43225861],[-122.17357635,37.43244171],[-122.1736908,37.43246841],[-122.17394257,37.43252182],[-122.17389679,37.43267059],[-122.17398071,37.43268967],[-122.17398834,37.43273926],[-122.17417,37.43277],[-122.17402649,37.43326187],[-122.173869,37.43367]]}},{"type":"Feature","properties":{"agency":"Stanford Marguerite Shuttle","shape_id":"56:3475"},"geometry":{"type":"LineString","coordinates":[[-122.17066204,37.42378618],[-122.17098236,37.42359924],[-122.17189789,37.42361832],[-122.17211914,37.42359161],[-122.17336273,37.42316055],[-122.17352295,37.42353821],[-122.17355347,37.42391968],[-122.17308807,37.42520142],[-122.17365265,37.42535019],[-122.1736908,37.42536163],[-122.17440796,37.42549896],[-122.17698669,37.42604828],[-122.17756653,37.42617035],[-122.17788696,37.42618942],[-122.17858124,37.42605972],[-122.17896271,37.42607117],[-122.18000031,37.42630005],[-122.18058777,37.42657089],[-122.18074799,37.42662048],[-122.18123627,37.42679977],[-122.18126678,37.42684937],[-122.18080139,37.42855835],[-122.18079376,37.42856979],[-122.18079376,37.42858887],[-122.18048096,37.42950058],[-122.18080902,37.42955017],[-122.18128204,37.42971039],[-122.18153381,37.42985916],[-122.18190002,37.43019104],[-122.18235779,37.430439],[-122.18283844,37.43054962],[-122.18392944,37.43061066],[-122.18392944,37.43059921],[-122.18454742,37.43067169],[-122.18470001,37.43072128],[-122.1849823,37.4308815],[-122.18520355,37.43114853],[-122.18536377,37.43154144],[-122.1857605,37.43198013],[-122.18624115,37.43162155],[-122.18852234,37.42993927],[-122.1886673,37.43011856],[-122.18913269,37.42974091],[-122.18952942,37.42963028],[-122.18984985,37.4296608],[-122.18995667,37.4297905],[-122.19033051,37.43106842],[-122.190269,37.431129],[-122.19033051,37.43112946],[-122.19033051,37.43120956],[-122.19024658,37.43133926],[-122.18993378,37.43151855],[-122.18959808,37.43159866],[-122.18914795,37.43162155],[-122.18860626,37.43180847],[-122.18792725,37.43218994],[-122.1876,37.43275],[-122.18762207,37.43299103],[-122.18750763,37.4331398],[-122.18702698,37.43315887],[-122.18623352,37.43339157],[-122.18570709,37.43338013],[-122.18566132,37.43336868],[-122.18540955,37.4333992],[-122.18466949,37.43370819],[-122.18421936,37.4341507],[-122.18403625,37.43453979],[-122.1836319,37.43489075],[-122.18348694,37.43486023],[-122.18267822,37.43423843],[-122.1857605,37.43198013],[-122.18540955,37.43164063],[-122.18515778,37.43109131],[-122.18492889,37.43083954],[-122.18470001,37.43072128],[-122.18454742,37.43067169],[-122.18390656,37.43061066],[-122.18283844,37.43054962],[-122.18235779,37.430439],[-122.18190002,37.43019104],[-122.18153381,37.42985916],[-122.18128204,37.42971039],[-122.18099976,37.42959976],[-122.18054962,37.42950058],[-122.18096924,37.4280014],[-122.18118286,37.42731857],[-122.1815567,37.42673874],[-122.18144989,37.426651],[-122.1812973,37.42668152],[-122.18083191,37.426651],[-122.18049622,37.42652893],[-122.18048859,37.4265213],[-122.18000031,37.42630005],[-122.17910004,37.42609024],[-122.17858124,37.42605972],[-122.17772675,37.42618942],[-122.17628479,37.42589951],[-122.17626953,37.42589951],[-122.17405701,37.42544174],[-122.17334747,37.42527008],[-122.17308807,37.42520142],[-122.17355347,37.42391968],[-122.17352295,37.42353821],[-122.17336273,37.42316055],[-122.17211914,37.42359161],[-122.17189789,37.42361832],[-122.17098236,37.42359924],[-122.17060852,37.4235611],[-122.17049408,37.4235878],[-122.17041016,37.42360687],[-122.17050171,37.4237175],[-122.17066204,37.42378618]]}},{"type":"Feature","properties":{"agency":"Stanford Marguerite Shuttle","shape_id":"59:6100+59:7022"},"geometry":{"type":"LineString","coordinates":[[-122.16901954,37.44218439],[-122.16905975,37.44223022],[-122.16757965,37.44352341],[-122.16670227,37.44277573],[-122.16598511,37.44203949],[-122.16581726,37.44185638],[-122.16566467,37.44166183],[-122.16571045,37.44131088],[-122.16576385,37.44095993],[-122.166008,37.44037247],[-122.16651917,37.44056702],[-122.16680908,37.44084549],[-122.16721344,37.44130707],[-122.16814423,37.44206619],[-122.16869354,37.44232559],[-122.16873169,37.4424057],[-122.16890717,37.44253922],[-122.16945648,37.44205856],[-122.16945648,37.44207001],[-122.1703186,37.44132996],[-122.17066193,37.4407196],[-122.17125702,37.43931961],[-122.17150879,37.43875122],[-122.17150116,37.43873978],[-122.17192078,37.43788147],[-122.17208099,37.43756866],[-122.17247009,37.43675995],[-122.17304993,37.43693161],[-122.17375946,37.43709946],[-122.1750412,37.43740845],[-122.17555237,37.43748856],[-122.17584229,37.43747711],[-122.1761322,37.43741989],[-122.17655182,37.4372406],[-122.17656708,37.43723297],[-122.17684174,37.43701935],[-122.17777252,37.43634033],[-122.17778015,37.43634033],[-122.17861938,37.43571854],[-122.17909241,37.43518066],[-122.17957306,37.4337883],[-122.1770401,37.43323898],[-122.17684174,37.43381882],[-122.17758179,37.43397141],[-122.17936707,37.43434906],[-122.17977905,37.43315125],[-122.179886,37.433125],[-122.17980194,37.43309021],[-122.17996979,37.43254852],[-122.18032837,37.43260956],[-122.17996979,37.43254852],[-122.1796875,37.43341064],[-122.17957306,37.4337883],[-122.1770401,37.43323898],[-122.17684174,37.43381882],[-122.17758179,37.43397141],[-122.17756367,37.43403065],[-122.17758179,37.43397141],[-122.17936707,37.43434906],[-122.17913055,37.43503952],[-122.17909241,37.43518066],[-122.17871094,37.43564987],[-122.17707825,37.43685913],[-122.17655945,37.4372406],[-122.17591858,37.43746948],[-122.17562866,37.43748856],[-122.17520905,37.43743896],[-122.17462158,37.43730164],[-122.17292786,37.43688965],[-122.17234802,37.4367218],[-122.17150879,37.43840027],[-122.17153168,37.43838882],[-122.17037201,37.44105148],[-122.16925812,37.44208145],[-122.16906738,37.44223022],[-122.16901954,37.44218439]]}},{"type":"Feature","properties":{"agency":"Stanford Marguerite Shuttle","shape_id":"8:2622"},"geometry":{"type":"LineString","coordinates":[[-122.17621,37.42852],[-122.17614746,37.42850876],[-122.17646027,37.42761993],[-122.17713165,37.4277916],[-122.17739105,37.4279213],[-122.17797852,37.42837906],[-122.17817688,37.42868042],[-122.17832947,37.42911148],[-122.17826843,37.43106842],[-122.17852783,37.43109894],[-122.17897797,37.4310112],[-122.17938995,37.43087006],[-122.17980957,37.43059921],[-122.18029022,37.4300499],[-122.18048096,37.42948914],[-122.18087769,37.42956924],[-122.18122864,37.42969131],[-122.18147278,37.42982101],[-122.18205261,37.43029022],[-122.18216705,37.43035889],[-122.18251038,37.43048859],[-122.1829071,37.43056107],[-122.1842804,37.43059921],[-122.18473816,37.43072128],[-122.18504333,37.43091965],[-122.18540192,37.43159103],[-122.1857605,37.43196106],[-122.18623352,37.43162155],[-122.18627167,37.43159103],[-122.18862915,37.42988968],[-122.19007111,37.42866135],[-122.19125366,37.4269104],[-122.1917572,37.42636871],[-122.19583893,37.42353058],[-122.19593048,37.42346954],[-122.19593811,37.42346954],[-122.19716644,37.42279053],[-122.19809723,37.42240906],[-122.19927216,37.42205048],[-122.20110321,37.4217186],[-122.2042923,37.42137146],[-122.20426178,37.42097092],[-122.20465851,37.42053986],[-122.20465851,37.4202919],[-122.20458221,37.42018127],[-122.20378876,37.42037964],[-122.20350647,37.42036819],[-122.20330811,37.42029953],[-122.20313263,37.4201889],[-122.20294189,37.41994095],[-122.20290375,37.41970062],[-122.20303345,37.41923141],[-122.20316315,37.41926575],[-122.20331573,37.41913223],[-122.20334625,37.41901016],[-122.20328,37.41873],[-122.20313263,37.41873932],[-122.20305634,37.41913986],[-122.20269775,37.41911316],[-122.20271301,37.41923904],[-122.20265198,37.41938019],[-122.2024765,37.41957092],[-122.2019577,37.41976166],[-122.20085144,37.41994095],[-122.20052338,37.41989899],[-122.19996643,37.41965866],[-122.19973755,37.41962051],[-122.19876862,37.41989899],[-122.19860077,37.41991043],[-122.19805908,37.41978836],[-122.19753265,37.41950989],[-122.19716644,37.41912079],[-122.19703674,37.41881943],[-122.1969986,37.41843033],[-122.19712067,37.41772842],[-122.19695282,37.41725159],[-122.19730377,37.41719437],[-122.19721985,37.41678238],[-122.19723511,37.41672516],[-122.19722748,37.41672134],[-122.19726563,37.41654968],[-122.19725037,37.4164505],[-122.19716644,37.41636276],[-122.1969223,37.4162941],[-122.19684601,37.41666031],[-122.19686127,37.41695023],[-122.19693756,37.4172287],[-122.19712067,37.41772842],[-122.1969986,37.41843033],[-122.19703674,37.41881943],[-122.19716644,37.41912079],[-122.19753265,37.41950989],[-122.19805908,37.41978836],[-122.19860077,37.41991043],[-122.19876862,37.41989899],[-122.19973755,37.41962051],[-122.19996643,37.41965866],[-122.20052338,37.41989899],[-122.20085144,37.41994095],[-122.2019577,37.41976166],[-122.2024765,37.41957092],[-122.20265198,37.41938019],[-122.20271301,37.41925049],[-122.20270538,37.41910934],[-122.20298767,37.41913986],[-122.20304871,37.41913986],[-122.20303345,37.4192276],[-122.20316315,37.41925812],[-122.20333099,37.4191246],[-122.20334625,37.41898346],[-122.20328,37.41873],[-122.20313263,37.41874313],[-122.20291138,37.41970825],[-122.20291901,37.41987991],[-122.20313263,37.4201889],[-122.20330811,37.42029953],[-122.20350647,37.42036819],[-122.20378876,37.42037964],[-122.20437622,37.42022705],[-122.20448303,37.42047119],[-122.20414734,37.42092133],[-122.20411682,37.42126083],[-122.20053101,37.42166901],[-122.19857025,37.42211151],[-122.19703674,37.42271042],[-122.19573975,37.4234314],[-122.19503021,37.42393875],[-122.1914978,37.42634964],[-122.19004822,37.42855072],[-122.18932343,37.42921066],[-122.1880722,37.43013],[-122.18566895,37.43190002],[-122.18538666,37.43161011],[-122.185112,37.43101883],[-122.18492889,37.43083954],[-122.18470001,37.43072128],[-122.1843338,37.43062973],[-122.18283844,37.43054962],[-122.18235779,37.430439],[-122.18190002,37.43019104],[-122.18153381,37.42985916],[-122.18128204,37.42971039],[-122.18099976,37.42959976],[-122.18048859,37.42949677],[-122.18035126,37.42980194],[-122.18010712,37.4300499],[-122.17971039,37.43038177],[-122.17935181,37.43059921],[-122.17874908,37.43080139],[-122.17797089,37.43082809],[-122.17661285,37.43061829],[-122.1764679,37.43038177],[-122.17623901,37.43037033],[-122.17572784,37.4302597],[-122.1757431,37.43025208],[-122.17558289,37.43021774],[-122.1758728,37.42936325],[-122.17614746,37.42850494],[-122.17621,37.42852]]}},{"type":"Feature","properties":{"agency":"Stanford Marguerite Shuttle","shape_id":"CAX:4191"},"geometry":{"type":"LineString","coordinates":[[-122.141409,37.428841],[-122.14144135,37.42881012],[-122.14208221,37.42919159],[-122.14215851,37.42935181],[-122.14230347,37.4294014],[-122.14237213,37.42938995],[-122.14312744,37.42840958],[-122.14390564,37.42740631],[-122.1410675,37.42586136],[-122.14041901,37.42551041],[-122.14044189,37.42506027],[-122.14380646,37.42111969],[-122.1533432,37.40959167],[-122.15225983,37.40903091],[-122.15039063,37.40805054],[-122.15029907,37.40800095],[-122.14993286,37.40782166],[-122.14943695,37.40769958],[-122.14911652,37.40768051],[-122.14880371,37.40771866],[-122.14836121,37.40784836],[-122.14800262,37.40805817],[-122.14720917,37.40903854],[-122.14659882,37.40872955],[-122.146645,37.408653],[-122.14653778,37.40869904],[-122.14579773,37.40829849],[-122.14549255,37.40802002],[-122.14536285,37.40779877],[-122.14528656,37.40745926],[-122.14533234,37.40707016],[-122.14546204,37.40623856],[-122.14614105,37.40419006],[-122.14617157,37.40383911],[-122.14610291,37.40346146],[-122.14530182,37.40127945],[-122.14440155,37.39873123],[-122.14438629,37.39868927],[-122.14382172,37.3970108],[-122.14344025,37.39527893],[-122.143518,37.395245],[-122.14343262,37.39522934],[-122.14324951,37.39455032],[-122.14510345,37.39379883],[-122.146118,37.393531],[-122.14662933,37.39326859],[-122.14807129,37.39276886],[-122.14878082,37.39413071],[-122.14880371,37.39416122],[-122.1490097,37.39456177],[-122.14949799,37.3951416],[-122.14977264,37.39537048],[-122.15026855,37.39569092],[-122.15021492,37.39577237]]}},{"type":"Feature","properties":{"agency":"Stanford Marguerite Shuttle","shape_id":"CAX:9587"},"geometry":{"type":"LineString","coordinates":[[-122.15002,37.395402],[-122.14993286,37.39548111],[-122.14977264,37.39537048],[-122.14923096,37.39485168],[-122.1490097,37.39456177],[-122.14864349,37.39387131],[-122.14808655,37.39276123],[-122.14533997,37.39365768],[-122.14465332,37.39397812],[-122.1445694,37.39395905],[-122.14391327,37.39419174],[-122.14324188,37.39448929],[-122.14335632,37.39503098],[-122.14337158,37.39503098],[-122.14382172,37.3970108],[-122.14450073,37.39899826],[-122.14524841,37.4011116],[-122.14562988,37.40222168],[-122.145527,37.402242],[-122.14565277,37.40227127],[-122.14601898,37.40333939],[-122.1460495,37.40370941],[-122.14582062,37.40472031],[-122.14571381,37.40504837],[-122.14562988,37.40531158],[-122.14568329,37.40541077],[-122.14543152,37.40641022],[-122.14543152,37.40644073],[-122.14528656,37.40745926],[-122.14536285,37.40779877],[-122.14556122,37.40810013],[-122.14579773,37.40829849],[-122.14723206,37.40903854],[-122.14745331,37.40877151],[-122.14788818,37.40816879],[-122.14864349,37.40776062],[-122.14901733,37.40769958],[-122.1495285,37.40771866],[-122.14993286,37.40782166],[-122.15019226,37.40795135],[-122.15022278,37.40795898],[-122.15164185,37.40869904],[-122.15171814,37.40874863],[-122.15183258,37.40879822],[-122.1532135,37.4095192],[-122.15310669,37.40967178],[-122.13868713,37.42702103],[-122.13870239,37.42710876],[-122.13954926,37.42765045],[-122.13990021,37.42773056],[-122.14013672,37.42774963],[-122.14022064,37.4277916],[-122.14026642,37.42807007],[-122.14144135,37.42881012],[-122.141409,37.428841]]}},{"type":"Feature","properties":{"agency":"Stanford Marguerite Shuttle","shape_id":"Y:3579+Y:9561"},"geometry":{"type":"LineString","coordinates":[[-122.164606,37.44318],[-122.16490936,37.44306946],[-122.16529083,37.44271851],[-122.16536713,37.44255066],[-122.16516113,37.44234848],[-122.16555786,37.44168091],[-122.16523743,37.44139099],[-122.16398621,37.44049835],[-122.16277313,37.43944931],[-122.16252136,37.43935013],[-122.16227722,37.43912888],[-122.16238547,37.43905637],[-122.16221619,37.43909073],[-122.1604538,37.43751144],[-122.16053009,37.43719101],[-122.16107941,37.43693161],[-122.16242218,37.43627167],[-122.16293335,37.43613815],[-122.16319275,37.4355011],[-122.1634903,37.43358994],[-122.16413879,37.43186188],[-122.16438293,37.43156815],[-122.1643219,37.43143845],[-122.16414642,37.43141937],[-122.16323853,37.43053818],[-122.1632309,37.43056107],[-122.16298676,37.43038177],[-122.16060638,37.42827988],[-122.16049194,37.42816162],[-122.16047668,37.42816925],[-122.1602478,37.42803955],[-122.15992737,37.42792892],[-122.15966797,37.42776108],[-122.15949249,37.42753983],[-122.15943146,37.42718887],[-122.15950012,37.42697144],[-122.15966034,37.42686081],[-122.15962219,37.42654037],[-122.15968323,37.42634201],[-122.15975052,37.42627682],[-122.15976715,37.42602158],[-122.1605072,37.42449951],[-122.16069794,37.42427826],[-122.16065216,37.42409134],[-122.16075134,37.42375183],[-122.1608963,37.42335129],[-122.16118622,37.42293167],[-122.16130829,37.42284012],[-122.16156006,37.4228096],[-122.16175842,37.42259979],[-122.16204834,37.42250061],[-122.1623764,37.4224205],[-122.16300201,37.42240143],[-122.16362762,37.42250824],[-122.16388702,37.42258835],[-122.16484833,37.42290115],[-122.16512299,37.42295074],[-122.16539764,37.42293167],[-122.16542053,37.42293167],[-122.16596222,37.42277908],[-122.1675415,37.42200851],[-122.16816711,37.4215889],[-122.16818237,37.4215889],[-122.16841125,37.42142105],[-122.16876221,37.42195892],[-122.16908264,37.42263031],[-122.17002106,37.42264175],[-122.17035675,37.42362976],[-122.17040253,37.42372513],[-122.1706543,37.42375183],[-122.17066204,37.42378618],[-122.17066956,37.42375183],[-122.17085266,37.42367554],[-122.17092896,37.42359543],[-122.17189789,37.42361832],[-122.17211914,37.42359161],[-122.17336273,37.42316055],[-122.17352295,37.42353821],[-122.17355347,37.42391968],[-122.17308807,37.42520142],[-122.17365265,37.42535019],[-122.1736908,37.42536163],[-122.17440796,37.42549896],[-122.17698669,37.42604828],[-122.17756653,37.42617035],[-122.17788696,37.42618942],[-122.17858124,37.42605972],[-122.17896271,37.42607117],[-122.18000031,37.42630005],[-122.18058777,37.42657089],[-122.18074799,37.42662048],[-122.18123627,37.42679977],[-122.18126678,37.42684937],[-122.18080139,37.42855835],[-122.18079376,37.42858124],[-122.18065643,37.429039],[-122.18031,37.42975],[-122.18010712,37.4300499],[-122.17935181,37.43059921],[-122.17874908,37.43080139],[-122.17810059,37.43083954],[-122.1780014,37.43082809],[-122.17797089,37.43082809],[-122.17661285,37.43061829],[-122.1758194,37.43054962],[-122.17481995,37.43035889],[-122.17459106,37.43035889],[-122.17401886,37.43059158],[-122.17381287,37.43090057],[-122.1733017,37.43238831],[-122.1736908,37.43246841],[-122.17394257,37.43252182],[-122.17424011,37.43257904],[-122.17427826,37.43263626],[-122.17421722,37.43277359],[-122.17422485,37.43281174],[-122.17392731,37.43368149],[-122.17392731,37.4336853],[-122.1735611,37.4347496],[-122.17340088,37.43490982],[-122.17298126,37.43497849],[-122.17307281,37.43542099],[-122.17288971,37.43584824],[-122.17273195,37.43580994],[-122.17279816,37.43592072],[-122.17151642,37.43840027],[-122.17150879,37.43840027],[-122.17150116,37.43843079],[-122.17108154,37.43941116],[-122.17038727,37.43915176],[-122.169487,37.43896103],[-122.16674042,37.43795013],[-122.1656723,37.4412384],[-122.16499329,37.44232941],[-122.16480255,37.44224167],[-122.16468811,37.4422493],[-122.16433716,37.44266891],[-122.1643219,37.44287872],[-122.1644516,37.44301987],[-122.16464996,37.44311142],[-122.164606,37.44318]]}},{"type":"Feature","properties":{"agency":"Stanford Marguerite Shuttle","shape_id":"YXPM:839"},"geometry":{"type":"LineString","coordinates":[[-122.17368,37.432511],[-122.1736908,37.43247223],[-122.17424774,37.4325943],[-122.17425537,37.43263245],[-122.17425537,37.43267059],[-122.17421722,37.43278122],[-122.17421722,37.43278503],[-122.17391968,37.43368149],[-122.17391205,37.43369675],[-122.1735611,37.4347496],[-122.17340088,37.43490982],[-122.17295837,37.43497849],[-122.17305756,37.43503189],[-122.17308044,37.43510818],[-122.1730423,37.43552017],[-122.17288971,37.43585968],[-122.17273195,37.43580994],[-122.17282104,37.43584061],[-122.17180634,37.43785095],[-122.17153168,37.43838882],[-122.17150879,37.43840027],[-122.17150116,37.43843079],[-122.17108154,37.43941116],[-122.17038727,37.43915176],[-122.169487,37.43896103],[-122.16674042,37.43795013],[-122.1656723,37.4412384],[-122.16499329,37.44232941],[-122.16480255,37.44224167],[-122.16468811,37.4422493],[-122.16433716,37.44266891],[-122.1643219,37.44287872],[-122.1644516,37.44301987],[-122.16464996,37.44311142],[-122.164606,37.44318]]}}]}