{"type":"FeatureCollection","features":[{"type":"Feature","properties":{"agency":"Steuben County Transit","shape_id":"3ba14cbc-aa1c-4635-899f-a4f53561a697"},"geometry":{"type":"LineString","coordinates":[[-77.31798,42.33711],[-77.31773,42.33905],[-77.31765,42.33925],[-77.31746,42.33954],[-77.31335,42.34434],[-77.31262,42.34513],[-77.3104,42.34735],[-77.30976,42.34794],[-77.30954,42.34812],[-77.3088,42.34871],[-77.2986,42.35618],[-77.29772,42.35692],[-77.29459,42.35976],[-77.29437,42.35999],[-77.29404,42.36025],[-77.29295,42.36126],[-77.29167,42.36245],[-77.29101,42.36309],[-77.2864,42.36791],[-77.28588,42.36842],[-77.28508,42.36909],[-77.2847,42.36939],[-77.28379,42.37003],[-77.28337,42.3703],[-77.28254,42.3708],[-77.28203,42.37109],[-77.27921,42.37258],[-77.27864,42.37291],[-77.27903,42.37333],[-77.27864,42.37291],[-77.27532,42.37467],[-77.27464,42.37506],[-77.27399,42.37546],[-77.27326,42.37596],[-77.27253,42.3765],[-77.27201,42.37692],[-77.27155,42.37732],[-77.27093,42.37789],[-77.27005,42.37883],[-77.26965,42.3793],[-77.26773,42.38174],[-77.26681,42.38274],[-77.26628,42.38324],[-77.26549,42.38394],[-77.26155,42.38732],[-77.26074,42.38804],[-77.26049,42.38822],[-77.25973,42.38872],[-77.25901,42.3891],[-77.25859,42.38929],[-77.25811,42.38948],[-77.25686,42.38986],[-77.23342,42.39677],[-77.23295,42.39693],[-77.2311,42.39762],[-77.22772,42.39906],[-77.22476,42.40028],[-77.22452,42.40036],[-77.22391,42.40051],[-77.22333,42.40062],[-77.22184,42.40079],[-77.2238,42.40797],[-77.22184,42.40079],[-77.22333,42.40062],[-77.22391,42.40051],[-77.22452,42.40036],[-77.22476,42.40028],[-77.22772,42.39906],[-77.2311,42.39762],[-77.23295,42.39693],[-77.23342,42.39677],[-77.25686,42.38986],[-77.25811,42.38948],[-77.25859,42.38929],[-77.25901,42.3891],[-77.25973,42.38872],[-77.26049,42.38822],[-77.26074,42.38804],[-77.26155,42.38732],[-77.26549,42.38394],[-77.26628,42.38324],[-77.26681,42.38274],[-77.26773,42.38174],[-77.26965,42.3793],[-77.27005,42.37883],[-77.27093,42.37789],[-77.27155,42.37732],[-77.27201,42.37692],[-77.27253,42.3765],[-77.27326,42.37596],[-77.27399,42.37546],[-77.27464,42.37506],[-77.27532,42.37467],[-77.27864,42.37291],[-77.27903,42.37333],[-77.27864,42.37291],[-77.27921,42.37258],[-77.28203,42.37109],[-77.28254,42.3708],[-77.28337,42.3703],[-77.28379,42.37003],[-77.2847,42.36939],[-77.28508,42.36909],[-77.28588,42.36842],[-77.2864,42.36791],[-77.29101,42.36309],[-77.29167,42.36245],[-77.29295,42.36126],[-77.29404,42.36025],[-77.29437,42.35999],[-77.29459,42.35976],[-77.29772,42.35692],[-77.2986,42.35618],[-77.3088,42.34871],[-77.30954,42.34812],[-77.30976,42.34794],[-77.3104,42.34735],[-77.31262,42.34513],[-77.31335,42.34434],[-77.31746,42.33954],[-77.31765,42.33925],[-77.31773,42.33905],[-77.31798,42.33711]]}},{"type":"Feature","properties":{"agency":"Steuben County Transit","shape_id":"3e6094d9-b2ae-4b12-a884-b1d88d499dc1"},"geometry":{"type":"LineString","coordinates":[[-77.31798,42.33711],[-77.31798,42.3371],[-77.31843,42.33353],[-77.31594,42.3334],[-77.30932,42.33296],[-77.30875,42.33291],[-77.30844,42.33282],[-77.30829,42.33276],[-77.30794,42.33254],[-77.30707,42.33192],[-77.30716,42.33186],[-77.30732,42.33182],[-77.308454,42.33189],[-77.30846,42.33189],[-77.30927,42.33194],[-77.30732,42.33182],[-77.30716,42.33186],[-77.30707,42.33192],[-77.30689,42.3318],[-77.30662,42.33166],[-77.30608,42.33144],[-77.30486,42.33099],[-77.30418,42.3321],[-77.30358,42.33313],[-77.30375,42.33319],[-77.30358,42.33313],[-77.30236,42.3351],[-77.30188,42.33593],[-77.30179,42.33612],[-77.29574,42.33578],[-77.2957,42.33604],[-77.29556,42.33624],[-77.29566,42.33613],[-77.2957,42.33605],[-77.29573,42.33579],[-77.29664,42.33583],[-77.29792,42.33591],[-77.30179,42.33612],[-77.30512,42.33629],[-77.30895,42.33649],[-77.31016,42.33654],[-77.3108,42.33658],[-77.3109,42.335701],[-77.3109,42.3357],[-77.31121,42.33309],[-77.3139,42.33327],[-77.3139,42.3333],[-77.31391,42.33327],[-77.31637,42.33343],[-77.31843,42.33353],[-77.32398,42.33388],[-77.32432,42.33391],[-77.32464,42.33397],[-77.3252,42.33417],[-77.32905,42.33596],[-77.33105,42.33687],[-77.33137,42.33703],[-77.33168,42.3372],[-77.33185,42.33731],[-77.33208,42.33751],[-77.33228,42.33772],[-77.33303,42.3384],[-77.33259,42.33873],[-77.33216,42.3387],[-77.33216,42.33871],[-77.33259,42.33873],[-77.33303,42.3384],[-77.33406,42.33937],[-77.33429,42.33957],[-77.3341,42.33971],[-77.33385,42.33986],[-77.33363,42.34002],[-77.33326,42.34032],[-77.33303,42.34047],[-77.33285,42.34058],[-77.33261,42.34061],[-77.33254,42.34061],[-77.33207,42.34063],[-77.33153,42.34067],[-77.33207,42.34063],[-77.33254,42.34061],[-77.33261,42.34061],[-77.33285,42.34058],[-77.33303,42.34047],[-77.33326,42.34032],[-77.33363,42.34002],[-77.33385,42.33986],[-77.3341,42.33971],[-77.33429,42.33957],[-77.33469,42.33987],[-77.33579,42.34059],[-77.33601,42.34075],[-77.33632,42.34102],[-77.33658,42.34128],[-77.33742,42.34231],[-77.33733,42.34237],[-77.33728,42.3424],[-77.33722,42.3425],[-77.33736,42.34247],[-77.33749,42.34241],[-77.33658,42.34128],[-77.33632,42.34102],[-77.33601,42.34075],[-77.33579,42.34059],[-77.33469,42.33987],[-77.33429,42.33957],[-77.33406,42.33937],[-77.33303,42.3384],[-77.33281,42.33821],[-77.33278,42.33806],[-77.3328,42.338],[-77.33285,42.33794],[-77.33293,42.33787],[-77.33307,42.33778],[-77.33389,42.33768],[-77.33452,42.33759],[-77.33484,42.33755],[-77.33566,42.3375],[-77.33602,42.33751],[-77.33653,42.33757],[-77.33672,42.3376],[-77.3369,42.33764],[-77.33731,42.33775],[-77.33778,42.33793],[-77.33805,42.33806],[-77.33833,42.33821],[-77.33869,42.33846],[-77.33905,42.33876],[-77.33917,42.33889],[-77.3397,42.33962],[-77.34039,42.34064],[-77.34074,42.34123],[-77.34095,42.34156],[-77.34111,42.34178],[-77.3412,42.34187],[-77.34131,42.34196],[-77.34143,42.34205],[-77.34171,42.34221],[-77.34348,42.34309],[-77.34366,42.34313],[-77.34418,42.34321],[-77.34578,42.34337],[-77.34586,42.34346],[-77.34591,42.34355],[-77.34602,42.34375],[-77.34645,42.34467],[-77.34654,42.34465],[-77.3468,42.34477],[-77.34702,42.34485],[-77.34722,42.34489],[-77.34755,42.34491],[-77.34767,42.34493],[-77.3479,42.34501],[-77.348,42.34507],[-77.34821,42.34521],[-77.34836,42.34534],[-77.34853,42.34551],[-77.34868,42.34568],[-77.34884,42.34593],[-77.34923,42.34681],[-77.34948,42.34676],[-77.34966,42.34676],[-77.34975,42.34679],[-77.34983,42.34681],[-77.35005,42.34695],[-77.35016,42.34706],[-77.35033,42.3473],[-77.35041,42.34735],[-77.35049,42.34737],[-77.35042,42.34735],[-77.35034,42.34729],[-77.35017,42.34705],[-77.35005,42.34694],[-77.34984,42.3468],[-77.34966,42.34676],[-77.34948,42.34676],[-77.34923,42.3468],[-77.34888,42.34602],[-77.34868,42.34567],[-77.34853,42.3455],[-77.34822,42.3452],[-77.3479,42.34501],[-77.34767,42.34493],[-77.34722,42.34488],[-77.34703,42.34484],[-77.3468,42.34477],[-77.34641,42.34459],[-77.34591,42.34354],[-77.34584,42.34344],[-77.34573,42.34338],[-77.34559,42.34335],[-77.34445,42.34322],[-77.34418,42.34321],[-77.34348,42.3431],[-77.34171,42.34221],[-77.34143,42.34205],[-77.34121,42.34187],[-77.34095,42.34156],[-77.3404,42.34064],[-77.33917,42.33889],[-77.33905,42.33875],[-77.33869,42.33845],[-77.33833,42.33821],[-77.33806,42.33805],[-77.33779,42.33793],[-77.33732,42.33774],[-77.33672,42.33759],[-77.33603,42.33751],[-77.33567,42.3375],[-77.33484,42.33754],[-77.3339,42.33767],[-77.33241,42.33784],[-77.33429,42.33956],[-77.33364,42.34001],[-77.33326,42.34032],[-77.33286,42.34057],[-77.33262,42.34061],[-77.33207,42.34063],[-77.33153,42.34067],[-77.33207,42.34063],[-77.33254,42.34061],[-77.33261,42.34061],[-77.33285,42.34058],[-77.33303,42.34047],[-77.33326,42.34032],[-77.33363,42.34002],[-77.33385,42.33986],[-77.3341,42.33971],[-77.33429,42.33957],[-77.33406,42.33937],[-77.33303,42.3384],[-77.33227,42.33773],[-77.33223,42.33767],[-77.332,42.33744],[-77.33185,42.33731],[-77.33158,42.33714],[-77.33137,42.33703],[-77.33104,42.33688],[-77.32905,42.33596],[-77.3252,42.33417],[-77.32464,42.33397],[-77.32432,42.33391],[-77.32398,42.33388],[-77.31843,42.33353],[-77.31594,42.3334],[-77.30932,42.33296],[-77.30875,42.33291],[-77.30844,42.33282],[-77.30829,42.33276],[-77.30794,42.33254],[-77.30707,42.33192],[-77.30716,42.33186],[-77.30732,42.33182],[-77.308258,42.33187],[-77.30826,42.33187],[-77.30927,42.33194],[-77.31155,42.33208],[-77.31135,42.3331],[-77.31594,42.3334],[-77.31843,42.33353],[-77.31798,42.33711]]}},{"type":"Feature","properties":{"agency":"Steuben County Transit","shape_id":"67930c0d-bb94-4b05-8890-237a7e924727"},"geometry":{"type":"LineString","coordinates":[[-76.80592,42.09023],[-76.80592,42.09023],[-76.80559,42.08964],[-76.80495,42.08982],[-76.80539,42.09068],[-76.80119,42.09193],[-76.79891,42.09256],[-76.7978,42.09291],[-76.7965,42.09329],[-76.79519,42.09372],[-76.79112,42.09501],[-76.79038,42.0952],[-76.78817,42.09565],[-76.7874,42.09584],[-76.78614,42.09609],[-76.78665,42.09697],[-76.78831,42.0986],[-76.78872,42.09896],[-76.78955,42.09978],[-76.79064,42.10079],[-76.79175,42.10187],[-76.79219,42.10235],[-76.79297,42.10359],[-76.79426,42.10572],[-76.79523,42.10759],[-76.79631,42.1099],[-76.79731,42.11195],[-76.79774,42.11288],[-76.79845,42.11425],[-76.79948,42.11602],[-76.80036,42.11752],[-76.8008,42.11845],[-76.80126,42.11966],[-76.80154,42.12067],[-76.80179,42.12224],[-76.80194,42.13001],[-76.80208,42.13157],[-76.80234,42.13307],[-76.80264,42.13428],[-76.80302,42.13535],[-76.80373,42.13707],[-76.80436,42.13848],[-76.80493,42.14004],[-76.80511,42.14083],[-76.80585,42.14846],[-76.80599,42.14977],[-76.80616,42.15064],[-76.80637,42.15115],[-76.80694,42.15203],[-76.80737,42.15254],[-76.80769,42.15284],[-76.80817,42.15326],[-76.80876,42.1537],[-76.80949,42.15411],[-76.81052,42.15455],[-76.8117,42.15488],[-76.8148,42.15556],[-76.81688,42.15606],[-76.81914,42.15667],[-76.8297,42.15972],[-76.83041,42.15989],[-76.83111,42.15998],[-76.83193,42.16004],[-76.8327,42.16007],[-76.83362,42.16],[-76.83445,42.15996],[-76.83517,42.15998],[-76.83564,42.16003],[-76.83614,42.16011],[-76.83817,42.16057],[-76.83877,42.16073],[-76.84153,42.16135],[-76.84264,42.16156],[-76.84559,42.16194],[-76.8477,42.16204],[-76.85038,42.16191],[-76.85197,42.16171],[-76.8561,42.16091],[-76.86791,42.15876],[-76.87496,42.15744],[-76.88257,42.15581],[-76.90273,42.15139],[-76.90546,42.1508],[-76.90652,42.15059],[-76.90976,42.14984],[-76.91425,42.14888],[-76.92511,42.14589],[-76.92641,42.1455],[-76.93529,42.14298],[-76.94554,42.14018],[-76.95304,42.13795],[-76.96709,42.13394],[-76.96834,42.13352],[-76.96901,42.13323],[-76.96968,42.1329],[-76.9701,42.13266],[-76.9734,42.13063],[-76.97492,42.12973],[-76.97515,42.12961],[-76.97574,42.12935],[-76.97677,42.12894],[-76.97754,42.12867],[-76.98303,42.12667],[-76.98405,42.12627],[-76.98542,42.12568],[-76.98672,42.12505],[-76.99036,42.12309],[-76.99127,42.12263],[-76.99224,42.12222],[-76.99262,42.12209],[-76.99325,42.12192],[-76.99733,42.12098],[-77.00011,42.12029],[-77.00178,42.11982],[-77.00378,42.11923],[-77.0048,42.11894],[-77.00541,42.11879],[-77.00641,42.11862],[-77.00674,42.11858],[-77.00747,42.11852],[-77.00809,42.11849],[-77.00873,42.11849],[-77.00913,42.11851],[-77.01,42.11859],[-77.01065,42.11869],[-77.01165,42.11888],[-77.01191,42.11895],[-77.01261,42.11917],[-77.0133,42.11942],[-77.01413,42.11979],[-77.01517,42.12037],[-77.01719,42.12161],[-77.01818,42.12233],[-77.01898,42.12294],[-77.0192,42.12314],[-77.02163,42.12504],[-77.02085,42.12557],[-77.02219,42.12658],[-77.02278,42.12712],[-77.02369,42.1281],[-77.0243,42.12889],[-77.02471,42.12951],[-77.02501,42.13003],[-77.02722,42.13463],[-77.02746,42.135],[-77.02769,42.13529],[-77.02796,42.13554],[-77.02855,42.13596],[-77.02905,42.13621],[-77.02951,42.13638],[-77.03013,42.13654],[-77.03476,42.13759],[-77.03653,42.13805],[-77.03692,42.13817],[-77.03756,42.13845],[-77.03802,42.13869],[-77.03831,42.13888],[-77.03917,42.13948],[-77.03953,42.13971],[-77.03991,42.13989],[-77.04047,42.1401],[-77.04091,42.14022],[-77.04147,42.14034],[-77.04251,42.14053],[-77.05266,42.14236],[-77.05226,42.14366],[-77.05369,42.14391],[-77.05369,42.14391],[-77.05369,42.14391],[-77.05375,42.14392],[-77.05226,42.14366],[-77.05266,42.14236],[-77.059,42.14351],[-77.06099,42.14407],[-77.06567,42.14543],[-77.06949,42.14629],[-77.06976,42.14637],[-77.07026,42.14656],[-77.07071,42.14679],[-77.07097,42.14696],[-77.07137,42.14726],[-77.0748,42.15014],[-77.07542,42.15063],[-77.07597,42.15099],[-77.07668,42.15137],[-77.07719,42.15159],[-77.0777,42.15178],[-77.07829,42.15196],[-77.07908,42.15215],[-77.08028,42.1524],[-77.08054,42.15249],[-77.08092,42.15271],[-77.08167,42.1532],[-77.08209,42.15336],[-77.08228,42.1534],[-77.08269,42.15341],[-77.08434,42.15321],[-77.08472,42.15318],[-77.08542,42.15316],[-77.08602,42.15321],[-77.08639,42.15326],[-77.08684,42.15336],[-77.08734,42.15351],[-77.09175,42.15513],[-77.09247,42.15544],[-77.09289,42.15566],[-77.09369,42.15615],[-77.09471,42.15695],[-77.09531,42.15731],[-77.09588,42.15758],[-77.09641,42.15776],[-77.09701,42.15792],[-77.09754,42.1581],[-77.09811,42.15835],[-77.0986,42.15862],[-77.09897,42.1588],[-77.09986,42.15951],[-77.10051,42.16011],[-77.10085,42.16053],[-77.10123,42.16105],[-77.10166,42.16172],[-77.10209,42.16254],[-77.1023,42.16302],[-77.10262,42.16392],[-77.10411,42.16865],[-77.1041,42.16955],[-77.10417,42.16997],[-77.10414,42.17008],[-77.10409,42.17014],[-77.10402,42.17017],[-77.10393,42.17019],[-77.10375,42.17018],[-77.103725,42.170174],[-77.103725,42.170174],[-77.103725,42.170174],[-77.10367,42.17016],[-77.10428,42.17035],[-77.10437,42.17061],[-77.10531,42.17271],[-77.10548,42.17305],[-77.10611,42.174],[-77.10629,42.1742],[-77.10685,42.17475],[-77.10725,42.17506],[-77.10755,42.17526],[-77.10806,42.17556],[-77.10882,42.17593],[-77.11471,42.17843],[-77.11711,42.17946],[-77.12112,42.18116],[-77.12764,42.18394],[-77.12876,42.18438],[-77.12928,42.18456],[-77.13055,42.18496],[-77.13222,42.18537],[-77.13305,42.18553],[-77.13408,42.1857],[-77.13481,42.18579],[-77.13536,42.18584],[-77.13876,42.18609],[-77.15153,42.18698],[-77.15385,42.18715],[-77.15426,42.1872],[-77.15482,42.18729],[-77.15543,42.18742],[-77.15586,42.18754],[-77.15638,42.18773],[-77.15672,42.18787],[-77.15716,42.18808],[-77.15786,42.1885],[-77.15844,42.18895],[-77.1586,42.18909],[-77.15896,42.18946],[-77.15926,42.18982],[-77.1595,42.19017],[-77.15978,42.19072],[-77.1599,42.19104],[-77.16017,42.19198],[-77.16125,42.19602],[-77.16141,42.19655],[-77.16164,42.19714],[-77.16189,42.19767],[-77.16217,42.19817],[-77.16244,42.19861],[-77.16276,42.19907],[-77.16329,42.19972],[-77.17425,42.21252],[-77.17522,42.21369],[-77.1756,42.21419],[-77.17611,42.21501],[-77.17633,42.21542],[-77.17662,42.21607],[-77.17772,42.21895],[-77.17793,42.21943],[-77.17826,42.22009],[-77.17893,42.22123],[-77.17933,42.2218],[-77.17974,42.22233],[-77.18004,42.22268],[-77.18066,42.22336],[-77.18358,42.22629],[-77.1861,42.22877],[-77.18786,42.23052],[-77.18976,42.23248],[-77.19059,42.23343],[-77.19136,42.23438],[-77.19182,42.235],[-77.19275,42.23632],[-77.19667,42.24212],[-77.1975,42.24327],[-77.19811,42.24406],[-77.20023,42.24656],[-77.20754,42.25509],[-77.22172,42.27097],[-77.22251,42.27187],[-77.22276,42.27219],[-77.2231,42.27267],[-77.22339,42.27315],[-77.22365,42.27364],[-77.22401,42.27447],[-77.22421,42.27511],[-77.22437,42.27575],[-77.22445,42.27627],[-77.22451,42.27703],[-77.22451,42.2774],[-77.22447,42.278],[-77.22441,42.27867],[-77.22368,42.28596],[-77.22338,42.28728],[-77.22324,42.28767],[-77.22304,42.28812],[-77.22293,42.2884],[-77.22289,42.28861],[-77.22285,42.28911],[-77.22206,42.28916],[-77.22168,42.28916],[-77.22151,42.28915],[-77.22004,42.289],[-77.21973,42.28898],[-77.219331,42.288988],[-77.219331,42.288988],[-77.219331,42.288988],[-77.21924,42.28899],[-77.21973,42.28898],[-77.22004,42.289],[-77.22151,42.28915],[-77.22168,42.28916],[-77.22206,42.28916],[-77.22285,42.28911],[-77.22292,42.28947],[-77.22297,42.28961],[-77.22313,42.28986],[-77.22331,42.29003],[-77.22354,42.29017],[-77.22403,42.29041],[-77.2243,42.29056],[-77.22515,42.29124],[-77.22561,42.29157],[-77.22595,42.29174],[-77.22636,42.29199],[-77.22669,42.29217],[-77.22707,42.29234],[-77.23168,42.29393],[-77.2325,42.29425],[-77.23319,42.29454],[-77.2342,42.29502],[-77.23484,42.29535],[-77.23558,42.29578],[-77.23653,42.29637],[-77.24154,42.29969],[-77.24228,42.30014],[-77.24368,42.3011],[-77.24419,42.30148],[-77.24499,42.30216],[-77.24571,42.3029],[-77.24597,42.30322],[-77.24656,42.304],[-77.25151,42.31084],[-77.25195,42.31141],[-77.25218,42.31165],[-77.25255,42.312],[-77.25282,42.31224],[-77.2535,42.31272],[-77.25401,42.31303],[-77.25452,42.31329],[-77.25509,42.31354],[-77.25548,42.31368],[-77.256,42.31384],[-77.25672,42.31403],[-77.25768,42.31419],[-77.25837,42.31425],[-77.25927,42.31426],[-77.26829,42.31405],[-77.26972,42.31402],[-77.27052,42.31404],[-77.27084,42.31406],[-77.27182,42.31414],[-77.27255,42.31423],[-77.27369,42.31442],[-77.27689,42.31499],[-77.27706,42.31506],[-77.27842,42.31543],[-77.28116,42.31621],[-77.28145,42.31627],[-77.28209,42.31634],[-77.2818,42.31788],[-77.28178,42.31826],[-77.28179,42.31844],[-77.28184,42.31874],[-77.28189,42.3189],[-77.28201,42.31921],[-77.2823,42.31975],[-77.28279,42.3206],[-77.28465,42.32377],[-77.285,42.32422],[-77.28529,42.32449],[-77.28565,42.32475],[-77.28586,42.32488],[-77.28622,42.32506],[-77.28675,42.32528],[-77.28714,42.32539],[-77.28751,42.32548],[-77.29126,42.32591],[-77.29242,42.32608],[-77.29275,42.32617],[-77.29341,42.32639],[-77.29429,42.32672],[-77.29472,42.32692],[-77.29639,42.32777],[-77.29745,42.32825],[-77.30608,42.33144],[-77.30662,42.33166],[-77.30689,42.3318],[-77.30707,42.33191],[-77.30716,42.33186],[-77.30732,42.33182],[-77.30839,42.33187],[-77.309189,42.331924],[-77.309189,42.331924],[-77.309189,42.331924],[-77.30927,42.33193],[-77.31155,42.33208],[-77.31135,42.3331],[-77.3154,42.33337],[-77.31716,42.33347],[-77.31765,42.33348],[-77.31843,42.33353],[-77.317989,42.337036],[-77.317989,42.337036]]}},{"type":"Feature","properties":{"agency":"Steuben County Transit","shape_id":"71511faf-9efd-4e91-920d-94acfcae7cf3"},"geometry":{"type":"LineString","coordinates":[[-77.31798,42.33711],[-77.31798,42.33711],[-77.31843,42.33353],[-77.31765,42.33348],[-77.31716,42.33347],[-77.3154,42.33337],[-77.30932,42.33296],[-77.30875,42.33291],[-77.30844,42.33282],[-77.30829,42.33275],[-77.30794,42.33254],[-77.30707,42.33191],[-77.30689,42.3318],[-77.30662,42.33166],[-77.30608,42.33144],[-77.29745,42.32825],[-77.29639,42.32777],[-77.29472,42.32692],[-77.29429,42.32672],[-77.29341,42.32639],[-77.29275,42.32617],[-77.29242,42.32608],[-77.29198,42.32601],[-77.29126,42.32591],[-77.28751,42.32548],[-77.28714,42.32539],[-77.28675,42.32528],[-77.28622,42.32506],[-77.28586,42.32488],[-77.28565,42.32475],[-77.28529,42.32449],[-77.285,42.32422],[-77.28465,42.32377],[-77.2823,42.31975],[-77.28201,42.31921],[-77.28189,42.3189],[-77.28179,42.31844],[-77.28178,42.31826],[-77.2818,42.31788],[-77.28204,42.31667],[-77.28211,42.31615],[-77.2821,42.31573],[-77.28197,42.31515],[-77.28191,42.31497],[-77.27722,42.31469],[-77.27682,42.31464],[-77.27599,42.31451],[-77.2757,42.31448],[-77.27553,42.31448],[-77.27225,42.31393],[-77.27169,42.31386],[-77.2708,42.31379],[-77.27018,42.31377],[-77.26895,42.31377],[-77.25973,42.314],[-77.2588,42.31396],[-77.2581,42.31388],[-77.25709,42.31369],[-77.25628,42.31348],[-77.25571,42.3133],[-77.25511,42.31306],[-77.25469,42.31287],[-77.25401,42.3125],[-77.25329,42.31204],[-77.25253,42.31143],[-77.25211,42.31102],[-77.25162,42.31045],[-77.24671,42.30365],[-77.2461,42.30288],[-77.24579,42.30252],[-77.24551,42.30223],[-77.24475,42.30154],[-77.24443,42.30128],[-77.24382,42.30084],[-77.24249,42.29994],[-77.23655,42.29605],[-77.23587,42.29561],[-77.23528,42.29527],[-77.23442,42.29481],[-77.23374,42.29448],[-77.23311,42.2942],[-77.23207,42.29378],[-77.22776,42.29228],[-77.22737,42.29213],[-77.22664,42.29176],[-77.22605,42.29138],[-77.22566,42.29108],[-77.22532,42.29078],[-77.22508,42.29054],[-77.2246,42.28991],[-77.22433,42.28945],[-77.22413,42.28895],[-77.224,42.28854],[-77.22393,42.28817],[-77.2239,42.28786],[-77.22389,42.28753],[-77.22394,42.28679],[-77.22472,42.27911],[-77.22478,42.27858],[-77.22487,42.27748],[-77.22488,42.27704],[-77.22487,42.27655],[-77.22476,42.27566],[-77.22455,42.27478],[-77.22437,42.27424],[-77.22418,42.27376],[-77.22395,42.27329],[-77.22368,42.27281],[-77.22316,42.27203],[-77.22277,42.27154],[-77.20999,42.25644],[-77.20899,42.25531],[-77.20197,42.24775],[-77.19873,42.24422],[-77.19758,42.2428],[-77.19689,42.24185],[-77.1924,42.23522],[-77.19169,42.23424],[-77.19093,42.2333],[-77.19007,42.23234],[-77.18606,42.22835],[-77.18194,42.22428],[-77.18104,42.22327],[-77.18048,42.22258],[-77.17984,42.22166],[-77.17929,42.22072],[-77.17913,42.22042],[-77.17881,42.21972],[-77.17769,42.21706],[-77.17723,42.21613],[-77.1766,42.21505],[-77.17603,42.21425],[-77.17562,42.21372],[-77.17433,42.2122],[-77.1635,42.19953],[-77.16303,42.19894],[-77.16276,42.19857],[-77.16252,42.1982],[-77.1622,42.19762],[-77.16194,42.19706],[-77.16166,42.19632],[-77.16144,42.19557],[-77.16025,42.19113],[-77.16008,42.19066],[-77.15989,42.19028],[-77.15961,42.18984],[-77.1593,42.18943],[-77.159,42.1891],[-77.15856,42.1887],[-77.15808,42.18835],[-77.15781,42.18817],[-77.15703,42.18775],[-77.15647,42.1875],[-77.15591,42.18731],[-77.15533,42.18715],[-77.15474,42.18703],[-77.15405,42.18694],[-77.15334,42.18688],[-77.14157,42.18606],[-77.13921,42.18587],[-77.13648,42.1857],[-77.13569,42.18564],[-77.13481,42.18554],[-77.13407,42.18542],[-77.13347,42.18531],[-77.13272,42.18513],[-77.13188,42.1849],[-77.13115,42.18465],[-77.13065,42.18445],[-77.10938,42.17591],[-77.10861,42.17559],[-77.10817,42.17537],[-77.10759,42.17504],[-77.10712,42.1747],[-77.10684,42.17445],[-77.1065,42.17412],[-77.10626,42.17383],[-77.10588,42.17333],[-77.1057,42.17301],[-77.10543,42.17241],[-77.10431,42.16871],[-77.10408,42.16791],[-77.10249,42.16301],[-77.10218,42.16229],[-77.10179,42.16157],[-77.10143,42.16104],[-77.10049,42.15984],[-77.09997,42.15926],[-77.09918,42.15851],[-77.09854,42.15798],[-77.09798,42.15756],[-77.09732,42.15711],[-77.09661,42.15666],[-77.09594,42.15629],[-77.09514,42.1559],[-77.09436,42.15555],[-77.09338,42.15519],[-77.09252,42.15491],[-77.09064,42.15439],[-77.08678,42.15308],[-77.08579,42.15292],[-77.08494,42.15286],[-77.08448,42.15287],[-77.08393,42.15291],[-77.08333,42.153],[-77.08285,42.1531],[-77.08244,42.15323],[-77.08196,42.15339],[-77.08138,42.15366],[-77.08072,42.15403],[-77.07994,42.15456],[-77.07957,42.15487],[-77.07917,42.15524],[-77.07555,42.15893],[-77.07483,42.1596],[-77.07403,42.16023],[-77.07318,42.16082],[-77.07249,42.16124],[-77.07167,42.16169],[-77.07099,42.16201],[-77.07037,42.16229],[-77.06992,42.16247],[-77.06937,42.16266],[-77.06864,42.1629],[-77.06749,42.16315],[-77.06681,42.16326],[-77.06616,42.16334],[-77.06545,42.1634],[-77.06429,42.16342],[-77.06356,42.16338],[-77.06311,42.16334],[-77.06232,42.16323],[-77.06198,42.16316],[-77.06112,42.16296],[-77.06073,42.16285],[-77.06005,42.1626],[-77.05949,42.16235],[-77.05907,42.16212],[-77.05864,42.16185],[-77.05832,42.16161],[-77.05784,42.16121],[-77.05741,42.16076],[-77.05711,42.16036],[-77.05675,42.15976],[-77.05654,42.1593],[-77.05604,42.15764],[-77.05592,42.15737],[-77.05544,42.15658],[-77.05504,42.15609],[-77.05474,42.1558],[-77.05414,42.15532],[-77.05375,42.15508],[-77.05325,42.15481],[-77.05263,42.15457],[-77.05192,42.15433],[-77.04701,42.15281],[-77.04546,42.15232],[-77.04414,42.15182],[-77.04318,42.15139],[-77.04229,42.15094],[-77.04178,42.15066],[-77.04107,42.15023],[-77.04034,42.14975],[-77.03974,42.14932],[-77.03886,42.14861],[-77.03858,42.14837],[-77.03787,42.14769],[-77.03718,42.14696],[-77.03694,42.14667],[-77.03654,42.14616],[-77.03611,42.14555],[-77.0334,42.14132],[-77.03257,42.13998],[-77.03059,42.13669],[-77.02912,42.13447],[-77.02847,42.13353],[-77.02422,42.12687],[-77.02394,42.12649],[-77.02339,42.12583],[-77.02293,42.12535],[-77.02256,42.125],[-77.02172,42.12432],[-77.02134,42.12405],[-77.02059,42.12356],[-77.01637,42.12095],[-77.01464,42.11992],[-77.01398,42.11959],[-77.01356,42.1194],[-77.01281,42.11912],[-77.01214,42.1189],[-77.01153,42.11875],[-77.01086,42.11861],[-77.00966,42.11843],[-77.00871,42.11838],[-77.00797,42.11839],[-77.007,42.11844],[-77.00661,42.11848],[-77.0055,42.11867],[-77.0041,42.11901],[-76.99931,42.12024],[-76.99295,42.12189],[-76.99217,42.12214],[-76.99178,42.12228],[-76.99113,42.12256],[-76.98857,42.1239],[-76.98795,42.12425],[-76.98668,42.12492],[-76.98559,42.12542],[-76.98439,42.12591],[-76.98282,42.12647],[-76.98259,42.12656],[-76.98203,42.12675],[-76.97837,42.12806],[-76.97608,42.12884],[-76.97535,42.12913],[-76.97449,42.12953],[-76.97357,42.13001],[-76.97271,42.13055],[-76.97096,42.1318],[-76.97022,42.13229],[-76.96936,42.13278],[-76.96876,42.13308],[-76.96796,42.13343],[-76.96748,42.13362],[-76.96657,42.13393],[-76.96309,42.13494],[-76.95938,42.13599],[-76.95425,42.13742],[-76.95128,42.13826],[-76.94658,42.13968],[-76.94301,42.14074],[-76.94092,42.14132],[-76.9363,42.14252],[-76.93549,42.14277],[-76.93238,42.14367],[-76.92687,42.14523],[-76.92608,42.14543],[-76.92384,42.14608],[-76.92289,42.14634],[-76.91448,42.14875],[-76.91352,42.14896],[-76.90918,42.14978],[-76.8891,42.15426],[-76.88551,42.15501],[-76.88237,42.1557],[-76.87848,42.15651],[-76.87722,42.15681],[-76.87522,42.15724],[-76.87177,42.15785],[-76.86786,42.1586],[-76.86158,42.15977],[-76.85564,42.16085],[-76.85197,42.16148],[-76.85133,42.16156],[-76.85001,42.16169],[-76.84847,42.16177],[-76.84654,42.16179],[-76.84427,42.16157],[-76.84165,42.16112],[-76.83747,42.16018],[-76.83541,42.15983],[-76.83462,42.15977],[-76.83391,42.15977],[-76.83251,42.15983],[-76.83164,42.15982],[-76.83084,42.15975],[-76.82984,42.15958],[-76.82914,42.15941],[-76.82304,42.15768],[-76.81992,42.15673],[-76.81702,42.15596],[-76.81523,42.15554],[-76.81247,42.15494],[-76.8109,42.15451],[-76.80998,42.15412],[-76.80898,42.15358],[-76.80819,42.15299],[-76.80756,42.15239],[-76.80682,42.15153],[-76.80659,42.15103],[-76.80628,42.15012],[-76.80602,42.14761],[-76.80591,42.14589],[-76.80539,42.14082],[-76.80525,42.14002],[-76.80405,42.13701],[-76.80329,42.13531],[-76.8029,42.13419],[-76.80258,42.13304],[-76.80235,42.13154],[-76.80225,42.13003],[-76.80212,42.12424],[-76.80205,42.12221],[-76.80178,42.12061],[-76.80151,42.11956],[-76.801,42.11832],[-76.80059,42.11745],[-76.79913,42.11496],[-76.7982,42.11327],[-76.79779,42.11246],[-76.79545,42.10748],[-76.79449,42.10563],[-76.79288,42.10291],[-76.79233,42.10218],[-76.79178,42.10156],[-76.7914,42.10118],[-76.78916,42.09908],[-76.78805,42.09736],[-76.78793,42.09708],[-76.78745,42.09611],[-76.78746,42.09596],[-76.78749,42.09591],[-76.78763,42.09582],[-76.78766,42.09577],[-76.78817,42.09565],[-76.79038,42.0952],[-76.79112,42.09501],[-76.79519,42.09372],[-76.7965,42.09329],[-76.7978,42.09291],[-76.79891,42.09256],[-76.80119,42.09193],[-76.80606,42.09049],[-76.80592,42.09023],[-76.80592,42.09023]]}},{"type":"Feature","properties":{"agency":"Steuben County Transit","shape_id":"79067016-2a5e-4632-81cd-e92d1e26e38d"},"geometry":{"type":"LineString","coordinates":[[-77.31798,42.33711],[-77.31798,42.33711],[-77.31843,42.33353],[-77.31765,42.33348],[-77.31716,42.33347],[-77.3154,42.33337],[-77.30932,42.33296],[-77.30875,42.33291],[-77.30844,42.33282],[-77.30829,42.33275],[-77.30794,42.33254],[-77.30707,42.33191],[-77.30689,42.3318],[-77.30662,42.33166],[-77.30608,42.33144],[-77.29745,42.32825],[-77.29639,42.32777],[-77.29472,42.32692],[-77.29429,42.32672],[-77.29341,42.32639],[-77.29275,42.32617],[-77.29242,42.32608],[-77.29198,42.32601],[-77.29126,42.32591],[-77.28751,42.32548],[-77.28714,42.32539],[-77.28675,42.32528],[-77.28622,42.32506],[-77.28586,42.32488],[-77.28565,42.32475],[-77.28529,42.32449],[-77.285,42.32422],[-77.28465,42.32377],[-77.2823,42.31975],[-77.28201,42.31921],[-77.28189,42.3189],[-77.28179,42.31844],[-77.28178,42.31826],[-77.2818,42.31788],[-77.28204,42.31667],[-77.28211,42.31615],[-77.2821,42.31573],[-77.28197,42.31515],[-77.28191,42.31497],[-77.27722,42.31469],[-77.27682,42.31464],[-77.27599,42.31451],[-77.2757,42.31448],[-77.27553,42.31448],[-77.27225,42.31393],[-77.27169,42.31386],[-77.2708,42.31379],[-77.27018,42.31377],[-77.26895,42.31377],[-77.25973,42.314],[-77.2588,42.31396],[-77.2581,42.31388],[-77.25709,42.31369],[-77.25628,42.31348],[-77.25571,42.3133],[-77.25511,42.31306],[-77.25469,42.31287],[-77.25401,42.3125],[-77.25329,42.31204],[-77.25253,42.31143],[-77.25211,42.31102],[-77.25162,42.31045],[-77.24671,42.30365],[-77.2461,42.30288],[-77.24579,42.30252],[-77.24551,42.30223],[-77.24475,42.30154],[-77.24443,42.30128],[-77.24382,42.30084],[-77.24249,42.29994],[-77.23655,42.29605],[-77.23587,42.29561],[-77.23528,42.29527],[-77.23442,42.29481],[-77.23374,42.29448],[-77.23311,42.2942],[-77.23207,42.29378],[-77.22776,42.29228],[-77.22737,42.29213],[-77.22664,42.29176],[-77.22605,42.29138],[-77.22566,42.29108],[-77.22532,42.29078],[-77.22508,42.29054],[-77.2246,42.28991],[-77.22433,42.28945],[-77.22413,42.28895],[-77.224,42.28854],[-77.22393,42.28817],[-77.2239,42.28786],[-77.22389,42.28753],[-77.22394,42.28679],[-77.22472,42.27911],[-77.22478,42.27858],[-77.22487,42.27748],[-77.22488,42.27704],[-77.22487,42.27655],[-77.22476,42.27566],[-77.22455,42.27478],[-77.22437,42.27424],[-77.22418,42.27376],[-77.22395,42.27329],[-77.22368,42.27281],[-77.22316,42.27203],[-77.22277,42.27154],[-77.20999,42.25644],[-77.20899,42.25531],[-77.20197,42.24775],[-77.19873,42.24422],[-77.19758,42.2428],[-77.19689,42.24185],[-77.1924,42.23522],[-77.19169,42.23424],[-77.19093,42.2333],[-77.19007,42.23234],[-77.18606,42.22835],[-77.18194,42.22428],[-77.18104,42.22327],[-77.18048,42.22258],[-77.17984,42.22166],[-77.17929,42.22072],[-77.17913,42.22042],[-77.17881,42.21972],[-77.17769,42.21706],[-77.17723,42.21613],[-77.1766,42.21505],[-77.17603,42.21425],[-77.17562,42.21372],[-77.17433,42.2122],[-77.1635,42.19953],[-77.16303,42.19894],[-77.16276,42.19857],[-77.16252,42.1982],[-77.1622,42.19762],[-77.16194,42.19706],[-77.16166,42.19632],[-77.16144,42.19557],[-77.16025,42.19113],[-77.16008,42.19066],[-77.15989,42.19028],[-77.15961,42.18984],[-77.1593,42.18943],[-77.159,42.1891],[-77.15856,42.1887],[-77.15808,42.18835],[-77.15781,42.18817],[-77.15703,42.18775],[-77.15647,42.1875],[-77.15591,42.18731],[-77.15533,42.18715],[-77.15474,42.18703],[-77.15405,42.18694],[-77.15334,42.18688],[-77.14157,42.18606],[-77.13921,42.18587],[-77.13648,42.1857],[-77.13569,42.18564],[-77.13481,42.18554],[-77.13407,42.18542],[-77.13347,42.18531],[-77.13272,42.18513],[-77.13188,42.1849],[-77.13115,42.18465],[-77.13065,42.18445],[-77.10938,42.17591],[-77.10861,42.17559],[-77.10817,42.17537],[-77.10759,42.17504],[-77.10712,42.1747],[-77.10684,42.17445],[-77.1065,42.17412],[-77.10626,42.17383],[-77.10588,42.17333],[-77.1057,42.17301],[-77.10543,42.17241],[-77.10431,42.16871],[-77.10408,42.16791],[-77.10249,42.16301],[-77.10218,42.16229],[-77.10179,42.16157],[-77.10143,42.16104],[-77.10049,42.15984],[-77.09997,42.15926],[-77.09918,42.15851],[-77.09854,42.15798],[-77.09798,42.15756],[-77.09732,42.15711],[-77.09661,42.15666],[-77.09594,42.15629],[-77.09514,42.1559],[-77.09436,42.15555],[-77.09395,42.15539],[-77.09338,42.15519],[-77.09252,42.15491],[-77.09064,42.15439],[-77.08819,42.15356],[-77.08706,42.15308],[-77.08654,42.15292],[-77.08597,42.1528],[-77.08521,42.15271],[-77.08291,42.15252],[-77.08035,42.15226],[-77.0791,42.15206],[-77.07856,42.15194],[-77.07782,42.15174],[-77.07733,42.15156],[-77.0769,42.15138],[-77.0765,42.15119],[-77.07599,42.1509],[-77.07547,42.15056],[-77.07495,42.15014],[-77.07153,42.14728],[-77.0711,42.14694],[-77.0706,42.14664],[-77.07016,42.14643],[-77.06985,42.14632],[-77.06941,42.14619],[-77.0663,42.14549],[-77.0656,42.1453],[-77.06037,42.14376],[-77.05982,42.14361],[-77.05932,42.14349],[-77.05828,42.14328],[-77.05269,42.14227],[-77.05244,42.14304],[-77.05226,42.14366],[-77.053674,42.143907],[-77.053674,42.143907],[-77.053674,42.143907],[-77.05375,42.14392],[-77.05226,42.14366],[-77.05244,42.14304],[-77.05269,42.14227],[-77.04864,42.14155],[-77.04103,42.14016],[-77.04051,42.14],[-77.03997,42.13979],[-77.03948,42.13955],[-77.03908,42.13931],[-77.03837,42.13882],[-77.03783,42.13849],[-77.0375,42.13833],[-77.0369,42.13808],[-77.03604,42.13783],[-77.03464,42.13748],[-77.02978,42.13637],[-77.02952,42.1363],[-77.02894,42.13606],[-77.02873,42.13595],[-77.02854,42.13585],[-77.02811,42.13554],[-77.0277,42.13516],[-77.02747,42.13485],[-77.02737,42.13468],[-77.02707,42.13408],[-77.02665,42.13314],[-77.02589,42.13153],[-77.02499,42.12982],[-77.0246,42.12916],[-77.02421,42.12861],[-77.0235,42.12774],[-77.02307,42.12729],[-77.02253,42.12677],[-77.02208,42.12637],[-77.02143,42.12583],[-77.02096,42.12549],[-77.02141,42.1252],[-77.02182,42.12488],[-77.02234,42.12452],[-77.02253,42.1244],[-77.02225,42.12418],[-77.02124,42.12353],[-77.02106,42.12337],[-77.02049,42.1231],[-77.01957,42.12272],[-77.01904,42.12248],[-77.01871,42.1223],[-77.01807,42.122],[-77.01637,42.12095],[-77.01464,42.11992],[-77.01398,42.11959],[-77.01356,42.1194],[-77.01281,42.11912],[-77.01214,42.1189],[-77.01153,42.11875],[-77.01086,42.11861],[-77.00966,42.11843],[-77.00871,42.11838],[-77.00797,42.11839],[-77.007,42.11844],[-77.00661,42.11848],[-77.0055,42.11867],[-77.0041,42.11901],[-76.99931,42.12024],[-76.99295,42.12189],[-76.99217,42.12214],[-76.99178,42.12228],[-76.99113,42.12256],[-76.98857,42.1239],[-76.98795,42.12425],[-76.98668,42.12492],[-76.98559,42.12542],[-76.98439,42.12591],[-76.98282,42.12647],[-76.98259,42.12656],[-76.98203,42.12675],[-76.97837,42.12806],[-76.97608,42.12884],[-76.97535,42.12913],[-76.97449,42.12953],[-76.97357,42.13001],[-76.97271,42.13055],[-76.97096,42.1318],[-76.97022,42.13229],[-76.96936,42.13278],[-76.96876,42.13308],[-76.96796,42.13343],[-76.96748,42.13362],[-76.96657,42.13393],[-76.96309,42.13494],[-76.95938,42.13599],[-76.95425,42.13742],[-76.95128,42.13826],[-76.94658,42.13968],[-76.94301,42.14074],[-76.94092,42.14132],[-76.9363,42.14252],[-76.93549,42.14277],[-76.93238,42.14367],[-76.92687,42.14523],[-76.92608,42.14543],[-76.92384,42.14608],[-76.92289,42.14634],[-76.91448,42.14875],[-76.91352,42.14896],[-76.90918,42.14978],[-76.8891,42.15426],[-76.88551,42.15501],[-76.88237,42.1557],[-76.87848,42.15651],[-76.87722,42.15681],[-76.87522,42.15724],[-76.87177,42.15785],[-76.86786,42.1586],[-76.86158,42.15977],[-76.85564,42.16085],[-76.85197,42.16148],[-76.85133,42.16156],[-76.85001,42.16169],[-76.84847,42.16177],[-76.84654,42.16179],[-76.84427,42.16157],[-76.84165,42.16112],[-76.83747,42.16018],[-76.83541,42.15983],[-76.83462,42.15977],[-76.83391,42.15977],[-76.83251,42.15983],[-76.83164,42.15982],[-76.83084,42.15975],[-76.82984,42.15958],[-76.82914,42.15941],[-76.82304,42.15768],[-76.81992,42.15673],[-76.81702,42.15596],[-76.81523,42.15554],[-76.81247,42.15494],[-76.8109,42.15451],[-76.80998,42.15412],[-76.80898,42.15358],[-76.80819,42.15299],[-76.80756,42.15239],[-76.80682,42.15153],[-76.80659,42.15103],[-76.80628,42.15012],[-76.80602,42.14761],[-76.80591,42.14589],[-76.80539,42.14082],[-76.80525,42.14002],[-76.80405,42.13701],[-76.80329,42.13531],[-76.8029,42.13419],[-76.80258,42.13304],[-76.80235,42.13154],[-76.80225,42.13003],[-76.80212,42.12424],[-76.80205,42.12221],[-76.80178,42.12061],[-76.80151,42.11956],[-76.801,42.11832],[-76.80059,42.11745],[-76.79913,42.11496],[-76.7982,42.11327],[-76.79779,42.11246],[-76.79545,42.10748],[-76.79449,42.10563],[-76.79288,42.10291],[-76.79233,42.10218],[-76.79178,42.10156],[-76.7914,42.10118],[-76.78916,42.09908],[-76.78805,42.09736],[-76.78793,42.09708],[-76.78745,42.09611],[-76.78746,42.09596],[-76.78749,42.09591],[-76.78763,42.09582],[-76.78766,42.09577],[-76.78817,42.09565],[-76.79038,42.0952],[-76.79112,42.09501],[-76.79519,42.09372],[-76.7965,42.09329],[-76.7978,42.09291],[-76.79891,42.09256],[-76.80119,42.09193],[-76.80606,42.09049],[-76.805963,42.09031],[-76.805963,42.09031]]}},{"type":"Feature","properties":{"agency":"Steuben County Transit","shape_id":"edb5d035-782b-4231-aa4a-a39a59483da6"},"geometry":{"type":"LineString","coordinates":[[-77.31797,42.33711],[-77.3183,42.33458],[-77.31842,42.33353],[-77.31765,42.33349],[-77.31716,42.33348],[-77.31593,42.33341],[-77.31367,42.33326],[-77.31378,42.33222],[-77.31071,42.33204],[-77.30927,42.33194],[-77.30777,42.33184],[-77.30731,42.33183],[-77.30721,42.33184],[-77.30715,42.33187],[-77.30706,42.33192],[-77.30688,42.33181],[-77.30662,42.33167],[-77.30608,42.33145],[-77.29754,42.32829],[-77.29672,42.32794],[-77.29639,42.32778],[-77.29472,42.32692],[-77.29423,42.3267],[-77.29341,42.3264],[-77.29275,42.32618],[-77.29242,42.32609],[-77.29162,42.32597],[-77.28751,42.32548],[-77.28714,42.3254],[-77.28672,42.32527],[-77.28621,42.32507],[-77.28585,42.32488],[-77.28565,42.32476],[-77.28529,42.3245],[-77.28504,42.32427],[-77.28486,42.32407],[-77.28464,42.32378],[-77.284,42.3227],[-77.2823,42.31976],[-77.28201,42.31921],[-77.28188,42.3189],[-77.28184,42.31875],[-77.28178,42.31845],[-77.28177,42.31826],[-77.2818,42.31789],[-77.28204,42.31667],[-77.28209,42.31634],[-77.28211,42.31615],[-77.28211,42.31596],[-77.28209,42.31574],[-77.28197,42.31516],[-77.28191,42.31498],[-77.28167,42.31496],[-77.27961,42.31484],[-77.27722,42.31469],[-77.27681,42.31465],[-77.27599,42.31452],[-77.2757,42.31449],[-77.27552,42.31449],[-77.27305,42.31406],[-77.27224,42.31393],[-77.27169,42.31386],[-77.27123,42.31383],[-77.2708,42.3138],[-77.27017,42.31378],[-77.26894,42.31378],[-77.2673,42.31383],[-77.26055,42.31399],[-77.25973,42.314],[-77.25942,42.314],[-77.25879,42.31396],[-77.2581,42.31388],[-77.25775,42.31383],[-77.25708,42.3137],[-77.25684,42.31364],[-77.25627,42.31349],[-77.25571,42.3133],[-77.2551,42.31307],[-77.25469,42.31288],[-77.25425,42.31265],[-77.254,42.31251],[-77.25329,42.31205],[-77.253,42.31183],[-77.25252,42.31144],[-77.2521,42.31103],[-77.25186,42.31075],[-77.25162,42.31046],[-77.2467,42.30366],[-77.2461,42.30288],[-77.24579,42.30252],[-77.2455,42.30224],[-77.24475,42.30155],[-77.24442,42.30129],[-77.24381,42.30084],[-77.23655,42.29605],[-77.23587,42.29562],[-77.23528,42.29527],[-77.23442,42.29482],[-77.23374,42.29448],[-77.23311,42.29421],[-77.23206,42.29379],[-77.23101,42.29341],[-77.22776,42.29229],[-77.22737,42.29214],[-77.22713,42.29202],[-77.22663,42.29176],[-77.22629,42.29155],[-77.2259,42.29119],[-77.2257,42.29099],[-77.22557,42.29085],[-77.22535,42.29056],[-77.22523,42.29033],[-77.22514,42.29004],[-77.22497,42.28895],[-77.22284,42.28911],[-77.22206,42.28917],[-77.22151,42.28916],[-77.22004,42.289],[-77.21973,42.28899],[-77.21926,42.28899],[-77.21925,42.28892],[-77.21926,42.28899],[-77.21973,42.28899],[-77.22004,42.289],[-77.22151,42.28916],[-77.22206,42.28917],[-77.22284,42.28911],[-77.22497,42.28895],[-77.2249,42.28859],[-77.22476,42.28828],[-77.22425,42.2875],[-77.22419,42.28738],[-77.22412,42.28717],[-77.22408,42.28695],[-77.22406,42.28661],[-77.2241,42.28575],[-77.22409,42.28537],[-77.22422,42.28396],[-77.22473,42.27901],[-77.22486,42.27748],[-77.22488,42.27705],[-77.22486,42.27655],[-77.22483,42.2762],[-77.22475,42.27567],[-77.22471,42.27544],[-77.22454,42.27479],[-77.22436,42.27425],[-77.22417,42.27377],[-77.22394,42.2733],[-77.22367,42.27282],[-77.2234,42.27239],[-77.22316,42.27203],[-77.22277,42.27155],[-77.20998,42.25645],[-77.20899,42.25532],[-77.20599,42.2521],[-77.20555,42.25162],[-77.20196,42.24776],[-77.20001,42.24564],[-77.19872,42.24422],[-77.19783,42.24313],[-77.19758,42.24281],[-77.19689,42.24186],[-77.19239,42.23522],[-77.19168,42.23425],[-77.19092,42.23331],[-77.19049,42.23282],[-77.19006,42.23235],[-77.18862,42.23091],[-77.18825,42.23055],[-77.18605,42.22836],[-77.18194,42.22428],[-77.18104,42.22328],[-77.18048,42.22259],[-77.17983,42.22166],[-77.17965,42.22137],[-77.17928,42.22072],[-77.17913,42.22042],[-77.17881,42.21973],[-77.17768,42.21707],[-77.1774,42.21645],[-77.17723,42.21613],[-77.17684,42.21544],[-77.1766,42.21505],[-77.17633,42.21467],[-77.17602,42.21426],[-77.17561,42.21372],[-77.17432,42.2122],[-77.1635,42.19954],[-77.16302,42.19895],[-77.16275,42.19858],[-77.16252,42.19821],[-77.16219,42.19762],[-77.16207,42.19737],[-77.16193,42.19706],[-77.1617,42.19647],[-77.16143,42.19558],[-77.16108,42.19421],[-77.16043,42.1918],[-77.16025,42.19113],[-77.16007,42.19066],[-77.15989,42.19028],[-77.15961,42.18984],[-77.1593,42.18943],[-77.159,42.18911],[-77.15856,42.18871],[-77.15808,42.18836],[-77.1578,42.18817],[-77.15731,42.1879],[-77.15703,42.18775],[-77.15646,42.18751],[-77.15625,42.18743],[-77.15591,42.18732],[-77.15532,42.18716],[-77.15473,42.18704],[-77.15404,42.18694],[-77.15333,42.18689],[-77.14634,42.18639],[-77.14157,42.18606],[-77.13915,42.18588],[-77.13647,42.18571],[-77.13569,42.18564],[-77.1348,42.18554],[-77.13406,42.18543],[-77.13347,42.18532],[-77.13272,42.18514],[-77.13188,42.1849],[-77.13115,42.18465],[-77.13064,42.18446],[-77.10937,42.17592],[-77.1086,42.17559],[-77.10817,42.17538],[-77.10759,42.17504],[-77.10712,42.1747],[-77.10683,42.17446],[-77.1065,42.17413],[-77.10625,42.17384],[-77.10568,42.17263],[-77.10562,42.17243],[-77.1056,42.17213],[-77.10572,42.1711],[-77.10574,42.17081],[-77.10367,42.17016],[-77.10574,42.17081],[-77.10575,42.17052],[-77.10569,42.17031],[-77.10564,42.17019],[-77.10552,42.17002],[-77.10543,42.16993],[-77.10487,42.16955],[-77.10471,42.16941],[-77.10451,42.16915],[-77.10431,42.16871],[-77.10406,42.16801],[-77.10304,42.16469],[-77.10249,42.16301],[-77.10217,42.1623],[-77.10179,42.16158],[-77.10142,42.16105],[-77.10105,42.16055],[-77.10048,42.15984],[-77.09996,42.15926],[-77.09918,42.15852],[-77.09854,42.15798],[-77.09798,42.15757],[-77.09731,42.15711],[-77.0966,42.15666],[-77.09594,42.1563],[-77.09514,42.15591],[-77.09462,42.15568],[-77.09435,42.15555],[-77.09394,42.15539],[-77.09338,42.15519],[-77.09228,42.15485],[-77.09064,42.1544],[-77.08818,42.15357],[-77.08706,42.15308],[-77.08654,42.15293],[-77.08596,42.15281],[-77.08521,42.15271],[-77.08291,42.15253],[-77.08221,42.15245],[-77.08127,42.15236],[-77.08034,42.15227],[-77.07909,42.15207],[-77.07856,42.15195],[-77.07781,42.15174],[-77.07733,42.15157],[-77.07689,42.15139],[-77.07642,42.15116],[-77.07599,42.15091],[-77.07547,42.15056],[-77.07527,42.15041],[-77.07494,42.15015],[-77.07153,42.14729],[-77.07109,42.14695],[-77.07088,42.14681],[-77.07059,42.14665],[-77.07015,42.14644],[-77.06984,42.14632],[-77.0694,42.14619],[-77.06705,42.14567],[-77.0663,42.14549],[-77.0656,42.1453],[-77.06037,42.14377],[-77.05982,42.14361],[-77.05932,42.14349],[-77.05881,42.14338],[-77.05827,42.14329],[-77.05269,42.14228],[-77.05254,42.14273],[-77.05226,42.14366],[-77.05374,42.14393],[-77.05226,42.14366],[-77.05266,42.14237],[-77.05877,42.14347],[-77.05899,42.14352],[-77.06004,42.14382],[-77.06078,42.14402],[-77.06323,42.14473],[-77.06567,42.14543],[-77.06667,42.14566],[-77.06948,42.14629],[-77.06976,42.14638],[-77.07025,42.14657],[-77.0707,42.1468],[-77.07097,42.14697],[-77.07136,42.14727],[-77.07479,42.15015],[-77.07541,42.15063],[-77.07597,42.151],[-77.07628,42.15117],[-77.07667,42.15137],[-77.07718,42.1516],[-77.0777,42.15179],[-77.07828,42.15196],[-77.07907,42.15215],[-77.08028,42.1524],[-77.08053,42.15249],[-77.08091,42.15272],[-77.08149,42.15311],[-77.08167,42.15321],[-77.08183,42.15328],[-77.08208,42.15337],[-77.08227,42.15341],[-77.08268,42.15342],[-77.08295,42.15339],[-77.08434,42.15322],[-77.08471,42.15318],[-77.08542,42.15316],[-77.08602,42.15321],[-77.08639,42.15327],[-77.08684,42.15337],[-77.08734,42.15352],[-77.09175,42.15513],[-77.09246,42.15545],[-77.09289,42.15566],[-77.09369,42.15615],[-77.0947,42.15695],[-77.09497,42.15712],[-77.0953,42.15731],[-77.09556,42.15744],[-77.09588,42.15758],[-77.09641,42.15776],[-77.097,42.15793],[-77.09753,42.1581],[-77.0981,42.15835],[-77.0986,42.15863],[-77.09896,42.15881],[-77.09985,42.15951],[-77.10029,42.15995],[-77.10056,42.16017],[-77.10121,42.16107],[-77.10157,42.16163],[-77.10208,42.16255],[-77.10229,42.16302],[-77.10261,42.16393],[-77.10386,42.16792],[-77.10409,42.16862],[-77.10409,42.16932],[-77.1041,42.16955],[-77.10417,42.16998],[-77.10414,42.17009],[-77.10409,42.17015],[-77.10401,42.17018],[-77.10392,42.1702],[-77.10375,42.17019],[-77.10367,42.17016],[-77.10427,42.17035],[-77.10436,42.17062],[-77.10531,42.17272],[-77.10548,42.17306],[-77.10566,42.17332],[-77.10579,42.17354],[-77.10611,42.174],[-77.10628,42.17421],[-77.10649,42.17442],[-77.10685,42.17476],[-77.10725,42.17506],[-77.10754,42.17527],[-77.10805,42.17557],[-77.1083,42.1757],[-77.10881,42.17593],[-77.11005,42.17645],[-77.11658,42.17923],[-77.11746,42.17963],[-77.12,42.18069],[-77.12054,42.18093],[-77.12112,42.18116],[-77.12763,42.18395],[-77.12808,42.18413],[-77.12875,42.18439],[-77.12927,42.18456],[-77.13055,42.18496],[-77.13126,42.18514],[-77.13222,42.18538],[-77.13305,42.18553],[-77.13408,42.1857],[-77.1348,42.1858],[-77.13536,42.18585],[-77.14482,42.18652],[-77.14571,42.18659],[-77.14761,42.18671],[-77.15153,42.18699],[-77.15384,42.18716],[-77.15425,42.1872],[-77.15482,42.18729],[-77.15542,42.18743],[-77.15585,42.18755],[-77.15638,42.18773],[-77.15671,42.18788],[-77.15715,42.18809],[-77.1574,42.18823],[-77.15786,42.18851],[-77.15806,42.18866],[-77.15843,42.18896],[-77.1586,42.1891],[-77.15896,42.18947],[-77.15925,42.18983],[-77.15949,42.19017],[-77.15962,42.19041],[-77.15978,42.19072],[-77.1599,42.19104],[-77.16017,42.19199],[-77.16124,42.19602],[-77.16141,42.19656],[-77.16164,42.19715],[-77.16189,42.19768],[-77.16216,42.19818],[-77.16243,42.19861],[-77.16276,42.19908],[-77.16328,42.19973],[-77.16498,42.2017],[-77.16521,42.20198],[-77.17368,42.21189],[-77.17424,42.21253],[-77.17521,42.2137],[-77.17559,42.21419],[-77.17579,42.21449],[-77.17611,42.21502],[-77.17633,42.21543],[-77.17661,42.21607],[-77.17735,42.21802],[-77.17772,42.21895],[-77.17792,42.21943],[-77.17825,42.22009],[-77.17869,42.22086],[-77.17892,42.22124],[-77.17933,42.2218],[-77.17973,42.22233],[-77.18003,42.22269],[-77.18066,42.22337],[-77.18358,42.22629],[-77.18561,42.2283],[-77.1861,42.22877],[-77.18785,42.23053],[-77.18975,42.23248],[-77.19059,42.23344],[-77.19136,42.23439],[-77.19182,42.235],[-77.19274,42.23632],[-77.19666,42.24212],[-77.19749,42.24328],[-77.1981,42.24407],[-77.20022,42.24657],[-77.20636,42.25374],[-77.20754,42.2551],[-77.21373,42.26204],[-77.21575,42.26429],[-77.21648,42.26512],[-77.21855,42.26742],[-77.22171,42.27097],[-77.2225,42.27188],[-77.22275,42.27219],[-77.22309,42.27268],[-77.22338,42.27316],[-77.22365,42.27364],[-77.22386,42.27413],[-77.224,42.27448],[-77.22421,42.27512],[-77.22436,42.27576],[-77.22445,42.27627],[-77.22448,42.27659],[-77.22451,42.27704],[-77.2245,42.27741],[-77.22447,42.27801],[-77.22437,42.27909],[-77.224,42.28265],[-77.22367,42.28596],[-77.2235,42.28674],[-77.22337,42.28728],[-77.22324,42.28767],[-77.22303,42.28813],[-77.22293,42.28841],[-77.22288,42.28862],[-77.22284,42.28911],[-77.22206,42.28917],[-77.22151,42.28916],[-77.22004,42.289],[-77.21973,42.28899],[-77.21926,42.28899],[-77.21925,42.28892],[-77.21926,42.28899],[-77.21973,42.28899],[-77.22004,42.289],[-77.22151,42.28916],[-77.22206,42.28917],[-77.22284,42.28911],[-77.22291,42.28948],[-77.22296,42.28962],[-77.22306,42.28978],[-77.22312,42.28987],[-77.2233,42.29004],[-77.22354,42.29018],[-77.22403,42.29042],[-77.22429,42.29057],[-77.22514,42.29124],[-77.22561,42.29158],[-77.22572,42.29164],[-77.22595,42.29175],[-77.22636,42.292],[-77.22669,42.29217],[-77.22707,42.29234],[-77.23167,42.29393],[-77.2325,42.29425],[-77.23319,42.29455],[-77.2339,42.29488],[-77.23419,42.29502],[-77.23483,42.29536],[-77.23557,42.29578],[-77.23652,42.29638],[-77.24258,42.30038],[-77.24319,42.30077],[-77.24367,42.3011],[-77.24419,42.30149],[-77.24499,42.30217],[-77.24534,42.30253],[-77.2457,42.30291],[-77.24596,42.30322],[-77.24656,42.304],[-77.2515,42.31085],[-77.25195,42.31142],[-77.25218,42.31166],[-77.25254,42.31201],[-77.25282,42.31224],[-77.25349,42.31273],[-77.254,42.31303],[-77.25452,42.3133],[-77.25508,42.31354],[-77.25547,42.31369],[-77.256,42.31385],[-77.25642,42.31396],[-77.25671,42.31403],[-77.25699,42.31409],[-77.25767,42.31419],[-77.25837,42.31425],[-77.25896,42.31427],[-77.26797,42.31406],[-77.26971,42.31403],[-77.27051,42.31405],[-77.27083,42.31406],[-77.27181,42.31414],[-77.27255,42.31424],[-77.27369,42.31443],[-77.27623,42.31488],[-77.27688,42.31499],[-77.27706,42.31507],[-77.27718,42.31511],[-77.27841,42.31543],[-77.28115,42.31622],[-77.28144,42.31628],[-77.28184,42.31633],[-77.28209,42.31634],[-77.28204,42.31667],[-77.2818,42.31789],[-77.28177,42.31826],[-77.28178,42.31845],[-77.28184,42.31875],[-77.28188,42.3189],[-77.28201,42.31921],[-77.2823,42.31976],[-77.28279,42.32061],[-77.284,42.3227],[-77.28464,42.32378],[-77.28486,42.32407],[-77.28504,42.32427],[-77.28529,42.3245],[-77.28565,42.32476],[-77.28585,42.32488],[-77.28621,42.32507],[-77.28672,42.32527],[-77.28714,42.3254],[-77.28751,42.32548],[-77.29162,42.32597],[-77.29242,42.32609],[-77.29275,42.32618],[-77.29341,42.3264],[-77.29423,42.3267],[-77.29472,42.32692],[-77.29639,42.32778],[-77.29672,42.32794],[-77.29754,42.32829],[-77.30608,42.33145],[-77.30662,42.33167],[-77.30688,42.33181],[-77.30706,42.33192],[-77.30715,42.33187],[-77.30721,42.33184],[-77.30731,42.33183],[-77.30777,42.33184],[-77.30927,42.33194],[-77.31155,42.33209],[-77.31135,42.3331],[-77.31593,42.33341],[-77.31716,42.33348],[-77.31765,42.33349],[-77.31842,42.33353],[-77.3183,42.33458],[-77.31797,42.33711]]}}]}