{"type":"FeatureCollection","features":[{"type":"Feature","properties":{"agency":"Sussex County Skylands Ride","shape_id":"N1"},"geometry":{"type":"LineString","coordinates":[[-74.74192,41.06348],[-74.7422,41.06346],[-74.74267,41.06334],[-74.74293,41.06333],[-74.74321,41.06338],[-74.7435,41.0635],[-74.74652,41.06562],[-74.75204,41.06044],[-74.752,41.06048],[-74.752,41.06048],[-74.7526,41.05994],[-74.75305,41.05939],[-74.75315,41.05926],[-74.75328,41.0588],[-74.75345,41.05862],[-74.75363,41.05858],[-74.75374,41.05847],[-74.75374,41.05834],[-74.75368,41.05824],[-74.75287,41.05768],[-74.75394,41.05677],[-74.75497,41.05556],[-74.75497,41.05556],[-74.75528,41.05467],[-74.75564,41.05386],[-74.75588,41.05347],[-74.7567,41.05243],[-74.75683,41.05219],[-74.75676,41.05197],[-74.75678,41.05009],[-74.75673,41.04901],[-74.75673,41.04901],[-74.75653,41.04662],[-74.75657,41.04638],[-74.75675,41.04617],[-74.75778,41.04532],[-74.75778,41.04532],[-74.76006,41.04395],[-74.7605,41.04361],[-74.76089,41.04323],[-74.76266,41.04111],[-74.76266,41.04111],[-74.76317,41.04054],[-74.76417,41.03969],[-74.76459,41.03922],[-74.7652,41.03826],[-74.76582,41.03709],[-74.76601,41.03664],[-74.76625,41.03552],[-74.76627,41.03487],[-74.76611,41.03262],[-74.76618,41.03196],[-74.76629,41.03152],[-74.76629,41.03152],[-74.76644,41.03103],[-74.76684,41.03029],[-74.76721,41.02979],[-74.76753,41.0292],[-74.76795,41.02817],[-74.76812,41.02746],[-74.76891,41.02263],[-74.76891,41.02263],[-74.76926,41.02039],[-74.76926,41.0199],[-74.76913,41.01919],[-74.76913,41.01919],[-74.76865,41.01822],[-74.76786,41.01708],[-74.76717,41.01555],[-74.76717,41.01555],[-74.7661,41.01297],[-74.76565,41.0123],[-74.76501,41.01168],[-74.76449,41.01131],[-74.76404,41.01108],[-74.7602,41.00939],[-74.75912,41.00907],[-74.75739,41.00883],[-74.75692,41.0087],[-74.75639,41.00849],[-74.75574,41.0081],[-74.75529,41.00767],[-74.75488,41.00706],[-74.75354,41.00437],[-74.75286,41.00317],[-74.75217,41.00228],[-74.75063,41.00059],[-74.75017,41.00022],[-74.74954,40.99993],[-74.7485,40.99965],[-74.74675,40.99936],[-74.74617,40.99915],[-74.74576,40.99893],[-74.74537,40.99864],[-74.74477,40.99807],[-74.7444,40.99758],[-74.74379,40.99653],[-74.74359,40.99606],[-74.74319,40.99334],[-74.74273,40.99068],[-74.74225,40.98721],[-74.74183,40.98483],[-74.74164,40.98438],[-74.74041,40.98242],[-74.7397,40.98151],[-74.73887,40.97928],[-74.73873,40.9787],[-74.73875,40.97822],[-74.73949,40.97493],[-74.73973,40.97452],[-74.74004,40.97417],[-74.74079,40.97348],[-74.74107,40.97305],[-74.74118,40.97271],[-74.74116,40.97206],[-74.74043,40.96819],[-74.74001,40.96718],[-74.73943,40.96606],[-74.73903,40.9649],[-74.73894,40.9645],[-74.73897,40.9624],[-74.73888,40.96175],[-74.73769,40.95729],[-74.73728,40.95656],[-74.73646,40.9554],[-74.73553,40.95306],[-74.73525,40.95245],[-74.73465,40.95139],[-74.7338,40.95016],[-74.73235,40.94846],[-74.73235,40.94846],[-74.73092,40.94683],[-74.73059,40.9464],[-74.73047,40.94617],[-74.7302,40.94539],[-74.72948,40.94253],[-74.72913,40.94195],[-74.72858,40.94145],[-74.72783,40.94106],[-74.72696,40.94068],[-74.72653,40.94042],[-74.72628,40.94021],[-74.72593,40.93978],[-74.72535,40.93853],[-74.72494,40.93791],[-74.72428,40.93741],[-74.72213,40.93609],[-74.72136,40.93554],[-74.72113,40.93528],[-74.721,40.93499],[-74.72048,40.93425],[-74.7201,40.93382],[-74.719386,40.93324],[-74.718672,40.933629],[-74.718508,40.933299],[-74.718423,40.933199],[-74.71802,40.9328],[-74.71884,40.93236],[-74.71876,40.93227],[-74.7187,40.93201],[-74.71861,40.93004],[-74.71864,40.9294],[-74.71884,40.92851],[-74.71886,40.92804],[-74.71866,40.92512],[-74.71856,40.92105],[-74.71862,40.92093],[-74.71855,40.9185],[-74.7185,40.91816],[-74.71835,40.9177],[-74.71767,40.91607],[-74.71713,40.91493],[-74.71681,40.91437],[-74.71644,40.91395],[-74.71594,40.91359],[-74.71452,40.9128],[-74.7142,40.91257],[-74.71376,40.91213],[-74.71251,40.90993],[-74.71205,40.90927],[-74.71205,40.90927],[-74.71167,40.90883],[-74.71122,40.90849],[-74.71031,40.90803],[-74.70875,40.90753],[-74.70842,40.90738],[-74.708,40.90711],[-74.70756,40.90675],[-74.70722,40.90633],[-74.707,40.90591],[-74.70663,40.90444],[-74.70651,40.9042],[-74.70617,40.90376],[-74.70547,40.90327],[-74.70525,40.90304],[-74.70515,40.90286],[-74.70482,40.9015],[-74.70482,40.9015],[-74.70477,40.90127],[-74.70514,40.90067],[-74.70543,40.90037],[-74.70638,40.89966],[-74.70669,40.89934],[-74.70662,40.89799],[-74.70667,40.89774],[-74.707533,40.897851]]}},{"type":"Feature","properties":{"agency":"Sussex County Skylands Ride","shape_id":"N2"},"geometry":{"type":"LineString","coordinates":[[-74.707533,40.897851],[-74.70667,40.89774],[-74.70662,40.89799],[-74.70669,40.89934],[-74.70638,40.89966],[-74.70543,40.90037],[-74.70514,40.90067],[-74.70477,40.90127],[-74.70482,40.9015],[-74.70482,40.9015],[-74.70515,40.90286],[-74.70525,40.90304],[-74.70547,40.90327],[-74.70617,40.90376],[-74.70651,40.9042],[-74.70663,40.90444],[-74.707,40.90591],[-74.70722,40.90633],[-74.70756,40.90675],[-74.708,40.90711],[-74.70842,40.90738],[-74.70875,40.90753],[-74.71031,40.90803],[-74.71122,40.90849],[-74.71167,40.90883],[-74.71205,40.90927],[-74.71205,40.90927],[-74.71251,40.90993],[-74.71337,40.91141],[-74.71415,40.91289],[-74.71473,40.91384],[-74.71506,40.91421],[-74.71561,40.91461],[-74.7161,40.9149],[-74.71683,40.91572],[-74.71787,40.91713],[-74.71824,40.91772],[-74.71844,40.91847],[-74.7185,40.92093],[-74.71856,40.92105],[-74.71867,40.92535],[-74.71886,40.92804],[-74.71884,40.92851],[-74.71864,40.9294],[-74.71861,40.93004],[-74.71868,40.93174],[-74.71876,40.93227],[-74.71873,40.93239],[-74.71802,40.9328],[-74.71802,40.9328],[-74.71873,40.93239],[-74.717929,40.932849],[-74.718423,40.933199],[-74.718508,40.933299],[-74.718661,40.933669],[-74.71938,40.93332],[-74.71909,40.93349],[-74.71879,40.9336],[-74.71879,40.9336],[-74.71909,40.93349],[-74.71938,40.93332],[-74.72015,40.93405],[-74.72098,40.93512],[-74.72105,40.93515],[-74.72121,40.93538],[-74.72155,40.9357],[-74.72428,40.93741],[-74.72484,40.93781],[-74.72503,40.93801],[-74.72527,40.93838],[-74.72593,40.93978],[-74.72641,40.94033],[-74.72696,40.94068],[-74.72783,40.94106],[-74.72858,40.94145],[-74.72913,40.94195],[-74.72948,40.94253],[-74.7302,40.94539],[-74.73047,40.94617],[-74.73059,40.9464],[-74.73092,40.94683],[-74.73235,40.94846],[-74.73235,40.94846],[-74.7338,40.95016],[-74.73465,40.95139],[-74.73525,40.95245],[-74.73553,40.95306],[-74.73646,40.9554],[-74.73728,40.95656],[-74.73769,40.95729],[-74.73888,40.96175],[-74.73897,40.9624],[-74.73894,40.9645],[-74.73903,40.9649],[-74.73943,40.96606],[-74.74001,40.96718],[-74.74043,40.96819],[-74.74116,40.97206],[-74.74118,40.97271],[-74.74107,40.97305],[-74.74079,40.97348],[-74.74004,40.97417],[-74.73973,40.97452],[-74.73949,40.97493],[-74.73875,40.97822],[-74.73873,40.9787],[-74.73887,40.97928],[-74.7397,40.98151],[-74.74041,40.98242],[-74.74164,40.98438],[-74.74183,40.98483],[-74.74225,40.98721],[-74.74273,40.99068],[-74.74319,40.99334],[-74.74359,40.99606],[-74.74379,40.99653],[-74.7444,40.99758],[-74.74477,40.99807],[-74.74537,40.99864],[-74.74576,40.99893],[-74.74617,40.99915],[-74.74675,40.99936],[-74.7485,40.99965],[-74.74954,40.99993],[-74.75017,41.00022],[-74.75063,41.00059],[-74.75217,41.00228],[-74.75286,41.00317],[-74.75354,41.00437],[-74.75488,41.00706],[-74.75529,41.00767],[-74.75574,41.0081],[-74.75639,41.00849],[-74.75692,41.0087],[-74.75739,41.00883],[-74.75912,41.00907],[-74.7602,41.00939],[-74.76404,41.01108],[-74.76449,41.01131],[-74.76501,41.01168],[-74.76565,41.0123],[-74.7661,41.01297],[-74.76717,41.01555],[-74.76717,41.01555],[-74.76786,41.01708],[-74.76865,41.01822],[-74.76913,41.01919],[-74.76913,41.01919],[-74.76926,41.0199],[-74.76926,41.02039],[-74.76891,41.02263],[-74.76891,41.02263],[-74.76812,41.02746],[-74.76795,41.02817],[-74.76753,41.0292],[-74.76721,41.02979],[-74.76684,41.03029],[-74.76644,41.03103],[-74.76629,41.03152],[-74.76629,41.03152],[-74.76618,41.03196],[-74.76611,41.03262],[-74.76627,41.03487],[-74.76625,41.03552],[-74.76601,41.03664],[-74.76582,41.03709],[-74.7652,41.03826],[-74.76459,41.03922],[-74.76417,41.03969],[-74.76317,41.04054],[-74.76268,41.04108],[-74.76268,41.04108],[-74.76089,41.04323],[-74.7605,41.04361],[-74.76006,41.04395],[-74.75778,41.04532],[-74.75778,41.04532],[-74.75675,41.04617],[-74.75657,41.04638],[-74.75653,41.04662],[-74.75673,41.04901],[-74.75673,41.04901],[-74.75678,41.05009],[-74.75676,41.05197],[-74.75683,41.05219],[-74.7567,41.05243],[-74.75588,41.05347],[-74.75564,41.05386],[-74.75528,41.05467],[-74.75498,41.05554],[-74.75498,41.05554],[-74.7538,41.05691],[-74.75244,41.05806],[-74.75299,41.05844],[-74.75308,41.05871],[-74.75305,41.05939],[-74.75278,41.05975],[-74.752,41.06048],[-74.752,41.06048],[-74.75107,41.06124],[-74.74888,41.06326],[-74.74761,41.06477],[-74.74734,41.06503],[-74.74652,41.06562],[-74.74652,41.06562],[-74.74655,41.0656],[-74.74461,41.06429],[-74.7435,41.0635],[-74.74321,41.06338],[-74.74293,41.06333],[-74.74267,41.06334],[-74.7422,41.06346],[-74.74192,41.06348]]}},{"type":"Feature","properties":{"agency":"Sussex County Skylands Ride","shape_id":"R1"},"geometry":{"type":"LineString","coordinates":[[-74.62801,41.19888],[-74.628182,41.199037],[-74.62874,41.198712],[-74.628998,41.198853],[-74.62644,41.20065],[-74.62371,41.20354],[-74.62176,41.2051],[-74.62032,41.20535],[-74.61936,41.20525],[-74.61605,41.20483],[-74.61439,41.20503],[-74.61025,41.20748],[-74.60937,41.20777],[-74.60789,41.20797],[-74.60751,41.20808],[-74.60696,41.20803],[-74.60567,41.20904],[-74.60307,41.20745],[-74.59877,41.20448],[-74.59893,41.20422],[-74.59893,41.20422],[-74.59939,41.20298],[-74.59996,41.20208],[-74.6007,41.20269],[-74.60114,41.20312],[-74.60159,41.20297],[-74.60111,41.20228],[-74.60089,41.20204],[-74.5978,41.19957],[-74.59679,41.19894],[-74.59667,41.19894],[-74.5961,41.19868],[-74.59503,41.19829],[-74.59459,41.19808],[-74.59311,41.19702],[-74.58898,41.19434],[-74.58797,41.19361],[-74.58752,41.19318],[-74.58721,41.19277],[-74.58699,41.19233],[-74.58687,41.19188],[-74.58676,41.19088],[-74.58665,41.18813],[-74.58671,41.1876],[-74.58686,41.18715],[-74.58738,41.18648],[-74.58738,41.18648],[-74.58891,41.18463],[-74.58934,41.18394],[-74.59022,41.18231],[-74.59037,41.18154],[-74.59001,41.18029],[-74.58994,41.17982],[-74.59008,41.17663],[-74.58927,41.17507],[-74.58741,41.17177],[-74.58698,41.17081],[-74.58686,41.17002],[-74.58671,41.16699],[-74.58667,41.16659],[-74.5865,41.16596],[-74.58619,41.16528],[-74.5853,41.16426],[-74.58491,41.16392],[-74.58442,41.16364],[-74.58394,41.16347],[-74.58159,41.163],[-74.58107,41.1628],[-74.58057,41.1625],[-74.5801,41.16209],[-74.57972,41.16156],[-74.57813,41.158],[-74.57662,41.15444],[-74.57706,41.15431],[-74.57706,41.15431],[-74.57768,41.15414],[-74.57723,41.15318],[-74.58265,41.15236],[-74.58625,41.15169],[-74.58736,41.15162],[-74.58814,41.15165],[-74.59039,41.15201],[-74.59129,41.15199],[-74.59234,41.15175],[-74.59287,41.15156],[-74.59341,41.15126],[-74.59405,41.15072],[-74.59449,41.15013],[-74.59519,41.14836],[-74.59543,41.1479],[-74.59673,41.14596],[-74.59756,41.14486],[-74.598649,41.143679],[-74.60084,41.14485],[-74.60204,41.14582],[-74.6027,41.14583],[-74.603,41.14559],[-74.60578,41.14083],[-74.60833,41.13888],[-74.60902,41.13916],[-74.60833,41.13888],[-74.60578,41.14083],[-74.603,41.14559],[-74.6027,41.14583],[-74.60204,41.14582],[-74.60084,41.14485],[-74.598649,41.143679],[-74.59756,41.14486],[-74.59673,41.14596],[-74.59543,41.1479],[-74.59519,41.14836],[-74.59449,41.15013],[-74.59405,41.15072],[-74.59341,41.15126],[-74.59287,41.15156],[-74.59234,41.15175],[-74.59129,41.15199],[-74.59039,41.15201],[-74.58814,41.15165],[-74.58736,41.15162],[-74.58625,41.15169],[-74.58265,41.15236],[-74.57666,41.15327],[-74.57617,41.15342],[-74.57574,41.1523],[-74.5752,41.15153],[-74.57457,41.14955],[-74.57387,41.14778],[-74.57243,41.14344],[-74.57218,41.14127],[-74.57218,41.14127],[-74.57171,41.1379],[-74.57172,41.13768],[-74.57189,41.13705],[-74.57212,41.13664],[-74.57333,41.13553],[-74.57448,41.13394],[-74.5747,41.13345],[-74.5748,41.13297],[-74.57492,41.13182],[-74.57508,41.13117],[-74.57742,41.12628],[-74.57779,41.12576],[-74.57822,41.1253],[-74.57891,41.12534],[-74.579991,41.125524],[-74.579597,41.126627],[-74.58092,41.12598],[-74.58175,41.12553],[-74.58277,41.12484],[-74.58348,41.12423],[-74.5842,41.12349],[-74.5859,41.12166],[-74.5862,41.12113],[-74.584972,41.120602],[-74.58421,41.12087],[-74.58343,41.1213],[-74.58271,41.12159],[-74.58067,41.12197],[-74.57964,41.12198],[-74.58004,41.12038],[-74.58089,41.11637],[-74.58116,41.11504],[-74.58118,41.1147],[-74.58102,41.11396],[-74.58017,41.1122],[-74.57999,41.11172],[-74.57992,41.1114],[-74.57989,41.11081],[-74.57877,41.11087],[-74.57859,41.11092],[-74.57831,41.11108],[-74.57751,41.11125],[-74.57779,41.11225],[-74.57779,41.11225],[-74.57945,41.11223],[-74.5794,41.11263],[-74.57889,41.11297],[-74.57842,41.11405],[-74.57846,41.1143],[-74.579162,41.114663],[-74.578932,41.115621],[-74.579862,41.115732],[-74.579522,41.11802],[-74.580562,41.118187],[-74.58051,41.11812],[-74.58116,41.11504],[-74.58118,41.1147],[-74.58102,41.11396],[-74.58017,41.1122],[-74.57999,41.11172],[-74.57992,41.1114],[-74.57988,41.11064],[-74.57991,41.11045],[-74.58064,41.10845],[-74.58146,41.10636],[-74.58171,41.10537],[-74.58168,41.10475],[-74.58139,41.10377],[-74.58115,41.10338],[-74.58068,41.10286],[-74.58026,41.10254],[-74.57956,41.10214],[-74.57871,41.10177],[-74.57857,41.10159],[-74.5785,41.1014],[-74.57881,41.10106],[-74.57939,41.10054],[-74.57957,41.10029],[-74.57968,41.1],[-74.57971,41.09968],[-74.57953,41.09917],[-74.57938,41.09836],[-74.57946,41.09792],[-74.57973,41.09741],[-74.58087,41.09612],[-74.58131,41.09555],[-74.58344,41.09258],[-74.58398,41.09205],[-74.58499,41.0908],[-74.5866,41.08856],[-74.58714,41.08748],[-74.58758,41.08675],[-74.58815,41.08625],[-74.58959,41.08554],[-74.58979,41.08537],[-74.59081,41.08417],[-74.59117,41.08367],[-74.59117,41.08367],[-74.59143,41.08329],[-74.59206,41.08216],[-74.59284,41.08052],[-74.59309,41.07985],[-74.59487,41.07649],[-74.59537,41.07563],[-74.59582,41.0751],[-74.59626,41.0747],[-74.59678,41.07431],[-74.59714,41.07407],[-74.59897,41.07313],[-74.59992,41.07234],[-74.60028,41.07187],[-74.60212,41.06902],[-74.60238,41.06853],[-74.60263,41.06785],[-74.60292,41.06593],[-74.6032,41.06495],[-74.60413,41.06355],[-74.60442,41.06293],[-74.60449,41.0623],[-74.60438,41.06136],[-74.6044,41.06097],[-74.60453,41.06054],[-74.60469,41.06023],[-74.60496,41.05987],[-74.6062,41.0584],[-74.60668,41.05794],[-74.60751,41.0573],[-74.60864,41.05662],[-74.61361,41.05411],[-74.61412,41.05395],[-74.61672,41.05337],[-74.61738,41.0531],[-74.61769,41.05291],[-74.6186,41.05211],[-74.61908,41.05157],[-74.61984,41.05048],[-74.62074,41.0496],[-74.6223,41.0479],[-74.62294,41.0473],[-74.62624,41.04531],[-74.62753,41.0447],[-74.6282,41.04448],[-74.63091,41.04405],[-74.63216,41.04377],[-74.63296,41.04352],[-74.63373,41.04322],[-74.6349,41.04266],[-74.63614,41.0419],[-74.635194,41.041696],[-74.63614,41.0419],[-74.63791,41.0409],[-74.63908,41.04038],[-74.63972,41.04015],[-74.64024,41.03998],[-74.64122,41.03977],[-74.6424,41.03966],[-74.64177,41.03894],[-74.64083,41.03815],[-74.63988,41.03762],[-74.63661,41.03608],[-74.63673,41.03594],[-74.6376,41.03486],[-74.63776,41.03446],[-74.63784,41.03419],[-74.63814,41.03219],[-74.63797,41.03179],[-74.63778,41.03159],[-74.63665,41.03081],[-74.636157,41.030651],[-74.635921,41.030863],[-74.636685,41.031294],[-74.637063,41.031209],[-74.63778,41.03159],[-74.63797,41.03179],[-74.63814,41.03219],[-74.63784,41.03419],[-74.63769,41.03461],[-74.63745,41.03482],[-74.63722,41.03492],[-74.63709,41.03493],[-74.63657,41.03484],[-74.63626,41.03495],[-74.63576,41.03534],[-74.63571,41.03545],[-74.63575,41.03558],[-74.63582,41.03563],[-74.63661,41.03608],[-74.63988,41.03762],[-74.64083,41.03815],[-74.64177,41.03894],[-74.6424,41.03966],[-74.64485,41.03965],[-74.64698,41.03952],[-74.65073,41.03922],[-74.65152,41.03907],[-74.65229,41.03884],[-74.65396,41.03807],[-74.65442,41.03792],[-74.65643,41.0376],[-74.65757,41.03729],[-74.65857,41.03693],[-74.65931,41.03659],[-74.66027,41.03595],[-74.66134,41.03484],[-74.66196,41.03436],[-74.66229,41.03419],[-74.66286,41.03401],[-74.66345,41.03392],[-74.66385,41.03392],[-74.66429,41.03398],[-74.66491,41.03416],[-74.66713,41.03528],[-74.66919,41.03624],[-74.66968,41.03642],[-74.67053,41.03659],[-74.67116,41.03661],[-74.67252,41.03655],[-74.67295,41.03657],[-74.67368,41.0367],[-74.67448,41.03701],[-74.67697,41.03821],[-74.67782,41.03852],[-74.68042,41.03911],[-74.68127,41.03923],[-74.68212,41.03922],[-74.68301,41.03907],[-74.68386,41.03876],[-74.68599,41.03748],[-74.68683,41.03707],[-74.69027,41.03576],[-74.69116,41.0356],[-74.69199,41.03557],[-74.69259,41.03562],[-74.70019,41.03725],[-74.70091,41.03745],[-74.70023,41.03907],[-74.69979,41.04125],[-74.69964,41.04168],[-74.69906,41.04249],[-74.69851,41.04314],[-74.69804,41.04351],[-74.69714,41.04408],[-74.69783,41.04479],[-74.69801,41.04504],[-74.69812,41.0457],[-74.6995,41.04568],[-74.6995,41.04568],[-74.70282,41.04566],[-74.70442,41.04545],[-74.7058,41.04521],[-74.70829,41.04465],[-74.70957,41.04406],[-74.71072,41.04373],[-74.71674,41.04249],[-74.71727,41.04244],[-74.71781,41.04251],[-74.71813,41.0426],[-74.72004,41.04336],[-74.72057,41.04248],[-74.72097,41.04164],[-74.72101,41.04147],[-74.72504,41.04215],[-74.72609,41.04228],[-74.73152,41.04267],[-74.73218,41.04265],[-74.73686,41.04204],[-74.73755,41.04202],[-74.73789,41.04205],[-74.73833,41.04216],[-74.73851,41.04227],[-74.73877,41.04255],[-74.73908,41.04344],[-74.73947,41.04393],[-74.74289,41.04658],[-74.74398,41.04722],[-74.74635,41.04806],[-74.74691,41.04831],[-74.74737,41.04863],[-74.74934,41.0509],[-74.74974,41.05154],[-74.75007,41.05232],[-74.75009,41.0525],[-74.74958,41.05362],[-74.74927,41.05403],[-74.74916,41.05462],[-74.74872,41.05465],[-74.74854,41.05473],[-74.74854,41.05473],[-74.74872,41.05465],[-74.747181,41.055849],[-74.752275,41.059566],[-74.752715,41.059795],[-74.75345,41.05862],[-74.75376,41.05855],[-74.75402,41.05843],[-74.75446,41.05809],[-74.75533,41.05756],[-74.75721,41.05693],[-74.75749,41.05691],[-74.76191,41.05704],[-74.76225,41.057],[-74.76443,41.05591],[-74.764988,41.055637],[-74.76545,41.05591],[-74.766371,41.056494],[-74.7668,41.05734],[-74.7663,41.05813],[-74.7663,41.05838],[-74.766791,41.058181],[-74.767901,41.057245],[-74.76882,41.05633],[-74.76872,41.05631],[-74.7685,41.05612],[-74.76698,41.05454],[-74.76443,41.05591],[-74.76225,41.057],[-74.76191,41.05704],[-74.75749,41.05691],[-74.75721,41.05693],[-74.75533,41.05756],[-74.7541,41.05835],[-74.75399,41.05836],[-74.75389,41.05835],[-74.75368,41.05824],[-74.75287,41.05768],[-74.75244,41.05806],[-74.75299,41.05844],[-74.75308,41.05871],[-74.75305,41.05939],[-74.75278,41.05975],[-74.75396,41.06038],[-74.75499,41.06099],[-74.75549,41.06136],[-74.7557,41.06167],[-74.75578,41.06196],[-74.75574,41.06289],[-74.75548,41.06397],[-74.75532,41.0644],[-74.75435,41.0663],[-74.75383,41.06718],[-74.75293,41.06698],[-74.75313,41.06668],[-74.754356,41.066222],[-74.75383,41.06718],[-74.75202,41.07041],[-74.7532,41.07095],[-74.75404,41.07273],[-74.75497,41.07347],[-74.75578,41.07296],[-74.75645,41.07201],[-74.75782,41.07081],[-74.75881,41.0697],[-74.7599,41.06842],[-74.75928,41.06694],[-74.75921,41.06684],[-74.75901,41.06672],[-74.75674,41.06615],[-74.75652,41.06602],[-74.75632,41.06582],[-74.75624,41.06558],[-74.75622,41.06515],[-74.7561,41.0649],[-74.75573,41.06492],[-74.75541,41.06489],[-74.75512,41.06479],[-74.75548,41.06397],[-74.755493,41.063595],[-74.754099,41.063209],[-74.752905,41.062115],[-74.751328,41.060962],[-74.75107,41.06124],[-74.74888,41.06326],[-74.74767,41.06453],[-74.746339,41.063915],[-74.746132,41.064125],[-74.745119,41.063619],[-74.744571,41.064305],[-74.746441,41.065662],[-74.74537,41.06648],[-74.74483,41.06695],[-74.74124,41.07074],[-74.74124,41.07074],[-74.74341,41.06846],[-74.74058,41.07139],[-74.73882,41.07064],[-74.73934,41.07019],[-74.74035,41.06921],[-74.74106,41.06899],[-74.742227,41.06953],[-74.743769,41.070372],[-74.744834,41.069223]]}},{"type":"Feature","properties":{"agency":"Sussex County Skylands Ride","shape_id":"R2"},"geometry":{"type":"LineString","coordinates":[[-74.744834,41.069223],[-74.744051,41.068709],[-74.745215,41.067652],[-74.745953,41.067514],[-74.747653,41.068052],[-74.748428,41.067963],[-74.749794,41.067468],[-74.750588,41.069662],[-74.75202,41.07041],[-74.7532,41.07095],[-74.75404,41.07273],[-74.75497,41.07347],[-74.75578,41.07296],[-74.75645,41.07201],[-74.75782,41.07081],[-74.75881,41.0697],[-74.7599,41.06842],[-74.75928,41.06694],[-74.75921,41.06684],[-74.75901,41.06672],[-74.75674,41.06615],[-74.75652,41.06602],[-74.75632,41.06582],[-74.75624,41.06558],[-74.75622,41.06515],[-74.7561,41.0649],[-74.75573,41.06492],[-74.75541,41.06489],[-74.75512,41.06479],[-74.75435,41.0663],[-74.75383,41.06718],[-74.75293,41.06698],[-74.75313,41.06668],[-74.754356,41.066222],[-74.75548,41.06397],[-74.75532,41.0644],[-74.75548,41.06397],[-74.75574,41.06289],[-74.75578,41.06196],[-74.7557,41.06167],[-74.75549,41.06136],[-74.75499,41.06099],[-74.75396,41.06038],[-74.75278,41.05975],[-74.75305,41.05939],[-74.75345,41.05862],[-74.75376,41.05855],[-74.75402,41.05843],[-74.75446,41.05809],[-74.75533,41.05756],[-74.75721,41.05693],[-74.75749,41.05691],[-74.76191,41.05704],[-74.76225,41.057],[-74.76443,41.05591],[-74.764988,41.055637],[-74.76545,41.05591],[-74.766371,41.056494],[-74.7668,41.05734],[-74.7663,41.05813],[-74.7663,41.05838],[-74.766791,41.058181],[-74.767901,41.057245],[-74.76882,41.05633],[-74.76872,41.05631],[-74.7685,41.05612],[-74.76698,41.05454],[-74.76443,41.05591],[-74.76225,41.057],[-74.76191,41.05704],[-74.75749,41.05691],[-74.75721,41.05693],[-74.75533,41.05756],[-74.7541,41.05835],[-74.75399,41.05836],[-74.75389,41.05835],[-74.75368,41.05824],[-74.75287,41.05768],[-74.75244,41.05806],[-74.75299,41.05844],[-74.75308,41.05871],[-74.75305,41.05939],[-74.75278,41.05975],[-74.75037,41.05809],[-74.748595,41.056919],[-74.749705,41.056187],[-74.749204,41.05544],[-74.74927,41.05403],[-74.74958,41.05362],[-74.75009,41.0525],[-74.75007,41.05232],[-74.74974,41.05154],[-74.74934,41.0509],[-74.74737,41.04863],[-74.74691,41.04831],[-74.74635,41.04806],[-74.74398,41.04722],[-74.74289,41.04658],[-74.73947,41.04393],[-74.73908,41.04344],[-74.73877,41.04255],[-74.73851,41.04227],[-74.73833,41.04216],[-74.73789,41.04205],[-74.73755,41.04202],[-74.73686,41.04204],[-74.73218,41.04265],[-74.73152,41.04267],[-74.721,41.04149],[-74.72006,41.0434],[-74.71785,41.04251],[-74.71647,41.04254],[-74.70972,41.04401],[-74.70839,41.04461],[-74.7058,41.04521],[-74.70442,41.04545],[-74.70282,41.04566],[-74.6995,41.04568],[-74.69812,41.0457],[-74.69801,41.04504],[-74.69783,41.04479],[-74.69714,41.04408],[-74.69804,41.04351],[-74.69851,41.04314],[-74.69906,41.04249],[-74.69964,41.04168],[-74.69979,41.04125],[-74.70023,41.03907],[-74.70091,41.03745],[-74.70019,41.03725],[-74.69259,41.03562],[-74.69199,41.03557],[-74.69116,41.0356],[-74.69027,41.03576],[-74.68683,41.03707],[-74.68599,41.03748],[-74.68386,41.03876],[-74.68301,41.03907],[-74.68212,41.03922],[-74.68127,41.03923],[-74.68042,41.03911],[-74.67782,41.03852],[-74.67697,41.03821],[-74.67448,41.03701],[-74.67368,41.0367],[-74.67295,41.03657],[-74.67252,41.03655],[-74.67116,41.03661],[-74.67053,41.03659],[-74.66968,41.03642],[-74.66919,41.03624],[-74.66713,41.03528],[-74.66491,41.03416],[-74.66429,41.03398],[-74.66385,41.03392],[-74.66345,41.03392],[-74.66286,41.03401],[-74.66229,41.03419],[-74.66196,41.03436],[-74.66134,41.03484],[-74.66027,41.03595],[-74.65931,41.03659],[-74.65857,41.03693],[-74.65757,41.03729],[-74.65643,41.0376],[-74.65442,41.03792],[-74.65396,41.03807],[-74.65229,41.03884],[-74.65152,41.03907],[-74.65073,41.03922],[-74.64698,41.03952],[-74.64485,41.03965],[-74.6424,41.03966],[-74.64177,41.03894],[-74.64083,41.03815],[-74.63988,41.03762],[-74.63661,41.03608],[-74.63673,41.03594],[-74.6376,41.03486],[-74.63776,41.03446],[-74.63784,41.03419],[-74.63814,41.03219],[-74.63797,41.03179],[-74.63778,41.03159],[-74.63665,41.03081],[-74.636157,41.030651],[-74.635921,41.030863],[-74.636685,41.031294],[-74.637063,41.031209],[-74.63778,41.03159],[-74.63797,41.03179],[-74.63814,41.03219],[-74.63784,41.03419],[-74.63769,41.03461],[-74.63724,41.03532],[-74.63651,41.03614],[-74.63233,41.03979],[-74.63307,41.04051],[-74.6346,41.04167],[-74.6357,41.04167],[-74.63614,41.0419],[-74.635194,41.041696],[-74.63614,41.0419],[-74.6349,41.04266],[-74.63373,41.04322],[-74.63296,41.04352],[-74.63216,41.04377],[-74.63091,41.04405],[-74.6282,41.04448],[-74.62753,41.0447],[-74.62624,41.04531],[-74.62294,41.0473],[-74.6223,41.0479],[-74.62074,41.0496],[-74.61984,41.05048],[-74.61908,41.05157],[-74.6186,41.05211],[-74.61769,41.05291],[-74.61738,41.0531],[-74.61672,41.05337],[-74.61412,41.05395],[-74.61361,41.05411],[-74.60864,41.05662],[-74.60751,41.0573],[-74.60668,41.05794],[-74.6062,41.0584],[-74.60496,41.05987],[-74.60469,41.06023],[-74.60453,41.06054],[-74.6044,41.06097],[-74.60438,41.06136],[-74.60449,41.0623],[-74.60442,41.06293],[-74.60413,41.06355],[-74.6032,41.06495],[-74.60292,41.06593],[-74.60263,41.06785],[-74.60238,41.06853],[-74.60212,41.06902],[-74.60028,41.07187],[-74.59992,41.07234],[-74.59897,41.07313],[-74.59714,41.07407],[-74.59678,41.07431],[-74.59626,41.0747],[-74.59582,41.0751],[-74.59537,41.07563],[-74.59487,41.07649],[-74.59309,41.07985],[-74.59284,41.08052],[-74.59206,41.08216],[-74.59143,41.08329],[-74.59117,41.08367],[-74.59117,41.08367],[-74.59081,41.08417],[-74.58979,41.08537],[-74.58959,41.08554],[-74.58815,41.08625],[-74.58758,41.08675],[-74.58714,41.08748],[-74.5866,41.08856],[-74.58499,41.0908],[-74.58398,41.09205],[-74.58344,41.09258],[-74.58131,41.09555],[-74.58087,41.09612],[-74.57973,41.09741],[-74.57946,41.09792],[-74.57938,41.09836],[-74.57953,41.09917],[-74.57971,41.09968],[-74.57968,41.1],[-74.57957,41.10029],[-74.57939,41.10054],[-74.57881,41.10106],[-74.5785,41.1014],[-74.57857,41.10159],[-74.57871,41.10177],[-74.57956,41.10214],[-74.58026,41.10254],[-74.58068,41.10286],[-74.58115,41.10338],[-74.58139,41.10377],[-74.58168,41.10475],[-74.58171,41.10537],[-74.58146,41.10636],[-74.58064,41.10845],[-74.57991,41.11045],[-74.57988,41.11064],[-74.57989,41.11081],[-74.57877,41.11087],[-74.57859,41.11092],[-74.57831,41.11108],[-74.57751,41.11125],[-74.57779,41.11225],[-74.57779,41.11225],[-74.57945,41.11223],[-74.5794,41.11263],[-74.57889,41.11297],[-74.57842,41.11405],[-74.57846,41.1143],[-74.579162,41.114663],[-74.578932,41.115621],[-74.579862,41.115732],[-74.579522,41.11802],[-74.580562,41.118187],[-74.58004,41.12038],[-74.57964,41.12198],[-74.58067,41.12197],[-74.58271,41.12159],[-74.58343,41.1213],[-74.58421,41.12087],[-74.584972,41.120602],[-74.5862,41.12113],[-74.5859,41.12166],[-74.5842,41.12349],[-74.58348,41.12423],[-74.58277,41.12484],[-74.58175,41.12553],[-74.58092,41.12598],[-74.579597,41.126627],[-74.579991,41.125524],[-74.57891,41.12534],[-74.57822,41.1253],[-74.57779,41.12576],[-74.57742,41.12628],[-74.57508,41.13117],[-74.57492,41.13182],[-74.5748,41.13297],[-74.5747,41.13345],[-74.57448,41.13394],[-74.57333,41.13553],[-74.57212,41.13664],[-74.57189,41.13705],[-74.57172,41.13768],[-74.57171,41.1379],[-74.57218,41.14127],[-74.57218,41.14127],[-74.57243,41.14344],[-74.57387,41.14778],[-74.57457,41.14955],[-74.5752,41.15153],[-74.57574,41.1523],[-74.57617,41.15342],[-74.57723,41.15318],[-74.58265,41.15236],[-74.58625,41.15169],[-74.58736,41.15162],[-74.58814,41.15165],[-74.59039,41.15201],[-74.59129,41.15199],[-74.59234,41.15175],[-74.59287,41.15156],[-74.59341,41.15126],[-74.59405,41.15072],[-74.59449,41.15013],[-74.59519,41.14836],[-74.59543,41.1479],[-74.59673,41.14596],[-74.59756,41.14486],[-74.598649,41.143679],[-74.60084,41.14485],[-74.60204,41.14582],[-74.6027,41.14583],[-74.603,41.14559],[-74.60578,41.14083],[-74.60833,41.13888],[-74.60902,41.13916],[-74.60833,41.13888],[-74.60578,41.14083],[-74.603,41.14559],[-74.6027,41.14583],[-74.60204,41.14582],[-74.60084,41.14485],[-74.598649,41.143679],[-74.59756,41.14486],[-74.59673,41.14596],[-74.59543,41.1479],[-74.59519,41.14836],[-74.59449,41.15013],[-74.59405,41.15072],[-74.59341,41.15126],[-74.59287,41.15156],[-74.59234,41.15175],[-74.59129,41.15199],[-74.59039,41.15201],[-74.58814,41.15165],[-74.58736,41.15162],[-74.58625,41.15169],[-74.58265,41.15236],[-74.57768,41.15414],[-74.57706,41.15431],[-74.57706,41.15431],[-74.57662,41.15444],[-74.57813,41.158],[-74.57972,41.16156],[-74.5801,41.16209],[-74.58057,41.1625],[-74.58107,41.1628],[-74.58159,41.163],[-74.58394,41.16347],[-74.58442,41.16364],[-74.58491,41.16392],[-74.5853,41.16426],[-74.58619,41.16528],[-74.5865,41.16596],[-74.58667,41.16659],[-74.58671,41.16699],[-74.58686,41.17002],[-74.58698,41.17081],[-74.58741,41.17177],[-74.58927,41.17507],[-74.59008,41.17663],[-74.58994,41.17982],[-74.59001,41.18029],[-74.59037,41.18154],[-74.59022,41.18231],[-74.58934,41.18394],[-74.58891,41.18463],[-74.58738,41.18648],[-74.58738,41.18648],[-74.58686,41.18715],[-74.58671,41.1876],[-74.58665,41.18813],[-74.58676,41.19088],[-74.58687,41.19188],[-74.58699,41.19233],[-74.58721,41.19277],[-74.58752,41.19318],[-74.58797,41.19361],[-74.58898,41.19434],[-74.59311,41.19702],[-74.59459,41.19808],[-74.59503,41.19829],[-74.5961,41.19868],[-74.59667,41.19894],[-74.59679,41.19894],[-74.5978,41.19957],[-74.60089,41.20204],[-74.60111,41.20228],[-74.60159,41.20297],[-74.60114,41.20312],[-74.6007,41.20269],[-74.59996,41.20208],[-74.59939,41.20298],[-74.59893,41.20422],[-74.59893,41.20422],[-74.59877,41.20448],[-74.60307,41.20745],[-74.60567,41.20904],[-74.60696,41.20803],[-74.60751,41.20808],[-74.60789,41.20797],[-74.60937,41.20777],[-74.61025,41.20748],[-74.61439,41.20503],[-74.61605,41.20483],[-74.61936,41.20525],[-74.62032,41.20535],[-74.62176,41.2051],[-74.62371,41.20354],[-74.62644,41.20065],[-74.628998,41.198853],[-74.62874,41.198712],[-74.628182,41.199037],[-74.62801,41.19888]]}}]}