{"type":"FeatureCollection","features":[{"type":"Feature","properties":{"agency":"Washington Park","shape_id":"7171"},"geometry":{"type":"LineString","coordinates":[[-122.716546,45.510506],[-122.716545,45.51044],[-122.716748,45.510439],[-122.716917,45.510454],[-122.71723,45.510428],[-122.717333,45.510419],[-122.717444,45.510404],[-122.717515,45.510399],[-122.717576,45.510399],[-122.717661,45.510404],[-122.71765,45.510468],[-122.717646,45.510531],[-122.71765,45.510635],[-122.717651,45.510648],[-122.717664,45.510916],[-122.717659,45.511018],[-122.71765,45.511115],[-122.717639,45.511146],[-122.717626,45.511202],[-122.717625,45.511217],[-122.717581,45.511368],[-122.717567,45.511409],[-122.717536,45.511486],[-122.717502,45.51155],[-122.717472,45.511596],[-122.717439,45.511653],[-122.717404,45.511712],[-122.717367,45.511765],[-122.717336,45.511799],[-122.717143,45.511965],[-122.717026,45.512068],[-122.716965,45.512121],[-122.716932,45.51215],[-122.716909,45.512177],[-122.71689,45.512208],[-122.716875,45.512241],[-122.71687,45.512282],[-122.71686839249404,45.51235465099438],[-122.716874875176,45.51241734125094],[-122.71687,45.512412],[-122.716917,45.512557],[-122.71693,45.512621],[-122.716938,45.512662],[-122.716988,45.512934],[-122.716999,45.513065],[-122.716994,45.513142],[-122.716966,45.513205],[-122.716918,45.513261],[-122.716863,45.513293],[-122.716769,45.513329],[-122.716677,45.513339],[-122.716601,45.513338],[-122.716489,45.513315],[-122.716366,45.513252],[-122.71604,45.513063],[-122.715895,45.513003],[-122.715814,45.51298],[-122.715731,45.51297],[-122.715625,45.512978],[-122.71555,45.513011],[-122.715506,45.513049],[-122.715478,45.513116],[-122.715482,45.51319],[-122.715556,45.51327],[-122.715729,45.513352],[-122.715867,45.513425],[-122.716005,45.513542],[-122.716094,45.513651],[-122.716177,45.51373],[-122.71626,45.513802],[-122.716345,45.513851],[-122.716453,45.51391],[-122.716654,45.514005],[-122.716851,45.514085],[-122.717,45.514143],[-122.717141,45.514186],[-122.717216,45.514207],[-122.717343,45.514244],[-122.717485,45.514294],[-122.717614,45.514373],[-122.717683,45.514435],[-122.717735,45.514504],[-122.717819,45.514626],[-122.717067,45.514823],[-122.716906,45.514878],[-122.716774,45.51493],[-122.71664,45.514992],[-122.716518,45.515064],[-122.716446,45.515115],[-122.716368,45.515184],[-122.716294,45.515261],[-122.716202,45.515369],[-122.716136,45.515482],[-122.71607807295663,45.51562233839712],[-122.71604099166592,45.515736376571226],[-122.7160404008167,45.51573166272178],[-122.716034,45.515828],[-122.715997,45.516253],[-122.715984,45.516378],[-122.71596,45.516476],[-122.715929,45.516575],[-122.715871,45.516686],[-122.715744,45.5169],[-122.715701,45.516971],[-122.715657,45.517056],[-122.715623,45.517149],[-122.715605,45.517242],[-122.715596,45.51731],[-122.715599,45.517398],[-122.715603,45.517478],[-122.715617,45.517554],[-122.715635,45.517615],[-122.715657,45.517688],[-122.715716,45.517837],[-122.715787,45.518014],[-122.715797,45.518084],[-122.715802,45.518158],[-122.715796,45.51821],[-122.715784,45.518253],[-122.715762,45.518303],[-122.715739,45.518356],[-122.715706,45.518405],[-122.715648,45.518475],[-122.715548,45.518581],[-122.715434,45.518688],[-122.715204,45.518908],[-122.714959,45.519149],[-122.714929,45.519177],[-122.714886,45.519206],[-122.714837,45.519222],[-122.714769,45.519235],[-122.714631,45.519261],[-122.714581,45.519276],[-122.714522,45.519304],[-122.714493,45.519337],[-122.714408,45.519461],[-122.714375,45.519503],[-122.714334,45.51954],[-122.7143,45.519566],[-122.714266,45.519583],[-122.714206,45.519595],[-122.714152,45.519608],[-122.71395,45.519653],[-122.7139,45.519671],[-122.713858,45.519688],[-122.713826,45.519701],[-122.713784,45.519731],[-122.713756,45.519752],[-122.713717,45.519787],[-122.713648,45.519849],[-122.71328,45.520224],[-122.713125,45.520363],[-122.713076,45.520412],[-122.712444,45.52104],[-122.712409,45.521071],[-122.712377,45.521097],[-122.712327,45.521127],[-122.712288,45.521145],[-122.712078,45.52123],[-122.711316,45.521526],[-122.710496,45.521848],[-122.710399,45.521881],[-122.710341,45.521896],[-122.710289,45.521904],[-122.71022,45.521905],[-122.710144,45.521901],[-122.709637,45.521798],[-122.709598,45.521787],[-122.709559,45.521773],[-122.709523,45.521757],[-122.70949,45.521737],[-122.709458,45.521714],[-122.709435,45.521691],[-122.709416,45.521668],[-122.709398,45.521637],[-122.709386,45.521611],[-122.709381,45.521581],[-122.709381,45.521554],[-122.709386,45.521523],[-122.709397,45.52149],[-122.709415,45.52146],[-122.709432,45.521437],[-122.709454,45.521414],[-122.709485,45.52139],[-122.709515,45.521374],[-122.709553,45.521357],[-122.70958,45.521348],[-122.709612,45.52134],[-122.709643,45.521334],[-122.70979,45.521319],[-122.709851,45.521313],[-122.709915,45.521304],[-122.70996,45.521294],[-122.710062,45.521269],[-122.710131,45.521246],[-122.710207,45.521219],[-122.710292,45.521181],[-122.710362,45.521147],[-122.710411,45.521118],[-122.710473,45.521075],[-122.710592,45.520971],[-122.710739,45.520845],[-122.710808,45.520778],[-122.710837,45.520742],[-122.710854,45.520713],[-122.710868,45.520676],[-122.710876,45.520645],[-122.710877,45.520593],[-122.710871,45.520567],[-122.710863,45.520544],[-122.710853,45.520521],[-122.710838,45.520496],[-122.71081,45.520461],[-122.710725,45.520375],[-122.710701,45.52034],[-122.71069,45.520309],[-122.710682,45.52028],[-122.71068,45.520256],[-122.710684,45.520221],[-122.710696,45.520186],[-122.71071,45.520155],[-122.710731,45.520127],[-122.710761,45.520099],[-122.710797,45.520076],[-122.710832,45.520056],[-122.71088,45.520034],[-122.711192,45.519947],[-122.711267,45.519924],[-122.711319,45.519903],[-122.711364,45.51988],[-122.711399,45.519859],[-122.711436,45.519832],[-122.71145,45.51982],[-122.711465,45.519804],[-122.71148,45.519785],[-122.711496,45.519763],[-122.711513,45.519738],[-122.711524,45.519719],[-122.711534,45.519697],[-122.711555,45.519647],[-122.711583,45.51959],[-122.711607,45.519546],[-122.711637,45.519506],[-122.711664,45.519477],[-122.711694,45.519451],[-122.711734,45.519424],[-122.711795,45.519395],[-122.711897,45.519355],[-122.711998,45.519314],[-122.71204,45.519293],[-122.712097,45.519259],[-122.712139,45.51923],[-122.712189,45.519185],[-122.712232,45.519135],[-122.712271,45.519052],[-122.712298,45.518987],[-122.712312,45.518947],[-122.712323,45.518897],[-122.712329,45.518854],[-122.712327,45.518819],[-122.712308,45.518784],[-122.712281,45.518758],[-122.712222,45.51872],[-122.712174,45.518706],[-122.712129,45.518698],[-122.712082,45.518695],[-122.71203,45.518699],[-122.711986,45.518709],[-122.711954,45.51872],[-122.711927,45.518733],[-122.711893,45.51876],[-122.711807,45.518837],[-122.711652,45.518968],[-122.711613,45.518995],[-122.711554,45.519028],[-122.711499,45.519055],[-122.711443,45.51908],[-122.711392,45.519102],[-122.711329,45.519123],[-122.711148,45.519186],[-122.710961,45.51924],[-122.710886,45.519265],[-122.710845,45.519283],[-122.7108,45.519305],[-122.710751,45.519332],[-122.710715,45.519353],[-122.710677,45.519378],[-122.710619,45.519421],[-122.710533,45.519492],[-122.710437,45.519587],[-122.710389,45.519625],[-122.710341,45.519659],[-122.710268,45.5197],[-122.708042,45.520867],[-122.707805,45.520985],[-122.706948,45.521434],[-122.706855,45.521482],[-122.706812,45.521502],[-122.706751,45.521525],[-122.706754,45.522366],[-122.706749,45.522567],[-122.706738,45.52332],[-122.706739,45.523388],[-122.706741,45.52348],[-122.706687,45.523518],[-122.706645,45.52355],[-122.706587,45.523577],[-122.706534,45.523597],[-122.706486,45.52361],[-122.706426,45.523621],[-122.706368,45.523627],[-122.706301,45.523629],[-122.706016,45.523623],[-122.705533,45.523617],[-122.705482,45.523616],[-122.705446,45.523612],[-122.705414,45.523603],[-122.705382,45.523591],[-122.705362,45.52358],[-122.705342,45.523562],[-122.705332,45.523545],[-122.705326,45.523527],[-122.705323,45.523497],[-122.705321,45.52335],[-122.705322,45.523149],[-122.705328,45.522287],[-122.705338,45.522004],[-122.705339,45.521846],[-122.705319,45.521817],[-122.705271,45.521802],[-122.705204,45.521796],[-122.705003,45.521794],[-122.704468,45.521795],[-122.70444,45.521795],[-122.704353,45.521796],[-122.704348,45.521742],[-122.704352,45.521709],[-122.704367,45.521688],[-122.704222,45.521636],[-122.704087,45.521584],[-122.70333,45.521295],[-122.703231,45.521257],[-122.70309,45.521198],[-122.702876,45.521131],[-122.702833,45.52111],[-122.702793,45.521083],[-122.702758,45.521052],[-122.702723,45.521007],[-122.702689,45.520956],[-122.702577,45.520696],[-122.702499,45.520565],[-122.702442,45.520504],[-122.702388,45.520465],[-122.702349,45.520438],[-122.702304,45.520418],[-122.70225,45.520406],[-122.702186,45.520399],[-122.702122,45.520405],[-122.702084,45.520411],[-122.702027,45.520426],[-122.701976,45.520446],[-122.701918,45.520466],[-122.701247,45.520811],[-122.70107,45.520898],[-122.700913,45.521002],[-122.700812,45.521072],[-122.700785,45.5211],[-122.70079,45.521099],[-122.700768,45.521122],[-122.700745,45.521152],[-122.700745,45.52124],[-122.700737,45.521309],[-122.700737,45.522053],[-122.700745,45.522106],[-122.700752,45.522129],[-122.70076,45.522156],[-122.700783,45.522198],[-122.700836,45.52224],[-122.700897,45.522259],[-122.700974,45.522263],[-122.701035,45.522259],[-122.701126,45.522243],[-122.701233,45.522213],[-122.701393,45.522144],[-122.701576,45.522049],[-122.701744,45.52195],[-122.701927,45.521828],[-122.702225,45.521694],[-122.702477,45.521526],[-122.702576,45.521465],[-122.702736,45.521435],[-122.702805,45.52142],[-122.702888,45.521389],[-122.702988,45.521355],[-122.70314,45.521286],[-122.703232,45.521255],[-122.704086,45.521584],[-122.704224,45.521637],[-122.704369,45.521687],[-122.70443,45.521664],[-122.704575,45.521652],[-122.704576,45.521653],[-122.704644,45.521648],[-122.704775,45.521604],[-122.704857,45.52155],[-122.704933,45.521493],[-122.704993,45.521411],[-122.70503,45.52135],[-122.705108,45.521133],[-122.705172,45.520654],[-122.705212,45.520482],[-122.705254,45.520396],[-122.705306,45.52035],[-122.705405,45.520306],[-122.705488,45.52029],[-122.705599,45.520301],[-122.705681,45.520327],[-122.70574,45.520369],[-122.705769,45.520419],[-122.705776,45.520473],[-122.705767,45.520533],[-122.705728,45.52061],[-122.705645,45.520679],[-122.70554,45.52077],[-122.705517,45.520831],[-122.705533,45.520906],[-122.705605,45.520971],[-122.705668,45.520999],[-122.705745,45.521009],[-122.705813,45.521007],[-122.705879,45.520982],[-122.705923,45.520941],[-122.705941,45.520889],[-122.705963,45.520815],[-122.70597,45.520733],[-122.705991,45.520604],[-122.706024,45.520508],[-122.706094,45.520334],[-122.70615,45.520209],[-122.706146,45.51976],[-122.706145,45.519235],[-122.706145,45.519103],[-122.70614,45.518421],[-122.706169,45.518366],[-122.706172,45.518358],[-122.706215,45.518303],[-122.706504,45.518198],[-122.706656,45.518133],[-122.707045,45.517997],[-122.70728,45.517925],[-122.707403,45.517895],[-122.707534,45.51788],[-122.707686,45.517888],[-122.707852,45.517917],[-122.708012,45.517963],[-122.708088,45.517995],[-122.708175,45.518007],[-122.708241,45.518001],[-122.708301,45.517979],[-122.708342,45.517949],[-122.708363,45.517908],[-122.708352,45.517851],[-122.708309,45.517805],[-122.708226,45.517768],[-122.708132,45.517734],[-122.707963,45.517683],[-122.707819,45.517635],[-122.70769,45.517583],[-122.707622,45.517554],[-122.707558,45.517522],[-122.70746,45.517453],[-122.707383,45.517375],[-122.707362,45.51733],[-122.707349,45.517285],[-122.70735,45.517249],[-122.707364,45.517196],[-122.707406,45.517093],[-122.707443,45.517014],[-122.707489,45.516938],[-122.707554,45.516839],[-122.707633,45.516749],[-122.707736,45.516664],[-122.707848,45.516586],[-122.708241,45.516371],[-122.708277,45.516347],[-122.708299,45.516318],[-122.708309,45.516273],[-122.7083,45.516228],[-122.708278,45.516197],[-122.708244,45.516168],[-122.708079,45.516082],[-122.706889,45.515607],[-122.706648,45.515482],[-122.706225,45.515314],[-122.706147,45.515265],[-122.706082,45.515213],[-122.706048,45.515172],[-122.706028,45.515132],[-122.706007,45.515026],[-122.706022,45.514659],[-122.706014,45.514584],[-122.705987,45.51451],[-122.705911,45.514398],[-122.705647,45.514103],[-122.705521,45.513974],[-122.705338,45.513788],[-122.70529,45.513727],[-122.705251,45.51367],[-122.705229,45.513625],[-122.705216,45.513579],[-122.705216,45.513536],[-122.705222,45.513493],[-122.705237,45.513446],[-122.705261,45.513399],[-122.705338,45.513309],[-122.705428,45.51322],[-122.70556,45.513136],[-122.705618,45.513105],[-122.705677,45.513081],[-122.705755,45.513062],[-122.705839,45.513051],[-122.70589,45.513047],[-122.705934,45.513049],[-122.705985,45.513057],[-122.70605,45.513082],[-122.70611,45.513118],[-122.706168,45.513167],[-122.70622,45.513225],[-122.706263,45.513284],[-122.70665,45.513938],[-122.706769,45.514106],[-122.706811,45.514157],[-122.706862,45.514202],[-122.70693,45.514249],[-122.707008,45.514287],[-122.707158,45.514354],[-122.707317,45.514413],[-122.708064,45.514669],[-122.70887,45.514998],[-122.708958,45.515028],[-122.709046,45.515052],[-122.709169,45.515077],[-122.709292,45.515094],[-122.709405,45.515106],[-122.709512,45.515109],[-122.70961,45.515105],[-122.709708,45.515093],[-122.709788,45.515072],[-122.709855,45.515044],[-122.709922,45.514994],[-122.709959,45.514956],[-122.70999,45.514907],[-122.710016,45.514856],[-122.710034,45.514799],[-122.710029,45.514726],[-122.710014,45.514652],[-122.709979,45.514564],[-122.709913,45.514461],[-122.709812,45.514354],[-122.709746,45.514307],[-122.709744,45.514306],[-122.709572,45.514186],[-122.709394,45.51406],[-122.70931,45.513992],[-122.709239,45.513919],[-122.709168,45.513837],[-122.70911,45.513747],[-122.709089,45.513693],[-122.709083,45.513643],[-122.709094,45.513532],[-122.70913,45.513384],[-122.709151,45.513314],[-122.709171,45.513246],[-122.709171,45.513194],[-122.709154,45.513134],[-122.709028,45.512971],[-122.70898,45.512894],[-122.708951,45.512819],[-122.708941,45.512766],[-122.708943,45.51271],[-122.708945,45.512655],[-122.708957,45.512601],[-122.708971,45.512562],[-122.709008,45.512526],[-122.709133,45.512456],[-122.7092,45.512412],[-122.709235,45.512371],[-122.709282,45.51233],[-122.70933,45.512291],[-122.709389,45.512253],[-122.70946,45.512231],[-122.709535,45.512214],[-122.709656,45.5122],[-122.709792,45.512184],[-122.709898,45.512158],[-122.710002,45.51213],[-122.710101,45.512086],[-122.710151,45.51206],[-122.710182,45.512038],[-122.710207,45.512017],[-122.710254,45.511973],[-122.710281,45.511944],[-122.710306,45.511915],[-122.710342,45.511844],[-122.71038,45.511736],[-122.710418,45.511633],[-122.710457,45.511528],[-122.710491,45.511466],[-122.710554,45.511406],[-122.710623,45.511355],[-122.710704,45.511311],[-122.710746,45.511292],[-122.71079,45.511277],[-122.71084,45.511268],[-122.710893,45.511262],[-122.710989,45.511259],[-122.711058,45.511262],[-122.711123,45.511262],[-122.71126,45.511277],[-122.711881,45.511417],[-122.712072,45.511442],[-122.712189,45.511451],[-122.71229,45.51145],[-122.712337,45.511448],[-122.71238,45.511445],[-122.712456,45.511435],[-122.712516,45.511417],[-122.712563,45.511403],[-122.712597,45.511389],[-122.712771,45.511298],[-122.71293,45.511218],[-122.713058,45.51117],[-122.713153,45.511149],[-122.713347,45.511136],[-122.713435,45.511127],[-122.713524,45.511108],[-122.714054,45.510999],[-122.714087,45.510995],[-122.714121,45.510992],[-122.714158,45.510989],[-122.714193,45.510992],[-122.714254,45.511001],[-122.71432,45.511015],[-122.714376,45.51103],[-122.714429,45.511051],[-122.714587,45.511138],[-122.714711,45.511219],[-122.714791,45.511281],[-122.714866,45.511348],[-122.714926,45.511424],[-122.715107,45.511728],[-122.715163,45.511792],[-122.715228,45.511856],[-122.715374,45.511928],[-122.715603,45.512035],[-122.715727,45.512113],[-122.715832,45.512192],[-122.715939,45.512288],[-122.716013,45.512374],[-122.716067,45.51245],[-122.716097,45.512504],[-122.71612,45.512556],[-122.716179,45.512738],[-122.716195,45.512779],[-122.716223,45.512821],[-122.71625,45.51285],[-122.716282,45.51288],[-122.716322,45.512911],[-122.716358,45.512932],[-122.716412,45.512958],[-122.71647,45.512979],[-122.716542,45.513002],[-122.716616,45.513021],[-122.716722,45.513039],[-122.716821,45.513055],[-122.716999,45.513076],[-122.716988,45.512934],[-122.716938,45.512663],[-122.71693,45.512621],[-122.716917,45.512557],[-122.716877,45.512412],[-122.71687,45.512412],[-122.716859,45.512322],[-122.716875,45.512241],[-122.716932,45.512149],[-122.717026,45.512067],[-122.717142,45.511965],[-122.717335,45.511798],[-122.717403,45.511712],[-122.717228,45.511634],[-122.717097,45.511572],[-122.71689,45.511478],[-122.716652,45.511369],[-122.716391,45.511252],[-122.716288,45.511206],[-122.716232,45.511178],[-122.716138,45.51112],[-122.716076,45.511071],[-122.716033,45.511023],[-122.716012,45.510981],[-122.715989,45.510923],[-122.715991,45.510786],[-122.71603,45.510672],[-122.716062,45.510544],[-122.716105,45.510457],[-122.716197,45.510423],[-122.71645,45.51044],[-122.716545,45.51044]]}}]}