{"type":"FeatureCollection","features":[{"type":"Feature","properties":{"agency":"Yakima Transit","shape_id":"100"},"geometry":{"type":"LineString","coordinates":[[-120.50045,46.60167],[-120.5006,46.60207],[-120.50096,46.602],[-120.50159,46.60327],[-120.50645,46.60214],[-120.51109,46.60109],[-120.51594,46.59996],[-120.51999,46.59904],[-120.52295,46.59839],[-120.52431,46.59804],[-120.52474,46.59796],[-120.52637,46.59739],[-120.5266,46.59733],[-120.52697,46.59726],[-120.52741,46.59723],[-120.53033,46.59722],[-120.53034,46.59827],[-120.53038,46.59932],[-120.53036,46.60011],[-120.5304,46.60138],[-120.53038,46.60162],[-120.5304,46.60199],[-120.53046,46.6068],[-120.53043,46.6089],[-120.53045,46.61055],[-120.53042,46.61082],[-120.53042,46.61211],[-120.53039,46.61294],[-120.53039,46.61435],[-120.53043,46.61524],[-120.53039,46.61606],[-120.53037,46.61738],[-120.53035,46.6176],[-120.53033,46.61899],[-120.53034,46.62135],[-120.53036,46.62184],[-120.53039,46.62211],[-120.53052,46.62251],[-120.53077,46.62294],[-120.53075,46.62311],[-120.53069,46.62327],[-120.52892,46.62428],[-120.52849,46.62451],[-120.52744,46.62499],[-120.52636,46.62538],[-120.52609,46.62546],[-120.52522,46.62568],[-120.52511,46.62572],[-120.52495,46.62581],[-120.52397,46.62596],[-120.52322,46.62604],[-120.52235,46.62608],[-120.5207,46.62608],[-120.51944,46.62606],[-120.51645,46.62604],[-120.51616,46.62598],[-120.51487,46.6259],[-120.51421,46.62583],[-120.51365,46.62575],[-120.51342,46.62569],[-120.5124,46.6255],[-120.51223,46.62546],[-120.51212,46.62541],[-120.51193,46.62513],[-120.51188,46.6245],[-120.51192,46.61981],[-120.51193,46.61435],[-120.51077,46.6119],[-120.50811,46.60648],[-120.50762,46.60542],[-120.50729,46.60476],[-120.507292,46.604774],[-120.50613,46.602215],[-120.503106,46.602909],[-120.501894,46.600404],[-120.500011,46.600809],[-120.50036,46.60151]]}},{"type":"Feature","properties":{"agency":"Yakima Transit","shape_id":"101"},"geometry":{"type":"LineString","coordinates":[[-120.50045,46.60167],[-120.5006,46.60207],[-120.50096,46.602],[-120.50159,46.60327],[-120.50645,46.60214],[-120.51109,46.60109],[-120.51594,46.59996],[-120.51999,46.59904],[-120.52295,46.59839],[-120.52431,46.59804],[-120.52474,46.59796],[-120.52637,46.59739],[-120.5266,46.59733],[-120.52697,46.59726],[-120.52741,46.59723],[-120.53033,46.59722],[-120.53034,46.59827],[-120.53038,46.59932],[-120.53036,46.60011],[-120.5304,46.60138],[-120.53038,46.60162],[-120.5304,46.60199],[-120.53046,46.6068],[-120.53043,46.6089],[-120.53045,46.61055],[-120.53042,46.61082],[-120.53042,46.61211],[-120.53039,46.61294],[-120.53039,46.61435],[-120.53043,46.61524],[-120.53039,46.61606],[-120.53037,46.61738],[-120.53035,46.6176],[-120.53033,46.61899],[-120.53034,46.62135],[-120.53036,46.62184],[-120.53039,46.62211],[-120.53052,46.62251],[-120.53077,46.62294],[-120.53075,46.62311],[-120.53069,46.62327],[-120.52892,46.62428],[-120.52849,46.62451],[-120.52744,46.62499],[-120.52636,46.62538],[-120.52609,46.62546],[-120.52522,46.62568],[-120.52511,46.62572],[-120.52495,46.62581],[-120.52397,46.62596],[-120.52322,46.62604],[-120.52235,46.62608],[-120.5207,46.62608],[-120.51944,46.62606],[-120.51645,46.62604],[-120.51616,46.62598],[-120.51487,46.6259],[-120.51421,46.62583],[-120.51365,46.62575],[-120.51342,46.62569],[-120.5124,46.6255],[-120.51223,46.62546],[-120.51212,46.62541],[-120.51193,46.62513],[-120.51188,46.6245],[-120.51192,46.61981],[-120.51193,46.61435],[-120.51077,46.6119],[-120.50811,46.60648],[-120.50762,46.60542],[-120.50729,46.60476],[-120.50506,46.60526],[-120.50204,46.60596],[-120.50134,46.60614],[-120.50108,46.60619],[-120.49965,46.60652],[-120.49901,46.60527],[-120.49782,46.60273],[-120.4972,46.60148],[-120.4989,46.6011],[-120.50004,46.60083],[-120.50036,46.60151]]}},{"type":"Feature","properties":{"agency":"Yakima Transit","shape_id":"102"},"geometry":{"type":"LineString","coordinates":[[-120.50045,46.60167],[-120.5006,46.60207],[-120.50096,46.602],[-120.50159,46.60327],[-120.50645,46.60214],[-120.51109,46.60109],[-120.51594,46.59996],[-120.51999,46.59904],[-120.52295,46.59839],[-120.52431,46.59804],[-120.52474,46.59796],[-120.52637,46.59739],[-120.5266,46.59733],[-120.52697,46.59726],[-120.52741,46.59723],[-120.53033,46.59722],[-120.53034,46.59827],[-120.53038,46.59932],[-120.53036,46.60011],[-120.5304,46.60138],[-120.53038,46.60162],[-120.5304,46.60199],[-120.53046,46.6068],[-120.53043,46.6089],[-120.53045,46.61055],[-120.53042,46.61082],[-120.53042,46.61211],[-120.53039,46.61294],[-120.53039,46.61435],[-120.53043,46.61524],[-120.53039,46.61606],[-120.53037,46.61738],[-120.53035,46.6176],[-120.53033,46.61899],[-120.53034,46.62135],[-120.53036,46.62184],[-120.53039,46.62211],[-120.53052,46.62251],[-120.53077,46.62294],[-120.53075,46.62311],[-120.53069,46.62327],[-120.52892,46.62428],[-120.52849,46.62451],[-120.52744,46.62499],[-120.52636,46.62538],[-120.52609,46.62546],[-120.52522,46.62568],[-120.52511,46.62572],[-120.52495,46.62581],[-120.52397,46.62596],[-120.52322,46.62604],[-120.52235,46.62608],[-120.5207,46.62608],[-120.51944,46.62606],[-120.51645,46.62604],[-120.51616,46.62598],[-120.51487,46.6259],[-120.51421,46.62583],[-120.51365,46.62575],[-120.51342,46.62569],[-120.5124,46.6255],[-120.51223,46.62546],[-120.51212,46.62541],[-120.51193,46.62513],[-120.51188,46.6245],[-120.51192,46.61981],[-120.51193,46.61435],[-120.51077,46.6119],[-120.50811,46.60648],[-120.50762,46.60542],[-120.50729,46.60476],[-120.50506,46.60526],[-120.50204,46.60596],[-120.50134,46.60614],[-120.50108,46.60619],[-120.49965,46.60652],[-120.49901,46.60527],[-120.49782,46.60273],[-120.4972,46.60148],[-120.4989,46.6011],[-120.50004,46.60083],[-120.50036,46.60151]]}},{"type":"Feature","properties":{"agency":"Yakima Transit","shape_id":"104"},"geometry":{"type":"LineString","coordinates":[[-120.50025,46.60175],[-120.49984,46.60088],[-120.50433,46.59986],[-120.50491,46.59971],[-120.50542,46.60073],[-120.5075,46.60509],[-120.50873,46.60758],[-120.50954,46.6093],[-120.51111,46.61254],[-120.51166,46.61377],[-120.51196,46.61429],[-120.51205,46.61433],[-120.5122,46.61436],[-120.51616,46.61432],[-120.51848,46.61433],[-120.51861,46.61435],[-120.51858,46.61278],[-120.51879,46.61254],[-120.51899,46.61253],[-120.52042,46.61257],[-120.52304,46.61258],[-120.531429,46.612565],[-120.537242,46.612579],[-120.53818,46.61259],[-120.53926,46.61263],[-120.5401,46.61277],[-120.54089,46.61302],[-120.54531,46.61478],[-120.55458,46.61853],[-120.55729,46.6196],[-120.55953,46.62051],[-120.55974,46.62063],[-120.56075,46.621],[-120.56094,46.62087],[-120.56171,46.61999],[-120.56187,46.61967],[-120.56226,46.61926],[-120.56206,46.61933],[-120.56212,46.61874],[-120.56208,46.61734],[-120.56187,46.6168],[-120.56165,46.61641],[-120.56122,46.61574],[-120.56098,46.61528],[-120.5609,46.61509],[-120.56088,46.61492],[-120.56089,46.6146],[-120.56093,46.61433],[-120.56126,46.61361],[-120.56159,46.613],[-120.56168,46.61275],[-120.56162,46.61097],[-120.56167,46.61052],[-120.56195,46.6095],[-120.56206,46.60583],[-120.56213,46.60497],[-120.56209,46.6046],[-120.56201,46.60307],[-120.56198,46.59974],[-120.56201,46.59848],[-120.56194,46.59702],[-120.56203,46.59633],[-120.56203,46.59309],[-120.562,46.59226],[-120.56193,46.59225],[-120.56189,46.58996],[-120.56192,46.58493],[-120.56192,46.58159],[-120.56197,46.58028],[-120.56197,46.57821],[-120.56209,46.57523],[-120.56193,46.57501],[-120.56192,46.57507],[-120.56091,46.57495],[-120.56053,46.57487],[-120.55813,46.57458],[-120.55661,46.57436],[-120.55175,46.5737],[-120.55038,46.57354],[-120.54891,46.57335],[-120.54599,46.5733],[-120.54549,46.57326],[-120.54405,46.57299],[-120.54337,46.57275],[-120.54275,46.57238],[-120.54142,46.57144],[-120.54094,46.5712],[-120.54059,46.57109],[-120.54013,46.57097],[-120.53961,46.57087],[-120.53913,46.57083],[-120.53539,46.57089],[-120.52961,46.57087],[-120.52514,46.57084],[-120.52237,46.5708],[-120.50879,46.57073],[-120.48843,46.57045],[-120.48752,46.57052],[-120.48726,46.57017],[-120.48681,46.56965],[-120.48464,46.56766],[-120.47948,46.56305],[-120.47738,46.56304],[-120.4761,46.56302],[-120.47551,46.56307],[-120.47544,46.56293],[-120.47523,46.5629],[-120.47507,46.563],[-120.47505,46.56308],[-120.47517,46.5632],[-120.47529,46.56322],[-120.4754,46.5632],[-120.47552,46.56307],[-120.47608,46.56302],[-120.47948,46.56305],[-120.48573,46.56865],[-120.48642,46.5693],[-120.48708,46.56994],[-120.48752,46.57052],[-120.4878,46.57095],[-120.48933,46.57348],[-120.49078,46.57593],[-120.49156,46.57718],[-120.492,46.57796],[-120.49344,46.58036],[-120.49464,46.5823],[-120.49652,46.58521],[-120.49682,46.58561],[-120.49889,46.58878],[-120.49874,46.58894],[-120.4988,46.58929],[-120.4988,46.59282],[-120.49878,46.59406],[-120.50083,46.59822],[-120.50249,46.60167],[-120.50042,46.60211],[-120.50033,46.60194]]}},{"type":"Feature","properties":{"agency":"Yakima Transit","shape_id":"105"},"geometry":{"type":"LineString","coordinates":[[-120.50038,46.60153],[-120.50065,46.60206],[-120.49823,46.60262],[-120.49782,46.60273],[-120.49819,46.6035],[-120.49859,46.60439],[-120.50024,46.60777],[-120.50415,46.60688],[-120.51527,46.60429],[-120.51814,46.60365],[-120.51898,46.60349],[-120.52057,46.60346],[-120.52445,46.60346],[-120.53117,46.60341],[-120.53631,46.60343],[-120.54172,46.60348],[-120.54701,46.60351],[-120.5494,46.6035],[-120.55739,46.60352],[-120.56203,46.60349],[-120.56201,46.59989],[-120.56452,46.59987],[-120.57254,46.59988],[-120.59652,46.60014],[-120.5998,46.60016],[-120.60043,46.60018],[-120.60053,46.60017],[-120.60106,46.60004],[-120.60142,46.59988],[-120.60185,46.59972],[-120.6024,46.59963],[-120.60287,46.59967],[-120.60454,46.60018],[-120.60519,46.60024],[-120.61622,46.60034],[-120.62192,46.6003],[-120.6287,46.60033],[-120.6315,46.6003],[-120.63579,46.60028],[-120.63582,46.59932],[-120.63584,46.59519],[-120.63583,46.59299],[-120.63166,46.59302],[-120.62774,46.59303],[-120.62014,46.59311],[-120.6143,46.59309],[-120.61436,46.59266],[-120.61465,46.59208],[-120.61481,46.59169],[-120.61481,46.58584],[-120.60431,46.58573],[-120.60429,46.58689],[-120.60431,46.58923],[-120.60439,46.59298],[-120.60434,46.59376],[-120.60435,46.59661],[-120.59495,46.59648],[-120.59493,46.59886],[-120.5947,46.59885],[-120.59464,46.59888],[-120.59465,46.59922],[-120.59494,46.59925],[-120.59493,46.60012],[-120.58969,46.60006],[-120.58704,46.60005],[-120.58469,46.60001],[-120.57166,46.59987],[-120.56014,46.59988],[-120.55623,46.59991],[-120.54901,46.59992],[-120.54561,46.59988],[-120.53852,46.59984],[-120.53035,46.59977],[-120.53037,46.59961],[-120.53033,46.59721],[-120.52742,46.59723],[-120.52688,46.59728],[-120.52648,46.59736],[-120.52599,46.59754],[-120.52478,46.59795],[-120.52407,46.5981],[-120.52267,46.59845],[-120.52121,46.59878],[-120.51958,46.59913],[-120.51515,46.60014],[-120.5092,46.60152],[-120.50493,46.60249],[-120.50288,46.60298],[-120.50029,46.60356],[-120.49843,46.604],[-120.4972,46.60148],[-120.49983,46.60088],[-120.50011,46.60148]]}},{"type":"Feature","properties":{"agency":"Yakima Transit","shape_id":"106"},"geometry":{"type":"LineString","coordinates":[[-120.50038,46.60153],[-120.50065,46.60206],[-120.49823,46.60262],[-120.49782,46.60273],[-120.49819,46.6035],[-120.49859,46.60439],[-120.50024,46.60777],[-120.50415,46.60688],[-120.51527,46.60429],[-120.51814,46.60365],[-120.51898,46.60349],[-120.52057,46.60346],[-120.52445,46.60346],[-120.53117,46.60341],[-120.53631,46.60343],[-120.54172,46.60348],[-120.54701,46.60351],[-120.5494,46.6035],[-120.55739,46.60352],[-120.56203,46.60349],[-120.56201,46.59989],[-120.56452,46.59987],[-120.57254,46.59988],[-120.59652,46.60014],[-120.5998,46.60016],[-120.60043,46.60018],[-120.60053,46.60017],[-120.60106,46.60004],[-120.60142,46.59988],[-120.60185,46.59972],[-120.6024,46.59963],[-120.60287,46.59967],[-120.60454,46.60018],[-120.60519,46.60024],[-120.61622,46.60034],[-120.62192,46.6003],[-120.6287,46.60033],[-120.6315,46.6003],[-120.63579,46.60028],[-120.63582,46.59932],[-120.63584,46.59519],[-120.63583,46.59299],[-120.63166,46.59302],[-120.62774,46.59303],[-120.62014,46.59311],[-120.6143,46.59309],[-120.61436,46.59266],[-120.61465,46.59208],[-120.61481,46.59169],[-120.61481,46.58584],[-120.60431,46.58573],[-120.60429,46.58689],[-120.60431,46.58923],[-120.60439,46.59298],[-120.60434,46.59376],[-120.60435,46.59661],[-120.59495,46.59648],[-120.59493,46.59886],[-120.5947,46.59885],[-120.59464,46.59888],[-120.59465,46.59922],[-120.59494,46.59925],[-120.59493,46.60012],[-120.58969,46.60006],[-120.58704,46.60005],[-120.58469,46.60001],[-120.57166,46.59987],[-120.56014,46.59988],[-120.55623,46.59991],[-120.54901,46.59992],[-120.54561,46.59988],[-120.53852,46.59984],[-120.53035,46.59977],[-120.53037,46.59961],[-120.53033,46.59721],[-120.52742,46.59723],[-120.52688,46.59728],[-120.52648,46.59736],[-120.52599,46.59754],[-120.52478,46.59795],[-120.52407,46.5981],[-120.52267,46.59845],[-120.52121,46.59878],[-120.51958,46.59913],[-120.51515,46.60014],[-120.5092,46.60152],[-120.50493,46.60249],[-120.50288,46.60298],[-120.50029,46.60356],[-120.49843,46.604],[-120.4972,46.60148],[-120.49983,46.60088],[-120.50011,46.60148]]}},{"type":"Feature","properties":{"agency":"Yakima Transit","shape_id":"107"},"geometry":{"type":"LineString","coordinates":[[-120.50038,46.60153],[-120.50065,46.60206],[-120.49823,46.60262],[-120.49782,46.60273],[-120.49819,46.6035],[-120.49859,46.60439],[-120.50024,46.60777],[-120.50415,46.60688],[-120.51527,46.60429],[-120.51814,46.60365],[-120.51898,46.60349],[-120.52057,46.60346],[-120.52445,46.60346],[-120.53117,46.60341],[-120.53631,46.60343],[-120.54172,46.60348],[-120.54701,46.60351],[-120.5494,46.6035],[-120.55739,46.60352],[-120.56203,46.60349],[-120.56201,46.59989],[-120.56452,46.59987],[-120.57254,46.59988],[-120.59652,46.60014],[-120.5998,46.60016],[-120.60043,46.60018],[-120.60053,46.60017],[-120.60106,46.60004],[-120.60142,46.59988],[-120.60185,46.59972],[-120.6024,46.59963],[-120.60287,46.59967],[-120.60454,46.60018],[-120.60519,46.60024],[-120.61622,46.60034],[-120.62192,46.6003],[-120.6287,46.60033],[-120.6315,46.6003],[-120.63579,46.60028],[-120.63582,46.59932],[-120.63584,46.59519],[-120.63583,46.59299],[-120.63166,46.59302],[-120.62774,46.59303],[-120.62014,46.59311],[-120.6143,46.59309],[-120.61436,46.59266],[-120.61465,46.59208],[-120.61481,46.59169],[-120.61481,46.58584],[-120.60431,46.58573],[-120.60429,46.58689],[-120.60431,46.58923],[-120.60439,46.59298],[-120.60434,46.59376],[-120.60435,46.59661],[-120.59495,46.59648],[-120.59493,46.59886],[-120.5947,46.59885],[-120.59464,46.59888],[-120.59465,46.59922],[-120.59494,46.59925],[-120.59493,46.60012],[-120.58969,46.60006],[-120.58704,46.60005],[-120.58469,46.60001],[-120.57166,46.59987],[-120.56014,46.59988],[-120.55623,46.59991],[-120.54901,46.59992],[-120.54561,46.59988],[-120.53852,46.59984],[-120.53035,46.59977],[-120.53037,46.59961],[-120.53033,46.59721],[-120.52742,46.59723],[-120.52688,46.59728],[-120.52648,46.59736],[-120.52599,46.59754],[-120.52478,46.59795],[-120.52407,46.5981],[-120.52267,46.59845],[-120.52121,46.59878],[-120.51958,46.59913],[-120.51515,46.60014],[-120.5092,46.60152],[-120.50493,46.60249],[-120.50288,46.60298],[-120.50029,46.60356],[-120.49843,46.604],[-120.4972,46.60148],[-120.49983,46.60088],[-120.50011,46.60148]]}},{"type":"Feature","properties":{"agency":"Yakima Transit","shape_id":"108"},"geometry":{"type":"LineString","coordinates":[[-120.50017,46.60162],[-120.49984,46.60088],[-120.50227,46.60032],[-120.50491,46.59974],[-120.50634,46.59938],[-120.50887,46.59879],[-120.51486,46.59743],[-120.52035,46.59614],[-120.52314,46.59551],[-120.52184,46.59285],[-120.52175,46.59253],[-120.52189,46.59252],[-120.52329,46.59251],[-120.52797,46.5925],[-120.53081,46.59255],[-120.53195,46.59254],[-120.53351,46.59255],[-120.53599,46.59259],[-120.55177,46.59276],[-120.55714,46.59275],[-120.55997,46.59271],[-120.56247,46.59269],[-120.56665,46.5927],[-120.57273,46.59267],[-120.58262,46.59273],[-120.59931,46.59293],[-120.60435,46.59297],[-120.6043,46.59063],[-120.60434,46.589],[-120.60431,46.58497],[-120.60433,46.58305],[-120.6043,46.58176],[-120.6043,46.57114],[-120.60372,46.57115],[-120.59386,46.57106],[-120.5939,46.58494],[-120.59392,46.58568],[-120.57774,46.58539],[-120.57558,46.58539],[-120.57171,46.58536],[-120.56889,46.58536],[-120.56675,46.58537],[-120.56221,46.58542],[-120.55604,46.58544],[-120.55343,46.58547],[-120.54829,46.58546],[-120.53941,46.58536],[-120.53726,46.58535],[-120.5299,46.58525],[-120.52616,46.58524],[-120.52096,46.58526],[-120.51019,46.58525],[-120.50659,46.58522],[-120.50299,46.58521],[-120.50269,46.58524],[-120.49988,46.58582],[-120.49943,46.5859],[-120.49887,46.58597],[-120.49586,46.58593],[-120.4953,46.5858],[-120.49447,46.58546],[-120.49444,46.58573],[-120.49447,46.58599],[-120.49448,46.58804],[-120.49441,46.58825],[-120.4941,46.58857],[-120.49406,46.58892],[-120.49414,46.59114],[-120.49422,46.59231],[-120.49423,46.5938],[-120.4942,46.59523],[-120.49484,46.59664],[-120.49542,46.59785],[-120.4972,46.60148],[-120.49984,46.60088],[-120.50007,46.60139]]}},{"type":"Feature","properties":{"agency":"Yakima Transit","shape_id":"109"},"geometry":{"type":"LineString","coordinates":[[-120.50017,46.60162],[-120.49984,46.60088],[-120.50227,46.60032],[-120.50491,46.59974],[-120.50634,46.59938],[-120.50887,46.59879],[-120.51486,46.59743],[-120.52035,46.59614],[-120.52314,46.59551],[-120.52184,46.59285],[-120.52175,46.59253],[-120.52189,46.59252],[-120.52329,46.59251],[-120.52797,46.5925],[-120.53081,46.59255],[-120.53195,46.59254],[-120.53351,46.59255],[-120.53599,46.59259],[-120.55177,46.59276],[-120.55714,46.59275],[-120.55997,46.59271],[-120.56247,46.59269],[-120.56665,46.5927],[-120.57273,46.59267],[-120.58262,46.59273],[-120.59931,46.59293],[-120.60435,46.59297],[-120.6043,46.59063],[-120.60434,46.589],[-120.60431,46.58497],[-120.60433,46.58305],[-120.6043,46.58176],[-120.6043,46.57114],[-120.60372,46.57115],[-120.59386,46.57106],[-120.5939,46.58494],[-120.59392,46.58568],[-120.57774,46.58539],[-120.57558,46.58539],[-120.57171,46.58536],[-120.56889,46.58536],[-120.56675,46.58537],[-120.56221,46.58542],[-120.55604,46.58544],[-120.55343,46.58547],[-120.54829,46.58546],[-120.53941,46.58536],[-120.53726,46.58535],[-120.5299,46.58525],[-120.52616,46.58524],[-120.52096,46.58526],[-120.51019,46.58525],[-120.50659,46.58522],[-120.50299,46.58521],[-120.50269,46.58524],[-120.49988,46.58582],[-120.49943,46.5859],[-120.49887,46.58597],[-120.49586,46.58593],[-120.4953,46.5858],[-120.49447,46.58546],[-120.49444,46.58573],[-120.49447,46.58599],[-120.49448,46.58804],[-120.49441,46.58825],[-120.4941,46.58857],[-120.49406,46.58892],[-120.49414,46.59114],[-120.49422,46.59231],[-120.49423,46.5938],[-120.4942,46.59523],[-120.49484,46.59664],[-120.49542,46.59785],[-120.4972,46.60148],[-120.49984,46.60088],[-120.50007,46.60139]]}},{"type":"Feature","properties":{"agency":"Yakima Transit","shape_id":"110"},"geometry":{"type":"LineString","coordinates":[[-120.50017,46.60162],[-120.49984,46.60088],[-120.50227,46.60032],[-120.50491,46.59974],[-120.50634,46.59938],[-120.50887,46.59879],[-120.51486,46.59743],[-120.52035,46.59614],[-120.52314,46.59551],[-120.52184,46.59285],[-120.52175,46.59253],[-120.52189,46.59252],[-120.52329,46.59251],[-120.52797,46.5925],[-120.53081,46.59255],[-120.53195,46.59254],[-120.53351,46.59255],[-120.53599,46.59259],[-120.55177,46.59276],[-120.55714,46.59275],[-120.55997,46.59271],[-120.56247,46.59269],[-120.56665,46.5927],[-120.57273,46.59267],[-120.58262,46.59273],[-120.59931,46.59293],[-120.60435,46.59297],[-120.6043,46.59063],[-120.60434,46.589],[-120.60431,46.58497],[-120.60433,46.58305],[-120.6043,46.58176],[-120.6043,46.57114],[-120.60372,46.57115],[-120.59386,46.57106],[-120.5939,46.58494],[-120.59392,46.58568],[-120.57774,46.58539],[-120.57558,46.58539],[-120.57171,46.58536],[-120.56889,46.58536],[-120.56675,46.58537],[-120.56221,46.58542],[-120.55604,46.58544],[-120.55343,46.58547],[-120.54829,46.58546],[-120.53941,46.58536],[-120.53726,46.58535],[-120.5299,46.58525],[-120.52616,46.58524],[-120.52096,46.58526],[-120.51019,46.58525],[-120.50659,46.58522],[-120.50299,46.58521],[-120.50269,46.58524],[-120.49988,46.58582],[-120.49943,46.5859],[-120.49887,46.58597],[-120.49586,46.58593],[-120.4953,46.5858],[-120.49447,46.58546],[-120.49444,46.58573],[-120.49447,46.58599],[-120.49448,46.58804],[-120.49441,46.58825],[-120.4941,46.58857],[-120.49406,46.58892],[-120.49414,46.59114],[-120.49422,46.59231],[-120.49423,46.5938],[-120.4942,46.59523],[-120.49484,46.59664],[-120.49542,46.59785],[-120.4972,46.60148],[-120.49984,46.60088],[-120.50007,46.60139]]}},{"type":"Feature","properties":{"agency":"Yakima Transit","shape_id":"111"},"geometry":{"type":"LineString","coordinates":[[-120.50024,46.60174],[-120.49984,46.60088],[-120.50528,46.59965],[-120.50877,46.59881],[-120.51139,46.59823],[-120.5108,46.59698],[-120.51228,46.59662],[-120.5116,46.59517],[-120.51031,46.59253],[-120.50946,46.59252],[-120.5095,46.58919],[-120.50949,46.58686],[-120.50952,46.58506],[-120.50949,46.58317],[-120.50949,46.57798],[-120.51253,46.57801],[-120.5163,46.57801],[-120.51951,46.57799],[-120.53028,46.57797],[-120.53031,46.57853],[-120.53035,46.58202],[-120.53033,46.58572],[-120.53038,46.58896],[-120.53034,46.59202],[-120.53033,46.5976],[-120.53037,46.59856],[-120.53045,46.60753],[-120.53045,46.60869],[-120.53041,46.61063],[-120.53041,46.61524],[-120.53649,46.61528],[-120.53747,46.61527],[-120.53746,46.614],[-120.5378,46.61392],[-120.53781,46.61358],[-120.53781,46.61319],[-120.53748,46.61313],[-120.53748,46.61259],[-120.53818,46.61259],[-120.53925,46.61263],[-120.54009,46.61277],[-120.54066,46.61293],[-120.54101,46.61254],[-120.54467,46.61254],[-120.54827,46.61256],[-120.55419,46.61254],[-120.55416,46.61229],[-120.55418,46.61021],[-120.55298,46.61004],[-120.55237,46.60988],[-120.54869,46.60766],[-120.54773,46.60711],[-120.54963,46.60715],[-120.55243,46.60714],[-120.55424,46.60712],[-120.55418,46.60721],[-120.55417,46.60789],[-120.55483,46.60787],[-120.55676,46.60788],[-120.56064,46.60786],[-120.56083,46.60789],[-120.56094,46.60797],[-120.56094,46.60898],[-120.56087,46.60907],[-120.56018,46.60936],[-120.56011,46.60948],[-120.56009,46.61117],[-120.56012,46.61265],[-120.56163,46.61266],[-120.56161,46.61288],[-120.56149,46.61319],[-120.56093,46.61434],[-120.56088,46.61499],[-120.56095,46.61527],[-120.5618,46.61668],[-120.56198,46.61702],[-120.56206,46.61734],[-120.5621,46.61762],[-120.56208,46.61918],[-120.56198,46.61959],[-120.56127,46.62054],[-120.56101,46.62085],[-120.56086,46.62096],[-120.56061,46.62093],[-120.56036,46.62082],[-120.55394,46.61827],[-120.55373,46.61849],[-120.55354,46.61853],[-120.55209,46.61798],[-120.55101,46.61797],[-120.54745,46.61799],[-120.54198,46.61797],[-120.53827,46.61797],[-120.53034,46.61799],[-120.52949,46.61797],[-120.52887,46.61792],[-120.51993,46.61794],[-120.51987,46.6162],[-120.51987,46.61435],[-120.51862,46.61434],[-120.51859,46.61289],[-120.51878,46.61255],[-120.51888,46.61253],[-120.51891,46.61238],[-120.51883,46.61236],[-120.51862,46.61212],[-120.51854,46.61199],[-120.51859,46.61179],[-120.5186,46.61051],[-120.51858,46.60606],[-120.51797,46.60486],[-120.51554,46.59982],[-120.51439,46.59753],[-120.51069,46.59839],[-120.50808,46.59897],[-120.50548,46.5996],[-120.50004,46.60083],[-120.50038,46.60148]]}},{"type":"Feature","properties":{"agency":"Yakima Transit","shape_id":"112"},"geometry":{"type":"LineString","coordinates":[[-120.50024,46.60174],[-120.49984,46.60088],[-120.50528,46.59965],[-120.50877,46.59881],[-120.51139,46.59823],[-120.5108,46.59698],[-120.51228,46.59662],[-120.5116,46.59517],[-120.51031,46.59253],[-120.50946,46.59252],[-120.5095,46.58919],[-120.50949,46.58686],[-120.50952,46.58506],[-120.50949,46.58317],[-120.50949,46.57798],[-120.51253,46.57801],[-120.5163,46.57801],[-120.51951,46.57799],[-120.53028,46.57797],[-120.53031,46.57853],[-120.53035,46.58202],[-120.53033,46.58572],[-120.53038,46.58896],[-120.53034,46.59202],[-120.53033,46.5976],[-120.53037,46.59856],[-120.53045,46.60753],[-120.53045,46.60869],[-120.53041,46.61063],[-120.53041,46.61524],[-120.53649,46.61528],[-120.53747,46.61527],[-120.53746,46.614],[-120.5378,46.61392],[-120.53781,46.61358],[-120.53781,46.61319],[-120.53748,46.61313],[-120.53748,46.61259],[-120.53818,46.61259],[-120.53925,46.61263],[-120.54009,46.61277],[-120.54066,46.61293],[-120.54101,46.61254],[-120.54467,46.61254],[-120.54827,46.61256],[-120.55419,46.61254],[-120.55416,46.61229],[-120.55418,46.61021],[-120.55298,46.61004],[-120.55237,46.60988],[-120.54869,46.60766],[-120.54773,46.60711],[-120.54963,46.60715],[-120.55243,46.60714],[-120.55424,46.60712],[-120.55418,46.60721],[-120.55417,46.60789],[-120.55483,46.60787],[-120.55676,46.60788],[-120.56064,46.60786],[-120.56083,46.60789],[-120.56094,46.60797],[-120.56094,46.60898],[-120.56087,46.60907],[-120.56018,46.60936],[-120.56011,46.60948],[-120.56009,46.61117],[-120.56012,46.61265],[-120.56163,46.61266],[-120.56161,46.61288],[-120.56149,46.61319],[-120.56093,46.61434],[-120.56088,46.61499],[-120.56095,46.61527],[-120.5618,46.61668],[-120.56198,46.61702],[-120.56206,46.61734],[-120.5621,46.61762],[-120.56208,46.61918],[-120.56198,46.61959],[-120.56127,46.62054],[-120.56101,46.62085],[-120.56086,46.62096],[-120.56061,46.62093],[-120.56036,46.62082],[-120.55394,46.61827],[-120.55373,46.61849],[-120.55354,46.61853],[-120.55209,46.61798],[-120.55101,46.61797],[-120.54745,46.61799],[-120.54198,46.61797],[-120.53827,46.61797],[-120.53034,46.61799],[-120.52949,46.61797],[-120.52887,46.61792],[-120.51993,46.61794],[-120.51987,46.6162],[-120.51987,46.61435],[-120.51862,46.61434],[-120.51859,46.61289],[-120.51878,46.61255],[-120.51888,46.61253],[-120.51891,46.61238],[-120.51883,46.61236],[-120.51862,46.61212],[-120.51854,46.61199],[-120.51859,46.61179],[-120.5186,46.61051],[-120.51858,46.60606],[-120.51797,46.60486],[-120.51554,46.59982],[-120.51439,46.59753],[-120.51069,46.59839],[-120.50808,46.59897],[-120.50548,46.5996],[-120.50004,46.60083],[-120.50038,46.60148]]}},{"type":"Feature","properties":{"agency":"Yakima Transit","shape_id":"113"},"geometry":{"type":"LineString","coordinates":[[-120.50027,46.60176],[-120.50042,46.60212],[-120.49781,46.60273],[-120.49637,46.59981],[-120.49519,46.59737],[-120.4942,46.59525],[-120.49423,46.59244],[-120.49417,46.59195],[-120.49411,46.5905],[-120.49408,46.58875],[-120.4941,46.58859],[-120.49438,46.58827],[-120.49448,46.58804],[-120.49446,46.5861],[-120.49449,46.58564],[-120.49448,46.58546],[-120.4951,46.58572],[-120.49539,46.58582],[-120.49582,46.58592],[-120.49879,46.58597],[-120.49935,46.58592],[-120.50213,46.58534],[-120.50274,46.58523],[-120.50322,46.58521],[-120.50475,46.58525],[-120.50729,46.58523],[-120.50916,46.58523],[-120.5101,46.58526],[-120.52989,46.58525],[-120.53204,46.58527],[-120.53866,46.58537],[-120.54161,46.58539],[-120.54661,46.58545],[-120.55155,46.58547],[-120.55468,46.58547],[-120.56018,46.58543],[-120.56295,46.58543],[-120.56535,46.5854],[-120.56784,46.5854],[-120.57114,46.58536],[-120.57428,46.58537],[-120.57611,46.58538],[-120.58014,46.58544],[-120.59376,46.5857],[-120.59399,46.58561],[-120.59389,46.58479],[-120.59391,46.58191],[-120.59387,46.57106],[-120.59658,46.57107],[-120.59867,46.57111],[-120.6043,46.57115],[-120.60429,46.57333],[-120.60432,46.57512],[-120.60429,46.57681],[-120.60429,46.5788],[-120.60432,46.58922],[-120.60427,46.59263],[-120.60427,46.59262],[-120.60425,46.59282],[-120.60413,46.59292],[-120.60372,46.59295],[-120.59912,46.59293],[-120.59283,46.59284],[-120.58756,46.59278],[-120.57432,46.59265],[-120.56225,46.59268],[-120.55149,46.59275],[-120.54747,46.59272],[-120.54516,46.59267],[-120.54033,46.59264],[-120.52999,46.59251],[-120.52453,46.5925],[-120.52175,46.59253],[-120.52192,46.59301],[-120.52281,46.59486],[-120.5231,46.59552],[-120.52055,46.59609],[-120.51701,46.59693],[-120.51068,46.59839],[-120.508,46.59899],[-120.50288,46.60019],[-120.50008,46.60083],[-120.50039,46.60152]]}},{"type":"Feature","properties":{"agency":"Yakima Transit","shape_id":"114"},"geometry":{"type":"LineString","coordinates":[[-120.50027,46.60176],[-120.50042,46.60212],[-120.49781,46.60273],[-120.49637,46.59981],[-120.49519,46.59737],[-120.4942,46.59525],[-120.49423,46.59244],[-120.49417,46.59195],[-120.49411,46.5905],[-120.49408,46.58875],[-120.4941,46.58859],[-120.49438,46.58827],[-120.49448,46.58804],[-120.49446,46.5861],[-120.49449,46.58564],[-120.49448,46.58546],[-120.4951,46.58572],[-120.49539,46.58582],[-120.49582,46.58592],[-120.49879,46.58597],[-120.49935,46.58592],[-120.50213,46.58534],[-120.50274,46.58523],[-120.50322,46.58521],[-120.50475,46.58525],[-120.50729,46.58523],[-120.50916,46.58523],[-120.5101,46.58526],[-120.52989,46.58525],[-120.53204,46.58527],[-120.53866,46.58537],[-120.54161,46.58539],[-120.54661,46.58545],[-120.55155,46.58547],[-120.55468,46.58547],[-120.56018,46.58543],[-120.56295,46.58543],[-120.56535,46.5854],[-120.56784,46.5854],[-120.57114,46.58536],[-120.57428,46.58537],[-120.57611,46.58538],[-120.58014,46.58544],[-120.59376,46.5857],[-120.59399,46.58561],[-120.59389,46.58479],[-120.59391,46.58191],[-120.59387,46.57106],[-120.59658,46.57107],[-120.59867,46.57111],[-120.6043,46.57115],[-120.60429,46.57333],[-120.60432,46.57512],[-120.60429,46.57681],[-120.60429,46.5788],[-120.60432,46.58922],[-120.60427,46.59263],[-120.60427,46.59262],[-120.60425,46.59282],[-120.60413,46.59292],[-120.60372,46.59295],[-120.59912,46.59293],[-120.59283,46.59284],[-120.58756,46.59278],[-120.57432,46.59265],[-120.56225,46.59268],[-120.55149,46.59275],[-120.54747,46.59272],[-120.54516,46.59267],[-120.54033,46.59264],[-120.52999,46.59251],[-120.52453,46.5925],[-120.52175,46.59253],[-120.52192,46.59301],[-120.52281,46.59486],[-120.5231,46.59552],[-120.52055,46.59609],[-120.51701,46.59693],[-120.51068,46.59839],[-120.508,46.59899],[-120.50288,46.60019],[-120.50008,46.60083],[-120.50039,46.60152]]}},{"type":"Feature","properties":{"agency":"Yakima Transit","shape_id":"115"},"geometry":{"type":"LineString","coordinates":[[-120.50025,46.60175],[-120.49984,46.60088],[-120.50433,46.59986],[-120.50491,46.59971],[-120.50542,46.60073],[-120.5075,46.60509],[-120.50873,46.60758],[-120.50954,46.6093],[-120.51111,46.61254],[-120.51166,46.61377],[-120.51196,46.61429],[-120.51205,46.61433],[-120.5122,46.61436],[-120.51616,46.61432],[-120.51848,46.61433],[-120.51861,46.61435],[-120.51858,46.61278],[-120.51879,46.61254],[-120.51899,46.61253],[-120.52042,46.61257],[-120.52304,46.61258],[-120.534992,46.612567],[-120.53818,46.61259],[-120.53926,46.61263],[-120.5401,46.61277],[-120.54089,46.61302],[-120.54531,46.61478],[-120.55458,46.61853],[-120.55729,46.6196],[-120.55953,46.62051],[-120.55974,46.62063],[-120.56075,46.621],[-120.56094,46.62087],[-120.56171,46.61999],[-120.56187,46.61967],[-120.56226,46.61926],[-120.56206,46.61933],[-120.56212,46.61874],[-120.56208,46.61734],[-120.56187,46.6168],[-120.56165,46.61641],[-120.56122,46.61574],[-120.56098,46.61528],[-120.5609,46.61509],[-120.56088,46.61492],[-120.56089,46.6146],[-120.56093,46.61433],[-120.56126,46.61361],[-120.56159,46.613],[-120.56168,46.61275],[-120.56162,46.61097],[-120.56167,46.61052],[-120.56195,46.6095],[-120.56206,46.60583],[-120.56213,46.60497],[-120.56209,46.6046],[-120.56201,46.60307],[-120.56198,46.59974],[-120.56201,46.59848],[-120.56194,46.59702],[-120.56203,46.59633],[-120.56203,46.59309],[-120.562,46.59226],[-120.56193,46.59225],[-120.56189,46.58996],[-120.56192,46.58493],[-120.56192,46.58159],[-120.56197,46.58028],[-120.56197,46.57821],[-120.56209,46.57523],[-120.56193,46.57501],[-120.56192,46.57507],[-120.56091,46.57495],[-120.56053,46.57487],[-120.55813,46.57458],[-120.55661,46.57436],[-120.55175,46.5737],[-120.55038,46.57354],[-120.54891,46.57335],[-120.54599,46.5733],[-120.54549,46.57326],[-120.54405,46.57299],[-120.54337,46.57275],[-120.54275,46.57238],[-120.54142,46.57144],[-120.54094,46.5712],[-120.54059,46.57109],[-120.54013,46.57097],[-120.53961,46.57087],[-120.53913,46.57083],[-120.53539,46.57089],[-120.52961,46.57087],[-120.52514,46.57084],[-120.52237,46.5708],[-120.50879,46.57073],[-120.48843,46.57045],[-120.48752,46.57052],[-120.48726,46.57017],[-120.48681,46.56965],[-120.48464,46.56766],[-120.47948,46.56305],[-120.47738,46.56304],[-120.4761,46.56302],[-120.47551,46.56307],[-120.47544,46.56293],[-120.47523,46.5629],[-120.47507,46.563],[-120.47505,46.56308],[-120.47517,46.5632],[-120.47529,46.56322],[-120.4754,46.5632],[-120.47552,46.56307],[-120.47608,46.56302],[-120.47948,46.56305],[-120.48573,46.56865],[-120.48642,46.5693],[-120.48708,46.56994],[-120.48752,46.57052],[-120.4878,46.57095],[-120.48933,46.57348],[-120.49078,46.57593],[-120.49156,46.57718],[-120.492,46.57796],[-120.49344,46.58036],[-120.49464,46.5823],[-120.49652,46.58521],[-120.49682,46.58561],[-120.49889,46.58878],[-120.49874,46.58894],[-120.4988,46.58929],[-120.4988,46.59282],[-120.49878,46.59406],[-120.50083,46.59822],[-120.50249,46.60167],[-120.50042,46.60211],[-120.50033,46.60194]]}},{"type":"Feature","properties":{"agency":"Yakima Transit","shape_id":"82"},"geometry":{"type":"LineString","coordinates":[[-120.50024,46.60174],[-120.5004,46.60212],[-120.49918,46.60239],[-120.49781,46.60273],[-120.49488,46.6034],[-120.49529,46.60425],[-120.49547,46.60466],[-120.49407,46.605],[-120.49305,46.60518],[-120.49255,46.60519],[-120.48416,46.60516],[-120.483,46.6051],[-120.48023,46.60506],[-120.48022,46.6042],[-120.48024,46.60308],[-120.4792,46.60304],[-120.47897,46.60262],[-120.47896,46.60133],[-120.47762,46.60131],[-120.47772,46.60448],[-120.47771,46.60538],[-120.47787,46.60555],[-120.47813,46.6056],[-120.47839,46.60554],[-120.47852,46.60539],[-120.47857,46.60505],[-120.48023,46.60506],[-120.483,46.6051],[-120.48416,46.60516],[-120.48765,46.60518],[-120.4876,46.60542],[-120.48775,46.60595],[-120.48794,46.60647],[-120.48854,46.60713],[-120.48948,46.60811],[-120.48979,46.60831],[-120.49025,46.60847],[-120.49158,46.60856],[-120.49249,46.60858],[-120.49394,46.60872],[-120.4944,46.60887],[-120.49501,46.60896],[-120.4953,46.60891],[-120.49807,46.60829],[-120.50025,46.60776],[-120.50158,46.61056],[-120.50205,46.61151],[-120.50523,46.61077],[-120.5069,46.61432],[-120.50861,46.61435],[-120.50714,46.61124],[-120.50552,46.60794],[-120.5035,46.60842],[-120.50086,46.60902],[-120.49874,46.60468],[-120.4972,46.60148],[-120.49983,46.60088],[-120.5002,46.60162]]}},{"type":"Feature","properties":{"agency":"Yakima Transit","shape_id":"85"},"geometry":{"type":"LineString","coordinates":[[-120.50026,46.60176],[-120.50039,46.60212],[-120.49489,46.60339],[-120.49548,46.60465],[-120.49562,46.60506],[-120.49566,46.60538],[-120.49614,46.60595],[-120.49624,46.6062],[-120.49671,46.60719],[-120.49466,46.60767],[-120.49409,46.60782],[-120.49391,46.60796],[-120.49356,46.60839],[-120.49336,46.60849],[-120.49253,46.60858],[-120.49062,46.60852],[-120.49025,46.60847],[-120.48979,46.60831],[-120.48939,46.60806],[-120.48855,46.60717],[-120.48795,46.60647],[-120.48769,46.60594],[-120.48761,46.60555],[-120.48763,46.60517],[-120.48772,46.60461],[-120.48801,46.60398],[-120.48811,46.6037],[-120.48815,46.60028],[-120.48816,46.5976],[-120.48812,46.59554],[-120.4881,46.59235],[-120.47952,46.59228],[-120.47932,46.59224],[-120.47881,46.59201],[-120.47863,46.59189],[-120.47842,46.59164],[-120.47779,46.59072],[-120.47765,46.59025],[-120.47763,46.58912],[-120.47759,46.58166],[-120.47757,46.58139],[-120.48091,46.58141],[-120.48705,46.58138],[-120.48818,46.58139],[-120.48819,46.58378],[-120.48814,46.58584],[-120.48809,46.59103],[-120.48815,46.598],[-120.48153,46.59799],[-120.48132,46.59798],[-120.4804,46.59772],[-120.47892,46.59765],[-120.47897,46.60131],[-120.47895,46.60221],[-120.47899,46.60264],[-120.47921,46.60305],[-120.48023,46.60308],[-120.48023,46.60506],[-120.48245,46.60509],[-120.48416,46.60516],[-120.4908,46.6052],[-120.49246,46.60519],[-120.49308,46.60517],[-120.49404,46.605],[-120.49549,46.60467],[-120.49429,46.60215],[-120.49983,46.60088],[-120.5002,46.60164]]}},{"type":"Feature","properties":{"agency":"Yakima Transit","shape_id":"86"},"geometry":{"type":"LineString","coordinates":[[-120.50024,46.60174],[-120.5004,46.60212],[-120.49918,46.60239],[-120.49781,46.60273],[-120.49488,46.6034],[-120.49529,46.60425],[-120.49547,46.60466],[-120.49407,46.605],[-120.49305,46.60518],[-120.49255,46.60519],[-120.48416,46.60516],[-120.483,46.6051],[-120.48023,46.60506],[-120.48022,46.6042],[-120.48024,46.60308],[-120.4792,46.60304],[-120.47897,46.60262],[-120.47896,46.60133],[-120.47762,46.60131],[-120.47772,46.60448],[-120.47771,46.60538],[-120.47787,46.60555],[-120.47813,46.6056],[-120.47839,46.60554],[-120.47852,46.60539],[-120.47857,46.60505],[-120.48023,46.60506],[-120.483,46.6051],[-120.48416,46.60516],[-120.48765,46.60518],[-120.4876,46.60542],[-120.48775,46.60595],[-120.48794,46.60647],[-120.48854,46.60713],[-120.48948,46.60811],[-120.48979,46.60831],[-120.49025,46.60847],[-120.49158,46.60856],[-120.49249,46.60858],[-120.49394,46.60872],[-120.4944,46.60887],[-120.49501,46.60896],[-120.4953,46.60891],[-120.49807,46.60829],[-120.50025,46.60776],[-120.50158,46.61056],[-120.50205,46.61151],[-120.50523,46.61077],[-120.5069,46.61432],[-120.50861,46.61435],[-120.50714,46.61124],[-120.50552,46.60794],[-120.5035,46.60842],[-120.50086,46.60902],[-120.49874,46.60468],[-120.4972,46.60148],[-120.49983,46.60088],[-120.5002,46.60162]]}},{"type":"Feature","properties":{"agency":"Yakima Transit","shape_id":"89"},"geometry":{"type":"LineString","coordinates":[[-120.50066,46.60139],[-120.50036,46.60076],[-120.50489,46.59973],[-120.50916,46.59872],[-120.51139,46.59823],[-120.51439,46.59754],[-120.515,46.59877],[-120.5156,46.60004],[-120.51686,46.60256],[-120.51806,46.60505],[-120.51858,46.60608],[-120.5186,46.61064],[-120.51859,46.61178],[-120.51853,46.61199],[-120.51861,46.61215],[-120.51864,46.61231],[-120.51858,46.61235],[-120.51856,46.61238],[-120.51855,46.61245],[-120.51859,46.61251],[-120.51867,46.61255],[-120.51876,46.61257],[-120.51883,46.61256],[-120.51892,46.61251],[-120.51937,46.61257],[-120.51958,46.61257],[-120.51968,46.61255],[-120.51988,46.61257],[-120.51987,46.61618],[-120.51993,46.61794],[-120.52891,46.61792],[-120.52931,46.61798],[-120.52955,46.618],[-120.53035,46.618],[-120.53039,46.61606],[-120.53043,46.61524],[-120.53461,46.61527],[-120.53746,46.61527],[-120.53748,46.61259],[-120.53865,46.61258],[-120.53902,46.6126],[-120.53942,46.61265],[-120.54007,46.61277],[-120.54066,46.61293],[-120.54429,46.61438],[-120.54487,46.6146],[-120.54635,46.61521],[-120.54897,46.61624],[-120.55395,46.61828],[-120.55991,46.62064],[-120.56057,46.62091],[-120.5607,46.62104],[-120.56083,46.62109],[-120.56095,46.62111],[-120.56101,46.62103],[-120.56103,46.62084],[-120.56178,46.61992],[-120.562,46.61952],[-120.56207,46.61927],[-120.5621,46.61897],[-120.56209,46.61825],[-120.56206,46.6174],[-120.56197,46.61704],[-120.56183,46.61672],[-120.56096,46.61529],[-120.56089,46.61507],[-120.56086,46.61488],[-120.56087,46.61448],[-120.56151,46.61303],[-120.56155,46.61287],[-120.56157,46.61266],[-120.56006,46.61264],[-120.56003,46.61095],[-120.56003,46.60944],[-120.56012,46.60935],[-120.56075,46.6091],[-120.56086,46.60904],[-120.5609,46.60892],[-120.56087,46.60798],[-120.56076,46.6079],[-120.56066,46.60787],[-120.5606,46.60786],[-120.55844,46.60787],[-120.55753,46.60786],[-120.55735,46.60788],[-120.55623,46.60786],[-120.55503,46.60788],[-120.55416,46.60788],[-120.55418,46.60721],[-120.55424,46.60712],[-120.55072,46.60715],[-120.54921,46.60715],[-120.54771,46.60711],[-120.5487,46.60766],[-120.55184,46.60957],[-120.55239,46.60988],[-120.55264,46.60997],[-120.55287,46.61002],[-120.55314,46.61007],[-120.55418,46.61022],[-120.55418,46.61255],[-120.55153,46.61254],[-120.54908,46.61256],[-120.5476,46.61256],[-120.54616,46.61254],[-120.54101,46.61255],[-120.54074,46.61281],[-120.54066,46.61293],[-120.54007,46.61277],[-120.53942,46.61265],[-120.53902,46.6126],[-120.53865,46.61258],[-120.53748,46.61259],[-120.5304,46.61258],[-120.53043,46.60847],[-120.53046,46.6068],[-120.5304,46.60199],[-120.53038,46.60162],[-120.53038,46.60071],[-120.53035,46.59976],[-120.53038,46.59932],[-120.53034,46.59827],[-120.53033,46.59722],[-120.53034,46.59516],[-120.53032,46.59069],[-120.5303,46.58977],[-120.5303,46.58705],[-120.53035,46.58615],[-120.53031,46.58472],[-120.53031,46.58331],[-120.53029,46.58244],[-120.53032,46.58017],[-120.530353,46.570821],[-120.525406,46.570782],[-120.525439,46.578029],[-120.51867,46.57799],[-120.5183,46.578],[-120.51409,46.578],[-120.5134,46.57801],[-120.5095,46.57799],[-120.50947,46.58525],[-120.50948,46.58845],[-120.50946,46.58889],[-120.50948,46.59112],[-120.50944,46.59251],[-120.5103,46.59251],[-120.5111,46.59412],[-120.51168,46.59536],[-120.5129,46.59788],[-120.51139,46.59823],[-120.50916,46.59872],[-120.50881,46.59881],[-120.5068,46.59927],[-120.50542,46.59961],[-120.50291,46.60018]]}},{"type":"Feature","properties":{"agency":"Yakima Transit","shape_id":"90"},"geometry":{"type":"LineString","coordinates":[[-120.50066,46.60139],[-120.50036,46.60076],[-120.50489,46.59973],[-120.50916,46.59872],[-120.51139,46.59823],[-120.51439,46.59754],[-120.515,46.59877],[-120.5156,46.60004],[-120.51686,46.60256],[-120.51806,46.60505],[-120.51858,46.60608],[-120.5186,46.61064],[-120.51859,46.61178],[-120.51853,46.61199],[-120.51861,46.61215],[-120.51864,46.61231],[-120.51858,46.61235],[-120.51856,46.61238],[-120.51855,46.61245],[-120.51859,46.61251],[-120.51867,46.61255],[-120.51876,46.61257],[-120.51883,46.61256],[-120.51892,46.61251],[-120.51937,46.61257],[-120.51958,46.61257],[-120.51968,46.61255],[-120.51988,46.61257],[-120.51987,46.61618],[-120.51993,46.61794],[-120.52891,46.61792],[-120.52931,46.61798],[-120.52955,46.618],[-120.53035,46.618],[-120.53039,46.61606],[-120.53043,46.61524],[-120.53461,46.61527],[-120.53746,46.61527],[-120.53748,46.61259],[-120.53865,46.61258],[-120.53902,46.6126],[-120.53942,46.61265],[-120.54007,46.61277],[-120.54066,46.61293],[-120.54429,46.61438],[-120.54487,46.6146],[-120.54635,46.61521],[-120.54897,46.61624],[-120.55395,46.61828],[-120.55991,46.62064],[-120.56057,46.62091],[-120.5607,46.62104],[-120.56083,46.62109],[-120.56095,46.62111],[-120.56101,46.62103],[-120.56103,46.62084],[-120.56178,46.61992],[-120.562,46.61952],[-120.56207,46.61927],[-120.5621,46.61897],[-120.56209,46.61825],[-120.56206,46.6174],[-120.56197,46.61704],[-120.56183,46.61672],[-120.56096,46.61529],[-120.56089,46.61507],[-120.56086,46.61488],[-120.56087,46.61448],[-120.56151,46.61303],[-120.56155,46.61287],[-120.56157,46.61266],[-120.56006,46.61264],[-120.56003,46.61095],[-120.56003,46.60944],[-120.56012,46.60935],[-120.56075,46.6091],[-120.56086,46.60904],[-120.5609,46.60892],[-120.56087,46.60798],[-120.56076,46.6079],[-120.56066,46.60787],[-120.5606,46.60786],[-120.55844,46.60787],[-120.55753,46.60786],[-120.55735,46.60788],[-120.55623,46.60786],[-120.55503,46.60788],[-120.55416,46.60788],[-120.55418,46.60721],[-120.55424,46.60712],[-120.55072,46.60715],[-120.54921,46.60715],[-120.54771,46.60711],[-120.5487,46.60766],[-120.55184,46.60957],[-120.55239,46.60988],[-120.55264,46.60997],[-120.55287,46.61002],[-120.55314,46.61007],[-120.55418,46.61022],[-120.55418,46.61255],[-120.55153,46.61254],[-120.54908,46.61256],[-120.5476,46.61256],[-120.54616,46.61254],[-120.54101,46.61255],[-120.54074,46.61281],[-120.54066,46.61293],[-120.54007,46.61277],[-120.53942,46.61265],[-120.53902,46.6126],[-120.53865,46.61258],[-120.53748,46.61259],[-120.5304,46.61258],[-120.53043,46.60847],[-120.53046,46.6068],[-120.5304,46.60199],[-120.53038,46.60162],[-120.53038,46.60071],[-120.53035,46.59976],[-120.53038,46.59932],[-120.53034,46.59827],[-120.53033,46.59722],[-120.53034,46.59516],[-120.53032,46.59069],[-120.5303,46.58977],[-120.5303,46.58705],[-120.53035,46.58615],[-120.53031,46.58472],[-120.53031,46.58331],[-120.53029,46.58244],[-120.53032,46.58017],[-120.53031,46.57799],[-120.52635,46.57798],[-120.52119,46.578],[-120.51867,46.57799],[-120.5183,46.578],[-120.51409,46.578],[-120.5134,46.57801],[-120.5095,46.57799],[-120.50947,46.58525],[-120.50948,46.58845],[-120.50946,46.58889],[-120.50948,46.59112],[-120.50944,46.59251],[-120.5103,46.59251],[-120.5111,46.59412],[-120.51168,46.59536],[-120.5129,46.59788],[-120.51139,46.59823],[-120.50916,46.59872],[-120.50881,46.59881],[-120.5068,46.59927],[-120.50542,46.59961],[-120.50291,46.60018]]}},{"type":"Feature","properties":{"agency":"Yakima Transit","shape_id":"91"},"geometry":{"type":"LineString","coordinates":[[-120.50066,46.60139],[-120.50036,46.60076],[-120.50489,46.59973],[-120.50916,46.59872],[-120.51139,46.59823],[-120.51439,46.59754],[-120.515,46.59877],[-120.5156,46.60004],[-120.51686,46.60256],[-120.51806,46.60505],[-120.51858,46.60608],[-120.5186,46.61064],[-120.51859,46.61178],[-120.51853,46.61199],[-120.51861,46.61215],[-120.51864,46.61231],[-120.51858,46.61235],[-120.51856,46.61238],[-120.51855,46.61245],[-120.51859,46.61251],[-120.51867,46.61255],[-120.51876,46.61257],[-120.51883,46.61256],[-120.51892,46.61251],[-120.51937,46.61257],[-120.51958,46.61257],[-120.51968,46.61255],[-120.51988,46.61257],[-120.51987,46.61618],[-120.51993,46.61794],[-120.52891,46.61792],[-120.52931,46.61798],[-120.52955,46.618],[-120.53035,46.618],[-120.53039,46.61606],[-120.53043,46.61524],[-120.53461,46.61527],[-120.53746,46.61527],[-120.53748,46.61259],[-120.53865,46.61258],[-120.53902,46.6126],[-120.53942,46.61265],[-120.54007,46.61277],[-120.54066,46.61293],[-120.54429,46.61438],[-120.54487,46.6146],[-120.54635,46.61521],[-120.54897,46.61624],[-120.55395,46.61828],[-120.55991,46.62064],[-120.56057,46.62091],[-120.5607,46.62104],[-120.56083,46.62109],[-120.56095,46.62111],[-120.56101,46.62103],[-120.56103,46.62084],[-120.56178,46.61992],[-120.562,46.61952],[-120.56207,46.61927],[-120.5621,46.61897],[-120.56209,46.61825],[-120.56206,46.6174],[-120.56197,46.61704],[-120.56183,46.61672],[-120.56096,46.61529],[-120.56089,46.61507],[-120.56086,46.61488],[-120.56087,46.61448],[-120.56151,46.61303],[-120.56155,46.61287],[-120.56157,46.61266],[-120.56006,46.61264],[-120.56003,46.61095],[-120.56003,46.60944],[-120.56012,46.60935],[-120.56075,46.6091],[-120.56086,46.60904],[-120.5609,46.60892],[-120.56087,46.60798],[-120.56076,46.6079],[-120.56066,46.60787],[-120.5606,46.60786],[-120.55844,46.60787],[-120.55753,46.60786],[-120.55735,46.60788],[-120.55623,46.60786],[-120.55503,46.60788],[-120.55416,46.60788],[-120.55418,46.60721],[-120.55424,46.60712],[-120.55072,46.60715],[-120.54921,46.60715],[-120.54771,46.60711],[-120.5487,46.60766],[-120.55184,46.60957],[-120.55239,46.60988],[-120.55264,46.60997],[-120.55287,46.61002],[-120.55314,46.61007],[-120.55418,46.61022],[-120.55418,46.61255],[-120.55153,46.61254],[-120.54908,46.61256],[-120.5476,46.61256],[-120.54616,46.61254],[-120.54101,46.61255],[-120.54074,46.61281],[-120.54066,46.61293],[-120.54007,46.61277],[-120.53942,46.61265],[-120.53902,46.6126],[-120.53865,46.61258],[-120.53748,46.61259],[-120.5304,46.61258],[-120.53043,46.60847],[-120.53046,46.6068],[-120.5304,46.60199],[-120.53038,46.60162],[-120.53038,46.60071],[-120.53035,46.59976],[-120.53038,46.59932],[-120.53034,46.59827],[-120.53033,46.59722],[-120.53034,46.59516],[-120.53032,46.59069],[-120.5303,46.58977],[-120.5303,46.58705],[-120.53035,46.58615],[-120.53031,46.58472],[-120.53031,46.58331],[-120.53029,46.58244],[-120.53032,46.58017],[-120.53031,46.57799],[-120.52635,46.57798],[-120.52119,46.578],[-120.51867,46.57799],[-120.5183,46.578],[-120.51409,46.578],[-120.5134,46.57801],[-120.5095,46.57799],[-120.50947,46.58525],[-120.50948,46.58845],[-120.50946,46.58889],[-120.50948,46.59112],[-120.50944,46.59251],[-120.5103,46.59251],[-120.5111,46.59412],[-120.51168,46.59536],[-120.5129,46.59788],[-120.51139,46.59823],[-120.50916,46.59872],[-120.50881,46.59881],[-120.5068,46.59927],[-120.50542,46.59961],[-120.50291,46.60018]]}},{"type":"Feature","properties":{"agency":"Yakima Transit","shape_id":"92"},"geometry":{"type":"LineString","coordinates":[[-120.50066,46.60139],[-120.50096,46.602],[-120.49947,46.60232],[-120.49782,46.60273],[-120.4949,46.60339],[-120.49549,46.604651],[-120.498408,46.603992],[-120.49409,46.60499],[-120.49328,46.60515],[-120.49271,46.60519],[-120.48705,46.60518],[-120.48613,46.60516],[-120.48417,46.60516],[-120.48301,46.60509],[-120.48023,46.60506],[-120.48023,46.60308],[-120.47935,46.60307],[-120.4792,46.60305],[-120.47913,46.60297],[-120.479,46.60266],[-120.47896,46.60252],[-120.47895,46.59909],[-120.47898,46.59765],[-120.47988,46.59767],[-120.48041,46.59772],[-120.4809,46.59784],[-120.48127,46.59796],[-120.48166,46.59801],[-120.48391,46.59802],[-120.48524,46.59799],[-120.48816,46.59801],[-120.48816,46.597],[-120.48812,46.59598],[-120.48814,46.59506],[-120.48814,46.59362],[-120.48809,46.59234],[-120.48259,46.59232],[-120.47953,46.59228],[-120.47931,46.59224],[-120.47904,46.59213],[-120.47884,46.59203],[-120.47863,46.59189],[-120.47833,46.59151],[-120.47796,46.59098],[-120.47782,46.59074],[-120.47767,46.59042],[-120.47762,46.59009],[-120.47764,46.58968],[-120.47764,46.58869],[-120.47762,46.58664],[-120.4776,46.58643],[-120.47758,46.58507],[-120.47761,46.58238],[-120.4776,46.5814],[-120.48423,46.58141],[-120.48553,46.58139],[-120.48818,46.58139],[-120.48818,46.58248],[-120.48816,46.58321],[-120.48817,46.58423],[-120.48812,46.58693],[-120.48812,46.58872],[-120.48809,46.59047],[-120.48809,46.59234],[-120.48814,46.59362],[-120.48814,46.59506],[-120.48812,46.59598],[-120.48816,46.597],[-120.48815,46.60236],[-120.48819,46.60332],[-120.48818,46.60348],[-120.487973,46.604139],[-120.488538,46.604268],[-120.488896,46.6046],[-120.488969,46.605159],[-120.488905,46.604617],[-120.48853,46.604286],[-120.487978,46.604151],[-120.48779,46.60459],[-120.48767,46.60509],[-120.48765,46.60532],[-120.48767,46.60553],[-120.48776,46.60585],[-120.48801,46.60647],[-120.48902,46.60764],[-120.4894,46.60806],[-120.48978,46.60831],[-120.49023,46.60848],[-120.49061,46.60852],[-120.49258,46.60859],[-120.4936,46.60872],[-120.49367,46.6088],[-120.49375,46.60884],[-120.49383,46.60886],[-120.49396,46.60885],[-120.49404,46.60882],[-120.49406,46.6088],[-120.49433,46.60884],[-120.49441,46.60888],[-120.49461,46.60893],[-120.49485,46.60896],[-120.495,46.60896],[-120.49519,46.60894],[-120.49592,46.60876],[-120.49735,46.60846],[-120.50025,46.60776],[-120.50086,46.60902],[-120.50144,46.61027],[-120.50205,46.61151],[-120.50377,46.61112],[-120.50524,46.61077],[-120.50575,46.6119],[-120.50646,46.61333],[-120.5069,46.61432],[-120.50789,46.61435],[-120.50861,46.61435],[-120.50727,46.61155],[-120.50721,46.61139],[-120.50676,46.61043],[-120.50552,46.60794],[-120.50404,46.6083],[-120.50254,46.60863],[-120.50086,46.60902],[-120.49964,46.60652],[-120.49901,46.60527],[-120.49822,46.6036],[-120.49901,46.60527],[-120.4994,46.60604],[-120.49901,46.60527],[-120.49782,46.60273],[-120.497168,46.601472],[-120.49782,46.60273],[-120.49901,46.60527],[-120.50025,46.60776],[-120.50265,46.60723],[-120.50491,46.60668],[-120.50642,46.60634],[-120.5058,46.6051],[-120.50506,46.60526],[-120.50354,46.60562],[-120.50297,46.60574],[-120.50134,46.60614],[-120.499634,46.606536],[-120.500251,46.607758],[-120.495187,46.608953],[-120.492931,46.608633],[-120.49061,46.60852],[-120.49023,46.60848],[-120.48978,46.60831],[-120.4894,46.60806],[-120.48902,46.60764],[-120.48801,46.60647],[-120.48776,46.60585],[-120.48767,46.60553],[-120.48765,46.60532],[-120.48767,46.60509],[-120.48794,46.604236],[-120.48814,46.6037],[-120.48819,46.60332],[-120.48815,46.60236],[-120.48815,46.60145],[-120.48953,46.60144],[-120.49152,46.60147],[-120.49351,46.60148],[-120.49394,46.60146],[-120.49427,46.60215],[-120.500322,46.600746],[-120.50036,46.60076],[-120.49719,46.60149],[-120.49782,46.60273],[-120.49901,46.60527],[-120.49964,46.60652]]}},{"type":"Feature","properties":{"agency":"Yakima Transit","shape_id":"93"},"geometry":{"type":"LineString","coordinates":[[-120.50066,46.60139],[-120.50096,46.602],[-120.49947,46.60232],[-120.49782,46.60273],[-120.4949,46.60339],[-120.49549,46.604651],[-120.498408,46.603992],[-120.49409,46.60499],[-120.49328,46.60515],[-120.49271,46.60519],[-120.48705,46.60518],[-120.48613,46.60516],[-120.48417,46.60516],[-120.48301,46.60509],[-120.48023,46.60506],[-120.48023,46.60308],[-120.47935,46.60307],[-120.4792,46.60305],[-120.47913,46.60297],[-120.479,46.60266],[-120.47896,46.60252],[-120.47895,46.59909],[-120.47898,46.59765],[-120.47988,46.59767],[-120.48041,46.59772],[-120.4809,46.59784],[-120.48127,46.59796],[-120.48166,46.59801],[-120.48391,46.59802],[-120.48524,46.59799],[-120.48816,46.59801],[-120.48816,46.597],[-120.48812,46.59598],[-120.48814,46.59506],[-120.48814,46.59362],[-120.48809,46.59234],[-120.48259,46.59232],[-120.47953,46.59228],[-120.47931,46.59224],[-120.47904,46.59213],[-120.47884,46.59203],[-120.47863,46.59189],[-120.47833,46.59151],[-120.47796,46.59098],[-120.47782,46.59074],[-120.47767,46.59042],[-120.47762,46.59009],[-120.47764,46.58968],[-120.47764,46.58869],[-120.47762,46.58664],[-120.4776,46.58643],[-120.47758,46.58507],[-120.47761,46.58238],[-120.4776,46.5814],[-120.48423,46.58141],[-120.48553,46.58139],[-120.48818,46.58139],[-120.48818,46.58248],[-120.48816,46.58321],[-120.48817,46.58423],[-120.48812,46.58693],[-120.48812,46.58872],[-120.48809,46.59047],[-120.48809,46.59234],[-120.48814,46.59362],[-120.48814,46.59506],[-120.48812,46.59598],[-120.48816,46.597],[-120.48815,46.60236],[-120.48819,46.60332],[-120.48818,46.60348],[-120.487973,46.604139],[-120.488538,46.604268],[-120.488896,46.6046],[-120.488969,46.605159],[-120.488905,46.604617],[-120.48853,46.604286],[-120.487978,46.604151],[-120.48779,46.60459],[-120.48767,46.60509],[-120.48765,46.60532],[-120.48767,46.60553],[-120.48776,46.60585],[-120.48801,46.60647],[-120.48902,46.60764],[-120.4894,46.60806],[-120.48978,46.60831],[-120.49023,46.60848],[-120.49061,46.60852],[-120.49258,46.60859],[-120.4936,46.60872],[-120.49367,46.6088],[-120.49375,46.60884],[-120.49383,46.60886],[-120.49396,46.60885],[-120.49404,46.60882],[-120.49406,46.6088],[-120.49433,46.60884],[-120.49441,46.60888],[-120.49461,46.60893],[-120.49485,46.60896],[-120.495,46.60896],[-120.49519,46.60894],[-120.49592,46.60876],[-120.49735,46.60846],[-120.50025,46.60776],[-120.50086,46.60902],[-120.50144,46.61027],[-120.50205,46.61151],[-120.50377,46.61112],[-120.50524,46.61077],[-120.50575,46.6119],[-120.50646,46.61333],[-120.5069,46.61432],[-120.50789,46.61435],[-120.50861,46.61435],[-120.50727,46.61155],[-120.50721,46.61139],[-120.50676,46.61043],[-120.50552,46.60794],[-120.50404,46.6083],[-120.50254,46.60863],[-120.50086,46.60902],[-120.49964,46.60652],[-120.49901,46.60527],[-120.49822,46.6036],[-120.49901,46.60527],[-120.4994,46.60604],[-120.49901,46.60527],[-120.49782,46.60273],[-120.497168,46.601472],[-120.49782,46.60273],[-120.49901,46.60527],[-120.50025,46.60776],[-120.50265,46.60723],[-120.50491,46.60668],[-120.50642,46.60634],[-120.5058,46.6051],[-120.50506,46.60526],[-120.50354,46.60562],[-120.50297,46.60574],[-120.50134,46.60614],[-120.49817,46.60684],[-120.49744,46.60703],[-120.49457,46.60768],[-120.49411,46.60781],[-120.49393,46.60795],[-120.49386,46.60803],[-120.49384,46.60814],[-120.49384,46.60845],[-120.49379,46.6085],[-120.49368,46.60852],[-120.49361,46.60857],[-120.49302,46.60857],[-120.49245,46.60859],[-120.49061,46.60852],[-120.49023,46.60848],[-120.48978,46.60831],[-120.4894,46.60806],[-120.48902,46.60764],[-120.48801,46.60647],[-120.48776,46.60585],[-120.48767,46.60553],[-120.48765,46.60532],[-120.48767,46.60509],[-120.48794,46.604236],[-120.48814,46.6037],[-120.48819,46.60332],[-120.48815,46.60236],[-120.48815,46.60145],[-120.48953,46.60144],[-120.49152,46.60147],[-120.49351,46.60148],[-120.49394,46.60146],[-120.49427,46.60215],[-120.500322,46.600746]]}},{"type":"Feature","properties":{"agency":"Yakima Transit","shape_id":"94"},"geometry":{"type":"LineString","coordinates":[[-120.50066,46.60139],[-120.50096,46.602],[-120.49947,46.60232],[-120.49782,46.60273],[-120.4949,46.60339],[-120.49549,46.604651],[-120.498408,46.603992],[-120.49409,46.60499],[-120.49328,46.60515],[-120.49271,46.60519],[-120.48705,46.60518],[-120.48613,46.60516],[-120.48417,46.60516],[-120.48301,46.60509],[-120.48023,46.60506],[-120.48023,46.60308],[-120.47935,46.60307],[-120.4792,46.60305],[-120.47913,46.60297],[-120.479,46.60266],[-120.47896,46.60252],[-120.47895,46.59909],[-120.47898,46.59765],[-120.47988,46.59767],[-120.48041,46.59772],[-120.4809,46.59784],[-120.48127,46.59796],[-120.48166,46.59801],[-120.48391,46.59802],[-120.48524,46.59799],[-120.48816,46.59801],[-120.48816,46.597],[-120.48812,46.59598],[-120.48814,46.59506],[-120.48814,46.59362],[-120.48809,46.59234],[-120.48259,46.59232],[-120.47953,46.59228],[-120.47931,46.59224],[-120.47904,46.59213],[-120.47884,46.59203],[-120.47863,46.59189],[-120.47833,46.59151],[-120.47796,46.59098],[-120.47782,46.59074],[-120.47767,46.59042],[-120.47762,46.59009],[-120.47764,46.58968],[-120.47764,46.58869],[-120.47762,46.58664],[-120.4776,46.58643],[-120.47758,46.58507],[-120.47761,46.58238],[-120.4776,46.5814],[-120.48423,46.58141],[-120.48553,46.58139],[-120.48818,46.58139],[-120.48818,46.58248],[-120.48816,46.58321],[-120.48817,46.58423],[-120.48812,46.58693],[-120.48812,46.58872],[-120.48809,46.59047],[-120.48809,46.59234],[-120.48814,46.59362],[-120.48814,46.59506],[-120.48812,46.59598],[-120.48816,46.597],[-120.48815,46.60236],[-120.48819,46.60332],[-120.48818,46.60348],[-120.487973,46.604139],[-120.488538,46.604268],[-120.488896,46.6046],[-120.488969,46.605159],[-120.488905,46.604617],[-120.48853,46.604286],[-120.487978,46.604151],[-120.48779,46.60459],[-120.48767,46.60509],[-120.48765,46.60532],[-120.48767,46.60553],[-120.48776,46.60585],[-120.48801,46.60647],[-120.48902,46.60764],[-120.4894,46.60806],[-120.48978,46.60831],[-120.49023,46.60848],[-120.49061,46.60852],[-120.49258,46.60859],[-120.4936,46.60872],[-120.49367,46.6088],[-120.49375,46.60884],[-120.49383,46.60886],[-120.49396,46.60885],[-120.49404,46.60882],[-120.49406,46.6088],[-120.49433,46.60884],[-120.49441,46.60888],[-120.49461,46.60893],[-120.49485,46.60896],[-120.495,46.60896],[-120.49519,46.60894],[-120.49592,46.60876],[-120.49735,46.60846],[-120.50025,46.60776],[-120.50086,46.60902],[-120.50144,46.61027],[-120.50205,46.61151],[-120.50377,46.61112],[-120.50524,46.61077],[-120.50575,46.6119],[-120.50646,46.61333],[-120.5069,46.61432],[-120.50789,46.61435],[-120.50861,46.61435],[-120.50727,46.61155],[-120.50721,46.61139],[-120.50676,46.61043],[-120.50552,46.60794],[-120.50404,46.6083],[-120.50254,46.60863],[-120.50086,46.60902],[-120.49964,46.60652],[-120.49901,46.60527],[-120.49822,46.6036],[-120.49901,46.60527],[-120.4994,46.60604],[-120.49901,46.60527],[-120.49782,46.60273],[-120.497168,46.601472],[-120.49782,46.60273],[-120.49901,46.60527],[-120.50025,46.60776],[-120.50265,46.60723],[-120.50491,46.60668],[-120.50642,46.60634],[-120.5058,46.6051],[-120.50506,46.60526],[-120.50354,46.60562],[-120.50297,46.60574],[-120.50134,46.60614],[-120.49817,46.60684],[-120.49744,46.60703],[-120.49457,46.60768],[-120.49411,46.60781],[-120.49393,46.60795],[-120.49386,46.60803],[-120.49384,46.60814],[-120.49384,46.60845],[-120.49379,46.6085],[-120.49368,46.60852],[-120.49361,46.60857],[-120.49302,46.60857],[-120.49245,46.60859],[-120.49061,46.60852],[-120.49023,46.60848],[-120.48978,46.60831],[-120.4894,46.60806],[-120.48902,46.60764],[-120.48801,46.60647],[-120.48776,46.60585],[-120.48767,46.60553],[-120.48765,46.60532],[-120.48767,46.60509],[-120.48794,46.604236],[-120.48814,46.6037],[-120.48819,46.60332],[-120.48815,46.60236],[-120.48815,46.60145],[-120.48953,46.60144],[-120.49152,46.60147],[-120.49351,46.60148],[-120.49394,46.60146],[-120.49427,46.60215],[-120.500322,46.600746]]}},{"type":"Feature","properties":{"agency":"Yakima Transit","shape_id":"96"},"geometry":{"type":"LineString","coordinates":[[-120.50027,46.60175],[-120.49983,46.60088],[-120.5019,46.60041],[-120.50112,46.59878],[-120.4993,46.59509],[-120.49877,46.59405],[-120.49877,46.5889],[-120.49887,46.58879],[-120.49868,46.58847],[-120.49747,46.58666],[-120.4969,46.58574],[-120.495,46.5828],[-120.49427,46.58171],[-120.48935,46.57352],[-120.48753,46.57053],[-120.48678,46.56963],[-120.4865,46.56937],[-120.48257,46.56581],[-120.47948,46.56306],[-120.47624,46.56302],[-120.47552,46.56307],[-120.47545,46.56293],[-120.47525,46.5629],[-120.47507,46.56299],[-120.47506,46.56309],[-120.47516,46.56319],[-120.47529,46.56321],[-120.47541,46.56318],[-120.47552,46.56307],[-120.47625,46.56302],[-120.47947,46.56306],[-120.47981,46.56334],[-120.48003,46.56357],[-120.48543,46.56837],[-120.48596,46.56887],[-120.48718,46.57007],[-120.48752,46.57052],[-120.48843,46.57044],[-120.49506,46.57055],[-120.49798,46.57058],[-120.50832,46.57073],[-120.51404,46.57075],[-120.52336,46.57082],[-120.52552,46.57085],[-120.52962,46.57087],[-120.53923,46.57088],[-120.53988,46.57095],[-120.54063,46.57114],[-120.54142,46.57149],[-120.54186,46.57181],[-120.54285,46.57249],[-120.54336,46.57276],[-120.54409,46.57305],[-120.54489,46.57319],[-120.54611,46.57334],[-120.54931,46.57337],[-120.55736,46.57446],[-120.56204,46.57508],[-120.56202,46.57806],[-120.56194,46.58036],[-120.5619,46.58292],[-120.5619,46.58607],[-120.56187,46.58883],[-120.5619,46.59007],[-120.56189,46.59304],[-120.56197,46.59629],[-120.56194,46.59664],[-120.56187,46.5971],[-120.56193,46.60051],[-120.56196,46.60377],[-120.56201,46.60463],[-120.56191,46.60712],[-120.56196,46.6095],[-120.56164,46.61088],[-120.56163,46.61288],[-120.5613,46.6136],[-120.56091,46.61436],[-120.56088,46.61498],[-120.56096,46.61529],[-120.56189,46.61679],[-120.562,46.61706],[-120.56208,46.61739],[-120.5621,46.61847],[-120.56208,46.61914],[-120.56202,46.61947],[-120.56177,46.61989],[-120.56128,46.62053],[-120.561,46.62086],[-120.56087,46.62098],[-120.56059,46.62091],[-120.55414,46.61835],[-120.54933,46.61639],[-120.54066,46.61293],[-120.54005,46.61277],[-120.53923,46.61262],[-120.537318,46.61258],[-120.534181,46.612555],[-120.531988,46.612553],[-120.53044,46.612579],[-120.529725,46.612567],[-120.52191,46.61258],[-120.5197,46.61257],[-120.51892,46.61239],[-120.51885,46.61229],[-120.51865,46.61232],[-120.51856,46.61243],[-120.5186,46.61252],[-120.51853,46.61269],[-120.51862,46.61304],[-120.51858,46.61434],[-120.51821,46.61435],[-120.51713,46.61433],[-120.51303,46.61433],[-120.51221,46.61434],[-120.51192,46.61433],[-120.51177,46.61398],[-120.51157,46.6136],[-120.5109,46.61215],[-120.50776,46.60576],[-120.50713,46.60436],[-120.5055,46.60097],[-120.50328,46.6015],[-120.50286,46.60158],[-120.50043,46.60212],[-120.50034,46.60195]]}},{"type":"Feature","properties":{"agency":"Yakima Transit","shape_id":"98"},"geometry":{"type":"LineString","coordinates":[[-120.50027,46.60175],[-120.49983,46.60088],[-120.5019,46.60041],[-120.50112,46.59878],[-120.4993,46.59509],[-120.49877,46.59405],[-120.49877,46.5889],[-120.49887,46.58879],[-120.49868,46.58847],[-120.49747,46.58666],[-120.4969,46.58574],[-120.495,46.5828],[-120.49427,46.58171],[-120.48935,46.57352],[-120.48753,46.57053],[-120.48678,46.56963],[-120.4865,46.56937],[-120.48257,46.56581],[-120.47948,46.56306],[-120.47624,46.56302],[-120.47552,46.56307],[-120.47545,46.56293],[-120.47525,46.5629],[-120.47507,46.56299],[-120.47506,46.56309],[-120.47516,46.56319],[-120.47529,46.56321],[-120.47541,46.56318],[-120.47552,46.56307],[-120.47625,46.56302],[-120.47947,46.56306],[-120.47981,46.56334],[-120.48003,46.56357],[-120.48543,46.56837],[-120.48596,46.56887],[-120.48718,46.57007],[-120.48752,46.57052],[-120.48843,46.57044],[-120.49506,46.57055],[-120.49798,46.57058],[-120.50832,46.57073],[-120.51404,46.57075],[-120.52336,46.57082],[-120.52552,46.57085],[-120.52962,46.57087],[-120.53923,46.57088],[-120.53988,46.57095],[-120.54063,46.57114],[-120.54142,46.57149],[-120.54186,46.57181],[-120.54285,46.57249],[-120.54336,46.57276],[-120.54409,46.57305],[-120.54489,46.57319],[-120.54611,46.57334],[-120.54931,46.57337],[-120.55736,46.57446],[-120.56204,46.57508],[-120.56202,46.57806],[-120.56194,46.58036],[-120.5619,46.58292],[-120.5619,46.58607],[-120.56187,46.58883],[-120.5619,46.59007],[-120.56189,46.59304],[-120.56197,46.59629],[-120.56194,46.59664],[-120.56187,46.5971],[-120.56193,46.60051],[-120.56196,46.60377],[-120.56201,46.60463],[-120.56191,46.60712],[-120.56196,46.6095],[-120.56164,46.61088],[-120.56163,46.61288],[-120.5613,46.6136],[-120.56091,46.61436],[-120.56088,46.61498],[-120.56096,46.61529],[-120.56189,46.61679],[-120.562,46.61706],[-120.56208,46.61739],[-120.5621,46.61847],[-120.56208,46.61914],[-120.56202,46.61947],[-120.56177,46.61989],[-120.56128,46.62053],[-120.561,46.62086],[-120.56087,46.62098],[-120.56059,46.62091],[-120.55414,46.61835],[-120.54933,46.61639],[-120.54066,46.61293],[-120.54005,46.61277],[-120.53923,46.61262],[-120.53796,46.61259],[-120.53041,46.61258],[-120.52973,46.61256],[-120.52191,46.61258],[-120.5197,46.61257],[-120.51892,46.61239],[-120.51885,46.61229],[-120.51865,46.61232],[-120.51856,46.61243],[-120.5186,46.61252],[-120.51853,46.61269],[-120.51862,46.61304],[-120.51858,46.61434],[-120.51821,46.61435],[-120.51713,46.61433],[-120.51303,46.61433],[-120.51221,46.61434],[-120.51192,46.61433],[-120.51177,46.61398],[-120.51157,46.6136],[-120.5109,46.61215],[-120.50776,46.60576],[-120.50713,46.60436],[-120.5055,46.60097],[-120.50328,46.6015],[-120.50286,46.60158],[-120.50043,46.60212],[-120.50034,46.60195]]}},{"type":"Feature","properties":{"agency":"Yakima Transit","shape_id":"99"},"geometry":{"type":"LineString","coordinates":[[-120.50027,46.60175],[-120.49983,46.60088],[-120.5019,46.60041],[-120.50112,46.59878],[-120.4993,46.59509],[-120.49877,46.59405],[-120.49877,46.5889],[-120.49887,46.58879],[-120.49868,46.58847],[-120.49747,46.58666],[-120.4969,46.58574],[-120.495,46.5828],[-120.49427,46.58171],[-120.48935,46.57352],[-120.48753,46.57053],[-120.48678,46.56963],[-120.4865,46.56937],[-120.48257,46.56581],[-120.47948,46.56306],[-120.47624,46.56302],[-120.47552,46.56307],[-120.47545,46.56293],[-120.47525,46.5629],[-120.47507,46.56299],[-120.47506,46.56309],[-120.47516,46.56319],[-120.47529,46.56321],[-120.47541,46.56318],[-120.47552,46.56307],[-120.47625,46.56302],[-120.47947,46.56306],[-120.47981,46.56334],[-120.48003,46.56357],[-120.48543,46.56837],[-120.48596,46.56887],[-120.48718,46.57007],[-120.48752,46.57052],[-120.48843,46.57044],[-120.49506,46.57055],[-120.49798,46.57058],[-120.50832,46.57073],[-120.51404,46.57075],[-120.52336,46.57082],[-120.52552,46.57085],[-120.52962,46.57087],[-120.53923,46.57088],[-120.53988,46.57095],[-120.54063,46.57114],[-120.54142,46.57149],[-120.54186,46.57181],[-120.54285,46.57249],[-120.54336,46.57276],[-120.54409,46.57305],[-120.54489,46.57319],[-120.54611,46.57334],[-120.54931,46.57337],[-120.55736,46.57446],[-120.56204,46.57508],[-120.56202,46.57806],[-120.56194,46.58036],[-120.5619,46.58292],[-120.5619,46.58607],[-120.56187,46.58883],[-120.5619,46.59007],[-120.56189,46.59304],[-120.56197,46.59629],[-120.56194,46.59664],[-120.56187,46.5971],[-120.56193,46.60051],[-120.56196,46.60377],[-120.56201,46.60463],[-120.56191,46.60712],[-120.56196,46.6095],[-120.56164,46.61088],[-120.56163,46.61288],[-120.5613,46.6136],[-120.56091,46.61436],[-120.56088,46.61498],[-120.56096,46.61529],[-120.56189,46.61679],[-120.562,46.61706],[-120.56208,46.61739],[-120.5621,46.61847],[-120.56208,46.61914],[-120.56202,46.61947],[-120.56177,46.61989],[-120.56128,46.62053],[-120.561,46.62086],[-120.56087,46.62098],[-120.56059,46.62091],[-120.55414,46.61835],[-120.54933,46.61639],[-120.54066,46.61293],[-120.54005,46.61277],[-120.53923,46.61262],[-120.53796,46.61259],[-120.532493,46.612567],[-120.53041,46.61258],[-120.52973,46.61256],[-120.52191,46.61258],[-120.5197,46.61257],[-120.51892,46.61239],[-120.51885,46.61229],[-120.51865,46.61232],[-120.51856,46.61243],[-120.5186,46.61252],[-120.51853,46.61269],[-120.51862,46.61304],[-120.51858,46.61434],[-120.51821,46.61435],[-120.51713,46.61433],[-120.51303,46.61433],[-120.51221,46.61434],[-120.51192,46.61433],[-120.51177,46.61398],[-120.51157,46.6136],[-120.5109,46.61215],[-120.50776,46.60576],[-120.50713,46.60436],[-120.5055,46.60097],[-120.50328,46.6015],[-120.50286,46.60158],[-120.50043,46.60212],[-120.50034,46.60195]]}}]}