{"type":"FeatureCollection","features":[{"type":"Feature","properties":{"feed_id":"Oregon__Buena_Vista_Ferry__mdb_mdb-834","agency_id":"1734","agency_name":"Buena Vista Ferry","agency_url":"https://www.co.marion.or.us/PW/ferries/Pages/buenavista.aspx","route_id":"18939","route_short_name":"","route_long_name":"Buena Vista Ferry","route_desc":"","route_type":"4","route_type_name":"Ferry","route_url":"https://www.co.marion.or.us/PW/ferries/Pages/buenaferryfees.aspx","route_color":"025C7E","route_text_color":"FFFFFF","route_sort_order":"4","continuous_pickup":"1","continuous_drop_off":"1","network_id":"","shape_id":"1274415","trip_count":127,"direction_ids":"0","trip_headsigns":"","wheelchair_accessible_values":"","bikes_allowed_values":"","metadata_feed_id":"Oregon__Buena_Vista_Ferry__mdb_mdb-834","metadata_agency_names":"Buena Vista Ferry","metadata_ntd_id":"91014","metadata_ntd_match_method":"manual_override","metadata_ntd_agency":"City of Rio Vista, dba: Rio Vista Delta Breeze","metadata_ntd_city":"Rio Vista","metadata_ntd_state":"CA","metadata_gtfs_route_count":1,"metadata_gtfs_trip_count":253,"metadata_gtfs_shape_count":2,"metadata_gtfs_stop_count":2,"metadata_ntd_agency_voms":2,"metadata_ntd_total_facilities":1,"metadata_ntd_maintenance_facilities":1,"metadata_ntd_passenger_stations":0,"metadata_tam_tier":"Tier II","metadata_route_types_json":"{\"4\":1}","metadata_ntd_facilities_json":"{\"maintenance_facilities\":1,\"administrative_and_other_non_passenger_facilities\":0,\"passenger_stations_and_terminals\":0,\"parking_and_other_passenger_facilities\":0,\"total_facilities\":1,\"bus_transfer_centers\":0,\"elevated_fixed_guideway_stations\":0,\"at_grade_fixed_guideway_stations\":0,\"underground_fixed_guideway_stations\":0,\"simple_at_grade_platform_stations\":0,\"exclusive_grade_separated_platform_stations\":0,\"ferryboat_terminals\":0,\"surface_parking_lots\":0,\"parking_structures\":0}","metadata_tam_modes_json":"{\"MB\":{\"total_units_2024\":3,\"units_under_threshold_2024\":0,\"voms_2024\":1,\"total_modal_vrm_2024\":0,\"total_modal_upt_2024\":0},\"Multiple\":{\"total_units_2024\":3,\"units_under_threshold_2024\":3,\"voms_2024\":2,\"total_modal_vrm_2024\":0,\"total_modal_upt_2024\":0}}"},"geometry":{"type":"LineString","coordinates":[[-123.14718052551238,44.77015394965163],[-123.147186,44.77014],[-123.144738,44.769662]]}},{"type":"Feature","properties":{"feed_id":"Oregon__Buena_Vista_Ferry__mdb_mdb-834","agency_id":"1734","agency_name":"Buena Vista Ferry","agency_url":"https://www.co.marion.or.us/PW/ferries/Pages/buenavista.aspx","route_id":"18939","route_short_name":"","route_long_name":"Buena Vista Ferry","route_desc":"","route_type":"4","route_type_name":"Ferry","route_url":"https://www.co.marion.or.us/PW/ferries/Pages/buenaferryfees.aspx","route_color":"025C7E","route_text_color":"FFFFFF","route_sort_order":"4","continuous_pickup":"1","continuous_drop_off":"1","network_id":"","shape_id":"1274416","trip_count":126,"direction_ids":"1","trip_headsigns":"","wheelchair_accessible_values":"","bikes_allowed_values":"","metadata_feed_id":"Oregon__Buena_Vista_Ferry__mdb_mdb-834","metadata_agency_names":"Buena Vista Ferry","metadata_ntd_id":"91014","metadata_ntd_match_method":"manual_override","metadata_ntd_agency":"City of Rio Vista, dba: Rio Vista Delta Breeze","metadata_ntd_city":"Rio Vista","metadata_ntd_state":"CA","metadata_gtfs_route_count":1,"metadata_gtfs_trip_count":253,"metadata_gtfs_shape_count":2,"metadata_gtfs_stop_count":2,"metadata_ntd_agency_voms":2,"metadata_ntd_total_facilities":1,"metadata_ntd_maintenance_facilities":1,"metadata_ntd_passenger_stations":0,"metadata_tam_tier":"Tier II","metadata_route_types_json":"{\"4\":1}","metadata_ntd_facilities_json":"{\"maintenance_facilities\":1,\"administrative_and_other_non_passenger_facilities\":0,\"passenger_stations_and_terminals\":0,\"parking_and_other_passenger_facilities\":0,\"total_facilities\":1,\"bus_transfer_centers\":0,\"elevated_fixed_guideway_stations\":0,\"at_grade_fixed_guideway_stations\":0,\"underground_fixed_guideway_stations\":0,\"simple_at_grade_platform_stations\":0,\"exclusive_grade_separated_platform_stations\":0,\"ferryboat_terminals\":0,\"surface_parking_lots\":0,\"parking_structures\":0}","metadata_tam_modes_json":"{\"MB\":{\"total_units_2024\":3,\"units_under_threshold_2024\":0,\"voms_2024\":1,\"total_modal_vrm_2024\":0,\"total_modal_upt_2024\":0},\"Multiple\":{\"total_units_2024\":3,\"units_under_threshold_2024\":3,\"voms_2024\":2,\"total_modal_vrm_2024\":0,\"total_modal_upt_2024\":0}}"},"geometry":{"type":"LineString","coordinates":[[-123.14473862265896,44.769660454024944],[-123.144738,44.769662],[-123.147186,44.77014]]}}],"metadata":{"feed_id":"Oregon__Buena_Vista_Ferry__mdb_mdb-834","ntd_id":"91014","feature_metadata_embedded":true}}