{"type":"FeatureCollection","features":[{"type":"Feature","properties":{"feed_id":"Massachusetts__Freedom_Cruise_Line__mdb_mdb-425","agency_id":"278","agency_name":"Freedom Cruise Line","agency_url":"http://www.nantucketislandferry.com","route_id":"2107","route_short_name":"","route_long_name":"Freedom Cruise Line","route_desc":"","route_type":"4","route_type_name":"Ferry","route_url":"https://www.freedomferry.com/Default.aspx","route_color":"215AA9","route_text_color":"FFFFFF","route_sort_order":"0","continuous_pickup":"1","continuous_drop_off":"1","network_id":"","shape_id":"4974","trip_count":4,"direction_ids":"1","trip_headsigns":"Nantucket","wheelchair_accessible_values":"","bikes_allowed_values":"","metadata_feed_id":"Massachusetts__Freedom_Cruise_Line__mdb_mdb-425","metadata_agency_names":"Freedom Cruise Line","metadata_ntd_id":"11239","metadata_ntd_match_method":"manual_override","metadata_ntd_agency":"Hyannis Harbor Tours, Inc., dba: Hy-Line Cruises","metadata_ntd_city":"Hyannis","metadata_ntd_state":"MA","metadata_gtfs_route_count":1,"metadata_gtfs_trip_count":8,"metadata_gtfs_shape_count":2,"metadata_gtfs_stop_count":2,"metadata_ntd_agency_voms":4,"metadata_ntd_total_facilities":4,"metadata_ntd_maintenance_facilities":0,"metadata_ntd_passenger_stations":3,"metadata_tam_tier":"Tier II","metadata_service_area_sq_miles":394,"metadata_service_area_population":210049,"metadata_route_types_json":"{\"4\":1}","metadata_ntd_facilities_json":"{\"maintenance_facilities\":0,\"administrative_and_other_non_passenger_facilities\":1,\"passenger_stations_and_terminals\":3,\"parking_and_other_passenger_facilities\":0,\"total_facilities\":4,\"bus_transfer_centers\":0,\"elevated_fixed_guideway_stations\":0,\"at_grade_fixed_guideway_stations\":0,\"underground_fixed_guideway_stations\":0,\"simple_at_grade_platform_stations\":0,\"exclusive_grade_separated_platform_stations\":0,\"ferryboat_terminals\":3,\"surface_parking_lots\":0,\"parking_structures\":0}","metadata_tam_modes_json":"{\"FB\":{\"total_units_2024\":6,\"units_under_threshold_2024\":0,\"voms_2024\":4,\"total_modal_vrm_2024\":191630,\"total_modal_upt_2024\":928922}}"},"geometry":{"type":"LineString","coordinates":[[-70.0595848080215,41.6674902432958],[-70.059584119793,41.667489351786],[-70.059635435523,41.667193030592],[-70.059692520905,41.667048821827],[-70.060790303384,41.666135198871],[-70.061655492671,41.664764767623],[-70.060669147271,41.660308743234],[-70.098833032171,41.301246182379],[-70.098996355864,41.299920320677],[-70.098558864739,41.298594432021],[-70.097778050859,41.29726851641],[-70.096610998881,41.29623275808],[-70.094362725614,41.294032217371],[-70.091513637528,41.292154049596],[-70.090364487845,41.291605999075],[-70.089344084194,41.290864472589],[-70.088762398596,41.290203662346],[-70.088609866442,41.289413861571],[-70.088618266828,41.288817529239],[-70.088841243935,41.288285684587],[-70.089532089635,41.287705354742],[-70.090351681369,41.28728625515],[-70.092763341032,41.284738910263]]}},{"type":"Feature","properties":{"feed_id":"Massachusetts__Freedom_Cruise_Line__mdb_mdb-425","agency_id":"278","agency_name":"Freedom Cruise Line","agency_url":"http://www.nantucketislandferry.com","route_id":"2107","route_short_name":"","route_long_name":"Freedom Cruise Line","route_desc":"","route_type":"4","route_type_name":"Ferry","route_url":"https://www.freedomferry.com/Default.aspx","route_color":"215AA9","route_text_color":"FFFFFF","route_sort_order":"0","continuous_pickup":"1","continuous_drop_off":"1","network_id":"","shape_id":"4975","trip_count":4,"direction_ids":"0","trip_headsigns":"Harwich","wheelchair_accessible_values":"","bikes_allowed_values":"","metadata_feed_id":"Massachusetts__Freedom_Cruise_Line__mdb_mdb-425","metadata_agency_names":"Freedom Cruise Line","metadata_ntd_id":"11239","metadata_ntd_match_method":"manual_override","metadata_ntd_agency":"Hyannis Harbor Tours, Inc., dba: Hy-Line Cruises","metadata_ntd_city":"Hyannis","metadata_ntd_state":"MA","metadata_gtfs_route_count":1,"metadata_gtfs_trip_count":8,"metadata_gtfs_shape_count":2,"metadata_gtfs_stop_count":2,"metadata_ntd_agency_voms":4,"metadata_ntd_total_facilities":4,"metadata_ntd_maintenance_facilities":0,"metadata_ntd_passenger_stations":3,"metadata_tam_tier":"Tier II","metadata_service_area_sq_miles":394,"metadata_service_area_population":210049,"metadata_route_types_json":"{\"4\":1}","metadata_ntd_facilities_json":"{\"maintenance_facilities\":0,\"administrative_and_other_non_passenger_facilities\":1,\"passenger_stations_and_terminals\":3,\"parking_and_other_passenger_facilities\":0,\"total_facilities\":4,\"bus_transfer_centers\":0,\"elevated_fixed_guideway_stations\":0,\"at_grade_fixed_guideway_stations\":0,\"underground_fixed_guideway_stations\":0,\"simple_at_grade_platform_stations\":0,\"exclusive_grade_separated_platform_stations\":0,\"ferryboat_terminals\":3,\"surface_parking_lots\":0,\"parking_structures\":0}","metadata_tam_modes_json":"{\"FB\":{\"total_units_2024\":6,\"units_under_threshold_2024\":0,\"voms_2024\":4,\"total_modal_vrm_2024\":191630,\"total_modal_upt_2024\":928922}}"},"geometry":{"type":"LineString","coordinates":[[-70.0927389231024,41.2847266932657],[-70.089268220021,41.28734026667],[-70.088844524058,41.288212835902],[-70.088506658782,41.288908039378],[-70.088640862293,41.289603235446],[-70.088943998442,41.290430484116],[-70.089676288034,41.291193232104],[-70.091291070921,41.29215442262],[-70.092431056283,41.292715623517],[-70.093335007251,41.293228453444],[-70.094281873563,41.293773523184],[-70.09497124781,41.294415319],[-70.096344631886,41.295283763223],[-70.097160116487,41.296442379187],[-70.097696651351,41.297407522615],[-70.097804032772,41.298437134857],[-70.098147727767,41.305876004789],[-70.061219818534,41.66310960535],[-70.061638615382,41.664924575045],[-70.059932916569,41.667062302812],[-70.059790806022,41.66711384258],[-70.059680881982,41.667209462852],[-70.059629966541,41.667333134182],[-70.059611237608,41.667476841798]]}}],"metadata":{"feed_id":"Massachusetts__Freedom_Cruise_Line__mdb_mdb-425","ntd_id":"11239","feature_metadata_embedded":true}}