{"type":"FeatureCollection","features":[{"type":"Feature","properties":{"feed_id":"Oregon__Wheatland_Ferry__mdb_mdb-833","agency_id":"1733","agency_name":"Wheatland Ferry","agency_url":"https://www.co.marion.or.us/PW/ferries/Pages/wheatlandhours.aspx","route_id":"19123","route_short_name":"","route_long_name":"Wheatland Ferry","route_desc":"","route_type":"4","route_type_name":"Ferry","route_url":"https://www.co.marion.or.us/PW/ferries/Pages/wheatlandhours.aspx","route_color":"01435C","route_text_color":"FFFFFF","route_sort_order":"2","continuous_pickup":"1","continuous_drop_off":"1","network_id":"","shape_id":"1275219","trip_count":66,"direction_ids":"0","trip_headsigns":"West","wheelchair_accessible_values":"","bikes_allowed_values":"","metadata_feed_id":"Oregon__Wheatland_Ferry__mdb_mdb-833","metadata_agency_names":"Wheatland Ferry","metadata_ntd_id":"90225","metadata_ntd_match_method":"manual_override","metadata_ntd_agency":"San Francisco Bay Area Water Emergency Transportation Authority, dba: San Francisco Bay Ferry","metadata_ntd_city":"San Francisco","metadata_ntd_state":"CA","metadata_gtfs_route_count":1,"metadata_gtfs_trip_count":131,"metadata_gtfs_shape_count":2,"metadata_gtfs_stop_count":2,"metadata_ntd_agency_voms":11,"metadata_ntd_total_facilities":22,"metadata_ntd_maintenance_facilities":0,"metadata_ntd_passenger_stations":14,"metadata_tam_tier":"Tier II","metadata_service_area_sq_miles":127,"metadata_service_area_population":345375,"metadata_route_types_json":"{\"4\":1}","metadata_ntd_facilities_json":"{\"maintenance_facilities\":0,\"administrative_and_other_non_passenger_facilities\":2,\"passenger_stations_and_terminals\":14,\"parking_and_other_passenger_facilities\":6,\"total_facilities\":22,\"bus_transfer_centers\":0,\"elevated_fixed_guideway_stations\":0,\"at_grade_fixed_guideway_stations\":0,\"underground_fixed_guideway_stations\":0,\"simple_at_grade_platform_stations\":0,\"exclusive_grade_separated_platform_stations\":0,\"ferryboat_terminals\":14,\"surface_parking_lots\":5,\"parking_structures\":0}","metadata_tam_modes_json":"{\"FB\":{\"total_units_2024\":42,\"units_under_threshold_2024\":4,\"voms_2024\":11,\"total_modal_vrm_2024\":529247,\"total_modal_upt_2024\":2388379}}"},"geometry":{"type":"LineString","coordinates":[[-123.0442246556226,45.08997382091897],[-123.044245,45.08994],[-123.044419,45.089992],[-123.046169,45.090569],[-123.046242,45.090594]]}},{"type":"Feature","properties":{"feed_id":"Oregon__Wheatland_Ferry__mdb_mdb-833","agency_id":"1733","agency_name":"Wheatland Ferry","agency_url":"https://www.co.marion.or.us/PW/ferries/Pages/wheatlandhours.aspx","route_id":"19123","route_short_name":"","route_long_name":"Wheatland Ferry","route_desc":"","route_type":"4","route_type_name":"Ferry","route_url":"https://www.co.marion.or.us/PW/ferries/Pages/wheatlandhours.aspx","route_color":"01435C","route_text_color":"FFFFFF","route_sort_order":"2","continuous_pickup":"1","continuous_drop_off":"1","network_id":"","shape_id":"1275220","trip_count":65,"direction_ids":"1","trip_headsigns":"East","wheelchair_accessible_values":"","bikes_allowed_values":"","metadata_feed_id":"Oregon__Wheatland_Ferry__mdb_mdb-833","metadata_agency_names":"Wheatland Ferry","metadata_ntd_id":"90225","metadata_ntd_match_method":"manual_override","metadata_ntd_agency":"San Francisco Bay Area Water Emergency Transportation Authority, dba: San Francisco Bay Ferry","metadata_ntd_city":"San Francisco","metadata_ntd_state":"CA","metadata_gtfs_route_count":1,"metadata_gtfs_trip_count":131,"metadata_gtfs_shape_count":2,"metadata_gtfs_stop_count":2,"metadata_ntd_agency_voms":11,"metadata_ntd_total_facilities":22,"metadata_ntd_maintenance_facilities":0,"metadata_ntd_passenger_stations":14,"metadata_tam_tier":"Tier II","metadata_service_area_sq_miles":127,"metadata_service_area_population":345375,"metadata_route_types_json":"{\"4\":1}","metadata_ntd_facilities_json":"{\"maintenance_facilities\":0,\"administrative_and_other_non_passenger_facilities\":2,\"passenger_stations_and_terminals\":14,\"parking_and_other_passenger_facilities\":6,\"total_facilities\":22,\"bus_transfer_centers\":0,\"elevated_fixed_guideway_stations\":0,\"at_grade_fixed_guideway_stations\":0,\"underground_fixed_guideway_stations\":0,\"simple_at_grade_platform_stations\":0,\"exclusive_grade_separated_platform_stations\":0,\"ferryboat_terminals\":14,\"surface_parking_lots\":5,\"parking_structures\":0}","metadata_tam_modes_json":"{\"FB\":{\"total_units_2024\":42,\"units_under_threshold_2024\":4,\"voms_2024\":11,\"total_modal_vrm_2024\":529247,\"total_modal_upt_2024\":2388379}}"},"geometry":{"type":"LineString","coordinates":[[-123.04626041367534,45.090567883322905],[-123.046242,45.090594],[-123.046169,45.090569],[-123.044419,45.089992],[-123.044245,45.08994]]}}],"metadata":{"feed_id":"Oregon__Wheatland_Ferry__mdb_mdb-833","ntd_id":"90225","feature_metadata_embedded":true}}