{"type":"FeatureCollection","features":[{"type":"Feature","properties":{"feed_id":"Texas__STAR_Transit__mdb_mdb-153","agency_id":"556","agency_name":"STAR Transit","agency_url":"http://www.startransit.org/","route_id":"4514","route_short_name":"101","route_long_name":"Balch Springs Midtown Express","route_desc":"","route_type":"3","route_type_name":"Bus","route_url":"http://www.startransit.org/fixed-routes/balch-springs-midtown-express/mapschedule/","route_color":"3D8938","route_text_color":"FFFFFF","route_sort_order":"0","continuous_pickup":"1","continuous_drop_off":"1","network_id":"","shape_id":"p_7782","trip_count":10,"direction_ids":"0","trip_headsigns":"Loop","wheelchair_accessible_values":"","bikes_allowed_values":"","metadata_feed_id":"Texas__STAR_Transit__mdb_mdb-153","metadata_agency_names":"STAR Transit","metadata_ntd_id":"60114","metadata_ntd_match_method":"manual_override","metadata_ntd_agency":"STAR Transit","metadata_ntd_city":"Terrell","metadata_ntd_state":"TX","metadata_gtfs_route_count":1,"metadata_gtfs_trip_count":10,"metadata_gtfs_shape_count":1,"metadata_gtfs_stop_count":136,"metadata_ntd_agency_voms":46,"metadata_ntd_total_facilities":3,"metadata_ntd_maintenance_facilities":1,"metadata_ntd_passenger_stations":0,"metadata_tam_tier":"Tier II","metadata_service_area_sq_miles":981,"metadata_service_area_population":464887,"metadata_route_types_json":"{\"3\":1}","metadata_ntd_facilities_json":"{\"maintenance_facilities\":1,\"administrative_and_other_non_passenger_facilities\":2,\"passenger_stations_and_terminals\":0,\"parking_and_other_passenger_facilities\":0,\"total_facilities\":3,\"bus_transfer_centers\":0,\"elevated_fixed_guideway_stations\":0,\"at_grade_fixed_guideway_stations\":0,\"underground_fixed_guideway_stations\":0,\"simple_at_grade_platform_stations\":0,\"exclusive_grade_separated_platform_stations\":0,\"ferryboat_terminals\":0,\"surface_parking_lots\":0,\"parking_structures\":0}","metadata_tam_modes_json":"{\"DR\":{\"total_units_2024\":61,\"units_under_threshold_2024\":2,\"voms_2024\":88,\"total_modal_vrm_2024\":2488972,\"total_modal_upt_2024\":320790},\"MB\":{\"total_units_2024\":4,\"units_under_threshold_2024\":0,\"voms_2024\":2,\"total_modal_vrm_2024\":150592,\"total_modal_upt_2024\":48329}}"},"geometry":{"type":"LineString","coordinates":[[-96.61497,32.73391],[-96.61438,32.73391],[-96.61439,32.73407],[-96.61724,32.73411],[-96.61835,32.73412],[-96.61969,32.73413],[-96.62013,32.73414],[-96.6226,32.73414],[-96.6226,32.73394],[-96.62259,32.73325],[-96.62259,32.73312],[-96.62259,32.73182],[-96.6226,32.73127],[-96.62259,32.73091],[-96.6226,32.73034],[-96.62261,32.72963],[-96.62262,32.72883],[-96.62261,32.72851],[-96.62262,32.72725],[-96.62263,32.72688],[-96.62264,32.72611],[-96.62264,32.72477],[-96.62123,32.72478],[-96.6193,32.72472],[-96.61627,32.72472],[-96.6158,32.72472],[-96.61579,32.72395],[-96.61585,32.72372],[-96.61594,32.72349],[-96.61635,32.72238],[-96.61693,32.72081],[-96.61698,32.72075],[-96.61705,32.72067],[-96.61713,32.72059],[-96.61756,32.72037],[-96.61765,32.72031],[-96.61774,32.72023],[-96.61781,32.72013],[-96.61789,32.71999],[-96.61806,32.71964],[-96.6181,32.71945],[-96.6181,32.71933],[-96.61777,32.71933],[-96.6175,32.71931],[-96.61739,32.71932],[-96.61727,32.71935],[-96.61579,32.71935],[-96.61525,32.71942],[-96.61492,32.71945],[-96.61448,32.71945],[-96.61407,32.71942],[-96.61408,32.71906],[-96.61411,32.71859],[-96.61414,32.71803],[-96.61414,32.71627],[-96.61415,32.71547],[-96.61414,32.71468],[-96.61414,32.713],[-96.61415,32.71229],[-96.61416,32.71149],[-96.614166498184,32.711218166404],[-96.61409676075,32.711210267519],[-96.614049822092,32.711169644674],[-96.614000201225,32.711094040995],[-96.613997519016,32.711085577893],[-96.613930463791,32.711029721397],[-96.613113731146,32.71102295091],[-96.613056063652,32.711069215892],[-96.613058745861,32.711306182499],[-96.61314457655,32.711337777998],[-96.613934487104,32.71134116323],[-96.614171862602,32.711148204831],[-96.61418,32.7107],[-96.6193,32.71067],[-96.61941,32.71069],[-96.61955,32.71075],[-96.61982,32.71039],[-96.61987,32.7103],[-96.61987,32.71024],[-96.61985,32.70928],[-96.61985,32.70914],[-96.61987,32.70899],[-96.61988,32.70896],[-96.61991,32.70894],[-96.61998,32.70892],[-96.6201,32.70891],[-96.62059,32.70893],[-96.62094,32.70891],[-96.62105,32.7089],[-96.62116,32.70886],[-96.62125,32.7088],[-96.62142,32.70863],[-96.62196,32.70772],[-96.62231,32.70709],[-96.62256,32.70653],[-96.62268,32.70625],[-96.62272,32.70607],[-96.62276,32.70582],[-96.62277,32.70537],[-96.62276,32.70486],[-96.62344,32.70486],[-96.6235,32.70487],[-96.62499,32.70492],[-96.62742,32.70497],[-96.62886,32.70497],[-96.63107,32.705],[-96.6313,32.705],[-96.6313,32.70489],[-96.63129,32.70458],[-96.6313,32.70347],[-96.63135,32.70203],[-96.63137,32.70029],[-96.63137,32.69951],[-96.63284,32.69951],[-96.63284,32.69952],[-96.63342,32.69952],[-96.6342,32.69953],[-96.63554,32.69952],[-96.63571,32.69953],[-96.63671,32.69954],[-96.63674,32.69954],[-96.6368,32.69952],[-96.63693,32.69953],[-96.63698,32.69954],[-96.63705,32.69954],[-96.63733,32.69955],[-96.63942,32.69956],[-96.64055,32.69958],[-96.64062,32.69958],[-96.64466,32.69959],[-96.64615,32.6996],[-96.64625,32.69959],[-96.6466,32.69957],[-96.64673,32.69953],[-96.64748,32.69986],[-96.64804,32.70009],[-96.64838,32.70022],[-96.64856,32.70028],[-96.6487,32.70036],[-96.649,32.70044],[-96.64923,32.7005],[-96.64977,32.70062],[-96.65017,32.70074],[-96.65111,32.70104],[-96.65142,32.70114],[-96.65196,32.7013],[-96.65258,32.70148],[-96.65307,32.70161],[-96.65344,32.7017],[-96.65367,32.70176],[-96.65401,32.70185],[-96.65412,32.70188],[-96.65427,32.70193],[-96.65453,32.70202],[-96.65491,32.70216],[-96.65573,32.70248],[-96.65592,32.70255],[-96.65615,32.70261],[-96.65656,32.70272],[-96.6571,32.70285],[-96.65812,32.7031],[-96.65857,32.70318],[-96.6592,32.70328],[-96.6605,32.70347],[-96.66106,32.70356],[-96.66142,32.70362],[-96.66164,32.70367],[-96.6624,32.70382],[-96.66325,32.70404],[-96.66366,32.70415],[-96.66433,32.70434],[-96.66459,32.70441],[-96.6649,32.70447],[-96.66502,32.70449],[-96.66523,32.70452],[-96.66548,32.70455],[-96.66564,32.70457],[-96.66571,32.70458],[-96.66651,32.70468],[-96.66657,32.70468],[-96.66681,32.70471],[-96.66685,32.70472],[-96.66693,32.70473],[-96.66698,32.70474],[-96.66711,32.70477],[-96.66719,32.70479],[-96.66734,32.70484],[-96.66758,32.70494],[-96.66773,32.70501],[-96.66827,32.70527],[-96.66854,32.70538],[-96.66885,32.70546],[-96.66923,32.70555],[-96.66953,32.70559],[-96.66961,32.70561],[-96.67117,32.70592],[-96.67143,32.70601],[-96.67162,32.70608],[-96.67195,32.70621],[-96.67226,32.70636],[-96.67248,32.70647],[-96.67267,32.70658],[-96.67295,32.70675],[-96.67315,32.70688],[-96.67472,32.70795],[-96.67506,32.70819],[-96.67557,32.70854],[-96.67659,32.70923],[-96.67695,32.70946],[-96.67729,32.70964],[-96.6777,32.70985],[-96.67789,32.70994],[-96.67802,32.71002],[-96.67814,32.71009],[-96.6783,32.71019],[-96.67937,32.71092],[-96.68109,32.71209],[-96.68118,32.71216],[-96.68161,32.71244],[-96.68198,32.7127],[-96.6823,32.71292],[-96.68272,32.7132],[-96.68288,32.71331],[-96.68292,32.7134],[-96.68295,32.71345],[-96.68297,32.71351],[-96.683,32.71364],[-96.68296,32.71377],[-96.68294,32.71393],[-96.68293,32.7141],[-96.68293,32.71467],[-96.68292,32.71479],[-96.68292,32.71581],[-96.68291,32.71665],[-96.68291,32.71688],[-96.68292,32.71722],[-96.68292,32.71792],[-96.68306,32.71792],[-96.68351,32.71791],[-96.68351,32.71806],[-96.6837,32.71806],[-96.683855,32.718185],[-96.684665679932,32.718746613726],[-96.684815883636,32.718879755008],[-96.684807837009,32.719238558488],[-96.68488830328,32.719254354835],[-96.684990227222,32.71924081511],[-96.685003638268,32.718883139953],[-96.684940606356,32.71875902521],[-96.684939265251,32.718766923426],[-96.683769822121,32.717904885431],[-96.683659851551,32.717873292257],[-96.683042943478,32.717904885431],[-96.68306,32.71699],[-96.68306,32.71683],[-96.68305,32.71616],[-96.68305,32.71459],[-96.68306,32.7143],[-96.68306,32.71416],[-96.68311,32.71384],[-96.68318,32.71361],[-96.68321,32.71354],[-96.68326,32.71345],[-96.68332,32.71335],[-96.68332,32.71334],[-96.68334,32.71332],[-96.68337,32.71327],[-96.68346,32.71318],[-96.68354,32.71309],[-96.68363,32.713],[-96.68349,32.71292],[-96.68323,32.71272],[-96.68311,32.71265],[-96.68303,32.7126],[-96.68284,32.71248],[-96.6826,32.7123],[-96.6823,32.7121],[-96.68219,32.71203],[-96.68198,32.71188],[-96.67858,32.70958],[-96.6784,32.70947],[-96.67817,32.70934],[-96.67749,32.709],[-96.67735,32.70892],[-96.67726,32.70887],[-96.67712,32.70879],[-96.67691,32.70865],[-96.67669,32.7085],[-96.6765,32.70837],[-96.67597,32.70801],[-96.6741,32.70671],[-96.67281,32.70586],[-96.6723,32.70558],[-96.67202,32.70544],[-96.67142,32.70521],[-96.67076,32.70501],[-96.67002,32.70483],[-96.6685,32.70447],[-96.6682,32.7044],[-96.66763,32.70426],[-96.66735,32.70422],[-96.66689,32.70417],[-96.6667,32.70416],[-96.66646,32.70413],[-96.66588,32.70404],[-96.66575,32.70401],[-96.66565,32.70398],[-96.66548,32.70394],[-96.66527,32.70388],[-96.66503,32.70382],[-96.66489,32.70378],[-96.66441,32.70367],[-96.66334,32.70341],[-96.66256,32.70322],[-96.66134,32.70292],[-96.6596,32.7025],[-96.65915,32.70239],[-96.659,32.70235],[-96.65863,32.70227],[-96.65746,32.70198],[-96.65711,32.70189],[-96.65682,32.70182],[-96.65609,32.70165],[-96.65565,32.70154],[-96.65461,32.7013],[-96.65392,32.70113],[-96.65317,32.70093],[-96.65248,32.70074],[-96.65192,32.70058],[-96.65101,32.7003],[-96.65066,32.70018],[-96.6505,32.70015],[-96.64993,32.69992],[-96.64898,32.69957],[-96.64873,32.69947],[-96.6486,32.69943],[-96.64859,32.69957],[-96.64858,32.69973],[-96.64858,32.69975],[-96.64856,32.69991],[-96.64856,32.70028],[-96.64838,32.70022],[-96.64804,32.70009],[-96.64748,32.69986],[-96.64673,32.69953],[-96.6466,32.69957],[-96.64625,32.69959],[-96.64615,32.6996],[-96.64466,32.69959],[-96.64062,32.69958],[-96.64055,32.69958],[-96.63942,32.69956],[-96.63733,32.69955],[-96.63705,32.69954],[-96.63698,32.69954],[-96.63693,32.69953],[-96.6368,32.69952],[-96.63674,32.69954],[-96.63671,32.69954],[-96.63571,32.69953],[-96.63554,32.69952],[-96.6342,32.69953],[-96.63342,32.69952],[-96.63284,32.69952],[-96.63285,32.69951],[-96.63137,32.69951],[-96.63137,32.70029],[-96.63135,32.70203],[-96.6313,32.70347],[-96.63129,32.70458],[-96.6313,32.70489],[-96.63104,32.70489],[-96.62886,32.70487],[-96.62745,32.70488],[-96.62505,32.70484],[-96.62412,32.7048],[-96.62351,32.70477],[-96.62312,32.70475],[-96.62277,32.70474],[-96.62276,32.70479],[-96.62276,32.70486],[-96.62277,32.70537],[-96.62276,32.70582],[-96.62272,32.70607],[-96.62268,32.70625],[-96.62256,32.70653],[-96.62231,32.70709],[-96.62196,32.70772],[-96.62142,32.70863],[-96.62125,32.7088],[-96.62116,32.70886],[-96.62105,32.7089],[-96.62094,32.70891],[-96.62059,32.70893],[-96.6201,32.70891],[-96.61998,32.70892],[-96.61991,32.70894],[-96.61988,32.70896],[-96.61987,32.70899],[-96.61985,32.70914],[-96.61985,32.70928],[-96.61987,32.71024],[-96.61987,32.7103],[-96.61982,32.71039],[-96.61955,32.71075],[-96.61941,32.71069],[-96.6193,32.71067],[-96.61418,32.7107],[-96.61417,32.71105],[-96.61416,32.71149],[-96.61415,32.71229],[-96.61414,32.713],[-96.61414,32.71468],[-96.61415,32.71547],[-96.61414,32.71627],[-96.61414,32.71803],[-96.61411,32.71859],[-96.61408,32.71907],[-96.61407,32.71942],[-96.61448,32.71945],[-96.61492,32.71945],[-96.61525,32.71942],[-96.61579,32.71935],[-96.61727,32.71935],[-96.61736,32.7194],[-96.61748,32.71942],[-96.61781,32.71943],[-96.61793,32.71952],[-96.61806,32.71964],[-96.61789,32.71999],[-96.61781,32.72013],[-96.61774,32.72023],[-96.61765,32.72031],[-96.61756,32.72037],[-96.6172,32.72056],[-96.61713,32.72059],[-96.61705,32.72067],[-96.61693,32.72081],[-96.61635,32.72238],[-96.61594,32.72349],[-96.61585,32.72372],[-96.61579,32.72395],[-96.6158,32.72472],[-96.61636,32.72472],[-96.6193,32.72472],[-96.62123,32.72478],[-96.62264,32.72477],[-96.62264,32.72611],[-96.62262,32.72716],[-96.62262,32.72725],[-96.62261,32.72851],[-96.62262,32.72883],[-96.62261,32.72963],[-96.6226,32.73034],[-96.62259,32.73091],[-96.6226,32.73127],[-96.62259,32.73182],[-96.62259,32.73313],[-96.62259,32.73325],[-96.6226,32.73394],[-96.62071,32.73395],[-96.62013,32.73394],[-96.6197,32.73393],[-96.61941,32.73392],[-96.61779,32.73392],[-96.61723,32.73391],[-96.61497,32.73391]]}}],"metadata":{"feed_id":"Texas__STAR_Transit__mdb_mdb-153","ntd_id":"60114","feature_metadata_embedded":true}}