{"type":"FeatureCollection","features":[{"type":"Feature","properties":{"feed_id":"California__Taft_Area_Transit__mdb_mdb-2236","agency_id":"1722","agency_name":"Taft - Maricopa Area Transit","agency_url":"https://www.cityoftaft.org/pview.aspx?id=5385&catid=563","route_id":"18749","route_short_name":"","route_long_name":"Taft-Maricopa Route","route_desc":"","route_type":"3","route_type_name":"Bus","route_url":"","route_color":"24C2C4","route_text_color":"000000","route_sort_order":"1","continuous_pickup":"1","continuous_drop_off":"1","network_id":"","shape_id":"p_915214","trip_count":2,"direction_ids":"1","trip_headsigns":"Maricopa","wheelchair_accessible_values":"","bikes_allowed_values":"","metadata_feed_id":"California__Taft_Area_Transit__mdb_mdb-2236","metadata_agency_names":"Taft - Maricopa Area Transit","metadata_ntd_id":"91066","metadata_ntd_match_method":"manual_override","metadata_ntd_agency":"City of Taft, dba: Taft Area Transit","metadata_ntd_city":"Taft","metadata_ntd_state":"CA","metadata_gtfs_route_count":1,"metadata_gtfs_trip_count":6,"metadata_gtfs_shape_count":3,"metadata_gtfs_stop_count":13,"metadata_ntd_agency_voms":3,"metadata_ntd_total_facilities":1,"metadata_ntd_maintenance_facilities":0,"metadata_ntd_passenger_stations":0,"metadata_tam_tier":"Tier II","metadata_route_types_json":"{\"3\":1}","metadata_ntd_facilities_json":"{\"maintenance_facilities\":0,\"administrative_and_other_non_passenger_facilities\":1,\"passenger_stations_and_terminals\":0,\"parking_and_other_passenger_facilities\":0,\"total_facilities\":1,\"bus_transfer_centers\":0,\"elevated_fixed_guideway_stations\":0,\"at_grade_fixed_guideway_stations\":0,\"underground_fixed_guideway_stations\":0,\"simple_at_grade_platform_stations\":0,\"exclusive_grade_separated_platform_stations\":0,\"ferryboat_terminals\":0,\"surface_parking_lots\":0,\"parking_structures\":0}","metadata_tam_modes_json":"{\"DR\":{\"total_units_2024\":10,\"units_under_threshold_2024\":9,\"voms_2024\":6,\"total_modal_vrm_2024\":125572,\"total_modal_upt_2024\":57468}}"},"geometry":{"type":"LineString","coordinates":[[-119.453621,35.141235],[-119.453829,35.141296],[-119.455263,35.141759],[-119.456698,35.142222],[-119.457115,35.142355],[-119.458168,35.142691],[-119.459598,35.143159],[-119.461095,35.143643],[-119.460653,35.144565],[-119.460224,35.145462],[-119.459795,35.146358],[-119.459702,35.146552],[-119.459365,35.147255],[-119.458879,35.14827],[-119.458601,35.148852],[-119.458364,35.149347],[-119.458229,35.149304],[-119.456866870943,35.1488855374269],[-119.456594656677,35.1494244096496],[-119.456365423612,35.150103852148],[-119.456336769479,35.1506427163028],[-119.456336769479,35.1512518627896],[-119.456694946144,35.151298720023],[-119.459259491063,35.1512635771007],[-119.461342,35.151271],[-119.462611,35.151256],[-119.46388,35.151242],[-119.464371,35.151236],[-119.465149,35.151227],[-119.465149,35.150914],[-119.465148,35.150437],[-119.465147,35.149384],[-119.465145,35.148067],[-119.465143,35.146788],[-119.465142,35.146227],[-119.465141,35.145046],[-119.465141,35.144906],[-119.464994,35.144861],[-119.464132,35.144599],[-119.462626,35.144124],[-119.461095,35.143643],[-119.459598,35.143159],[-119.458457,35.142786],[-119.458168,35.142691],[-119.456698,35.142222],[-119.455263,35.141759],[-119.454717232278,35.1415869789849],[-119.454178389356,35.1414087187061],[-119.454116832241,35.1413940990943],[-119.451907,35.140737],[-119.45049,35.140213],[-119.450127,35.140031],[-119.449575,35.139633],[-119.449536,35.139597],[-119.449306,35.139358],[-119.44911,35.139101],[-119.448949,35.138827],[-119.448847,35.138682],[-119.448645,35.138033],[-119.448527,35.137711],[-119.448232,35.136968],[-119.448211,35.136876],[-119.448182,35.136767],[-119.448053,35.136397],[-119.447832,35.13603],[-119.447671,35.135726],[-119.447627,35.13556],[-119.447552,35.135402],[-119.447556,35.135006],[-119.447485,35.134633],[-119.44728,35.134137],[-119.447139,35.133676],[-119.447108,35.133602],[-119.44701,35.133274],[-119.446878,35.133031],[-119.446755,35.132871],[-119.446577,35.132646],[-119.446361,35.132389],[-119.445731,35.131772],[-119.445577,35.131543],[-119.442094,35.128025],[-119.437275,35.12307],[-119.436872,35.122656],[-119.435126,35.120861],[-119.434995,35.120726],[-119.43283,35.118503],[-119.431551,35.11719],[-119.430517,35.116128],[-119.429525,35.115109],[-119.426789,35.112299],[-119.422565,35.10796],[-119.42073,35.106075],[-119.419855,35.105176],[-119.417968,35.103238],[-119.417422,35.102677],[-119.415757,35.100966],[-119.415473,35.100674],[-119.414849,35.100033],[-119.414584,35.09976],[-119.411154,35.096236],[-119.410781,35.095857],[-119.410666,35.095741],[-119.40891,35.093929],[-119.408584,35.093594],[-119.408094,35.09309],[-119.40729,35.092264],[-119.40631,35.091257],[-119.405162,35.090077],[-119.404993,35.089903],[-119.404811,35.089716],[-119.403672,35.088546],[-119.40345,35.088313],[-119.403243,35.08807],[-119.403053,35.087819],[-119.402879,35.08756],[-119.402722,35.087293],[-119.402584,35.08702],[-119.402463,35.08674],[-119.402361,35.086456],[-119.402022,35.085321],[-119.401566,35.083769],[-119.401468,35.083438],[-119.400921,35.081589],[-119.400883,35.081386],[-119.400867,35.081303],[-119.400826,35.081017],[-119.400798,35.080729],[-119.400783,35.08044],[-119.400781,35.080151],[-119.400791,35.079863],[-119.400814,35.079574],[-119.400851,35.079287],[-119.400899,35.079001],[-119.400961,35.078717],[-119.401035,35.078434],[-119.401122,35.078154],[-119.401221,35.077877],[-119.401333,35.077603],[-119.401456,35.077333],[-119.401603,35.077029],[-119.401734,35.076575],[-119.4018,35.076262],[-119.401841,35.075986],[-119.401847,35.075946],[-119.401875,35.075629],[-119.401884,35.075312],[-119.401888,35.074786],[-119.401888,35.074774],[-119.401898,35.074039],[-119.401907,35.073402],[-119.401923,35.072209],[-119.401949,35.070076],[-119.40196,35.069211],[-119.401993,35.066946],[-119.401993,35.066536],[-119.401967,35.06621],[-119.401859,35.065843],[-119.401724,35.065511],[-119.401668,35.065341],[-119.401635,35.065188],[-119.401626,35.065043],[-119.401623,35.06475],[-119.401631,35.064165],[-119.401637,35.063956],[-119.401639,35.063875],[-119.401642,35.063754],[-119.401674,35.06252],[-119.401685,35.062148],[-119.401686,35.061434],[-119.401687,35.061313],[-119.40167,35.061157],[-119.401651,35.061034],[-119.401612,35.060884],[-119.401512,35.06062],[-119.401415,35.06039],[-119.401362,35.060294],[-119.40128,35.060083],[-119.401228,35.059879],[-119.401165,35.059579],[-119.401097,35.059152],[-119.401024,35.058717],[-119.401004,35.058496],[-119.400997,35.058434],[-119.401079,35.058434],[-119.401444,35.058409],[-119.401648,35.058401],[-119.40184,35.058375],[-119.40201,35.058347],[-119.402175,35.058316],[-119.402533,35.058224],[-119.402705,35.058171],[-119.402926,35.058089],[-119.402891,35.058028],[-119.402681,35.057649],[-119.402646,35.057548],[-119.402631,35.05749],[-119.402624,35.057421],[-119.40263,35.057292],[-119.402631,35.057087],[-119.402632,35.056962],[-119.402643,35.056046],[-119.402644,35.055964],[-119.402552,35.055963],[-119.402522,35.055963],[-119.402361,35.055962],[-119.401662,35.055959],[-119.400669,35.055954],[-119.399791,35.055949],[-119.399675,35.055949],[-119.399582,35.055948],[-119.398708,35.055944],[-119.398706,35.05613]]}},{"type":"Feature","properties":{"feed_id":"California__Taft_Area_Transit__mdb_mdb-2236","agency_id":"1722","agency_name":"Taft - Maricopa Area Transit","agency_url":"https://www.cityoftaft.org/pview.aspx?id=5385&catid=563","route_id":"18749","route_short_name":"","route_long_name":"Taft-Maricopa Route","route_desc":"","route_type":"3","route_type_name":"Bus","route_url":"","route_color":"24C2C4","route_text_color":"000000","route_sort_order":"1","continuous_pickup":"1","continuous_drop_off":"1","network_id":"","shape_id":"p_915216","trip_count":3,"direction_ids":"0","trip_headsigns":"Taft","wheelchair_accessible_values":"","bikes_allowed_values":"","metadata_feed_id":"California__Taft_Area_Transit__mdb_mdb-2236","metadata_agency_names":"Taft - Maricopa Area Transit","metadata_ntd_id":"91066","metadata_ntd_match_method":"manual_override","metadata_ntd_agency":"City of Taft, dba: Taft Area Transit","metadata_ntd_city":"Taft","metadata_ntd_state":"CA","metadata_gtfs_route_count":1,"metadata_gtfs_trip_count":6,"metadata_gtfs_shape_count":3,"metadata_gtfs_stop_count":13,"metadata_ntd_agency_voms":3,"metadata_ntd_total_facilities":1,"metadata_ntd_maintenance_facilities":0,"metadata_ntd_passenger_stations":0,"metadata_tam_tier":"Tier II","metadata_route_types_json":"{\"3\":1}","metadata_ntd_facilities_json":"{\"maintenance_facilities\":0,\"administrative_and_other_non_passenger_facilities\":1,\"passenger_stations_and_terminals\":0,\"parking_and_other_passenger_facilities\":0,\"total_facilities\":1,\"bus_transfer_centers\":0,\"elevated_fixed_guideway_stations\":0,\"at_grade_fixed_guideway_stations\":0,\"underground_fixed_guideway_stations\":0,\"simple_at_grade_platform_stations\":0,\"exclusive_grade_separated_platform_stations\":0,\"ferryboat_terminals\":0,\"surface_parking_lots\":0,\"parking_structures\":0}","metadata_tam_modes_json":"{\"DR\":{\"total_units_2024\":10,\"units_under_threshold_2024\":9,\"voms_2024\":6,\"total_modal_vrm_2024\":125572,\"total_modal_upt_2024\":57468}}"},"geometry":{"type":"LineString","coordinates":[[-119.398706,35.05613],[-119.398695,35.056937],[-119.398677,35.058352],[-119.398677,35.058408],[-119.398717,35.058408],[-119.399676,35.058419],[-119.399794,35.05842],[-119.399856,35.058421],[-119.400642,35.05843],[-119.400808,35.058431],[-119.400997,35.058434],[-119.401004,35.058496],[-119.401024,35.058717],[-119.401097,35.059152],[-119.401165,35.059579],[-119.401228,35.059879],[-119.40128,35.060083],[-119.401362,35.060294],[-119.401415,35.06039],[-119.401512,35.06062],[-119.401612,35.060884],[-119.401651,35.061034],[-119.40167,35.061157],[-119.401687,35.061313],[-119.401686,35.061434],[-119.401685,35.062148],[-119.401684,35.062182],[-119.401674,35.06252],[-119.401639,35.063875],[-119.401637,35.063956],[-119.401631,35.064165],[-119.401623,35.06475],[-119.401626,35.065043],[-119.401635,35.065188],[-119.401668,35.065341],[-119.401724,35.065511],[-119.401859,35.065843],[-119.401967,35.06621],[-119.401993,35.066536],[-119.401993,35.066946],[-119.40196,35.069211],[-119.401949,35.070076],[-119.401923,35.072209],[-119.401907,35.073402],[-119.401898,35.074039],[-119.401888,35.074774],[-119.401888,35.074786],[-119.401884,35.075312],[-119.401875,35.075629],[-119.401847,35.075946],[-119.401841,35.075986],[-119.4018,35.076262],[-119.401734,35.076575],[-119.401603,35.077029],[-119.401456,35.077333],[-119.401333,35.077603],[-119.401221,35.077877],[-119.401122,35.078154],[-119.401035,35.078434],[-119.400961,35.078717],[-119.400899,35.079001],[-119.400851,35.079287],[-119.400814,35.079574],[-119.400791,35.079863],[-119.400781,35.080151],[-119.400783,35.08044],[-119.400798,35.080729],[-119.400826,35.081017],[-119.400867,35.081303],[-119.400883,35.081386],[-119.400921,35.081589],[-119.401468,35.083438],[-119.401566,35.083769],[-119.402022,35.085321],[-119.402361,35.086456],[-119.402463,35.08674],[-119.402584,35.08702],[-119.402722,35.087293],[-119.402879,35.08756],[-119.403053,35.087819],[-119.403243,35.08807],[-119.40345,35.088313],[-119.403672,35.088546],[-119.404811,35.089716],[-119.404993,35.089903],[-119.405162,35.090077],[-119.40631,35.091257],[-119.40729,35.092264],[-119.408094,35.09309],[-119.408584,35.093594],[-119.40891,35.093929],[-119.410666,35.095741],[-119.410781,35.095857],[-119.411154,35.096236],[-119.414584,35.09976],[-119.414849,35.100033],[-119.415473,35.100674],[-119.415757,35.100966],[-119.417422,35.102677],[-119.417968,35.103238],[-119.419855,35.105176],[-119.42073,35.106075],[-119.422565,35.10796],[-119.426789,35.112299],[-119.429525,35.115109],[-119.430517,35.116128],[-119.431551,35.11719],[-119.43283,35.118503],[-119.434995,35.120726],[-119.435126,35.120861],[-119.436872,35.122656],[-119.437275,35.12307],[-119.442094,35.128025],[-119.445577,35.131543],[-119.445731,35.131772],[-119.446361,35.132389],[-119.446577,35.132646],[-119.446755,35.132871],[-119.446878,35.133031],[-119.44701,35.133274],[-119.447108,35.133602],[-119.447139,35.133676],[-119.44728,35.134137],[-119.447393,35.134654],[-119.447452,35.135082],[-119.44745,35.135357],[-119.447404,35.135677],[-119.447381,35.135852],[-119.44753,35.135888],[-119.447569,35.135904],[-119.447832,35.13603],[-119.448053,35.136397],[-119.448182,35.136767],[-119.448211,35.136876],[-119.448232,35.136968],[-119.448527,35.137711],[-119.448645,35.138033],[-119.448847,35.138682],[-119.448949,35.138827],[-119.44911,35.139101],[-119.449306,35.139358],[-119.449536,35.139597],[-119.449575,35.139633],[-119.450127,35.140031],[-119.45049,35.140213],[-119.451907,35.140737],[-119.453621,35.141235],[-119.453829,35.141296],[-119.455263,35.141759],[-119.456698,35.142222],[-119.457115,35.142355],[-119.458168,35.142691],[-119.459598,35.143159],[-119.461095,35.143643],[-119.460653,35.144565],[-119.460224,35.145462],[-119.459795,35.146358],[-119.459702,35.146552],[-119.459365,35.147255],[-119.458879,35.14827],[-119.458601,35.148852],[-119.458364,35.149347],[-119.458229,35.149304],[-119.456866870943,35.1488855374269],[-119.456594656677,35.1494244096496],[-119.456365423612,35.150103852148],[-119.456336769479,35.1506427163028],[-119.456336769479,35.1512518627896],[-119.456694946144,35.151298720023],[-119.459259491063,35.1512635771007],[-119.461342,35.151271],[-119.462611,35.151256],[-119.46388,35.151242],[-119.464371,35.151236],[-119.465149,35.151227],[-119.465149,35.150914],[-119.465148,35.150437],[-119.465147,35.149384],[-119.465145,35.148067],[-119.465143,35.146788],[-119.465142,35.146227],[-119.465141,35.145046],[-119.465141,35.144906],[-119.464994,35.144861],[-119.464132,35.144599],[-119.462626,35.144124],[-119.461095,35.143643],[-119.459598,35.143159],[-119.458457,35.142786],[-119.458168,35.142691],[-119.456698,35.142222],[-119.455263,35.141759],[-119.454717232278,35.1415869789849],[-119.454178389356,35.1414087187061]]}},{"type":"Feature","properties":{"feed_id":"California__Taft_Area_Transit__mdb_mdb-2236","agency_id":"1722","agency_name":"Taft - Maricopa Area Transit","agency_url":"https://www.cityoftaft.org/pview.aspx?id=5385&catid=563","route_id":"18749","route_short_name":"","route_long_name":"Taft-Maricopa Route","route_desc":"","route_type":"3","route_type_name":"Bus","route_url":"","route_color":"24C2C4","route_text_color":"000000","route_sort_order":"1","continuous_pickup":"1","continuous_drop_off":"1","network_id":"","shape_id":"p_915238","trip_count":1,"direction_ids":"0","trip_headsigns":"Taft","wheelchair_accessible_values":"","bikes_allowed_values":"","metadata_feed_id":"California__Taft_Area_Transit__mdb_mdb-2236","metadata_agency_names":"Taft - Maricopa Area Transit","metadata_ntd_id":"91066","metadata_ntd_match_method":"manual_override","metadata_ntd_agency":"City of Taft, dba: Taft Area Transit","metadata_ntd_city":"Taft","metadata_ntd_state":"CA","metadata_gtfs_route_count":1,"metadata_gtfs_trip_count":6,"metadata_gtfs_shape_count":3,"metadata_gtfs_stop_count":13,"metadata_ntd_agency_voms":3,"metadata_ntd_total_facilities":1,"metadata_ntd_maintenance_facilities":0,"metadata_ntd_passenger_stations":0,"metadata_tam_tier":"Tier II","metadata_route_types_json":"{\"3\":1}","metadata_ntd_facilities_json":"{\"maintenance_facilities\":0,\"administrative_and_other_non_passenger_facilities\":1,\"passenger_stations_and_terminals\":0,\"parking_and_other_passenger_facilities\":0,\"total_facilities\":1,\"bus_transfer_centers\":0,\"elevated_fixed_guideway_stations\":0,\"at_grade_fixed_guideway_stations\":0,\"underground_fixed_guideway_stations\":0,\"simple_at_grade_platform_stations\":0,\"exclusive_grade_separated_platform_stations\":0,\"ferryboat_terminals\":0,\"surface_parking_lots\":0,\"parking_structures\":0}","metadata_tam_modes_json":"{\"DR\":{\"total_units_2024\":10,\"units_under_threshold_2024\":9,\"voms_2024\":6,\"total_modal_vrm_2024\":125572,\"total_modal_upt_2024\":57468}}"},"geometry":{"type":"LineString","coordinates":[[-119.401642,35.063754],[-119.401674,35.06252],[-119.401685,35.062148],[-119.401686,35.061434],[-119.401687,35.061313],[-119.40167,35.061157],[-119.401651,35.061034],[-119.401612,35.060884],[-119.401512,35.06062],[-119.401415,35.06039],[-119.401362,35.060294],[-119.40128,35.060083],[-119.401228,35.059879],[-119.401165,35.059579],[-119.401097,35.059152],[-119.401024,35.058717],[-119.401004,35.058496],[-119.400997,35.058434],[-119.401079,35.058434],[-119.401444,35.058409],[-119.401648,35.058401],[-119.40184,35.058375],[-119.40201,35.058347],[-119.402175,35.058316],[-119.402533,35.058224],[-119.402705,35.058171],[-119.402926,35.058089],[-119.402891,35.058028],[-119.402681,35.057649],[-119.402646,35.057548],[-119.402631,35.05749],[-119.402624,35.057421],[-119.40263,35.057292],[-119.402631,35.057087],[-119.402632,35.056962],[-119.402643,35.056046],[-119.402644,35.055964],[-119.402552,35.055963],[-119.402522,35.055963],[-119.402361,35.055962],[-119.401662,35.055959],[-119.400669,35.055954],[-119.399791,35.055949],[-119.399675,35.055949],[-119.399582,35.055948],[-119.398708,35.055944],[-119.398706,35.05613]]}}],"metadata":{"feed_id":"California__Taft_Area_Transit__mdb_mdb-2236","ntd_id":"91066","feature_metadata_embedded":true}}