{"type":"FeatureCollection","features":[{"type":"Feature","properties":{"feed_id":"Florida__LauderGO!_Water_Trolley__mdb_ntd-44929","agency_id":"go","agency_name":"LauderGO! Water Trolley","agency_url":"https://www.fortlauderdale.gov/government/departments-i-z/transportation-and-mobility/transportation-division/laudergo-mobility-services/laudergo-water-trolley","route_id":"h20trolley","route_short_name":"","route_long_name":"Water Trolley","route_desc":"","route_type":"4","route_type_name":"Ferry","route_url":"","route_color":"FFCC00","route_text_color":"000000","route_sort_order":"","continuous_pickup":"","continuous_drop_off":"","network_id":"","shape_id":"h20trolley","trip_count":35,"direction_ids":"0","trip_headsigns":"","wheelchair_accessible_values":"","bikes_allowed_values":"2","metadata_feed_id":"Florida__LauderGO!_Water_Trolley__mdb_ntd-44929","metadata_agency_names":"LauderGO! Water Trolley","metadata_ntd_id":"90225","metadata_ntd_match_method":"manual_override","metadata_ntd_agency":"San Francisco Bay Area Water Emergency Transportation Authority, dba: San Francisco Bay Ferry","metadata_ntd_city":"San Francisco","metadata_ntd_state":"CA","metadata_gtfs_route_count":1,"metadata_gtfs_trip_count":35,"metadata_gtfs_shape_count":1,"metadata_gtfs_stop_count":8,"metadata_ntd_agency_voms":11,"metadata_ntd_total_facilities":22,"metadata_ntd_maintenance_facilities":0,"metadata_ntd_passenger_stations":14,"metadata_tam_tier":"Tier II","metadata_service_area_sq_miles":127,"metadata_service_area_population":345375,"metadata_route_types_json":"{\"4\":1}","metadata_ntd_facilities_json":"{\"maintenance_facilities\":0,\"administrative_and_other_non_passenger_facilities\":2,\"passenger_stations_and_terminals\":14,\"parking_and_other_passenger_facilities\":6,\"total_facilities\":22,\"bus_transfer_centers\":0,\"elevated_fixed_guideway_stations\":0,\"at_grade_fixed_guideway_stations\":0,\"underground_fixed_guideway_stations\":0,\"simple_at_grade_platform_stations\":0,\"exclusive_grade_separated_platform_stations\":0,\"ferryboat_terminals\":14,\"surface_parking_lots\":5,\"parking_structures\":0}","metadata_tam_modes_json":"{\"FB\":{\"total_units_2024\":42,\"units_under_threshold_2024\":4,\"voms_2024\":11,\"total_modal_vrm_2024\":529247,\"total_modal_upt_2024\":2388379}}"},"geometry":{"type":"LineString","coordinates":[[-80.137319,26.118292],[-80.137965,26.117981],[-80.138243,26.117762],[-80.138487,26.117348],[-80.138737,26.117117],[-80.13911,26.116965],[-80.139909,26.117117],[-80.140655,26.117257],[-80.140946,26.117257],[-80.141454,26.117342],[-80.142884,26.117981],[-80.142884,26.118042],[-80.142999,26.118012],[-80.143505,26.118168],[-80.143871,26.118169],[-80.144333,26.118324],[-80.144606,26.118532],[-80.144623,26.118645],[-80.144768,26.118574],[-80.145167,26.11865],[-80.145469,26.118643],[-80.145972,26.118649],[-80.146468,26.118686],[-80.146932,26.11881],[-80.147509,26.119574],[-80.147632,26.119531],[-80.147978,26.119423],[-80.148001,26.119103],[-80.14757,26.119117],[-80.147378,26.118786],[-80.147206,26.118824],[-80.146522,26.11851],[-80.145741,26.118484],[-80.145318,26.118504],[-80.144678,26.118228],[-80.144334,26.118112],[-80.144152,26.117853],[-80.143929,26.118028],[-80.143152,26.117909],[-80.142752,26.117741],[-80.1426,26.117566],[-80.142437,26.117615],[-80.141516,26.117254],[-80.14099,26.117105],[-80.140136,26.117016],[-80.139125,26.116841],[-80.138789,26.11672],[-80.138706,26.116904],[-80.137907,26.117722],[-80.137616,26.117857],[-80.137266,26.117891],[-80.137045,26.117964],[-80.137101,26.118159],[-80.137319,26.118292]]}}],"metadata":{"feed_id":"Florida__LauderGO!_Water_Trolley__mdb_ntd-44929","ntd_id":"90225","feature_metadata_embedded":true}}