{"type":"FeatureCollection","features":[{"type":"Feature","properties":{"feed_id":"California__Yosemite_National_Park__mdb_tld-6679","agency_id":"NPS","agency_name":"National Park Service","agency_url":"https://www.nps.gov/yose/planyourvisit/publictransportation.htm","route_id":"mposa","route_short_name":"","route_long_name":"Mariposa Grove","route_desc":"","route_type":"3","route_type_name":"Bus","route_url":"","route_color":"0089D0","route_text_color":"FFFFFF","route_sort_order":"","continuous_pickup":"","continuous_drop_off":"","network_id":"","shape_id":"mposa","trip_count":113,"direction_ids":"1","trip_headsigns":"","wheelchair_accessible_values":"1","bikes_allowed_values":"","metadata_feed_id":"California__Yosemite_National_Park__mdb_tld-6679","metadata_agency_names":"National Park Service","metadata_ntd_id":"99468","metadata_ntd_match_method":"manual_override","metadata_ntd_agency":"Jewish Family Service of San Diego","metadata_ntd_city":"San Diego","metadata_ntd_state":"CA","metadata_gtfs_route_count":1,"metadata_gtfs_trip_count":113,"metadata_gtfs_shape_count":1,"metadata_gtfs_stop_count":2,"metadata_ntd_total_facilities":0,"metadata_ntd_maintenance_facilities":0,"metadata_ntd_passenger_stations":0,"metadata_tam_tier":"Tier II","metadata_route_types_json":"{\"3\":1}","metadata_ntd_facilities_json":"{\"maintenance_facilities\":0,\"administrative_and_other_non_passenger_facilities\":0,\"passenger_stations_and_terminals\":0,\"parking_and_other_passenger_facilities\":0,\"total_facilities\":0,\"bus_transfer_centers\":null,\"elevated_fixed_guideway_stations\":null,\"at_grade_fixed_guideway_stations\":null,\"underground_fixed_guideway_stations\":null,\"simple_at_grade_platform_stations\":null,\"exclusive_grade_separated_platform_stations\":null,\"ferryboat_terminals\":null,\"surface_parking_lots\":null,\"parking_structures\":null}","metadata_tam_modes_json":"{\"DR\":{\"total_units_2024\":12,\"units_under_threshold_2024\":2,\"voms_2024\":0,\"total_modal_vrm_2024\":0,\"total_modal_upt_2024\":0}}"},"geometry":{"type":"LineString","coordinates":[[-119.630386,37.506848],[-119.630259,37.506861],[-119.630141,37.506887],[-119.63006,37.506975],[-119.630031,37.507077],[-119.63,37.50714],[-119.62985,37.50717],[-119.62981,37.50718],[-119.62963,37.50723],[-119.62949,37.50727],[-119.62936,37.50731],[-119.62927,37.50734],[-119.62915,37.50737],[-119.62907,37.5074],[-119.62899,37.50742],[-119.62889,37.50744],[-119.62877,37.50747],[-119.62864,37.50749],[-119.62855,37.5075],[-119.62852,37.5075],[-119.62843,37.50751],[-119.62827,37.50751],[-119.62812,37.5075],[-119.62791,37.50747],[-119.62788,37.50747],[-119.62777,37.50745],[-119.62749,37.50739],[-119.62744,37.50738],[-119.62737,37.50737],[-119.62729,37.50736],[-119.6271,37.50736],[-119.62699,37.50737],[-119.62697,37.50738],[-119.62683,37.50741],[-119.62671,37.50745],[-119.62662,37.50748],[-119.62656,37.5075],[-119.6265,37.50752],[-119.62647,37.50753],[-119.62637,37.50755],[-119.62635,37.50755],[-119.6263,37.50756],[-119.62621,37.50756],[-119.62612,37.50756],[-119.62605,37.50755],[-119.62597,37.50753],[-119.62591,37.50751],[-119.62591,37.5075],[-119.62584,37.50747],[-119.62577,37.50743],[-119.62575,37.50741],[-119.62571,37.50738],[-119.62566,37.50732],[-119.62563,37.50727],[-119.62562,37.50726],[-119.6256,37.50723],[-119.62554,37.50713],[-119.62553,37.5071],[-119.6255,37.50705],[-119.62546,37.50698],[-119.62543,37.50694],[-119.62538,37.50689],[-119.62534,37.50684],[-119.6253,37.50681],[-119.62529,37.5068],[-119.62525,37.50677],[-119.62518,37.50672],[-119.62512,37.50668],[-119.6251,37.50667],[-119.62503,37.50664],[-119.62493,37.5066],[-119.62491,37.5066],[-119.62483,37.50657],[-119.62467,37.50655],[-119.62448,37.50654],[-119.62447,37.50654],[-119.6243,37.50654],[-119.62411,37.50651],[-119.624,37.50649],[-119.62389,37.50645],[-119.62382,37.50641],[-119.62381,37.50641],[-119.62374,37.50634],[-119.62369,37.50629],[-119.62364,37.50622],[-119.62361,37.50614],[-119.62359,37.50611],[-119.62358,37.50606],[-119.62358,37.50597],[-119.62358,37.50593],[-119.62358,37.50591],[-119.62361,37.5058],[-119.62363,37.50576],[-119.62366,37.50569],[-119.62373,37.50558],[-119.62379,37.50549],[-119.62383,37.50543],[-119.62385,37.5054],[-119.6239,37.50528],[-119.6239,37.50526],[-119.62392,37.5052],[-119.62393,37.50508],[-119.62394,37.50506],[-119.62394,37.50499],[-119.62393,37.50491],[-119.62391,37.50473],[-119.6239,37.50464],[-119.6239,37.50455],[-119.6239,37.50452],[-119.6239,37.50444],[-119.62391,37.50438],[-119.62392,37.50432],[-119.62395,37.50424],[-119.62398,37.50419],[-119.62401,37.50413],[-119.62407,37.50403],[-119.62411,37.50396],[-119.62425,37.50377],[-119.62428,37.50371],[-119.62431,37.50364],[-119.62433,37.50359],[-119.62435,37.50354],[-119.62435,37.50353],[-119.62437,37.50343],[-119.62437,37.50332],[-119.62436,37.50322],[-119.62436,37.50318],[-119.62435,37.50307],[-119.62435,37.503],[-119.62435,37.50298],[-119.62437,37.5029],[-119.62438,37.50282],[-119.6244,37.50277],[-119.62446,37.50266],[-119.62446,37.50265],[-119.62455,37.50256],[-119.62462,37.50249],[-119.62477,37.50238],[-119.62496,37.5023],[-119.62498,37.50229],[-119.62518,37.50221],[-119.62532,37.50215],[-119.62536,37.50213],[-119.62542,37.5021],[-119.6255,37.50204],[-119.62553,37.50202],[-119.62558,37.50197],[-119.62563,37.50192],[-119.62566,37.50188],[-119.62572,37.50177],[-119.62576,37.50168],[-119.62578,37.50155],[-119.62578,37.50143],[-119.62578,37.50131],[-119.62575,37.50117],[-119.62572,37.50106],[-119.62569,37.50092],[-119.62568,37.5008],[-119.62568,37.50065],[-119.62568,37.50064],[-119.6257,37.50048],[-119.62575,37.50029],[-119.62579,37.50015],[-119.62582,37.49999],[-119.62582,37.49986],[-119.6258,37.49974],[-119.62575,37.49964],[-119.62571,37.49958],[-119.6257,37.49957],[-119.62564,37.4995],[-119.62557,37.49944],[-119.62555,37.49942],[-119.62544,37.49935],[-119.62534,37.49929],[-119.62526,37.49926],[-119.62516,37.49923],[-119.625,37.4992],[-119.62498,37.4992],[-119.62493,37.4992],[-119.62489,37.4992],[-119.62482,37.49921],[-119.62475,37.49921],[-119.62463,37.49924],[-119.62455,37.49926],[-119.62433,37.49934],[-119.62424,37.49937],[-119.62413,37.49942],[-119.62389,37.49953],[-119.62372,37.49958],[-119.62368,37.4996],[-119.62353,37.49968],[-119.62352,37.49968],[-119.62337,37.49978],[-119.62328,37.49986],[-119.62321,37.49996],[-119.62316,37.50004],[-119.62314,37.5001],[-119.62313,37.50011],[-119.62311,37.50021],[-119.6231,37.50028],[-119.62307,37.50044],[-119.62307,37.50046],[-119.62304,37.50061],[-119.623,37.50073],[-119.62296,37.50079],[-119.62296,37.5008],[-119.62294,37.50083],[-119.62283,37.50095],[-119.62282,37.50097],[-119.62268,37.5011],[-119.62256,37.50116],[-119.6225,37.50119],[-119.62229,37.50125],[-119.62221,37.50128],[-119.62207,37.50132],[-119.62189,37.50137],[-119.62186,37.50137],[-119.62164,37.50143],[-119.62143,37.50149],[-119.6214,37.50149],[-119.62121,37.50154],[-119.62056,37.50169],[-119.62053,37.50169],[-119.62034,37.50174],[-119.62019,37.50177],[-119.61993,37.50185],[-119.61958,37.50194],[-119.61944,37.50196],[-119.61934,37.50195],[-119.61925,37.50195],[-119.61916,37.50194],[-119.61903,37.5019],[-119.619,37.50189],[-119.61887,37.50182],[-119.61877,37.50173],[-119.61873,37.50167],[-119.61873,37.50165],[-119.61861,37.50139],[-119.61858,37.50131],[-119.61855,37.50121],[-119.61853,37.50114],[-119.61845,37.50091],[-119.61842,37.50079],[-119.61842,37.50078],[-119.6184,37.5006],[-119.61837,37.50051],[-119.61833,37.50045],[-119.61829,37.50041],[-119.61823,37.50038],[-119.61815,37.50036],[-119.61813,37.50036],[-119.61791,37.50033],[-119.61766,37.50031],[-119.61758,37.50029],[-119.61742,37.50023],[-119.61721,37.50012],[-119.61707,37.50008],[-119.61702,37.50006],[-119.61695,37.50005],[-119.61688,37.50005],[-119.61685,37.50006],[-119.61682,37.50007],[-119.61668,37.50013],[-119.61638,37.5003],[-119.61613,37.50046],[-119.61603,37.5005],[-119.61597,37.50052],[-119.61591,37.50054],[-119.61584,37.50054],[-119.61555,37.50054],[-119.61545,37.50053],[-119.61539,37.50052],[-119.61505,37.50053],[-119.61482,37.50055],[-119.61478,37.50056],[-119.61454,37.50063],[-119.61442,37.50066],[-119.61434,37.50066],[-119.61432,37.50067],[-119.61424,37.50066],[-119.61412,37.50063],[-119.61391,37.50058],[-119.61389,37.50058],[-119.61369,37.50053],[-119.61363,37.50052],[-119.61348,37.50052],[-119.61346,37.50052],[-119.61341,37.50053],[-119.61332,37.50056],[-119.61326,37.50059],[-119.61325,37.50059],[-119.61318,37.50065],[-119.61311,37.50071],[-119.61304,37.50082],[-119.61299,37.50097],[-119.61296,37.50111],[-119.61293,37.50124],[-119.61291,37.50129],[-119.61288,37.50137],[-119.61285,37.50141],[-119.61282,37.50144],[-119.61279,37.50146],[-119.61275,37.50146],[-119.61269,37.50147],[-119.61265,37.50146],[-119.61243,37.50145],[-119.61196,37.50142],[-119.61128,37.50149],[-119.61104,37.5015],[-119.61097,37.50149],[-119.61093,37.50149],[-119.61092,37.50148],[-119.61089,37.50147],[-119.61087,37.50145],[-119.61086,37.50143],[-119.61084,37.50139],[-119.61084,37.50135],[-119.61084,37.5013],[-119.61087,37.50124],[-119.61089,37.5012],[-119.61091,37.50118],[-119.61095,37.50117],[-119.61107,37.50113],[-119.6112,37.50109],[-119.61126,37.50107],[-119.61128,37.50107],[-119.61131,37.50106],[-119.61139,37.50106],[-119.61151,37.50107],[-119.61153,37.50107],[-119.61163,37.50109],[-119.6117,37.50111],[-119.61175,37.50113],[-119.6118,37.50117],[-119.61184,37.50122],[-119.61187,37.50125],[-119.61191,37.5013],[-119.61193,37.50134],[-119.61196,37.50142],[-119.61243,37.50145],[-119.61265,37.50146],[-119.61269,37.50147],[-119.61275,37.50146],[-119.61279,37.50146],[-119.61282,37.50144],[-119.61285,37.50141],[-119.61288,37.50137],[-119.61291,37.50129],[-119.61293,37.50124],[-119.61296,37.50111],[-119.61299,37.50097],[-119.61304,37.50082],[-119.61311,37.50071],[-119.61318,37.50065],[-119.61325,37.50059],[-119.61326,37.50059],[-119.61332,37.50056],[-119.61341,37.50053],[-119.61346,37.50052],[-119.61348,37.50052],[-119.61363,37.50052],[-119.61369,37.50053],[-119.61389,37.50058],[-119.61391,37.50058],[-119.61412,37.50063],[-119.61424,37.50066],[-119.61432,37.50067],[-119.61434,37.50066],[-119.61442,37.50066],[-119.61454,37.50063],[-119.61478,37.50056],[-119.61482,37.50055],[-119.61505,37.50053],[-119.61539,37.50052],[-119.61545,37.50053],[-119.61555,37.50054],[-119.61584,37.50054],[-119.61591,37.50054],[-119.61597,37.50052],[-119.61603,37.5005],[-119.61613,37.50046],[-119.61638,37.5003],[-119.61668,37.50013],[-119.61682,37.50007],[-119.61685,37.50006],[-119.61688,37.50005],[-119.61695,37.50005],[-119.61702,37.50006],[-119.61707,37.50008],[-119.61721,37.50012],[-119.61742,37.50023],[-119.61758,37.50029],[-119.61766,37.50031],[-119.61791,37.50033],[-119.61813,37.50036],[-119.61815,37.50036],[-119.61823,37.50038],[-119.61829,37.50041],[-119.61833,37.50045],[-119.61837,37.50051],[-119.6184,37.5006],[-119.61842,37.50078],[-119.61842,37.50079],[-119.61845,37.50091],[-119.61853,37.50114],[-119.61855,37.50121],[-119.61858,37.50131],[-119.61861,37.50139],[-119.61873,37.50165],[-119.61873,37.50167],[-119.61877,37.50173],[-119.61887,37.50182],[-119.619,37.50189],[-119.61903,37.5019],[-119.61916,37.50194],[-119.61925,37.50195],[-119.61934,37.50195],[-119.61944,37.50196],[-119.61958,37.50194],[-119.61993,37.50185],[-119.62019,37.50177],[-119.62034,37.50174],[-119.62053,37.50169],[-119.62056,37.50169],[-119.62121,37.50154],[-119.6214,37.50149],[-119.62143,37.50149],[-119.62164,37.50143],[-119.62186,37.50137],[-119.62189,37.50137],[-119.62207,37.50132],[-119.62221,37.50128],[-119.62229,37.50125],[-119.6225,37.50119],[-119.62256,37.50116],[-119.62268,37.5011],[-119.62282,37.50097],[-119.62283,37.50095],[-119.62294,37.50083],[-119.62296,37.5008],[-119.62296,37.50079],[-119.623,37.50073],[-119.62304,37.50061],[-119.62307,37.50046],[-119.62307,37.50044],[-119.6231,37.50028],[-119.62311,37.50021],[-119.62313,37.50011],[-119.62314,37.5001],[-119.62316,37.50004],[-119.62321,37.49996],[-119.62328,37.49986],[-119.62337,37.49978],[-119.62352,37.49968],[-119.62353,37.49968],[-119.62368,37.4996],[-119.62372,37.49958],[-119.62389,37.49953],[-119.62413,37.49942],[-119.62424,37.49937],[-119.62433,37.49934],[-119.62455,37.49926],[-119.62463,37.49924],[-119.62475,37.49921],[-119.62482,37.49921],[-119.62489,37.4992],[-119.62493,37.4992],[-119.62498,37.4992],[-119.625,37.4992],[-119.62516,37.49923],[-119.62526,37.49926],[-119.62534,37.49929],[-119.62544,37.49935],[-119.62555,37.49942],[-119.62557,37.49944],[-119.62564,37.4995],[-119.6257,37.49957],[-119.62571,37.49958],[-119.62575,37.49964],[-119.6258,37.49974],[-119.62582,37.49986],[-119.62582,37.49999],[-119.62579,37.50015],[-119.62575,37.50029],[-119.6257,37.50048],[-119.62568,37.50064],[-119.62568,37.50065],[-119.62568,37.5008],[-119.62569,37.50092],[-119.62572,37.50106],[-119.62575,37.50117],[-119.62578,37.50131],[-119.62578,37.50143],[-119.62578,37.50155],[-119.62576,37.50168],[-119.62572,37.50177],[-119.62566,37.50188],[-119.62563,37.50192],[-119.62558,37.50197],[-119.62553,37.50202],[-119.6255,37.50204],[-119.62542,37.5021],[-119.62536,37.50213],[-119.62532,37.50215],[-119.62518,37.50221],[-119.62498,37.50229],[-119.62496,37.5023],[-119.62477,37.50238],[-119.62462,37.50249],[-119.62455,37.50256],[-119.62446,37.50265],[-119.62446,37.50266],[-119.6244,37.50277],[-119.62438,37.50282],[-119.62437,37.5029],[-119.62435,37.50298],[-119.62435,37.503],[-119.62435,37.50307],[-119.62436,37.50318],[-119.62436,37.50322],[-119.62437,37.50332],[-119.62437,37.50343],[-119.62435,37.50353],[-119.62435,37.50354],[-119.62433,37.50359],[-119.62431,37.50364],[-119.62428,37.50371],[-119.62425,37.50377],[-119.62411,37.50396],[-119.62407,37.50403],[-119.62401,37.50413],[-119.62398,37.50419],[-119.62395,37.50424],[-119.62392,37.50432],[-119.62391,37.50438],[-119.6239,37.50444],[-119.6239,37.50452],[-119.6239,37.50455],[-119.6239,37.50464],[-119.62391,37.50473],[-119.62393,37.50491],[-119.62394,37.50499],[-119.62394,37.50506],[-119.62393,37.50508],[-119.62392,37.5052],[-119.6239,37.50526],[-119.6239,37.50528],[-119.62385,37.5054],[-119.62383,37.50543],[-119.62379,37.50549],[-119.62373,37.50558],[-119.62366,37.50569],[-119.62363,37.50576],[-119.62361,37.5058],[-119.62358,37.50591],[-119.62358,37.50593],[-119.62358,37.50597],[-119.62358,37.50606],[-119.62359,37.50611],[-119.62361,37.50614],[-119.62364,37.50622],[-119.62369,37.50629],[-119.62374,37.50634],[-119.62381,37.50641],[-119.62382,37.50641],[-119.62389,37.50645],[-119.624,37.50649],[-119.62411,37.50651],[-119.6243,37.50654],[-119.62447,37.50654],[-119.62448,37.50654],[-119.62467,37.50655],[-119.62483,37.50657],[-119.62491,37.5066],[-119.62493,37.5066],[-119.62503,37.50664],[-119.6251,37.50667],[-119.62512,37.50668],[-119.62518,37.50672],[-119.62525,37.50677],[-119.62529,37.5068],[-119.6253,37.50681],[-119.62534,37.50684],[-119.62538,37.50689],[-119.62543,37.50694],[-119.62546,37.50698],[-119.6255,37.50705],[-119.62553,37.5071],[-119.62554,37.50713],[-119.6256,37.50723],[-119.62562,37.50726],[-119.62563,37.50727],[-119.62566,37.50732],[-119.62571,37.50738],[-119.62575,37.50741],[-119.62577,37.50743],[-119.62584,37.50747],[-119.62591,37.5075],[-119.62591,37.50751],[-119.62597,37.50753],[-119.62605,37.50755],[-119.62612,37.50756],[-119.62621,37.50756],[-119.6263,37.50756],[-119.62635,37.50755],[-119.62637,37.50755],[-119.62647,37.50753],[-119.6265,37.50752],[-119.62656,37.5075],[-119.62662,37.50748],[-119.62671,37.50745],[-119.62683,37.50741],[-119.62697,37.50738],[-119.62699,37.50737],[-119.6271,37.50736],[-119.62729,37.50736],[-119.62737,37.50737],[-119.62744,37.50738],[-119.62749,37.50739],[-119.62777,37.50745],[-119.62788,37.50747],[-119.62791,37.50747],[-119.62812,37.5075],[-119.62826,37.50751],[-119.62827,37.50751],[-119.62843,37.50751],[-119.62852,37.5075],[-119.62855,37.5075],[-119.62864,37.50749],[-119.62877,37.50747],[-119.62889,37.50744],[-119.62899,37.50742],[-119.62907,37.5074],[-119.62915,37.50737],[-119.62927,37.50734],[-119.62936,37.50731],[-119.62949,37.50727],[-119.62963,37.50723],[-119.62981,37.50718],[-119.62985,37.50717],[-119.63,37.50714],[-119.630309,37.507093],[-119.630356,37.507092],[-119.630473,37.507076],[-119.630651,37.507068],[-119.630778,37.507064],[-119.630795,37.507023],[-119.630797,37.506948],[-119.630757,37.506906],[-119.630677,37.506882],[-119.630598,37.506874],[-119.630517,37.506859],[-119.630479,37.506855]]}}],"metadata":{"feed_id":"California__Yosemite_National_Park__mdb_tld-6679","ntd_id":"99468","feature_metadata_embedded":true}}