{"type":"FeatureCollection","features":[{"type":"Feature","properties":{"feed_id":"Utah__Zion_National_Park__mdb_tld-6682","agency_id":"NPS","agency_name":"National Park Service","agency_url":"https://www.nps.gov/zion/index.htm","route_id":"canyon","route_short_name":"","route_long_name":"Zion Canyon Line","route_desc":"","route_type":"3","route_type_name":"Bus","route_url":"https://www.nps.gov/zion/planyourvisit/zion-canyon-shuttle-system.htm","route_color":"436E2E","route_text_color":"FFFFFF","route_sort_order":"","continuous_pickup":"1","continuous_drop_off":"1","network_id":"","shape_id":"canyonib","trip_count":671,"direction_ids":"1","trip_headsigns":"Zion Canyon Visitor Center","wheelchair_accessible_values":"1","bikes_allowed_values":"1","metadata_feed_id":"Utah__Zion_National_Park__mdb_tld-6682","metadata_agency_names":"National Park Service","metadata_ntd_id":"88233","metadata_ntd_match_method":"manual_override","metadata_ntd_agency":"Uintah Healthcare Special Service District","metadata_ntd_city":"Vernal","metadata_ntd_state":"UT","metadata_gtfs_route_count":2,"metadata_gtfs_trip_count":1734,"metadata_gtfs_shape_count":4,"metadata_gtfs_stop_count":30,"metadata_ntd_agency_voms":0,"metadata_ntd_total_facilities":1,"metadata_ntd_maintenance_facilities":0,"metadata_ntd_passenger_stations":0,"metadata_route_types_json":"{\"3\":2}","metadata_ntd_facilities_json":"{\"maintenance_facilities\":0,\"administrative_and_other_non_passenger_facilities\":1,\"passenger_stations_and_terminals\":0,\"parking_and_other_passenger_facilities\":0,\"total_facilities\":1,\"bus_transfer_centers\":0,\"elevated_fixed_guideway_stations\":0,\"at_grade_fixed_guideway_stations\":0,\"underground_fixed_guideway_stations\":0,\"simple_at_grade_platform_stations\":0,\"exclusive_grade_separated_platform_stations\":0,\"ferryboat_terminals\":0,\"surface_parking_lots\":0,\"parking_structures\":0}","metadata_tam_modes_json":"{}"},"geometry":{"type":"LineString","coordinates":[[-112.94756,37.28515],[-112.94782,37.28516],[-112.94789,37.28513],[-112.94793,37.28509],[-112.94794,37.28506],[-112.94794,37.285],[-112.94792,37.28494],[-112.94789,37.28491],[-112.9478,37.28487],[-112.94776,37.28486],[-112.94745,37.28483],[-112.9464,37.28493],[-112.94559,37.28487],[-112.94501,37.28487],[-112.94491,37.28485],[-112.94486,37.28483],[-112.94474,37.28473],[-112.94471,37.28468],[-112.94466,37.28457],[-112.94457,37.28432],[-112.94455,37.28415],[-112.94458,37.28399],[-112.94459,37.28397],[-112.94461,37.2839],[-112.94465,37.28383],[-112.94465,37.28382],[-112.94467,37.2838],[-112.9447,37.28374],[-112.94486,37.28354],[-112.94489,37.28352],[-112.94504,37.28338],[-112.94506,37.28337],[-112.94517,37.28327],[-112.94552,37.283],[-112.94554,37.28299],[-112.9456,37.28294],[-112.94568,37.28289],[-112.94575,37.28286],[-112.9459,37.28282],[-112.94635,37.28275],[-112.94637,37.28274],[-112.94639,37.28274],[-112.9466,37.2827],[-112.94682,37.28262],[-112.94689,37.28257],[-112.94704,37.28241],[-112.94706,37.28236],[-112.94707,37.28235],[-112.94707,37.28233],[-112.9471,37.28225],[-112.9471,37.28217],[-112.94707,37.28201],[-112.94704,37.28195],[-112.94693,37.28181],[-112.94686,37.28175],[-112.94674,37.28167],[-112.94661,37.28161],[-112.9466,37.2816],[-112.94593,37.28129],[-112.94554,37.28108],[-112.94533,37.28091],[-112.94489,37.2805],[-112.94474,37.28034],[-112.94466,37.28023],[-112.9446,37.2801],[-112.94458,37.28003],[-112.94457,37.28001],[-112.94453,37.2798],[-112.94453,37.27965],[-112.94452,37.2796],[-112.94452,37.27891],[-112.94453,37.27877],[-112.94464,37.27842],[-112.94467,37.27837],[-112.94474,37.27816],[-112.94481,37.27803],[-112.9449,37.2779],[-112.94506,37.27773],[-112.94614,37.27679],[-112.94632,37.2766],[-112.94637,37.27652],[-112.94645,37.27634],[-112.94647,37.27618],[-112.94647,37.27558],[-112.9465,37.27532],[-112.94665,37.27474],[-112.94667,37.2746],[-112.94667,37.27434],[-112.94661,37.27334],[-112.94658,37.27329],[-112.94661,37.27324],[-112.94662,37.27321],[-112.94662,37.27317],[-112.94661,37.27311],[-112.94655,37.27307],[-112.94641,37.27301],[-112.94623,37.27295],[-112.94612,37.27293],[-112.94606,37.27293],[-112.94598,37.27297],[-112.94593,37.27301],[-112.9459,37.27302],[-112.94589,37.27304],[-112.94588,37.27305],[-112.9454,37.27316],[-112.94459,37.27341],[-112.94411,37.2737],[-112.94391,37.27379],[-112.94371,37.27386],[-112.94326,37.27396],[-112.94287,37.274],[-112.94249,37.274],[-112.94222,37.27398],[-112.94219,37.27397],[-112.94202,37.27395],[-112.94168,37.27388],[-112.94133,37.27377],[-112.94104,37.27366],[-112.94016,37.27321],[-112.93993,37.27304],[-112.93972,37.27284],[-112.93963,37.27273],[-112.93958,37.27265],[-112.93954,37.2726],[-112.93951,37.27255],[-112.93946,37.27244],[-112.93946,37.27243],[-112.93937,37.27223],[-112.93933,37.27211],[-112.93928,37.27184],[-112.93928,37.27155],[-112.93931,37.27137],[-112.93937,37.27116],[-112.93937,37.27115],[-112.93972,37.27049],[-112.93973,37.27045],[-112.93995,37.27],[-112.94012,37.26974],[-112.94018,37.26967],[-112.94058,37.26929],[-112.9409,37.26906],[-112.94115,37.26891],[-112.94147,37.26875],[-112.94189,37.26858],[-112.94212,37.26852],[-112.94242,37.26847],[-112.94245,37.26846],[-112.94301,37.26838],[-112.94349,37.26825],[-112.94382,37.2681],[-112.94404,37.26797],[-112.94421,37.26785],[-112.94439,37.26763],[-112.94448,37.26748],[-112.9446,37.26721],[-112.94461,37.26717],[-112.94475,37.26687],[-112.94476,37.26683],[-112.94491,37.26653],[-112.94493,37.2665],[-112.94523,37.26587],[-112.94527,37.26581],[-112.94531,37.26573],[-112.94536,37.26566],[-112.94551,37.2655],[-112.94557,37.26545],[-112.94578,37.26533],[-112.94605,37.26524],[-112.94606,37.26524],[-112.94616,37.26521],[-112.94662,37.26514],[-112.94667,37.26514],[-112.9471,37.26503],[-112.94724,37.26497],[-112.94746,37.26485],[-112.94769,37.26468],[-112.94778,37.26459],[-112.94798,37.26435],[-112.94821,37.26403],[-112.94862,37.2634],[-112.94871,37.26323],[-112.94875,37.26306],[-112.94876,37.26286],[-112.94872,37.26261],[-112.94842,37.26136],[-112.94838,37.26108],[-112.94838,37.261],[-112.94843,37.26078],[-112.94847,37.26066],[-112.94848,37.26065],[-112.94861,37.2604],[-112.9487,37.26028],[-112.94904,37.25997],[-112.9494,37.25975],[-112.94955,37.25969],[-112.95045,37.25945],[-112.95045,37.25922],[-112.95047,37.25919],[-112.95102,37.25903],[-112.95105,37.25903],[-112.95115,37.25901],[-112.95125,37.25903],[-112.95171,37.25902],[-112.95205,37.25878],[-112.95208,37.25877],[-112.95235,37.25857],[-112.9527,37.25823],[-112.95296,37.25793],[-112.95315,37.25763],[-112.95321,37.25748],[-112.95323,37.25745],[-112.95389,37.25585],[-112.95416,37.25532],[-112.95449,37.25479],[-112.95489,37.25429],[-112.95544,37.25374],[-112.95702,37.25247],[-112.95661,37.25217],[-112.95642,37.25196],[-112.95637,37.25192],[-112.95633,37.2519],[-112.95626,37.25188],[-112.95621,37.25189],[-112.95617,37.25191],[-112.95615,37.25193],[-112.95611,37.25199],[-112.95611,37.25224],[-112.95613,37.25236],[-112.9562,37.25244],[-112.95628,37.25249],[-112.95638,37.25249],[-112.95641,37.25248],[-112.95642,37.25247],[-112.95645,37.25246],[-112.95646,37.25245],[-112.95647,37.25243],[-112.95649,37.25241],[-112.95652,37.25232],[-112.95661,37.25217],[-112.95702,37.25247],[-112.95742,37.25217],[-112.95758,37.25203],[-112.95778,37.25182],[-112.95788,37.25167],[-112.95792,37.25158],[-112.95796,37.25146],[-112.95798,37.25129],[-112.95798,37.25117],[-112.95789,37.25053],[-112.95784,37.25034],[-112.95684,37.24411],[-112.9568,37.24377],[-112.9568,37.24345],[-112.95686,37.24299],[-112.95696,37.24264],[-112.95696,37.24263],[-112.95703,37.24246],[-112.95706,37.24241],[-112.95711,37.2423],[-112.95749,37.2417],[-112.96082,37.23693],[-112.96103,37.23647],[-112.96107,37.23632],[-112.96107,37.23629],[-112.96111,37.23612],[-112.96113,37.23596],[-112.96114,37.23551],[-112.96118,37.23528],[-112.96126,37.23505],[-112.96134,37.23488],[-112.96149,37.23463],[-112.96165,37.23443],[-112.96239,37.23367],[-112.96251,37.23346],[-112.96254,37.23337],[-112.96257,37.23324],[-112.96257,37.23306],[-112.96256,37.23301],[-112.96254,37.23277],[-112.96256,37.23255],[-112.96263,37.23233],[-112.96304,37.23158],[-112.96308,37.23147],[-112.96312,37.23132],[-112.96313,37.23124],[-112.96313,37.23099],[-112.96301,37.23023],[-112.96302,37.23004],[-112.96305,37.22996],[-112.9631,37.22988],[-112.96317,37.22979],[-112.96336,37.22966],[-112.96382,37.2294],[-112.96419,37.22922],[-112.96495,37.22892],[-112.9652,37.22879],[-112.96545,37.22864],[-112.96579,37.22836],[-112.96588,37.22827],[-112.96598,37.22819],[-112.96599,37.22819],[-112.96607,37.22813],[-112.96619,37.22806],[-112.9666,37.22787],[-112.96671,37.22779],[-112.96677,37.22773],[-112.96681,37.22767],[-112.96687,37.22754],[-112.96692,37.22738],[-112.96716,37.22681],[-112.96748,37.22614],[-112.96768,37.22578],[-112.9691,37.22379],[-112.96968,37.22314],[-112.97068,37.22224],[-112.97086,37.22204],[-112.97107,37.22177],[-112.97125,37.22158],[-112.97136,37.2215],[-112.97138,37.22148],[-112.97149,37.22141],[-112.97173,37.22131],[-112.97176,37.22129],[-112.97276,37.22101],[-112.97317,37.22084],[-112.97333,37.22074],[-112.97347,37.22061],[-112.97357,37.22048],[-112.97361,37.22033],[-112.97362,37.22025],[-112.97362,37.22017],[-112.97346,37.21947],[-112.97346,37.21936],[-112.97348,37.21922],[-112.97351,37.21914],[-112.97351,37.21913],[-112.97357,37.21896],[-112.97366,37.2188],[-112.97366,37.21879],[-112.97385,37.21848],[-112.97385,37.21847],[-112.97411,37.21801],[-112.97431,37.21773],[-112.97443,37.21752],[-112.97463,37.21754],[-112.97467,37.21755],[-112.97508,37.21758],[-112.9751,37.21759],[-112.97526,37.2176],[-112.97531,37.21761],[-112.97553,37.2176],[-112.97559,37.21759],[-112.97572,37.21753],[-112.97579,37.21748],[-112.97588,37.2174],[-112.97596,37.21729],[-112.97609,37.21707],[-112.97609,37.21706],[-112.97685,37.21563],[-112.97725,37.21468],[-112.97814,37.21205],[-112.97824,37.2118],[-112.97826,37.21178],[-112.97843,37.21145],[-112.97867,37.21106],[-112.97872,37.21097],[-112.97887,37.21064],[-112.97899,37.21032],[-112.979,37.21026],[-112.97905,37.2101],[-112.97908,37.20979],[-112.97936,37.20967],[-112.97994,37.20931],[-112.98,37.20926],[-112.98009,37.20916],[-112.98021,37.20899],[-112.98021,37.20898],[-112.98033,37.20866],[-112.98037,37.20845],[-112.98037,37.20838],[-112.98036,37.20831],[-112.98034,37.20827],[-112.98029,37.20823],[-112.98022,37.20821],[-112.98013,37.20822],[-112.98006,37.20824],[-112.98002,37.20827],[-112.98,37.20832],[-112.97997,37.20857],[-112.97989,37.20889],[-112.97984,37.209],[-112.97966,37.20929],[-112.97964,37.20936],[-112.97964,37.20942],[-112.97963,37.2095],[-112.97936,37.20967],[-112.97908,37.20979],[-112.97911,37.20964],[-112.97919,37.20888],[-112.97922,37.20876],[-112.97936,37.20844],[-112.97941,37.20837],[-112.97946,37.20828],[-112.97958,37.20814],[-112.97984,37.20789],[-112.98003,37.20776],[-112.98038,37.20757],[-112.98072,37.20744],[-112.9816,37.20725],[-112.982,37.20714],[-112.98249,37.20694],[-112.98253,37.20691],[-112.9827,37.20682],[-112.98305,37.20655],[-112.98331,37.20627],[-112.98352,37.20598],[-112.98395,37.20521],[-112.98408,37.20503],[-112.98439,37.20471],[-112.98466,37.20449],[-112.98497,37.20428],[-112.98511,37.20421],[-112.98517,37.20417],[-112.98568,37.20397],[-112.98608,37.20385],[-112.9866,37.20363],[-112.98703,37.20336],[-112.98744,37.20302],[-112.98784,37.20262],[-112.98745,37.20237],[-112.98704,37.20207],[-112.98691,37.20194],[-112.98679,37.20179],[-112.98661,37.2015],[-112.98645,37.2012],[-112.98612,37.20065],[-112.98645,37.20053],[-112.98652,37.20052],[-112.98659,37.20052],[-112.98666,37.20054],[-112.98671,37.20057],[-112.98674,37.20062],[-112.98676,37.20064],[-112.98677,37.20066],[-112.98677,37.20068]]}},{"type":"Feature","properties":{"feed_id":"Utah__Zion_National_Park__mdb_tld-6682","agency_id":"NPS","agency_name":"National Park Service","agency_url":"https://www.nps.gov/zion/index.htm","route_id":"canyon","route_short_name":"","route_long_name":"Zion Canyon Line","route_desc":"","route_type":"3","route_type_name":"Bus","route_url":"https://www.nps.gov/zion/planyourvisit/zion-canyon-shuttle-system.htm","route_color":"436E2E","route_text_color":"FFFFFF","route_sort_order":"","continuous_pickup":"1","continuous_drop_off":"1","network_id":"","shape_id":"canyonob","trip_count":629,"direction_ids":"0","trip_headsigns":"Temple of Sinawava","wheelchair_accessible_values":"1","bikes_allowed_values":"1","metadata_feed_id":"Utah__Zion_National_Park__mdb_tld-6682","metadata_agency_names":"National Park Service","metadata_ntd_id":"88233","metadata_ntd_match_method":"manual_override","metadata_ntd_agency":"Uintah Healthcare Special Service District","metadata_ntd_city":"Vernal","metadata_ntd_state":"UT","metadata_gtfs_route_count":2,"metadata_gtfs_trip_count":1734,"metadata_gtfs_shape_count":4,"metadata_gtfs_stop_count":30,"metadata_ntd_agency_voms":0,"metadata_ntd_total_facilities":1,"metadata_ntd_maintenance_facilities":0,"metadata_ntd_passenger_stations":0,"metadata_route_types_json":"{\"3\":2}","metadata_ntd_facilities_json":"{\"maintenance_facilities\":0,\"administrative_and_other_non_passenger_facilities\":1,\"passenger_stations_and_terminals\":0,\"parking_and_other_passenger_facilities\":0,\"total_facilities\":1,\"bus_transfer_centers\":0,\"elevated_fixed_guideway_stations\":0,\"at_grade_fixed_guideway_stations\":0,\"underground_fixed_guideway_stations\":0,\"simple_at_grade_platform_stations\":0,\"exclusive_grade_separated_platform_stations\":0,\"ferryboat_terminals\":0,\"surface_parking_lots\":0,\"parking_structures\":0}","metadata_tam_modes_json":"{}"},"geometry":{"type":"LineString","coordinates":[[-112.98677,37.20068],[-112.98677,37.20066],[-112.98676,37.20064],[-112.98674,37.20062],[-112.98671,37.20057],[-112.98666,37.20054],[-112.98659,37.20052],[-112.98652,37.20052],[-112.98645,37.20053],[-112.98612,37.20065],[-112.98645,37.2012],[-112.98661,37.2015],[-112.98679,37.20179],[-112.98691,37.20194],[-112.98704,37.20207],[-112.98745,37.20237],[-112.98749,37.20254],[-112.9875,37.20266],[-112.98748,37.20298],[-112.98703,37.20336],[-112.9866,37.20363],[-112.98608,37.20385],[-112.98568,37.20397],[-112.98517,37.20417],[-112.98511,37.20421],[-112.98497,37.20428],[-112.98466,37.20449],[-112.98439,37.20471],[-112.98408,37.20503],[-112.98395,37.20521],[-112.98352,37.20598],[-112.98331,37.20627],[-112.98305,37.20655],[-112.9827,37.20682],[-112.98253,37.20691],[-112.98249,37.20694],[-112.982,37.20714],[-112.9816,37.20725],[-112.98072,37.20744],[-112.98038,37.20757],[-112.98003,37.20776],[-112.97984,37.20789],[-112.97958,37.20814],[-112.97946,37.20828],[-112.97941,37.20837],[-112.97936,37.20844],[-112.97922,37.20876],[-112.97919,37.20888],[-112.97911,37.20964],[-112.97908,37.20979],[-112.97905,37.2101],[-112.979,37.21026],[-112.97899,37.21032],[-112.97887,37.21064],[-112.97872,37.21097],[-112.97867,37.21106],[-112.97862,37.21113],[-112.97843,37.21145],[-112.97826,37.21178],[-112.97824,37.2118],[-112.97814,37.21205],[-112.97725,37.21468],[-112.97685,37.21563],[-112.97609,37.21706],[-112.97609,37.21707],[-112.97596,37.21729],[-112.97588,37.2174],[-112.97579,37.21748],[-112.97572,37.21753],[-112.97559,37.21759],[-112.97553,37.2176],[-112.97531,37.21761],[-112.97526,37.2176],[-112.9751,37.21759],[-112.97508,37.21758],[-112.97467,37.21755],[-112.97463,37.21754],[-112.97393,37.21747],[-112.97411,37.21801],[-112.97385,37.21847],[-112.97385,37.21848],[-112.97366,37.21879],[-112.97366,37.2188],[-112.97357,37.21896],[-112.97351,37.21913],[-112.97351,37.21914],[-112.97348,37.21922],[-112.97346,37.21936],[-112.97346,37.21947],[-112.97362,37.22017],[-112.97362,37.22025],[-112.97361,37.22033],[-112.97357,37.22048],[-112.97347,37.22061],[-112.97333,37.22074],[-112.97317,37.22084],[-112.97276,37.22101],[-112.97176,37.22129],[-112.97173,37.22131],[-112.97149,37.22141],[-112.97138,37.22148],[-112.97136,37.2215],[-112.97125,37.22158],[-112.97107,37.22177],[-112.97086,37.22204],[-112.97068,37.22224],[-112.96968,37.22314],[-112.9691,37.22379],[-112.96768,37.22578],[-112.96748,37.22614],[-112.96716,37.22681],[-112.96692,37.22738],[-112.96687,37.22754],[-112.96681,37.22767],[-112.96677,37.22773],[-112.96671,37.22779],[-112.9666,37.22787],[-112.96619,37.22806],[-112.96607,37.22813],[-112.96599,37.22819],[-112.96598,37.22819],[-112.96588,37.22827],[-112.96579,37.22836],[-112.96545,37.22864],[-112.9652,37.22879],[-112.96495,37.22892],[-112.96419,37.22922],[-112.96382,37.2294],[-112.96336,37.22966],[-112.96317,37.22979],[-112.9631,37.22988],[-112.96305,37.22996],[-112.96302,37.23004],[-112.96301,37.23023],[-112.96313,37.23099],[-112.96313,37.23124],[-112.96312,37.23132],[-112.96308,37.23147],[-112.96304,37.23158],[-112.96263,37.23233],[-112.96256,37.23255],[-112.96254,37.23277],[-112.96256,37.23301],[-112.96257,37.23306],[-112.96257,37.23324],[-112.96254,37.23337],[-112.96251,37.23346],[-112.96239,37.23367],[-112.96165,37.23443],[-112.96149,37.23463],[-112.96134,37.23488],[-112.96126,37.23505],[-112.96118,37.23528],[-112.96114,37.23551],[-112.96113,37.23596],[-112.96111,37.23612],[-112.96107,37.23629],[-112.96107,37.23632],[-112.96103,37.23647],[-112.96082,37.23693],[-112.95749,37.2417],[-112.95711,37.2423],[-112.95706,37.24241],[-112.95703,37.24246],[-112.95696,37.24263],[-112.95696,37.24264],[-112.95686,37.24299],[-112.9568,37.24345],[-112.9568,37.24377],[-112.95684,37.24411],[-112.95784,37.25034],[-112.95789,37.25053],[-112.95798,37.25117],[-112.95798,37.25129],[-112.95796,37.25146],[-112.95792,37.25158],[-112.95788,37.25167],[-112.95778,37.25182],[-112.95758,37.25203],[-112.95742,37.25217],[-112.95702,37.25247],[-112.95661,37.25217],[-112.95642,37.25196],[-112.95637,37.25192],[-112.95633,37.2519],[-112.95626,37.25188],[-112.95621,37.25189],[-112.95617,37.25191],[-112.95615,37.25193],[-112.95611,37.25199],[-112.95611,37.25224],[-112.95613,37.25236],[-112.9562,37.25244],[-112.95628,37.25249],[-112.95638,37.25249],[-112.95641,37.25248],[-112.95642,37.25247],[-112.95645,37.25246],[-112.95646,37.25245],[-112.95647,37.25243],[-112.95649,37.25241],[-112.95652,37.25232],[-112.95661,37.25217],[-112.95702,37.25247],[-112.95544,37.25374],[-112.95489,37.25429],[-112.95449,37.25479],[-112.95416,37.25532],[-112.95389,37.25585],[-112.95323,37.25745],[-112.95321,37.25748],[-112.95315,37.25763],[-112.95296,37.25793],[-112.9527,37.25823],[-112.95235,37.25857],[-112.95208,37.25877],[-112.95205,37.25878],[-112.95171,37.25902],[-112.95125,37.25903],[-112.95115,37.25901],[-112.95105,37.25903],[-112.95102,37.25903],[-112.95047,37.25919],[-112.95045,37.25922],[-112.95045,37.25945],[-112.94955,37.25969],[-112.9494,37.25975],[-112.94904,37.25997],[-112.9487,37.26028],[-112.94861,37.2604],[-112.94848,37.26065],[-112.94847,37.26066],[-112.94843,37.26078],[-112.94838,37.261],[-112.94838,37.26108],[-112.94842,37.26136],[-112.94872,37.26261],[-112.94876,37.26286],[-112.94875,37.26306],[-112.94871,37.26323],[-112.94862,37.2634],[-112.94821,37.26403],[-112.94798,37.26435],[-112.94778,37.26459],[-112.94769,37.26468],[-112.94746,37.26485],[-112.94724,37.26497],[-112.9471,37.26503],[-112.94667,37.26514],[-112.94662,37.26514],[-112.94616,37.26521],[-112.94606,37.26524],[-112.94605,37.26524],[-112.94578,37.26533],[-112.94557,37.26545],[-112.94551,37.2655],[-112.94536,37.26566],[-112.94531,37.26573],[-112.94527,37.26581],[-112.94523,37.26587],[-112.94493,37.2665],[-112.94491,37.26653],[-112.94476,37.26683],[-112.94475,37.26687],[-112.94461,37.26717],[-112.9446,37.26721],[-112.94448,37.26748],[-112.94439,37.26763],[-112.94421,37.26785],[-112.94404,37.26797],[-112.94382,37.2681],[-112.94349,37.26825],[-112.94301,37.26838],[-112.94245,37.26846],[-112.94242,37.26847],[-112.94212,37.26852],[-112.94189,37.26858],[-112.94147,37.26875],[-112.94115,37.26891],[-112.9409,37.26906],[-112.94058,37.26929],[-112.94018,37.26967],[-112.94012,37.26974],[-112.93995,37.27],[-112.93973,37.27045],[-112.93972,37.27049],[-112.93937,37.27115],[-112.93937,37.27116],[-112.93931,37.27137],[-112.93928,37.27155],[-112.93928,37.27184],[-112.93933,37.27211],[-112.93937,37.27223],[-112.93946,37.27243],[-112.93946,37.27244],[-112.93951,37.27255],[-112.93954,37.2726],[-112.93958,37.27265],[-112.93963,37.27273],[-112.93972,37.27284],[-112.93993,37.27304],[-112.94016,37.27321],[-112.94104,37.27366],[-112.94133,37.27377],[-112.94168,37.27388],[-112.94202,37.27395],[-112.94219,37.27397],[-112.94222,37.27398],[-112.94249,37.274],[-112.94287,37.274],[-112.94326,37.27396],[-112.94371,37.27386],[-112.94391,37.27379],[-112.94411,37.2737],[-112.94459,37.27341],[-112.9454,37.27316],[-112.94588,37.27305],[-112.94613,37.27304],[-112.94625,37.27306],[-112.94636,37.27309],[-112.94653,37.27321],[-112.94661,37.27334],[-112.94667,37.27434],[-112.94667,37.2746],[-112.94665,37.27474],[-112.9465,37.27532],[-112.94647,37.27558],[-112.94647,37.27618],[-112.94645,37.27634],[-112.94637,37.27652],[-112.94632,37.2766],[-112.94614,37.27679],[-112.94506,37.27773],[-112.9449,37.2779],[-112.94481,37.27803],[-112.94474,37.27816],[-112.94467,37.27837],[-112.94464,37.27842],[-112.94453,37.27877],[-112.94452,37.27891],[-112.94452,37.2796],[-112.94453,37.27965],[-112.94453,37.2798],[-112.94457,37.28001],[-112.94458,37.28003],[-112.9446,37.2801],[-112.94466,37.28023],[-112.94474,37.28034],[-112.94489,37.2805],[-112.94533,37.28091],[-112.94554,37.28108],[-112.94593,37.28129],[-112.9466,37.2816],[-112.94661,37.28161],[-112.94674,37.28167],[-112.94686,37.28175],[-112.94693,37.28181],[-112.94704,37.28195],[-112.94707,37.28201],[-112.9471,37.28217],[-112.9471,37.28225],[-112.94707,37.28233],[-112.94707,37.28235],[-112.94706,37.28236],[-112.94704,37.28241],[-112.94689,37.28257],[-112.94682,37.28262],[-112.9466,37.2827],[-112.94639,37.28274],[-112.94637,37.28274],[-112.94635,37.28275],[-112.9459,37.28282],[-112.94575,37.28286],[-112.94568,37.28289],[-112.9456,37.28294],[-112.94554,37.28299],[-112.94552,37.283],[-112.94517,37.28327],[-112.94506,37.28337],[-112.94504,37.28338],[-112.94489,37.28352],[-112.94486,37.28354],[-112.9447,37.28374],[-112.94467,37.2838],[-112.94465,37.28382],[-112.94465,37.28383],[-112.94461,37.2839],[-112.94459,37.28397],[-112.94458,37.28399],[-112.94455,37.28415],[-112.94457,37.28432],[-112.94466,37.28457],[-112.94471,37.28468],[-112.94474,37.28473],[-112.94486,37.28483],[-112.94491,37.28485],[-112.94501,37.28487],[-112.94559,37.28487],[-112.9464,37.28493],[-112.94677,37.28502],[-112.94756,37.28515]]}},{"type":"Feature","properties":{"feed_id":"Utah__Zion_National_Park__mdb_tld-6682","agency_id":"NPS","agency_name":"National Park Service","agency_url":"https://www.nps.gov/zion/index.htm","route_id":"town","route_short_name":"","route_long_name":"Springdale Line","route_desc":"","route_type":"3","route_type_name":"Bus","route_url":"https://www.nps.gov/zion/planyourvisit/zion-canyon-shuttle-system.htm","route_color":"BF5700","route_text_color":"FFFFFF","route_sort_order":"","continuous_pickup":"0","continuous_drop_off":"0","network_id":"","shape_id":"townib","trip_count":217,"direction_ids":"1","trip_headsigns":"Hotel De Novo","wheelchair_accessible_values":"1","bikes_allowed_values":"1","metadata_feed_id":"Utah__Zion_National_Park__mdb_tld-6682","metadata_agency_names":"National Park Service","metadata_ntd_id":"88233","metadata_ntd_match_method":"manual_override","metadata_ntd_agency":"Uintah Healthcare Special Service District","metadata_ntd_city":"Vernal","metadata_ntd_state":"UT","metadata_gtfs_route_count":2,"metadata_gtfs_trip_count":1734,"metadata_gtfs_shape_count":4,"metadata_gtfs_stop_count":30,"metadata_ntd_agency_voms":0,"metadata_ntd_total_facilities":1,"metadata_ntd_maintenance_facilities":0,"metadata_ntd_passenger_stations":0,"metadata_route_types_json":"{\"3\":2}","metadata_ntd_facilities_json":"{\"maintenance_facilities\":0,\"administrative_and_other_non_passenger_facilities\":1,\"passenger_stations_and_terminals\":0,\"parking_and_other_passenger_facilities\":0,\"total_facilities\":1,\"bus_transfer_centers\":0,\"elevated_fixed_guideway_stations\":0,\"at_grade_fixed_guideway_stations\":0,\"underground_fixed_guideway_stations\":0,\"simple_at_grade_platform_stations\":0,\"exclusive_grade_separated_platform_stations\":0,\"ferryboat_terminals\":0,\"surface_parking_lots\":0,\"parking_structures\":0}","metadata_tam_modes_json":"{}"},"geometry":{"type":"LineString","coordinates":[[-112.98888,37.19976],[-112.9888,37.19983],[-112.98879,37.19988],[-112.98881,37.19994],[-112.98889,37.2],[-112.98938,37.19966],[-112.989602,37.19952],[-112.989736,37.199443],[-112.989761,37.199434],[-112.989953,37.199596],[-112.98993,37.19964],[-112.98991,37.19965],[-112.98981,37.19974],[-112.98976,37.19981],[-112.98975,37.19987],[-112.98977,37.19994],[-112.98978,37.19996],[-112.98983,37.20001],[-112.98993,37.2001],[-112.99003,37.20003],[-112.99021,37.19987],[-112.99035,37.1997],[-112.99053,37.19943],[-112.99056,37.19939],[-112.99074,37.19914],[-112.99096,37.19882],[-112.99099,37.198759],[-112.991088,37.198655],[-112.99122,37.1984],[-112.99135,37.19821],[-112.99142,37.1981],[-112.99145,37.19807],[-112.9916,37.19784],[-112.99161,37.19783],[-112.99167,37.19775],[-112.99173,37.19765],[-112.99179,37.19756],[-112.99181,37.19753],[-112.99184,37.19749],[-112.99189,37.19739],[-112.99199,37.19724],[-112.99209,37.19707],[-112.99215,37.19698],[-112.99229,37.19679],[-112.99245,37.19659],[-112.99254,37.19648],[-112.99255,37.19646],[-112.99262,37.19635],[-112.99266,37.19627],[-112.99268,37.19623],[-112.99269,37.19619],[-112.99271,37.19612],[-112.99273,37.19601],[-112.99275,37.19584],[-112.99281,37.19548],[-112.99288,37.19513],[-112.99289,37.19506],[-112.99292,37.19495],[-112.99296,37.19477],[-112.99299,37.19471],[-112.99303,37.19455],[-112.9931,37.19427],[-112.99314,37.19415],[-112.99318,37.19398],[-112.99322,37.19389],[-112.99325,37.19375],[-112.99326,37.19372],[-112.99329,37.19359],[-112.99338,37.19317],[-112.99343,37.19302],[-112.9935,37.1927],[-112.99351,37.19268],[-112.9936,37.1924],[-112.9937,37.19217],[-112.99373,37.19209],[-112.99381,37.19196],[-112.99388,37.19184],[-112.99401,37.19166],[-112.99448,37.19109],[-112.99469,37.19085],[-112.99473,37.1908],[-112.995,37.19049],[-112.995,37.19048],[-112.99531,37.19012],[-112.99545,37.18998],[-112.9955,37.18994],[-112.99559,37.18986],[-112.9956,37.18985],[-112.99576,37.18972],[-112.9958,37.1897],[-112.99593,37.18961],[-112.99594,37.1896],[-112.99609,37.18952],[-112.99612,37.18951],[-112.99638,37.18939],[-112.99652,37.18933],[-112.99671,37.18927],[-112.99691,37.18921],[-112.99719,37.18915],[-112.99745,37.18911],[-112.99798,37.18903],[-112.99859,37.18893],[-112.9994,37.1888],[-113.00004,37.18869],[-113.00014,37.18867],[-113.00029,37.18863],[-113.00042,37.18857],[-113.00049,37.18853],[-113.00058,37.18846],[-113.00066,37.18839],[-113.00071,37.18831],[-113.00076,37.18825],[-113.00082,37.18817],[-113.00086,37.18808],[-113.00091,37.18801],[-113.0012,37.18752],[-113.00139,37.18718],[-113.00159,37.18684],[-113.00186,37.18635],[-113.00201,37.1861],[-113.00229,37.18559],[-113.00249,37.18523],[-113.00253,37.18516],[-113.00262,37.18496],[-113.00278,37.18466],[-113.00281,37.18461],[-113.00287,37.18453],[-113.00289,37.18448],[-113.00311,37.18405],[-113.00311,37.18404],[-113.00314,37.184],[-113.00317,37.18393],[-113.00327,37.18376],[-113.00336,37.18363],[-113.00344,37.18349],[-113.00355,37.18333],[-113.00359,37.18328],[-113.00361,37.18324],[-113.00368,37.18315],[-113.00381,37.18298],[-113.00389,37.1829],[-113.00399,37.1828],[-113.00413,37.18267],[-113.00424,37.18259],[-113.00437,37.18249],[-113.00439,37.18248],[-113.00471,37.18224],[-113.00483,37.18216],[-113.00488,37.18213],[-113.00492,37.1821],[-113.00505,37.18201],[-113.00514,37.18194],[-113.00533,37.18183],[-113.00542,37.18175],[-113.00552,37.18167],[-113.00568,37.18152],[-113.00575,37.18143],[-113.00576,37.18142],[-113.00582,37.18135],[-113.00589,37.18123],[-113.00596,37.18111],[-113.00604,37.18096],[-113.00605,37.18094],[-113.00609,37.18086],[-113.00614,37.18078],[-113.00621,37.18065],[-113.00622,37.18064],[-113.00627,37.18055],[-113.0063,37.18051],[-113.00633,37.18048],[-113.00641,37.18037],[-113.00644,37.18033],[-113.00651,37.18025],[-113.00656,37.18018],[-113.00661,37.18012],[-113.00669,37.18002],[-113.00679,37.17989],[-113.00681,37.17986],[-113.00682,37.17984],[-113.00699,37.17963],[-113.00721,37.17936],[-113.00726,37.17929],[-113.00742,37.1791],[-113.00762,37.17884],[-113.00768,37.17877],[-113.00803,37.17834],[-113.00839,37.17791],[-113.00878,37.17739],[-113.00894,37.17718],[-113.00902,37.17709],[-113.00914,37.17695],[-113.00926,37.17683],[-113.00936,37.17673],[-113.00956,37.17651],[-113.00967,37.1764],[-113.01011,37.17594],[-113.01052,37.17551],[-113.01082,37.17521],[-113.01109,37.17492],[-113.01119,37.17482],[-113.01149,37.17451],[-113.01203,37.17389],[-113.01266,37.17317],[-113.01292,37.17288],[-113.01304,37.17272],[-113.0131,37.17264],[-113.01314,37.17256],[-113.01316,37.17255],[-113.01316,37.17254],[-113.01321,37.17244],[-113.01329,37.17227],[-113.01333,37.17212],[-113.01336,37.17197],[-113.01339,37.17176],[-113.01343,37.1714],[-113.01344,37.17127],[-113.01347,37.17096],[-113.01346,37.17057],[-113.01345,37.17041],[-113.01341,37.17015],[-113.0134,37.17011],[-113.01335,37.16993],[-113.01328,37.16963],[-113.01324,37.16947],[-113.01323,37.1694],[-113.01322,37.16934],[-113.01321,37.16923],[-113.0132,37.16914],[-113.0132,37.16904],[-113.01319,37.1689],[-113.01319,37.16874],[-113.0132,37.16868],[-113.0132,37.16864],[-113.01325,37.16825],[-113.01326,37.16814],[-113.01329,37.16797],[-113.01336,37.16764],[-113.01336,37.16761],[-113.01338,37.16752],[-113.01344,37.16726],[-113.01344,37.16724]]}},{"type":"Feature","properties":{"feed_id":"Utah__Zion_National_Park__mdb_tld-6682","agency_id":"NPS","agency_name":"National Park Service","agency_url":"https://www.nps.gov/zion/index.htm","route_id":"town","route_short_name":"","route_long_name":"Springdale Line","route_desc":"","route_type":"3","route_type_name":"Bus","route_url":"https://www.nps.gov/zion/planyourvisit/zion-canyon-shuttle-system.htm","route_color":"BF5700","route_text_color":"FFFFFF","route_sort_order":"","continuous_pickup":"0","continuous_drop_off":"0","network_id":"","shape_id":"townob","trip_count":217,"direction_ids":"0","trip_headsigns":"Zion Canyon Village","wheelchair_accessible_values":"1","bikes_allowed_values":"1","metadata_feed_id":"Utah__Zion_National_Park__mdb_tld-6682","metadata_agency_names":"National Park Service","metadata_ntd_id":"88233","metadata_ntd_match_method":"manual_override","metadata_ntd_agency":"Uintah Healthcare Special Service District","metadata_ntd_city":"Vernal","metadata_ntd_state":"UT","metadata_gtfs_route_count":2,"metadata_gtfs_trip_count":1734,"metadata_gtfs_shape_count":4,"metadata_gtfs_stop_count":30,"metadata_ntd_agency_voms":0,"metadata_ntd_total_facilities":1,"metadata_ntd_maintenance_facilities":0,"metadata_ntd_passenger_stations":0,"metadata_route_types_json":"{\"3\":2}","metadata_ntd_facilities_json":"{\"maintenance_facilities\":0,\"administrative_and_other_non_passenger_facilities\":1,\"passenger_stations_and_terminals\":0,\"parking_and_other_passenger_facilities\":0,\"total_facilities\":1,\"bus_transfer_centers\":0,\"elevated_fixed_guideway_stations\":0,\"at_grade_fixed_guideway_stations\":0,\"underground_fixed_guideway_stations\":0,\"simple_at_grade_platform_stations\":0,\"exclusive_grade_separated_platform_stations\":0,\"ferryboat_terminals\":0,\"surface_parking_lots\":0,\"parking_structures\":0}","metadata_tam_modes_json":"{}"},"geometry":{"type":"LineString","coordinates":[[-113.01363,37.16657],[-113.01356,37.16677],[-113.0135,37.16698],[-113.01347,37.1671],[-113.01344,37.16726],[-113.01338,37.16752],[-113.01336,37.16761],[-113.01336,37.16764],[-113.01329,37.16797],[-113.01326,37.16814],[-113.01325,37.16825],[-113.0132,37.16864],[-113.0132,37.16868],[-113.01319,37.16874],[-113.01319,37.1689],[-113.0132,37.16904],[-113.0132,37.16914],[-113.01321,37.16923],[-113.01322,37.16934],[-113.01323,37.1694],[-113.01324,37.16947],[-113.01328,37.16963],[-113.01335,37.16993],[-113.0134,37.17011],[-113.01341,37.17015],[-113.01345,37.17041],[-113.01346,37.17057],[-113.01347,37.17096],[-113.01344,37.17127],[-113.01343,37.1714],[-113.01339,37.17176],[-113.01336,37.17197],[-113.01333,37.17212],[-113.01329,37.17227],[-113.01321,37.17244],[-113.01316,37.17254],[-113.01316,37.17255],[-113.01314,37.17256],[-113.0131,37.17264],[-113.01304,37.17272],[-113.01292,37.17288],[-113.01266,37.17317],[-113.01203,37.17389],[-113.01149,37.17451],[-113.01119,37.17482],[-113.01109,37.17492],[-113.01082,37.17521],[-113.01052,37.17551],[-113.01011,37.17594],[-113.00967,37.1764],[-113.00956,37.17651],[-113.00936,37.17673],[-113.00926,37.17683],[-113.00914,37.17695],[-113.00902,37.17709],[-113.00894,37.17718],[-113.00878,37.17739],[-113.00839,37.17791],[-113.00803,37.17834],[-113.00768,37.17877],[-113.00762,37.17884],[-113.00742,37.1791],[-113.00726,37.17929],[-113.00721,37.17936],[-113.00699,37.17963],[-113.00682,37.17984],[-113.00681,37.17986],[-113.00679,37.17989],[-113.00669,37.18002],[-113.00661,37.18012],[-113.00656,37.18018],[-113.00651,37.18025],[-113.00644,37.18033],[-113.00641,37.18037],[-113.00633,37.18048],[-113.0063,37.18051],[-113.00627,37.18055],[-113.00622,37.18064],[-113.00621,37.18065],[-113.00614,37.18078],[-113.00609,37.18086],[-113.00605,37.18094],[-113.00604,37.18096],[-113.00596,37.18111],[-113.00589,37.18123],[-113.00582,37.18135],[-113.00576,37.18142],[-113.00575,37.18143],[-113.00568,37.18152],[-113.00552,37.18167],[-113.00542,37.18175],[-113.00533,37.18183],[-113.00514,37.18194],[-113.00505,37.18201],[-113.00492,37.1821],[-113.00488,37.18213],[-113.00483,37.18216],[-113.00471,37.18224],[-113.00439,37.18248],[-113.00437,37.18249],[-113.00424,37.18259],[-113.00413,37.18267],[-113.00399,37.1828],[-113.00389,37.1829],[-113.00381,37.18298],[-113.00368,37.18315],[-113.00361,37.18324],[-113.00359,37.18328],[-113.00355,37.18333],[-113.00344,37.18349],[-113.00336,37.18363],[-113.00327,37.18376],[-113.00317,37.18393],[-113.00311,37.18404],[-113.00311,37.18405],[-113.00289,37.18448],[-113.00287,37.18453],[-113.00281,37.18461],[-113.00278,37.18466],[-113.00275,37.18462],[-113.0027,37.18458],[-113.00264,37.18456],[-113.00263,37.18455],[-113.00264,37.18456],[-113.0027,37.18458],[-113.00275,37.18462],[-113.00278,37.18466],[-113.00262,37.18496],[-113.00253,37.18516],[-113.00249,37.18523],[-113.00229,37.18559],[-113.00201,37.1861],[-113.00186,37.18635],[-113.00159,37.18684],[-113.00139,37.18718],[-113.0012,37.18752],[-113.00091,37.18801],[-113.00086,37.18808],[-113.00082,37.18817],[-113.00076,37.18825],[-113.00071,37.18831],[-113.00066,37.18839],[-113.00058,37.18846],[-113.00049,37.18853],[-113.00042,37.18857],[-113.00029,37.18863],[-113.00014,37.18867],[-113.00004,37.18869],[-112.9994,37.1888],[-112.99859,37.18893],[-112.99798,37.18903],[-112.99745,37.18911],[-112.99719,37.18915],[-112.99691,37.18921],[-112.99671,37.18927],[-112.99652,37.18933],[-112.99638,37.18939],[-112.99612,37.18951],[-112.99609,37.18952],[-112.99594,37.1896],[-112.99593,37.18961],[-112.9958,37.1897],[-112.99576,37.18972],[-112.9956,37.18985],[-112.99559,37.18986],[-112.9955,37.18994],[-112.99545,37.18998],[-112.99531,37.19012],[-112.995,37.19048],[-112.995,37.19049],[-112.99473,37.1908],[-112.99469,37.19085],[-112.99448,37.19109],[-112.99401,37.19166],[-112.99388,37.19184],[-112.99381,37.19196],[-112.99373,37.19209],[-112.9937,37.19217],[-112.9936,37.1924],[-112.99351,37.19268],[-112.9935,37.1927],[-112.99343,37.19302],[-112.99338,37.19317],[-112.99329,37.19359],[-112.99326,37.19372],[-112.99325,37.19375],[-112.99322,37.19389],[-112.99318,37.19398],[-112.99314,37.19415],[-112.9931,37.19427],[-112.99303,37.19455],[-112.99299,37.19471],[-112.99296,37.19477],[-112.99289,37.19506],[-112.99288,37.19513],[-112.99281,37.19548],[-112.99275,37.19584],[-112.99273,37.19601],[-112.99271,37.19612],[-112.99269,37.19619],[-112.99268,37.19623],[-112.99266,37.19627],[-112.99262,37.19635],[-112.99255,37.19646],[-112.99254,37.19648],[-112.99245,37.19659],[-112.99229,37.19679],[-112.99215,37.19698],[-112.99209,37.19707],[-112.99199,37.19724],[-112.99189,37.19739],[-112.99184,37.19749],[-112.99181,37.19753],[-112.99179,37.19756],[-112.99173,37.19765],[-112.99167,37.19775],[-112.99161,37.19783],[-112.9916,37.19784],[-112.99145,37.19807],[-112.99142,37.1981],[-112.99135,37.19821],[-112.99122,37.1984],[-112.99106,37.19866],[-112.990934,37.198705],[-112.99078,37.19868],[-112.99071,37.19868],[-112.99067,37.19867],[-112.99064,37.19868],[-112.99061,37.19869],[-112.99059,37.19871],[-112.99056,37.19873],[-112.99054,37.19875],[-112.99053,37.19878],[-112.99052,37.19882],[-112.99052,37.19886],[-112.99052,37.1989],[-112.99049,37.19895],[-112.99033,37.19921],[-112.99023,37.19937],[-112.99022,37.19938],[-112.99022,37.19939],[-112.99017,37.19944],[-112.99005,37.19953],[-112.98999,37.19958],[-112.98976,37.19939],[-112.98972,37.19942],[-112.989577,37.199493],[-112.98926,37.19949],[-112.9892,37.19953],[-112.98894,37.19972],[-112.9889,37.19975],[-112.98888,37.19976]]}}],"metadata":{"feed_id":"Utah__Zion_National_Park__mdb_tld-6682","ntd_id":"88233","feature_metadata_embedded":true}}